<?xml version="1.0" encoding="UTF-8" standalone="no" ?>
<gpx xmlns="http://www.topografix.com/GPX/1/1" xmlns:gpxx="http://www.garmin.com/xmlschemas/GpxExtensions/v3" xmlns:gpxtpx="http://www.garmin.com/xmlschemas/TrackPointExtension/v1" creator="mapstogpx.com" version="1.1" xmlns:xsi="http://www.w3.org/2001/XMLSchema-instance" xsi:schemaLocation="http://www.topografix.com/GPX/1/1 http://www.topografix.com/GPX/1/1/gpx.xsd http://www.garmin.com/xmlschemas/GpxExtensions/v3 http://www.garmin.com/xmlschemas/GpxExtensionsv3.xsd http://www.garmin.com/xmlschemas/TrackPointExtension/v1 http://www.garmin.com/xmlschemas/TrackPointExtensionv1.xsd">
  <metadata>
    <link href="http://www.mapstogpx.com">
      <text>Sverrir Sigmundarson</text>
    </link>
    <!--desc>Map data ©2024</desc-->
    <!--copyright author="Google Inc">
    	<year>2024</year>
    	<license>https://developers.google.com/maps/terms</license>
    </copyright-->
    <!--url>https://www.google.com/maps/dir/Belmond+Sanctuary+Lodge/Machu+Picchu+Pueblo+-+Paradero+2,+Aguas+Calientes+08681,+Peru/@-13.1645961,-72.5430185,652m/data=!3m1!1e3!4m14!4m13!1m5!1m1!1s0x916d9a608642556f:0x6187a4f9ee2bd78!2m2!1d-72.5429408!2d-13.1660699!1m5!1m1!1s0x916d9a8392749795:0x3ae73eac4ae6d232!2m2!1d-72.525639!2d-13.154991!3e0?entry=tts&g_ep=EgoyMDI0MTIxMS4wKgBIAVAD&hl=en</url-->
    <time>2024-12-19T18:38:32Z</time>
  </metadata>
  <wpt lat="-13.1660699" lon="-72.5429408">
    <name>Belmond Sanctuary Lodge</name>
    <desc>Sanctuary Lodge, A Belmond Hotel, Machu Picchu, Machu Picchu, Carretera Hiram Bingham Km 7.5, 08680, Peru</desc>
  </wpt>
  <wpt lat="-13.154991" lon="-72.525639">
    <name>Machu Picchu Pueblo - Paradero 2</name>
    <desc>Machu Picchu Pueblo - Paradero 2, Aguas Calientes 08681, Peru</desc>
  </wpt>
<trk>
  <name>Belmond Sanctuary Lodge to Machu Picchu Pueblo - Paradero 2</name>
  <number>1</number>
  <trkseg>
  <trkpt lat="-13.1659757" lon="-72.5428519">
    <name>TP001</name>
  </trkpt>
  <trkpt lat="-13.1661" lon="-72.54267">
    <name>TP002</name>
  </trkpt>
  <trkpt lat="-13.16613" lon="-72.54262">
    <name>TP003</name>
  </trkpt>
  <trkpt lat="-13.16617" lon="-72.54254">
    <name>TP004</name>
  </trkpt>
  <trkpt lat="-13.16618" lon="-72.54253">
    <name>TP005</name>
  </trkpt>
  <trkpt lat="-13.16622" lon="-72.54245">
    <name>TP006</name>
  </trkpt>
  <trkpt lat="-13.16626" lon="-72.54237">
    <name>TP007</name>
  </trkpt>
  <trkpt lat="-13.16627" lon="-72.54234">
    <name>TP008</name>
  </trkpt>
  <trkpt lat="-13.16631" lon="-72.54224">
    <name>TP009</name>
  </trkpt>
  <trkpt lat="-13.16634" lon="-72.5422">
    <name>TP010</name>
  </trkpt>
  <trkpt lat="-13.16636" lon="-72.54215">
    <name>TP011</name>
  </trkpt>
  <trkpt lat="-13.1664" lon="-72.54208">
    <name>TP012</name>
  </trkpt>
  <trkpt lat="-13.16643" lon="-72.54204">
    <name>TP013</name>
  </trkpt>
  <trkpt lat="-13.16646" lon="-72.542">
    <name>TP014</name>
  </trkpt>
  <trkpt lat="-13.16653" lon="-72.54194">
    <name>TP015</name>
  </trkpt>
  <trkpt lat="-13.16656" lon="-72.54191">
    <name>TP016</name>
  </trkpt>
  <trkpt lat="-13.1667" lon="-72.5418">
    <name>TP017</name>
  </trkpt>
  <trkpt lat="-13.16672" lon="-72.54179">
    <name>TP018</name>
  </trkpt>
  <trkpt lat="-13.16683" lon="-72.54172">
    <name>TP019</name>
  </trkpt>
  <trkpt lat="-13.16685" lon="-72.5417">
    <name>TP020</name>
  </trkpt>
  <trkpt lat="-13.16687" lon="-72.54168">
    <name>TP021</name>
  </trkpt>
  <trkpt lat="-13.16691" lon="-72.54162">
    <name>TP022</name>
  </trkpt>
  <trkpt lat="-13.16696" lon="-72.54155">
    <name>TP023</name>
  </trkpt>
  <trkpt lat="-13.16697" lon="-72.54153">
    <name>TP024</name>
  </trkpt>
  <trkpt lat="-13.16704" lon="-72.54139">
    <name>TP025</name>
  </trkpt>
  <trkpt lat="-13.16705" lon="-72.54128">
    <name>TP026</name>
  </trkpt>
  <trkpt lat="-13.16708" lon="-72.54121">
    <name>TP027</name>
  </trkpt>
  <trkpt lat="-13.16712" lon="-72.54116">
    <name>TP028</name>
  </trkpt>
  <trkpt lat="-13.16716" lon="-72.5411">
    <name>TP029</name>
  </trkpt>
  <trkpt lat="-13.1672" lon="-72.54107">
    <name>TP030</name>
  </trkpt>
  <trkpt lat="-13.16722" lon="-72.54106">
    <name>TP031</name>
  </trkpt>
  <trkpt lat="-13.1673" lon="-72.54103">
    <name>TP032</name>
  </trkpt>
  <trkpt lat="-13.16736" lon="-72.54099">
    <name>TP033</name>
  </trkpt>
  <trkpt lat="-13.16737" lon="-72.54098">
    <name>TP034</name>
  </trkpt>
  <trkpt lat="-13.16744" lon="-72.54096">
    <name>TP035</name>
  </trkpt>
  <trkpt lat="-13.1675" lon="-72.54089">
    <name>TP036</name>
  </trkpt>
  <trkpt lat="-13.16754" lon="-72.54078">
    <name>TP037</name>
  </trkpt>
  <trkpt lat="-13.16753" lon="-72.54071">
    <name>TP038</name>
  </trkpt>
  <trkpt lat="-13.16753" lon="-72.54067">
    <name>TP039</name>
  </trkpt>
  <trkpt lat="-13.16755" lon="-72.54057">
    <name>TP040</name>
  </trkpt>
  <trkpt lat="-13.16757" lon="-72.54054">
    <name>TP041</name>
  </trkpt>
  <trkpt lat="-13.16761" lon="-72.54049">
    <name>TP042</name>
  </trkpt>
  <trkpt lat="-13.16768" lon="-72.54039">
    <name>TP043</name>
  </trkpt>
  <trkpt lat="-13.16771" lon="-72.54035">
    <name>TP044</name>
  </trkpt>
  <trkpt lat="-13.16774" lon="-72.54024">
    <name>TP045</name>
  </trkpt>
  <trkpt lat="-13.16774" lon="-72.54022">
    <name>TP046</name>
  </trkpt>
  <trkpt lat="-13.16773" lon="-72.54014">
    <name>TP047</name>
  </trkpt>
  <trkpt lat="-13.16773" lon="-72.54003">
    <name>TP048</name>
  </trkpt>
  <trkpt lat="-13.16773" lon="-72.54">
    <name>TP049</name>
  </trkpt>
  <trkpt lat="-13.16773" lon="-72.53983">
    <name>TP050</name>
  </trkpt>
  <trkpt lat="-13.16773" lon="-72.53966">
    <name>TP051</name>
  </trkpt>
  <trkpt lat="-13.16773" lon="-72.53965">
    <name>TP052</name>
  </trkpt>
  <trkpt lat="-13.16772" lon="-72.53948">
    <name>TP053</name>
  </trkpt>
  <trkpt lat="-13.16772" lon="-72.5394">
    <name>TP054</name>
  </trkpt>
  <trkpt lat="-13.16774" lon="-72.53931">
    <name>TP055</name>
  </trkpt>
  <trkpt lat="-13.16775" lon="-72.53926">
    <name>TP056</name>
  </trkpt>
  <trkpt lat="-13.16777" lon="-72.5392">
    <name>TP057</name>
  </trkpt>
  <trkpt lat="-13.16781" lon="-72.53913">
    <name>TP058</name>
  </trkpt>
  <trkpt lat="-13.16783" lon="-72.53909">
    <name>TP059</name>
  </trkpt>
  <trkpt lat="-13.16787" lon="-72.53904">
    <name>TP060</name>
  </trkpt>
  <trkpt lat="-13.1679" lon="-72.53898">
    <name>TP061</name>
  </trkpt>
  <trkpt lat="-13.1679" lon="-72.53897">
    <name>TP062</name>
  </trkpt>
  <trkpt lat="-13.16791" lon="-72.53894">
    <name>TP063</name>
  </trkpt>
  <trkpt lat="-13.16791" lon="-72.53891">
    <name>TP064</name>
  </trkpt>
  <trkpt lat="-13.1679" lon="-72.53889">
    <name>TP065</name>
  </trkpt>
  <trkpt lat="-13.16788" lon="-72.53888">
    <name>TP066</name>
  </trkpt>
  <trkpt lat="-13.16784" lon="-72.53888">
    <name>TP067</name>
  </trkpt>
  <trkpt lat="-13.16782" lon="-72.5389">
    <name>TP068</name>
  </trkpt>
  <trkpt lat="-13.16781" lon="-72.53891">
    <name>TP069</name>
  </trkpt>
  <trkpt lat="-13.16779" lon="-72.53895">
    <name>TP070</name>
  </trkpt>
  <trkpt lat="-13.16775" lon="-72.53903">
    <name>TP071</name>
  </trkpt>
  <trkpt lat="-13.16773" lon="-72.53907">
    <name>TP072</name>
  </trkpt>
  <trkpt lat="-13.1677" lon="-72.53912">
    <name>TP073</name>
  </trkpt>
  <trkpt lat="-13.16765" lon="-72.53924">
    <name>TP074</name>
  </trkpt>
  <trkpt lat="-13.16764" lon="-72.53925">
    <name>TP075</name>
  </trkpt>
  <trkpt lat="-13.16762" lon="-72.53932">
    <name>TP076</name>
  </trkpt>
  <trkpt lat="-13.16761" lon="-72.53942">
    <name>TP077</name>
  </trkpt>
  <trkpt lat="-13.1676" lon="-72.53952">
    <name>TP078</name>
  </trkpt>
  <trkpt lat="-13.16759" lon="-72.5396">
    <name>TP079</name>
  </trkpt>
  <trkpt lat="-13.16759" lon="-72.53963">
    <name>TP080</name>
  </trkpt>
  <trkpt lat="-13.16757" lon="-72.53973">
    <name>TP081</name>
  </trkpt>
  <trkpt lat="-13.16756" lon="-72.53978">
    <name>TP082</name>
  </trkpt>
  <trkpt lat="-13.16755" lon="-72.53985">
    <name>TP083</name>
  </trkpt>
  <trkpt lat="-13.16752" lon="-72.53996">
    <name>TP084</name>
  </trkpt>
  <trkpt lat="-13.1675" lon="-72.54005">
    <name>TP085</name>
  </trkpt>
  <trkpt lat="-13.16746" lon="-72.54014">
    <name>TP086</name>
  </trkpt>
  <trkpt lat="-13.16744" lon="-72.54019">
    <name>TP087</name>
  </trkpt>
  <trkpt lat="-13.16728" lon="-72.54041">
    <name>TP088</name>
  </trkpt>
  <trkpt lat="-13.16714" lon="-72.54065">
    <name>TP089</name>
  </trkpt>
  <trkpt lat="-13.16707" lon="-72.54073">
    <name>TP090</name>
  </trkpt>
  <trkpt lat="-13.16703" lon="-72.54077">
    <name>TP091</name>
  </trkpt>
  <trkpt lat="-13.16697" lon="-72.5408">
    <name>TP092</name>
  </trkpt>
  <trkpt lat="-13.16685" lon="-72.54083">
    <name>TP093</name>
  </trkpt>
  <trkpt lat="-13.16674" lon="-72.54084">
    <name>TP094</name>
  </trkpt>
  <trkpt lat="-13.16672" lon="-72.54085">
    <name>TP095</name>
  </trkpt>
  <trkpt lat="-13.16667" lon="-72.54087">
    <name>TP096</name>
  </trkpt>
  <trkpt lat="-13.16662" lon="-72.54089">
    <name>TP097</name>
  </trkpt>
  <trkpt lat="-13.16657" lon="-72.54092">
    <name>TP098</name>
  </trkpt>
  <trkpt lat="-13.16656" lon="-72.54093">
    <name>TP099</name>
  </trkpt>
  <trkpt lat="-13.16649" lon="-72.54103">
    <name>TP100</name>
  </trkpt>
  <trkpt lat="-13.16645" lon="-72.54108">
    <name>TP101</name>
  </trkpt>
  <trkpt lat="-13.16636" lon="-72.54124">
    <name>TP102</name>
  </trkpt>
  <trkpt lat="-13.16634" lon="-72.54129">
    <name>TP103</name>
  </trkpt>
  <trkpt lat="-13.16626" lon="-72.54139">
    <name>TP104</name>
  </trkpt>
  <trkpt lat="-13.16621" lon="-72.54145">
    <name>TP105</name>
  </trkpt>
  <trkpt lat="-13.16613" lon="-72.54152">
    <name>TP106</name>
  </trkpt>
  <trkpt lat="-13.16612" lon="-72.54152">
    <name>TP107</name>
  </trkpt>
  <trkpt lat="-13.16597" lon="-72.54161">
    <name>TP108</name>
  </trkpt>
  <trkpt lat="-13.16593" lon="-72.54164">
    <name>TP109</name>
  </trkpt>
  <trkpt lat="-13.16583" lon="-72.54172">
    <name>TP110</name>
  </trkpt>
  <trkpt lat="-13.16574" lon="-72.54178">
    <name>TP111</name>
  </trkpt>
  <trkpt lat="-13.16569" lon="-72.54184">
    <name>TP112</name>
  </trkpt>
  <trkpt lat="-13.16564" lon="-72.54189">
    <name>TP113</name>
  </trkpt>
  <trkpt lat="-13.16557" lon="-72.54197">
    <name>TP114</name>
  </trkpt>
  <trkpt lat="-13.16555" lon="-72.542">
    <name>TP115</name>
  </trkpt>
  <trkpt lat="-13.16552" lon="-72.54206">
    <name>TP116</name>
  </trkpt>
  <trkpt lat="-13.1655" lon="-72.54208">
    <name>TP117</name>
  </trkpt>
  <trkpt lat="-13.16548" lon="-72.5421">
    <name>TP118</name>
  </trkpt>
  <trkpt lat="-13.16547" lon="-72.54211">
    <name>TP119</name>
  </trkpt>
  <trkpt lat="-13.16546" lon="-72.54211">
    <name>TP120</name>
  </trkpt>
  <trkpt lat="-13.16545" lon="-72.54212">
    <name>TP121</name>
  </trkpt>
  <trkpt lat="-13.16544" lon="-72.54212">
    <name>TP122</name>
  </trkpt>
  <trkpt lat="-13.16543" lon="-72.54212">
    <name>TP123</name>
  </trkpt>
  <trkpt lat="-13.16542" lon="-72.54212">
    <name>TP124</name>
  </trkpt>
  <trkpt lat="-13.16541" lon="-72.54211">
    <name>TP125</name>
  </trkpt>
  <trkpt lat="-13.1654" lon="-72.54211">
    <name>TP126</name>
  </trkpt>
  <trkpt lat="-13.16539" lon="-72.5421">
    <name>TP127</name>
  </trkpt>
  <trkpt lat="-13.16539" lon="-72.54209">
    <name>TP128</name>
  </trkpt>
  <trkpt lat="-13.16539" lon="-72.54207">
    <name>TP129</name>
  </trkpt>
  <trkpt lat="-13.16539" lon="-72.54205">
    <name>TP130</name>
  </trkpt>
  <trkpt lat="-13.16541" lon="-72.54203">
    <name>TP131</name>
  </trkpt>
  <trkpt lat="-13.16543" lon="-72.542">
    <name>TP132</name>
  </trkpt>
  <trkpt lat="-13.16545" lon="-72.54197">
    <name>TP133</name>
  </trkpt>
  <trkpt lat="-13.16554" lon="-72.54186">
    <name>TP134</name>
  </trkpt>
  <trkpt lat="-13.16566" lon="-72.54173">
    <name>TP135</name>
  </trkpt>
  <trkpt lat="-13.16567" lon="-72.54172">
    <name>TP136</name>
  </trkpt>
  <trkpt lat="-13.16579" lon="-72.54159">
    <name>TP137</name>
  </trkpt>
  <trkpt lat="-13.16591" lon="-72.54147">
    <name>TP138</name>
  </trkpt>
  <trkpt lat="-13.16591" lon="-72.54146">
    <name>TP139</name>
  </trkpt>
  <trkpt lat="-13.16597" lon="-72.54134">
    <name>TP140</name>
  </trkpt>
  <trkpt lat="-13.16604" lon="-72.54117">
    <name>TP141</name>
  </trkpt>
  <trkpt lat="-13.16605" lon="-72.54112">
    <name>TP142</name>
  </trkpt>
  <trkpt lat="-13.16609" lon="-72.54098">
    <name>TP143</name>
  </trkpt>
  <trkpt lat="-13.16611" lon="-72.54094">
    <name>TP144</name>
  </trkpt>
  <trkpt lat="-13.16614" lon="-72.5409">
    <name>TP145</name>
  </trkpt>
  <trkpt lat="-13.16617" lon="-72.54087">
    <name>TP146</name>
  </trkpt>
  <trkpt lat="-13.16625" lon="-72.54082">
    <name>TP147</name>
  </trkpt>
  <trkpt lat="-13.16626" lon="-72.54081">
    <name>TP148</name>
  </trkpt>
  <trkpt lat="-13.16646" lon="-72.54068">
    <name>TP149</name>
  </trkpt>
  <trkpt lat="-13.16652" lon="-72.54059">
    <name>TP150</name>
  </trkpt>
  <trkpt lat="-13.16658" lon="-72.54051">
    <name>TP151</name>
  </trkpt>
  <trkpt lat="-13.16667" lon="-72.54033">
    <name>TP152</name>
  </trkpt>
  <trkpt lat="-13.16669" lon="-72.54027">
    <name>TP153</name>
  </trkpt>
  <trkpt lat="-13.16675" lon="-72.5401">
    <name>TP154</name>
  </trkpt>
  <trkpt lat="-13.16681" lon="-72.53992">
    <name>TP155</name>
  </trkpt>
  <trkpt lat="-13.16682" lon="-72.53991">
    <name>TP156</name>
  </trkpt>
  <trkpt lat="-13.16687" lon="-72.5398">
    <name>TP157</name>
  </trkpt>
  <trkpt lat="-13.16688" lon="-72.53975">
    <name>TP158</name>
  </trkpt>
  <trkpt lat="-13.16691" lon="-72.53964">
    <name>TP159</name>
  </trkpt>
  <trkpt lat="-13.16691" lon="-72.5395">
    <name>TP160</name>
  </trkpt>
  <trkpt lat="-13.1669" lon="-72.53939">
    <name>TP161</name>
  </trkpt>
  <trkpt lat="-13.16689" lon="-72.53921">
    <name>TP162</name>
  </trkpt>
  <trkpt lat="-13.16689" lon="-72.53908">
    <name>TP163</name>
  </trkpt>
  <trkpt lat="-13.1669" lon="-72.53902">
    <name>TP164</name>
  </trkpt>
  <trkpt lat="-13.16691" lon="-72.53897">
    <name>TP165</name>
  </trkpt>
  <trkpt lat="-13.16697" lon="-72.53882">
    <name>TP166</name>
  </trkpt>
  <trkpt lat="-13.16703" lon="-72.5387">
    <name>TP167</name>
  </trkpt>
  <trkpt lat="-13.16704" lon="-72.53868">
    <name>TP168</name>
  </trkpt>
  <trkpt lat="-13.16706" lon="-72.53854">
    <name>TP169</name>
  </trkpt>
  <trkpt lat="-13.16707" lon="-72.5385">
    <name>TP170</name>
  </trkpt>
  <trkpt lat="-13.16707" lon="-72.53843">
    <name>TP171</name>
  </trkpt>
  <trkpt lat="-13.16706" lon="-72.53839">
    <name>TP172</name>
  </trkpt>
  <trkpt lat="-13.16702" lon="-72.53838">
    <name>TP173</name>
  </trkpt>
  <trkpt lat="-13.16701" lon="-72.53837">
    <name>TP174</name>
  </trkpt>
  <trkpt lat="-13.16701" lon="-72.53838">
    <name>TP175</name>
  </trkpt>
  <trkpt lat="-13.167" lon="-72.53838">
    <name>TP176</name>
  </trkpt>
  <trkpt lat="-13.16699" lon="-72.53838">
    <name>TP177</name>
  </trkpt>
  <trkpt lat="-13.16699" lon="-72.53839">
    <name>TP178</name>
  </trkpt>
  <trkpt lat="-13.16698" lon="-72.53839">
    <name>TP179</name>
  </trkpt>
  <trkpt lat="-13.16697" lon="-72.53841">
    <name>TP180</name>
  </trkpt>
  <trkpt lat="-13.16696" lon="-72.53843">
    <name>TP181</name>
  </trkpt>
  <trkpt lat="-13.16694" lon="-72.53857">
    <name>TP182</name>
  </trkpt>
  <trkpt lat="-13.1669" lon="-72.5387">
    <name>TP183</name>
  </trkpt>
  <trkpt lat="-13.16688" lon="-72.53873">
    <name>TP184</name>
  </trkpt>
  <trkpt lat="-13.1668" lon="-72.53886">
    <name>TP185</name>
  </trkpt>
  <trkpt lat="-13.16679" lon="-72.53889">
    <name>TP186</name>
  </trkpt>
  <trkpt lat="-13.16677" lon="-72.539">
    <name>TP187</name>
  </trkpt>
  <trkpt lat="-13.16675" lon="-72.53907">
    <name>TP188</name>
  </trkpt>
  <trkpt lat="-13.16674" lon="-72.53915">
    <name>TP189</name>
  </trkpt>
  <trkpt lat="-13.16671" lon="-72.53925">
    <name>TP190</name>
  </trkpt>
  <trkpt lat="-13.16668" lon="-72.53937">
    <name>TP191</name>
  </trkpt>
  <trkpt lat="-13.16657" lon="-72.53969">
    <name>TP192</name>
  </trkpt>
  <trkpt lat="-13.16653" lon="-72.53977">
    <name>TP193</name>
  </trkpt>
  <trkpt lat="-13.16649" lon="-72.53985">
    <name>TP194</name>
  </trkpt>
  <trkpt lat="-13.16635" lon="-72.54005">
    <name>TP195</name>
  </trkpt>
  <trkpt lat="-13.16622" lon="-72.54022">
    <name>TP196</name>
  </trkpt>
  <trkpt lat="-13.16619" lon="-72.54025">
    <name>TP197</name>
  </trkpt>
  <trkpt lat="-13.1661" lon="-72.54036">
    <name>TP198</name>
  </trkpt>
  <trkpt lat="-13.16604" lon="-72.54042">
    <name>TP199</name>
  </trkpt>
  <trkpt lat="-13.166" lon="-72.54048">
    <name>TP200</name>
  </trkpt>
  <trkpt lat="-13.16598" lon="-72.5405">
    <name>TP201</name>
  </trkpt>
  <trkpt lat="-13.16596" lon="-72.54051">
    <name>TP202</name>
  </trkpt>
  <trkpt lat="-13.16591" lon="-72.54054">
    <name>TP203</name>
  </trkpt>
  <trkpt lat="-13.16578" lon="-72.54057">
    <name>TP204</name>
  </trkpt>
  <trkpt lat="-13.16572" lon="-72.54061">
    <name>TP205</name>
  </trkpt>
  <trkpt lat="-13.16566" lon="-72.54064">
    <name>TP206</name>
  </trkpt>
  <trkpt lat="-13.1656" lon="-72.54071">
    <name>TP207</name>
  </trkpt>
  <trkpt lat="-13.16555" lon="-72.54079">
    <name>TP208</name>
  </trkpt>
  <trkpt lat="-13.16554" lon="-72.54081">
    <name>TP209</name>
  </trkpt>
  <trkpt lat="-13.16546" lon="-72.5409">
    <name>TP210</name>
  </trkpt>
  <trkpt lat="-13.16543" lon="-72.54094">
    <name>TP211</name>
  </trkpt>
  <trkpt lat="-13.16536" lon="-72.54107">
    <name>TP212</name>
  </trkpt>
  <trkpt lat="-13.16509" lon="-72.54136">
    <name>TP213</name>
  </trkpt>
  <trkpt lat="-13.16497" lon="-72.54149">
    <name>TP214</name>
  </trkpt>
  <trkpt lat="-13.16497" lon="-72.5415">
    <name>TP215</name>
  </trkpt>
  <trkpt lat="-13.16483" lon="-72.54166">
    <name>TP216</name>
  </trkpt>
  <trkpt lat="-13.16478" lon="-72.54177">
    <name>TP217</name>
  </trkpt>
  <trkpt lat="-13.16475" lon="-72.54188">
    <name>TP218</name>
  </trkpt>
  <trkpt lat="-13.16473" lon="-72.54195">
    <name>TP219</name>
  </trkpt>
  <trkpt lat="-13.16472" lon="-72.54196">
    <name>TP220</name>
  </trkpt>
  <trkpt lat="-13.16471" lon="-72.54197">
    <name>TP221</name>
  </trkpt>
  <trkpt lat="-13.16469" lon="-72.54199">
    <name>TP222</name>
  </trkpt>
  <trkpt lat="-13.16468" lon="-72.54199">
    <name>TP223</name>
  </trkpt>
  <trkpt lat="-13.16467" lon="-72.54199">
    <name>TP224</name>
  </trkpt>
  <trkpt lat="-13.16465" lon="-72.54199">
    <name>TP225</name>
  </trkpt>
  <trkpt lat="-13.16464" lon="-72.54199">
    <name>TP226</name>
  </trkpt>
  <trkpt lat="-13.16463" lon="-72.54198">
    <name>TP227</name>
  </trkpt>
  <trkpt lat="-13.16462" lon="-72.54198">
    <name>TP228</name>
  </trkpt>
  <trkpt lat="-13.16461" lon="-72.54197">
    <name>TP229</name>
  </trkpt>
  <trkpt lat="-13.1646" lon="-72.54196">
    <name>TP230</name>
  </trkpt>
  <trkpt lat="-13.16459" lon="-72.54195">
    <name>TP231</name>
  </trkpt>
  <trkpt lat="-13.16459" lon="-72.54194">
    <name>TP232</name>
  </trkpt>
  <trkpt lat="-13.16459" lon="-72.54193">
    <name>TP233</name>
  </trkpt>
  <trkpt lat="-13.16459" lon="-72.54191">
    <name>TP234</name>
  </trkpt>
  <trkpt lat="-13.16459" lon="-72.5419">
    <name>TP235</name>
  </trkpt>
  <trkpt lat="-13.16461" lon="-72.54186">
    <name>TP236</name>
  </trkpt>
  <trkpt lat="-13.16463" lon="-72.54181">
    <name>TP237</name>
  </trkpt>
  <trkpt lat="-13.16468" lon="-72.54174">
    <name>TP238</name>
  </trkpt>
  <trkpt lat="-13.16474" lon="-72.54166">
    <name>TP239</name>
  </trkpt>
  <trkpt lat="-13.16489" lon="-72.54145">
    <name>TP240</name>
  </trkpt>
  <trkpt lat="-13.16497" lon="-72.54133">
    <name>TP241</name>
  </trkpt>
  <trkpt lat="-13.16499" lon="-72.54129">
    <name>TP242</name>
  </trkpt>
  <trkpt lat="-13.16508" lon="-72.54113">
    <name>TP243</name>
  </trkpt>
  <trkpt lat="-13.16513" lon="-72.54105">
    <name>TP244</name>
  </trkpt>
  <trkpt lat="-13.16524" lon="-72.5408">
    <name>TP245</name>
  </trkpt>
  <trkpt lat="-13.16531" lon="-72.54064">
    <name>TP246</name>
  </trkpt>
  <trkpt lat="-13.16533" lon="-72.5406">
    <name>TP247</name>
  </trkpt>
  <trkpt lat="-13.16537" lon="-72.54048">
    <name>TP248</name>
  </trkpt>
  <trkpt lat="-13.16538" lon="-72.54046">
    <name>TP249</name>
  </trkpt>
  <trkpt lat="-13.16542" lon="-72.54039">
    <name>TP250</name>
  </trkpt>
  <trkpt lat="-13.16549" lon="-72.54032">
    <name>TP251</name>
  </trkpt>
  <trkpt lat="-13.16552" lon="-72.5403">
    <name>TP252</name>
  </trkpt>
  <trkpt lat="-13.16561" lon="-72.54022">
    <name>TP253</name>
  </trkpt>
  <trkpt lat="-13.1657" lon="-72.54013">
    <name>TP254</name>
  </trkpt>
  <trkpt lat="-13.16574" lon="-72.54006">
    <name>TP255</name>
  </trkpt>
  <trkpt lat="-13.16577" lon="-72.54002">
    <name>TP256</name>
  </trkpt>
  <trkpt lat="-13.16583" lon="-72.5399">
    <name>TP257</name>
  </trkpt>
  <trkpt lat="-13.16586" lon="-72.53982">
    <name>TP258</name>
  </trkpt>
  <trkpt lat="-13.16594" lon="-72.53963">
    <name>TP259</name>
  </trkpt>
  <trkpt lat="-13.16597" lon="-72.53956">
    <name>TP260</name>
  </trkpt>
  <trkpt lat="-13.16603" lon="-72.53941">
    <name>TP261</name>
  </trkpt>
  <trkpt lat="-13.16604" lon="-72.53929">
    <name>TP262</name>
  </trkpt>
  <trkpt lat="-13.16605" lon="-72.53921">
    <name>TP263</name>
  </trkpt>
  <trkpt lat="-13.16605" lon="-72.5392">
    <name>TP264</name>
  </trkpt>
  <trkpt lat="-13.16605" lon="-72.53916">
    <name>TP265</name>
  </trkpt>
  <trkpt lat="-13.16604" lon="-72.53905">
    <name>TP266</name>
  </trkpt>
  <trkpt lat="-13.16607" lon="-72.53894">
    <name>TP267</name>
  </trkpt>
  <trkpt lat="-13.16609" lon="-72.53883">
    <name>TP268</name>
  </trkpt>
  <trkpt lat="-13.16614" lon="-72.53873">
    <name>TP269</name>
  </trkpt>
  <trkpt lat="-13.16615" lon="-72.53866">
    <name>TP270</name>
  </trkpt>
  <trkpt lat="-13.16618" lon="-72.53859">
    <name>TP271</name>
  </trkpt>
  <trkpt lat="-13.16621" lon="-72.53849">
    <name>TP272</name>
  </trkpt>
  <trkpt lat="-13.16623" lon="-72.53841">
    <name>TP273</name>
  </trkpt>
  <trkpt lat="-13.16626" lon="-72.53834">
    <name>TP274</name>
  </trkpt>
  <trkpt lat="-13.16626" lon="-72.53832">
    <name>TP275</name>
  </trkpt>
  <trkpt lat="-13.16626" lon="-72.53831">
    <name>TP276</name>
  </trkpt>
  <trkpt lat="-13.16626" lon="-72.5383">
    <name>TP277</name>
  </trkpt>
  <trkpt lat="-13.16625" lon="-72.53829">
    <name>TP278</name>
  </trkpt>
  <trkpt lat="-13.16625" lon="-72.53828">
    <name>TP279</name>
  </trkpt>
  <trkpt lat="-13.16624" lon="-72.53827">
    <name>TP280</name>
  </trkpt>
  <trkpt lat="-13.16622" lon="-72.53826">
    <name>TP281</name>
  </trkpt>
  <trkpt lat="-13.16621" lon="-72.53826">
    <name>TP282</name>
  </trkpt>
  <trkpt lat="-13.1662" lon="-72.53826">
    <name>TP283</name>
  </trkpt>
  <trkpt lat="-13.16619" lon="-72.53826">
    <name>TP284</name>
  </trkpt>
  <trkpt lat="-13.16618" lon="-72.53827">
    <name>TP285</name>
  </trkpt>
  <trkpt lat="-13.16617" lon="-72.53828">
    <name>TP286</name>
  </trkpt>
  <trkpt lat="-13.16616" lon="-72.53832">
    <name>TP287</name>
  </trkpt>
  <trkpt lat="-13.16616" lon="-72.53833">
    <name>TP288</name>
  </trkpt>
  <trkpt lat="-13.16614" lon="-72.53842">
    <name>TP289</name>
  </trkpt>
  <trkpt lat="-13.16611" lon="-72.53851">
    <name>TP290</name>
  </trkpt>
  <trkpt lat="-13.16608" lon="-72.53864">
    <name>TP291</name>
  </trkpt>
  <trkpt lat="-13.16607" lon="-72.53869">
    <name>TP292</name>
  </trkpt>
  <trkpt lat="-13.16601" lon="-72.53887">
    <name>TP293</name>
  </trkpt>
  <trkpt lat="-13.16596" lon="-72.53904">
    <name>TP294</name>
  </trkpt>
  <trkpt lat="-13.16594" lon="-72.53912">
    <name>TP295</name>
  </trkpt>
  <trkpt lat="-13.16589" lon="-72.53921">
    <name>TP296</name>
  </trkpt>
  <trkpt lat="-13.16581" lon="-72.53938">
    <name>TP297</name>
  </trkpt>
  <trkpt lat="-13.16581" lon="-72.53939">
    <name>TP298</name>
  </trkpt>
  <trkpt lat="-13.16564" lon="-72.53967">
    <name>TP299</name>
  </trkpt>
  <trkpt lat="-13.16562" lon="-72.53969">
    <name>TP300</name>
  </trkpt>
  <trkpt lat="-13.16554" lon="-72.5398">
    <name>TP301</name>
  </trkpt>
  <trkpt lat="-13.16542" lon="-72.5399">
    <name>TP302</name>
  </trkpt>
  <trkpt lat="-13.16536" lon="-72.53994">
    <name>TP303</name>
  </trkpt>
  <trkpt lat="-13.1653" lon="-72.53998">
    <name>TP304</name>
  </trkpt>
  <trkpt lat="-13.1652" lon="-72.54003">
    <name>TP305</name>
  </trkpt>
  <trkpt lat="-13.16516" lon="-72.54005">
    <name>TP306</name>
  </trkpt>
  <trkpt lat="-13.16505" lon="-72.54011">
    <name>TP307</name>
  </trkpt>
  <trkpt lat="-13.16504" lon="-72.54012">
    <name>TP308</name>
  </trkpt>
  <trkpt lat="-13.16497" lon="-72.5402">
    <name>TP309</name>
  </trkpt>
  <trkpt lat="-13.16493" lon="-72.54026">
    <name>TP310</name>
  </trkpt>
  <trkpt lat="-13.16485" lon="-72.54042">
    <name>TP311</name>
  </trkpt>
  <trkpt lat="-13.16478" lon="-72.54055">
    <name>TP312</name>
  </trkpt>
  <trkpt lat="-13.16476" lon="-72.54058">
    <name>TP313</name>
  </trkpt>
  <trkpt lat="-13.16467" lon="-72.54075">
    <name>TP314</name>
  </trkpt>
  <trkpt lat="-13.16441" lon="-72.54123">
    <name>TP315</name>
  </trkpt>
  <trkpt lat="-13.16434" lon="-72.54137">
    <name>TP316</name>
  </trkpt>
  <trkpt lat="-13.16432" lon="-72.54139">
    <name>TP317</name>
  </trkpt>
  <trkpt lat="-13.16424" lon="-72.54149">
    <name>TP318</name>
  </trkpt>
  <trkpt lat="-13.1642" lon="-72.54153">
    <name>TP319</name>
  </trkpt>
  <trkpt lat="-13.16414" lon="-72.54159">
    <name>TP320</name>
  </trkpt>
  <trkpt lat="-13.16407" lon="-72.54163">
    <name>TP321</name>
  </trkpt>
  <trkpt lat="-13.16399" lon="-72.54164">
    <name>TP322</name>
  </trkpt>
  <trkpt lat="-13.16378" lon="-72.54167">
    <name>TP323</name>
  </trkpt>
  <trkpt lat="-13.16371" lon="-72.54171">
    <name>TP324</name>
  </trkpt>
  <trkpt lat="-13.16367" lon="-72.54177">
    <name>TP325</name>
  </trkpt>
  <trkpt lat="-13.16362" lon="-72.54184">
    <name>TP326</name>
  </trkpt>
  <trkpt lat="-13.16361" lon="-72.54186">
    <name>TP327</name>
  </trkpt>
  <trkpt lat="-13.16356" lon="-72.54198">
    <name>TP328</name>
  </trkpt>
  <trkpt lat="-13.16354" lon="-72.54203">
    <name>TP329</name>
  </trkpt>
  <trkpt lat="-13.16353" lon="-72.54206">
    <name>TP330</name>
  </trkpt>
  <trkpt lat="-13.1635" lon="-72.5421">
    <name>TP331</name>
  </trkpt>
  <trkpt lat="-13.16346" lon="-72.54215">
    <name>TP332</name>
  </trkpt>
  <trkpt lat="-13.16342" lon="-72.54215">
    <name>TP333</name>
  </trkpt>
  <trkpt lat="-13.16339" lon="-72.54215">
    <name>TP334</name>
  </trkpt>
  <trkpt lat="-13.16336" lon="-72.54212">
    <name>TP335</name>
  </trkpt>
  <trkpt lat="-13.16336" lon="-72.54208">
    <name>TP336</name>
  </trkpt>
  <trkpt lat="-13.16338" lon="-72.54205">
    <name>TP337</name>
  </trkpt>
  <trkpt lat="-13.1634" lon="-72.54202">
    <name>TP338</name>
  </trkpt>
  <trkpt lat="-13.16345" lon="-72.54198">
    <name>TP339</name>
  </trkpt>
  <trkpt lat="-13.16351" lon="-72.54188">
    <name>TP340</name>
  </trkpt>
  <trkpt lat="-13.16352" lon="-72.54187">
    <name>TP341</name>
  </trkpt>
  <trkpt lat="-13.16358" lon="-72.54172">
    <name>TP342</name>
  </trkpt>
  <trkpt lat="-13.16359" lon="-72.54171">
    <name>TP343</name>
  </trkpt>
  <trkpt lat="-13.16368" lon="-72.54159">
    <name>TP344</name>
  </trkpt>
  <trkpt lat="-13.1637" lon="-72.54157">
    <name>TP345</name>
  </trkpt>
  <trkpt lat="-13.16374" lon="-72.54154">
    <name>TP346</name>
  </trkpt>
  <trkpt lat="-13.16383" lon="-72.54149">
    <name>TP347</name>
  </trkpt>
  <trkpt lat="-13.16386" lon="-72.54149">
    <name>TP348</name>
  </trkpt>
  <trkpt lat="-13.16393" lon="-72.54148">
    <name>TP349</name>
  </trkpt>
  <trkpt lat="-13.16402" lon="-72.54142">
    <name>TP350</name>
  </trkpt>
  <trkpt lat="-13.16403" lon="-72.54142">
    <name>TP351</name>
  </trkpt>
  <trkpt lat="-13.16411" lon="-72.54137">
    <name>TP352</name>
  </trkpt>
  <trkpt lat="-13.16415" lon="-72.5413">
    <name>TP353</name>
  </trkpt>
  <trkpt lat="-13.16416" lon="-72.54129">
    <name>TP354</name>
  </trkpt>
  <trkpt lat="-13.16423" lon="-72.54113">
    <name>TP355</name>
  </trkpt>
  <trkpt lat="-13.16428" lon="-72.54091">
    <name>TP356</name>
  </trkpt>
  <trkpt lat="-13.16432" lon="-72.54077">
    <name>TP357</name>
  </trkpt>
  <trkpt lat="-13.16433" lon="-72.54076">
    <name>TP358</name>
  </trkpt>
  <trkpt lat="-13.16439" lon="-72.5406">
    <name>TP359</name>
  </trkpt>
  <trkpt lat="-13.1644" lon="-72.54056">
    <name>TP360</name>
  </trkpt>
  <trkpt lat="-13.16446" lon="-72.54043">
    <name>TP361</name>
  </trkpt>
  <trkpt lat="-13.16451" lon="-72.5403">
    <name>TP362</name>
  </trkpt>
  <trkpt lat="-13.16452" lon="-72.54026">
    <name>TP363</name>
  </trkpt>
  <trkpt lat="-13.16455" lon="-72.54013">
    <name>TP364</name>
  </trkpt>
  <trkpt lat="-13.1646" lon="-72.53997">
    <name>TP365</name>
  </trkpt>
  <trkpt lat="-13.16463" lon="-72.53991">
    <name>TP366</name>
  </trkpt>
  <trkpt lat="-13.16466" lon="-72.53984">
    <name>TP367</name>
  </trkpt>
  <trkpt lat="-13.16471" lon="-72.53976">
    <name>TP368</name>
  </trkpt>
  <trkpt lat="-13.16477" lon="-72.5397">
    <name>TP369</name>
  </trkpt>
  <trkpt lat="-13.16483" lon="-72.53961">
    <name>TP370</name>
  </trkpt>
  <trkpt lat="-13.16485" lon="-72.53958">
    <name>TP371</name>
  </trkpt>
  <trkpt lat="-13.1649" lon="-72.53953">
    <name>TP372</name>
  </trkpt>
  <trkpt lat="-13.16493" lon="-72.53946">
    <name>TP373</name>
  </trkpt>
  <trkpt lat="-13.16495" lon="-72.53941">
    <name>TP374</name>
  </trkpt>
  <trkpt lat="-13.16501" lon="-72.5393">
    <name>TP375</name>
  </trkpt>
  <trkpt lat="-13.16502" lon="-72.5393">
    <name>TP376</name>
  </trkpt>
  <trkpt lat="-13.1651" lon="-72.53919">
    <name>TP377</name>
  </trkpt>
  <trkpt lat="-13.16512" lon="-72.53915">
    <name>TP378</name>
  </trkpt>
  <trkpt lat="-13.16517" lon="-72.53906">
    <name>TP379</name>
  </trkpt>
  <trkpt lat="-13.16522" lon="-72.53892">
    <name>TP380</name>
  </trkpt>
  <trkpt lat="-13.16524" lon="-72.53876">
    <name>TP381</name>
  </trkpt>
  <trkpt lat="-13.16529" lon="-72.53862">
    <name>TP382</name>
  </trkpt>
  <trkpt lat="-13.16533" lon="-72.53851">
    <name>TP383</name>
  </trkpt>
  <trkpt lat="-13.16535" lon="-72.53845">
    <name>TP384</name>
  </trkpt>
  <trkpt lat="-13.16539" lon="-72.53837">
    <name>TP385</name>
  </trkpt>
  <trkpt lat="-13.16551" lon="-72.53815">
    <name>TP386</name>
  </trkpt>
  <trkpt lat="-13.16552" lon="-72.53813">
    <name>TP387</name>
  </trkpt>
  <trkpt lat="-13.16562" lon="-72.53797">
    <name>TP388</name>
  </trkpt>
  <trkpt lat="-13.16563" lon="-72.53795">
    <name>TP389</name>
  </trkpt>
  <trkpt lat="-13.16564" lon="-72.53791">
    <name>TP390</name>
  </trkpt>
  <trkpt lat="-13.16564" lon="-72.53789">
    <name>TP391</name>
  </trkpt>
  <trkpt lat="-13.16564" lon="-72.53788">
    <name>TP392</name>
  </trkpt>
  <trkpt lat="-13.16563" lon="-72.53786">
    <name>TP393</name>
  </trkpt>
  <trkpt lat="-13.16561" lon="-72.53785">
    <name>TP394</name>
  </trkpt>
  <trkpt lat="-13.16558" lon="-72.53784">
    <name>TP395</name>
  </trkpt>
  <trkpt lat="-13.16556" lon="-72.53784">
    <name>TP396</name>
  </trkpt>
  <trkpt lat="-13.16554" lon="-72.53785">
    <name>TP397</name>
  </trkpt>
  <trkpt lat="-13.16553" lon="-72.53786">
    <name>TP398</name>
  </trkpt>
  <trkpt lat="-13.16551" lon="-72.53789">
    <name>TP399</name>
  </trkpt>
  <trkpt lat="-13.16548" lon="-72.53794">
    <name>TP400</name>
  </trkpt>
  <trkpt lat="-13.16538" lon="-72.53819">
    <name>TP401</name>
  </trkpt>
  <trkpt lat="-13.16531" lon="-72.53832">
    <name>TP402</name>
  </trkpt>
  <trkpt lat="-13.16522" lon="-72.53848">
    <name>TP403</name>
  </trkpt>
  <trkpt lat="-13.16518" lon="-72.53856">
    <name>TP404</name>
  </trkpt>
  <trkpt lat="-13.16501" lon="-72.5388">
    <name>TP405</name>
  </trkpt>
  <trkpt lat="-13.16496" lon="-72.53889">
    <name>TP406</name>
  </trkpt>
  <trkpt lat="-13.16493" lon="-72.53895">
    <name>TP407</name>
  </trkpt>
  <trkpt lat="-13.16488" lon="-72.53906">
    <name>TP408</name>
  </trkpt>
  <trkpt lat="-13.16486" lon="-72.53912">
    <name>TP409</name>
  </trkpt>
  <trkpt lat="-13.16481" lon="-72.53926">
    <name>TP410</name>
  </trkpt>
  <trkpt lat="-13.16479" lon="-72.53929">
    <name>TP411</name>
  </trkpt>
  <trkpt lat="-13.16477" lon="-72.53932">
    <name>TP412</name>
  </trkpt>
  <trkpt lat="-13.16473" lon="-72.53936">
    <name>TP413</name>
  </trkpt>
  <trkpt lat="-13.16465" lon="-72.5394">
    <name>TP414</name>
  </trkpt>
  <trkpt lat="-13.16459" lon="-72.53943">
    <name>TP415</name>
  </trkpt>
  <trkpt lat="-13.1645" lon="-72.53949">
    <name>TP416</name>
  </trkpt>
  <trkpt lat="-13.16449" lon="-72.5395">
    <name>TP417</name>
  </trkpt>
  <trkpt lat="-13.16438" lon="-72.53963">
    <name>TP418</name>
  </trkpt>
  <trkpt lat="-13.16428" lon="-72.53976">
    <name>TP419</name>
  </trkpt>
  <trkpt lat="-13.16427" lon="-72.53978">
    <name>TP420</name>
  </trkpt>
  <trkpt lat="-13.1642" lon="-72.5399">
    <name>TP421</name>
  </trkpt>
  <trkpt lat="-13.16418" lon="-72.53993">
    <name>TP422</name>
  </trkpt>
  <trkpt lat="-13.16413" lon="-72.54002">
    <name>TP423</name>
  </trkpt>
  <trkpt lat="-13.16409" lon="-72.54009">
    <name>TP424</name>
  </trkpt>
  <trkpt lat="-13.16406" lon="-72.54014">
    <name>TP425</name>
  </trkpt>
  <trkpt lat="-13.16401" lon="-72.54026">
    <name>TP426</name>
  </trkpt>
  <trkpt lat="-13.16397" lon="-72.54033">
    <name>TP427</name>
  </trkpt>
  <trkpt lat="-13.16393" lon="-72.54043">
    <name>TP428</name>
  </trkpt>
  <trkpt lat="-13.16386" lon="-72.5406">
    <name>TP429</name>
  </trkpt>
  <trkpt lat="-13.16383" lon="-72.54068">
    <name>TP430</name>
  </trkpt>
  <trkpt lat="-13.16379" lon="-72.54076">
    <name>TP431</name>
  </trkpt>
  <trkpt lat="-13.16374" lon="-72.54085">
    <name>TP432</name>
  </trkpt>
  <trkpt lat="-13.1637" lon="-72.54092">
    <name>TP433</name>
  </trkpt>
  <trkpt lat="-13.16369" lon="-72.54094">
    <name>TP434</name>
  </trkpt>
  <trkpt lat="-13.16363" lon="-72.541">
    <name>TP435</name>
  </trkpt>
  <trkpt lat="-13.16357" lon="-72.54103">
    <name>TP436</name>
  </trkpt>
  <trkpt lat="-13.16356" lon="-72.54103">
    <name>TP437</name>
  </trkpt>
  <trkpt lat="-13.16348" lon="-72.54104">
    <name>TP438</name>
  </trkpt>
  <trkpt lat="-13.16341" lon="-72.54102">
    <name>TP439</name>
  </trkpt>
  <trkpt lat="-13.16338" lon="-72.54101">
    <name>TP440</name>
  </trkpt>
  <trkpt lat="-13.16331" lon="-72.54098">
    <name>TP441</name>
  </trkpt>
  <trkpt lat="-13.16323" lon="-72.54098">
    <name>TP442</name>
  </trkpt>
  <trkpt lat="-13.16322" lon="-72.54099">
    <name>TP443</name>
  </trkpt>
  <trkpt lat="-13.16316" lon="-72.54104">
    <name>TP444</name>
  </trkpt>
  <trkpt lat="-13.1631" lon="-72.54113">
    <name>TP445</name>
  </trkpt>
  <trkpt lat="-13.16306" lon="-72.54119">
    <name>TP446</name>
  </trkpt>
  <trkpt lat="-13.16298" lon="-72.54127">
    <name>TP447</name>
  </trkpt>
  <trkpt lat="-13.16297" lon="-72.54129">
    <name>TP448</name>
  </trkpt>
  <trkpt lat="-13.16284" lon="-72.54138">
    <name>TP449</name>
  </trkpt>
  <trkpt lat="-13.16271" lon="-72.54151">
    <name>TP450</name>
  </trkpt>
  <trkpt lat="-13.1627" lon="-72.54153">
    <name>TP451</name>
  </trkpt>
  <trkpt lat="-13.16265" lon="-72.54157">
    <name>TP452</name>
  </trkpt>
  <trkpt lat="-13.16261" lon="-72.54158">
    <name>TP453</name>
  </trkpt>
  <trkpt lat="-13.16256" lon="-72.54156">
    <name>TP454</name>
  </trkpt>
  <trkpt lat="-13.16255" lon="-72.54155">
    <name>TP455</name>
  </trkpt>
  <trkpt lat="-13.16254" lon="-72.54153">
    <name>TP456</name>
  </trkpt>
  <trkpt lat="-13.16254" lon="-72.54147">
    <name>TP457</name>
  </trkpt>
  <trkpt lat="-13.16258" lon="-72.54141">
    <name>TP458</name>
  </trkpt>
  <trkpt lat="-13.16259" lon="-72.5414">
    <name>TP459</name>
  </trkpt>
  <trkpt lat="-13.16272" lon="-72.5413">
    <name>TP460</name>
  </trkpt>
  <trkpt lat="-13.16273" lon="-72.54129">
    <name>TP461</name>
  </trkpt>
  <trkpt lat="-13.16287" lon="-72.54117">
    <name>TP462</name>
  </trkpt>
  <trkpt lat="-13.16289" lon="-72.54115">
    <name>TP463</name>
  </trkpt>
  <trkpt lat="-13.16296" lon="-72.54107">
    <name>TP464</name>
  </trkpt>
  <trkpt lat="-13.16298" lon="-72.54102">
    <name>TP465</name>
  </trkpt>
  <trkpt lat="-13.163" lon="-72.54097">
    <name>TP466</name>
  </trkpt>
  <trkpt lat="-13.16301" lon="-72.54084">
    <name>TP467</name>
  </trkpt>
  <trkpt lat="-13.16302" lon="-72.5408">
    <name>TP468</name>
  </trkpt>
  <trkpt lat="-13.16305" lon="-72.5407">
    <name>TP469</name>
  </trkpt>
  <trkpt lat="-13.16308" lon="-72.54068">
    <name>TP470</name>
  </trkpt>
  <trkpt lat="-13.16311" lon="-72.54066">
    <name>TP471</name>
  </trkpt>
  <trkpt lat="-13.16317" lon="-72.54066">
    <name>TP472</name>
  </trkpt>
  <trkpt lat="-13.16324" lon="-72.54071">
    <name>TP473</name>
  </trkpt>
  <trkpt lat="-13.16326" lon="-72.54073">
    <name>TP474</name>
  </trkpt>
  <trkpt lat="-13.16332" lon="-72.54075">
    <name>TP475</name>
  </trkpt>
  <trkpt lat="-13.16339" lon="-72.54074">
    <name>TP476</name>
  </trkpt>
  <trkpt lat="-13.1634" lon="-72.54072">
    <name>TP477</name>
  </trkpt>
  <trkpt lat="-13.16344" lon="-72.5407">
    <name>TP478</name>
  </trkpt>
  <trkpt lat="-13.1635" lon="-72.54065">
    <name>TP479</name>
  </trkpt>
  <trkpt lat="-13.16353" lon="-72.5406">
    <name>TP480</name>
  </trkpt>
  <trkpt lat="-13.1636" lon="-72.54049">
    <name>TP481</name>
  </trkpt>
  <trkpt lat="-13.16362" lon="-72.54044">
    <name>TP482</name>
  </trkpt>
  <trkpt lat="-13.16365" lon="-72.54037">
    <name>TP483</name>
  </trkpt>
  <trkpt lat="-13.16365" lon="-72.54028">
    <name>TP484</name>
  </trkpt>
  <trkpt lat="-13.16364" lon="-72.54026">
    <name>TP485</name>
  </trkpt>
  <trkpt lat="-13.16362" lon="-72.54018">
    <name>TP486</name>
  </trkpt>
  <trkpt lat="-13.16358" lon="-72.54007">
    <name>TP487</name>
  </trkpt>
  <trkpt lat="-13.16357" lon="-72.53997">
    <name>TP488</name>
  </trkpt>
  <trkpt lat="-13.16358" lon="-72.53991">
    <name>TP489</name>
  </trkpt>
  <trkpt lat="-13.16358" lon="-72.5399">
    <name>TP490</name>
  </trkpt>
  <trkpt lat="-13.16361" lon="-72.53985">
    <name>TP491</name>
  </trkpt>
  <trkpt lat="-13.16367" lon="-72.53982">
    <name>TP492</name>
  </trkpt>
  <trkpt lat="-13.16372" lon="-72.53979">
    <name>TP493</name>
  </trkpt>
  <trkpt lat="-13.1638" lon="-72.53974">
    <name>TP494</name>
  </trkpt>
  <trkpt lat="-13.16387" lon="-72.53969">
    <name>TP495</name>
  </trkpt>
  <trkpt lat="-13.16394" lon="-72.53966">
    <name>TP496</name>
  </trkpt>
  <trkpt lat="-13.16401" lon="-72.53958">
    <name>TP497</name>
  </trkpt>
  <trkpt lat="-13.16407" lon="-72.53948">
    <name>TP498</name>
  </trkpt>
  <trkpt lat="-13.1641" lon="-72.53942">
    <name>TP499</name>
  </trkpt>
  <trkpt lat="-13.16413" lon="-72.53934">
    <name>TP500</name>
  </trkpt>
  <trkpt lat="-13.16418" lon="-72.53925">
    <name>TP501</name>
  </trkpt>
  <trkpt lat="-13.16422" lon="-72.53914">
    <name>TP502</name>
  </trkpt>
  <trkpt lat="-13.16424" lon="-72.53908">
    <name>TP503</name>
  </trkpt>
  <trkpt lat="-13.16427" lon="-72.539">
    <name>TP504</name>
  </trkpt>
  <trkpt lat="-13.16428" lon="-72.5389">
    <name>TP505</name>
  </trkpt>
  <trkpt lat="-13.16428" lon="-72.53885">
    <name>TP506</name>
  </trkpt>
  <trkpt lat="-13.16431" lon="-72.53876">
    <name>TP507</name>
  </trkpt>
  <trkpt lat="-13.16433" lon="-72.53872">
    <name>TP508</name>
  </trkpt>
  <trkpt lat="-13.16437" lon="-72.53867">
    <name>TP509</name>
  </trkpt>
  <trkpt lat="-13.16441" lon="-72.53856">
    <name>TP510</name>
  </trkpt>
  <trkpt lat="-13.16446" lon="-72.53844">
    <name>TP511</name>
  </trkpt>
  <trkpt lat="-13.16448" lon="-72.53839">
    <name>TP512</name>
  </trkpt>
  <trkpt lat="-13.16454" lon="-72.53821">
    <name>TP513</name>
  </trkpt>
  <trkpt lat="-13.16455" lon="-72.53818">
    <name>TP514</name>
  </trkpt>
  <trkpt lat="-13.1646" lon="-72.53804">
    <name>TP515</name>
  </trkpt>
  <trkpt lat="-13.16463" lon="-72.53796">
    <name>TP516</name>
  </trkpt>
  <trkpt lat="-13.16463" lon="-72.53786">
    <name>TP517</name>
  </trkpt>
  <trkpt lat="-13.16463" lon="-72.53784">
    <name>TP518</name>
  </trkpt>
  <trkpt lat="-13.16461" lon="-72.53768">
    <name>TP519</name>
  </trkpt>
  <trkpt lat="-13.1646" lon="-72.53761">
    <name>TP520</name>
  </trkpt>
  <trkpt lat="-13.16461" lon="-72.5375">
    <name>TP521</name>
  </trkpt>
  <trkpt lat="-13.16461" lon="-72.53743">
    <name>TP522</name>
  </trkpt>
  <trkpt lat="-13.16464" lon="-72.53734">
    <name>TP523</name>
  </trkpt>
  <trkpt lat="-13.16465" lon="-72.53732">
    <name>TP524</name>
  </trkpt>
  <trkpt lat="-13.1647" lon="-72.53724">
    <name>TP525</name>
  </trkpt>
  <trkpt lat="-13.16473" lon="-72.53715">
    <name>TP526</name>
  </trkpt>
  <trkpt lat="-13.16474" lon="-72.53711">
    <name>TP527</name>
  </trkpt>
  <trkpt lat="-13.16474" lon="-72.53705">
    <name>TP528</name>
  </trkpt>
  <trkpt lat="-13.16473" lon="-72.53701">
    <name>TP529</name>
  </trkpt>
  <trkpt lat="-13.16471" lon="-72.537">
    <name>TP530</name>
  </trkpt>
  <trkpt lat="-13.1647" lon="-72.537">
    <name>TP531</name>
  </trkpt>
  <trkpt lat="-13.16467" lon="-72.537">
    <name>TP532</name>
  </trkpt>
  <trkpt lat="-13.16465" lon="-72.53703">
    <name>TP533</name>
  </trkpt>
  <trkpt lat="-13.16462" lon="-72.53707">
    <name>TP534</name>
  </trkpt>
  <trkpt lat="-13.16461" lon="-72.53714">
    <name>TP535</name>
  </trkpt>
  <trkpt lat="-13.1646" lon="-72.53719">
    <name>TP536</name>
  </trkpt>
  <trkpt lat="-13.16456" lon="-72.53732">
    <name>TP537</name>
  </trkpt>
  <trkpt lat="-13.16454" lon="-72.53739">
    <name>TP538</name>
  </trkpt>
  <trkpt lat="-13.16453" lon="-72.5375">
    <name>TP539</name>
  </trkpt>
  <trkpt lat="-13.16453" lon="-72.53758">
    <name>TP540</name>
  </trkpt>
  <trkpt lat="-13.1645" lon="-72.53768">
    <name>TP541</name>
  </trkpt>
  <trkpt lat="-13.16447" lon="-72.53778">
    <name>TP542</name>
  </trkpt>
  <trkpt lat="-13.16444" lon="-72.53785">
    <name>TP543</name>
  </trkpt>
  <trkpt lat="-13.16443" lon="-72.53789">
    <name>TP544</name>
  </trkpt>
  <trkpt lat="-13.16439" lon="-72.53797">
    <name>TP545</name>
  </trkpt>
  <trkpt lat="-13.16436" lon="-72.53802">
    <name>TP546</name>
  </trkpt>
  <trkpt lat="-13.16428" lon="-72.53818">
    <name>TP547</name>
  </trkpt>
  <trkpt lat="-13.16427" lon="-72.53819">
    <name>TP548</name>
  </trkpt>
  <trkpt lat="-13.16408" lon="-72.5385">
    <name>TP549</name>
  </trkpt>
  <trkpt lat="-13.16399" lon="-72.53865">
    <name>TP550</name>
  </trkpt>
  <trkpt lat="-13.16394" lon="-72.53872">
    <name>TP551</name>
  </trkpt>
  <trkpt lat="-13.16392" lon="-72.5388">
    <name>TP552</name>
  </trkpt>
  <trkpt lat="-13.16392" lon="-72.53882">
    <name>TP553</name>
  </trkpt>
  <trkpt lat="-13.1639" lon="-72.53892">
    <name>TP554</name>
  </trkpt>
  <trkpt lat="-13.16388" lon="-72.539">
    <name>TP555</name>
  </trkpt>
  <trkpt lat="-13.16386" lon="-72.53906">
    <name>TP556</name>
  </trkpt>
  <trkpt lat="-13.16379" lon="-72.53916">
    <name>TP557</name>
  </trkpt>
  <trkpt lat="-13.16374" lon="-72.53923">
    <name>TP558</name>
  </trkpt>
  <trkpt lat="-13.16368" lon="-72.5393">
    <name>TP559</name>
  </trkpt>
  <trkpt lat="-13.16356" lon="-72.53944">
    <name>TP560</name>
  </trkpt>
  <trkpt lat="-13.16355" lon="-72.53946">
    <name>TP561</name>
  </trkpt>
  <trkpt lat="-13.16341" lon="-72.53954">
    <name>TP562</name>
  </trkpt>
  <trkpt lat="-13.16338" lon="-72.53956">
    <name>TP563</name>
  </trkpt>
  <trkpt lat="-13.16327" lon="-72.53965">
    <name>TP564</name>
  </trkpt>
  <trkpt lat="-13.16325" lon="-72.53966">
    <name>TP565</name>
  </trkpt>
  <trkpt lat="-13.1632" lon="-72.53974">
    <name>TP566</name>
  </trkpt>
  <trkpt lat="-13.16318" lon="-72.5398">
    <name>TP567</name>
  </trkpt>
  <trkpt lat="-13.16314" lon="-72.53991">
    <name>TP568</name>
  </trkpt>
  <trkpt lat="-13.16312" lon="-72.53998">
    <name>TP569</name>
  </trkpt>
  <trkpt lat="-13.16312" lon="-72.54">
    <name>TP570</name>
  </trkpt>
  <trkpt lat="-13.16307" lon="-72.54008">
    <name>TP571</name>
  </trkpt>
  <trkpt lat="-13.16301" lon="-72.54012">
    <name>TP572</name>
  </trkpt>
  <trkpt lat="-13.16299" lon="-72.54013">
    <name>TP573</name>
  </trkpt>
  <trkpt lat="-13.16285" lon="-72.54016">
    <name>TP574</name>
  </trkpt>
  <trkpt lat="-13.16284" lon="-72.54016">
    <name>TP575</name>
  </trkpt>
  <trkpt lat="-13.16271" lon="-72.54016">
    <name>TP576</name>
  </trkpt>
  <trkpt lat="-13.16267" lon="-72.54019">
    <name>TP577</name>
  </trkpt>
  <trkpt lat="-13.16262" lon="-72.54021">
    <name>TP578</name>
  </trkpt>
  <trkpt lat="-13.16253" lon="-72.5403">
    <name>TP579</name>
  </trkpt>
  <trkpt lat="-13.1625" lon="-72.54033">
    <name>TP580</name>
  </trkpt>
  <trkpt lat="-13.16238" lon="-72.54041">
    <name>TP581</name>
  </trkpt>
  <trkpt lat="-13.16237" lon="-72.54041">
    <name>TP582</name>
  </trkpt>
  <trkpt lat="-13.16222" lon="-72.54048">
    <name>TP583</name>
  </trkpt>
  <trkpt lat="-13.16221" lon="-72.54048">
    <name>TP584</name>
  </trkpt>
  <trkpt lat="-13.16204" lon="-72.54053">
    <name>TP585</name>
  </trkpt>
  <trkpt lat="-13.16203" lon="-72.54054">
    <name>TP586</name>
  </trkpt>
  <trkpt lat="-13.16199" lon="-72.54054">
    <name>TP587</name>
  </trkpt>
  <trkpt lat="-13.16196" lon="-72.54056">
    <name>TP588</name>
  </trkpt>
  <trkpt lat="-13.16194" lon="-72.54059">
    <name>TP589</name>
  </trkpt>
  <trkpt lat="-13.16193" lon="-72.54063">
    <name>TP590</name>
  </trkpt>
  <trkpt lat="-13.16192" lon="-72.54064">
    <name>TP591</name>
  </trkpt>
  <trkpt lat="-13.16179" lon="-72.54077">
    <name>TP592</name>
  </trkpt>
  <trkpt lat="-13.16172" lon="-72.54085">
    <name>TP593</name>
  </trkpt>
  <trkpt lat="-13.16167" lon="-72.5409">
    <name>TP594</name>
  </trkpt>
  <trkpt lat="-13.16163" lon="-72.54094">
    <name>TP595</name>
  </trkpt>
  <trkpt lat="-13.16153" lon="-72.54103">
    <name>TP596</name>
  </trkpt>
  <trkpt lat="-13.16141" lon="-72.54114">
    <name>TP597</name>
  </trkpt>
  <trkpt lat="-13.1614" lon="-72.54115">
    <name>TP598</name>
  </trkpt>
  <trkpt lat="-13.16135" lon="-72.54118">
    <name>TP599</name>
  </trkpt>
  <trkpt lat="-13.1613" lon="-72.54117">
    <name>TP600</name>
  </trkpt>
  <trkpt lat="-13.16128" lon="-72.54114">
    <name>TP601</name>
  </trkpt>
  <trkpt lat="-13.16127" lon="-72.54111">
    <name>TP602</name>
  </trkpt>
  <trkpt lat="-13.16127" lon="-72.54107">
    <name>TP603</name>
  </trkpt>
  <trkpt lat="-13.1613" lon="-72.54102">
    <name>TP604</name>
  </trkpt>
  <trkpt lat="-13.16138" lon="-72.54098">
    <name>TP605</name>
  </trkpt>
  <trkpt lat="-13.16141" lon="-72.54095">
    <name>TP606</name>
  </trkpt>
  <trkpt lat="-13.16153" lon="-72.54084">
    <name>TP607</name>
  </trkpt>
  <trkpt lat="-13.16161" lon="-72.5407">
    <name>TP608</name>
  </trkpt>
  <trkpt lat="-13.16163" lon="-72.54068">
    <name>TP609</name>
  </trkpt>
  <trkpt lat="-13.16173" lon="-72.54055">
    <name>TP610</name>
  </trkpt>
  <trkpt lat="-13.16186" lon="-72.54044">
    <name>TP611</name>
  </trkpt>
  <trkpt lat="-13.16193" lon="-72.54038">
    <name>TP612</name>
  </trkpt>
  <trkpt lat="-13.162" lon="-72.54033">
    <name>TP613</name>
  </trkpt>
  <trkpt lat="-13.16215" lon="-72.54023">
    <name>TP614</name>
  </trkpt>
  <trkpt lat="-13.16218" lon="-72.54021">
    <name>TP615</name>
  </trkpt>
  <trkpt lat="-13.1623" lon="-72.54013">
    <name>TP616</name>
  </trkpt>
  <trkpt lat="-13.16245" lon="-72.54003">
    <name>TP617</name>
  </trkpt>
  <trkpt lat="-13.16255" lon="-72.53997">
    <name>TP618</name>
  </trkpt>
  <trkpt lat="-13.16261" lon="-72.53993">
    <name>TP619</name>
  </trkpt>
  <trkpt lat="-13.1627" lon="-72.53987">
    <name>TP620</name>
  </trkpt>
  <trkpt lat="-13.16274" lon="-72.53981">
    <name>TP621</name>
  </trkpt>
  <trkpt lat="-13.16277" lon="-72.53978">
    <name>TP622</name>
  </trkpt>
  <trkpt lat="-13.16283" lon="-72.53965">
    <name>TP623</name>
  </trkpt>
  <trkpt lat="-13.16291" lon="-72.53949">
    <name>TP624</name>
  </trkpt>
  <trkpt lat="-13.16292" lon="-72.53949">
    <name>TP625</name>
  </trkpt>
  <trkpt lat="-13.16297" lon="-72.53937">
    <name>TP626</name>
  </trkpt>
  <trkpt lat="-13.16301" lon="-72.53933">
    <name>TP627</name>
  </trkpt>
  <trkpt lat="-13.16307" lon="-72.53925">
    <name>TP628</name>
  </trkpt>
  <trkpt lat="-13.16311" lon="-72.53918">
    <name>TP629</name>
  </trkpt>
  <trkpt lat="-13.16313" lon="-72.53914">
    <name>TP630</name>
  </trkpt>
  <trkpt lat="-13.16315" lon="-72.53901">
    <name>TP631</name>
  </trkpt>
  <trkpt lat="-13.16315" lon="-72.539">
    <name>TP632</name>
  </trkpt>
  <trkpt lat="-13.16316" lon="-72.53887">
    <name>TP633</name>
  </trkpt>
  <trkpt lat="-13.16315" lon="-72.53882">
    <name>TP634</name>
  </trkpt>
  <trkpt lat="-13.16315" lon="-72.53863">
    <name>TP635</name>
  </trkpt>
  <trkpt lat="-13.16315" lon="-72.53859">
    <name>TP636</name>
  </trkpt>
  <trkpt lat="-13.16314" lon="-72.53845">
    <name>TP637</name>
  </trkpt>
  <trkpt lat="-13.16314" lon="-72.53837">
    <name>TP638</name>
  </trkpt>
  <trkpt lat="-13.16314" lon="-72.53826">
    <name>TP639</name>
  </trkpt>
  <trkpt lat="-13.16314" lon="-72.53816">
    <name>TP640</name>
  </trkpt>
  <trkpt lat="-13.16315" lon="-72.53808">
    <name>TP641</name>
  </trkpt>
  <trkpt lat="-13.16318" lon="-72.5379">
    <name>TP642</name>
  </trkpt>
  <trkpt lat="-13.1632" lon="-72.5378">
    <name>TP643</name>
  </trkpt>
  <trkpt lat="-13.16321" lon="-72.53771">
    <name>TP644</name>
  </trkpt>
  <trkpt lat="-13.16325" lon="-72.53753">
    <name>TP645</name>
  </trkpt>
  <trkpt lat="-13.16328" lon="-72.53735">
    <name>TP646</name>
  </trkpt>
  <trkpt lat="-13.16331" lon="-72.5372">
    <name>TP647</name>
  </trkpt>
  <trkpt lat="-13.16331" lon="-72.53717">
    <name>TP648</name>
  </trkpt>
  <trkpt lat="-13.16333" lon="-72.53699">
    <name>TP649</name>
  </trkpt>
  <trkpt lat="-13.16335" lon="-72.53685">
    <name>TP650</name>
  </trkpt>
  <trkpt lat="-13.16336" lon="-72.5368">
    <name>TP651</name>
  </trkpt>
  <trkpt lat="-13.16338" lon="-72.53674">
    <name>TP652</name>
  </trkpt>
  <trkpt lat="-13.16339" lon="-72.53665">
    <name>TP653</name>
  </trkpt>
  <trkpt lat="-13.16341" lon="-72.53663">
    <name>TP654</name>
  </trkpt>
  <trkpt lat="-13.16346" lon="-72.53655">
    <name>TP655</name>
  </trkpt>
  <trkpt lat="-13.16352" lon="-72.53648">
    <name>TP656</name>
  </trkpt>
  <trkpt lat="-13.16361" lon="-72.53638">
    <name>TP657</name>
  </trkpt>
  <trkpt lat="-13.16364" lon="-72.53634">
    <name>TP658</name>
  </trkpt>
  <trkpt lat="-13.16375" lon="-72.5362">
    <name>TP659</name>
  </trkpt>
  <trkpt lat="-13.16377" lon="-72.53618">
    <name>TP660</name>
  </trkpt>
  <trkpt lat="-13.16379" lon="-72.53612">
    <name>TP661</name>
  </trkpt>
  <trkpt lat="-13.1638" lon="-72.53609">
    <name>TP662</name>
  </trkpt>
  <trkpt lat="-13.16379" lon="-72.53607">
    <name>TP663</name>
  </trkpt>
  <trkpt lat="-13.16377" lon="-72.53605">
    <name>TP664</name>
  </trkpt>
  <trkpt lat="-13.16376" lon="-72.53604">
    <name>TP665</name>
  </trkpt>
  <trkpt lat="-13.16375" lon="-72.53604">
    <name>TP666</name>
  </trkpt>
  <trkpt lat="-13.16373" lon="-72.53605">
    <name>TP667</name>
  </trkpt>
  <trkpt lat="-13.1637" lon="-72.53607">
    <name>TP668</name>
  </trkpt>
  <trkpt lat="-13.16367" lon="-72.53609">
    <name>TP669</name>
  </trkpt>
  <trkpt lat="-13.16364" lon="-72.53614">
    <name>TP670</name>
  </trkpt>
  <trkpt lat="-13.16361" lon="-72.53621">
    <name>TP671</name>
  </trkpt>
  <trkpt lat="-13.16355" lon="-72.53632">
    <name>TP672</name>
  </trkpt>
  <trkpt lat="-13.16351" lon="-72.53639">
    <name>TP673</name>
  </trkpt>
  <trkpt lat="-13.16343" lon="-72.53645">
    <name>TP674</name>
  </trkpt>
  <trkpt lat="-13.16314" lon="-72.53667">
    <name>TP675</name>
  </trkpt>
  <trkpt lat="-13.16313" lon="-72.53668">
    <name>TP676</name>
  </trkpt>
  <trkpt lat="-13.16309" lon="-72.53675">
    <name>TP677</name>
  </trkpt>
  <trkpt lat="-13.16307" lon="-72.53682">
    <name>TP678</name>
  </trkpt>
  <trkpt lat="-13.16307" lon="-72.53683">
    <name>TP679</name>
  </trkpt>
  <trkpt lat="-13.16306" lon="-72.53696">
    <name>TP680</name>
  </trkpt>
  <trkpt lat="-13.16307" lon="-72.53702">
    <name>TP681</name>
  </trkpt>
  <trkpt lat="-13.16307" lon="-72.53703">
    <name>TP682</name>
  </trkpt>
  <trkpt lat="-13.16305" lon="-72.5371">
    <name>TP683</name>
  </trkpt>
  <trkpt lat="-13.16303" lon="-72.53718">
    <name>TP684</name>
  </trkpt>
  <trkpt lat="-13.16302" lon="-72.5372">
    <name>TP685</name>
  </trkpt>
  <trkpt lat="-13.16298" lon="-72.53726">
    <name>TP686</name>
  </trkpt>
  <trkpt lat="-13.16289" lon="-72.53731">
    <name>TP687</name>
  </trkpt>
  <trkpt lat="-13.16281" lon="-72.53736">
    <name>TP688</name>
  </trkpt>
  <trkpt lat="-13.16274" lon="-72.53742">
    <name>TP689</name>
  </trkpt>
  <trkpt lat="-13.16271" lon="-72.53744">
    <name>TP690</name>
  </trkpt>
  <trkpt lat="-13.16262" lon="-72.53755">
    <name>TP691</name>
  </trkpt>
  <trkpt lat="-13.16262" lon="-72.53756">
    <name>TP692</name>
  </trkpt>
  <trkpt lat="-13.16258" lon="-72.53768">
    <name>TP693</name>
  </trkpt>
  <trkpt lat="-13.16256" lon="-72.53773">
    <name>TP694</name>
  </trkpt>
  <trkpt lat="-13.16249" lon="-72.5379">
    <name>TP695</name>
  </trkpt>
  <trkpt lat="-13.16248" lon="-72.53793">
    <name>TP696</name>
  </trkpt>
  <trkpt lat="-13.16242" lon="-72.53807">
    <name>TP697</name>
  </trkpt>
  <trkpt lat="-13.16235" lon="-72.53824">
    <name>TP698</name>
  </trkpt>
  <trkpt lat="-13.16234" lon="-72.53827">
    <name>TP699</name>
  </trkpt>
  <trkpt lat="-13.16229" lon="-72.53841">
    <name>TP700</name>
  </trkpt>
  <trkpt lat="-13.16228" lon="-72.53848">
    <name>TP701</name>
  </trkpt>
  <trkpt lat="-13.16226" lon="-72.53854">
    <name>TP702</name>
  </trkpt>
  <trkpt lat="-13.16225" lon="-72.53859">
    <name>TP703</name>
  </trkpt>
  <trkpt lat="-13.16225" lon="-72.53864">
    <name>TP704</name>
  </trkpt>
  <trkpt lat="-13.16225" lon="-72.53871">
    <name>TP705</name>
  </trkpt>
  <trkpt lat="-13.16228" lon="-72.53877">
    <name>TP706</name>
  </trkpt>
  <trkpt lat="-13.1623" lon="-72.53881">
    <name>TP707</name>
  </trkpt>
  <trkpt lat="-13.16232" lon="-72.53893">
    <name>TP708</name>
  </trkpt>
  <trkpt lat="-13.16232" lon="-72.53895">
    <name>TP709</name>
  </trkpt>
  <trkpt lat="-13.16233" lon="-72.53898">
    <name>TP710</name>
  </trkpt>
  <trkpt lat="-13.16233" lon="-72.53901">
    <name>TP711</name>
  </trkpt>
  <trkpt lat="-13.16233" lon="-72.53903">
    <name>TP712</name>
  </trkpt>
  <trkpt lat="-13.16231" lon="-72.53908">
    <name>TP713</name>
  </trkpt>
  <trkpt lat="-13.16229" lon="-72.53911">
    <name>TP714</name>
  </trkpt>
  <trkpt lat="-13.16227" lon="-72.53912">
    <name>TP715</name>
  </trkpt>
  <trkpt lat="-13.16226" lon="-72.53912">
    <name>TP716</name>
  </trkpt>
  <trkpt lat="-13.16223" lon="-72.53913">
    <name>TP717</name>
  </trkpt>
  <trkpt lat="-13.1622" lon="-72.53913">
    <name>TP718</name>
  </trkpt>
  <trkpt lat="-13.16216" lon="-72.53912">
    <name>TP719</name>
  </trkpt>
  <trkpt lat="-13.16214" lon="-72.53912">
    <name>TP720</name>
  </trkpt>
  <trkpt lat="-13.16212" lon="-72.5391">
    <name>TP721</name>
  </trkpt>
  <trkpt lat="-13.16211" lon="-72.53909">
    <name>TP722</name>
  </trkpt>
  <trkpt lat="-13.16211" lon="-72.53908">
    <name>TP723</name>
  </trkpt>
  <trkpt lat="-13.16207" lon="-72.53902">
    <name>TP724</name>
  </trkpt>
  <trkpt lat="-13.16204" lon="-72.53892">
    <name>TP725</name>
  </trkpt>
  <trkpt lat="-13.16203" lon="-72.53887">
    <name>TP726</name>
  </trkpt>
  <trkpt lat="-13.16204" lon="-72.53873">
    <name>TP727</name>
  </trkpt>
  <trkpt lat="-13.16204" lon="-72.53868">
    <name>TP728</name>
  </trkpt>
  <trkpt lat="-13.16205" lon="-72.53855">
    <name>TP729</name>
  </trkpt>
  <trkpt lat="-13.16206" lon="-72.53843">
    <name>TP730</name>
  </trkpt>
  <trkpt lat="-13.16207" lon="-72.53837">
    <name>TP731</name>
  </trkpt>
  <trkpt lat="-13.16209" lon="-72.53818">
    <name>TP732</name>
  </trkpt>
  <trkpt lat="-13.16214" lon="-72.538">
    <name>TP733</name>
  </trkpt>
  <trkpt lat="-13.16218" lon="-72.53785">
    <name>TP734</name>
  </trkpt>
  <trkpt lat="-13.16218" lon="-72.53783">
    <name>TP735</name>
  </trkpt>
  <trkpt lat="-13.16222" lon="-72.53765">
    <name>TP736</name>
  </trkpt>
  <trkpt lat="-13.16226" lon="-72.53747">
    <name>TP737</name>
  </trkpt>
  <trkpt lat="-13.16228" lon="-72.53741">
    <name>TP738</name>
  </trkpt>
  <trkpt lat="-13.16231" lon="-72.53729">
    <name>TP739</name>
  </trkpt>
  <trkpt lat="-13.16235" lon="-72.53711">
    <name>TP740</name>
  </trkpt>
  <trkpt lat="-13.16245" lon="-72.53689">
    <name>TP741</name>
  </trkpt>
  <trkpt lat="-13.16251" lon="-72.53678">
    <name>TP742</name>
  </trkpt>
  <trkpt lat="-13.16261" lon="-72.53662">
    <name>TP743</name>
  </trkpt>
  <trkpt lat="-13.1627" lon="-72.53646">
    <name>TP744</name>
  </trkpt>
  <trkpt lat="-13.16279" lon="-72.53632">
    <name>TP745</name>
  </trkpt>
  <trkpt lat="-13.1628" lon="-72.53631">
    <name>TP746</name>
  </trkpt>
  <trkpt lat="-13.16289" lon="-72.53615">
    <name>TP747</name>
  </trkpt>
  <trkpt lat="-13.16298" lon="-72.536">
    <name>TP748</name>
  </trkpt>
  <trkpt lat="-13.16298" lon="-72.53599">
    <name>TP749</name>
  </trkpt>
  <trkpt lat="-13.16313" lon="-72.53579">
    <name>TP750</name>
  </trkpt>
  <trkpt lat="-13.1632" lon="-72.5357">
    <name>TP751</name>
  </trkpt>
  <trkpt lat="-13.16323" lon="-72.53565">
    <name>TP752</name>
  </trkpt>
  <trkpt lat="-13.16325" lon="-72.53561">
    <name>TP753</name>
  </trkpt>
  <trkpt lat="-13.16326" lon="-72.53557">
    <name>TP754</name>
  </trkpt>
  <trkpt lat="-13.16326" lon="-72.53555">
    <name>TP755</name>
  </trkpt>
  <trkpt lat="-13.16326" lon="-72.53553">
    <name>TP756</name>
  </trkpt>
  <trkpt lat="-13.16325" lon="-72.53551">
    <name>TP757</name>
  </trkpt>
  <trkpt lat="-13.16325" lon="-72.5355">
    <name>TP758</name>
  </trkpt>
  <trkpt lat="-13.16324" lon="-72.53549">
    <name>TP759</name>
  </trkpt>
  <trkpt lat="-13.16323" lon="-72.53549">
    <name>TP760</name>
  </trkpt>
  <trkpt lat="-13.16321" lon="-72.53548">
    <name>TP761</name>
  </trkpt>
  <trkpt lat="-13.1632" lon="-72.53548">
    <name>TP762</name>
  </trkpt>
  <trkpt lat="-13.16317" lon="-72.53548">
    <name>TP763</name>
  </trkpt>
  <trkpt lat="-13.16314" lon="-72.53549">
    <name>TP764</name>
  </trkpt>
  <trkpt lat="-13.16311" lon="-72.53551">
    <name>TP765</name>
  </trkpt>
  <trkpt lat="-13.16307" lon="-72.53556">
    <name>TP766</name>
  </trkpt>
  <trkpt lat="-13.16298" lon="-72.53564">
    <name>TP767</name>
  </trkpt>
  <trkpt lat="-13.16296" lon="-72.53566">
    <name>TP768</name>
  </trkpt>
  <trkpt lat="-13.16285" lon="-72.53577">
    <name>TP769</name>
  </trkpt>
  <trkpt lat="-13.16273" lon="-72.53587">
    <name>TP770</name>
  </trkpt>
  <trkpt lat="-13.16272" lon="-72.53589">
    <name>TP771</name>
  </trkpt>
  <trkpt lat="-13.1626" lon="-72.53605">
    <name>TP772</name>
  </trkpt>
  <trkpt lat="-13.1625" lon="-72.53619">
    <name>TP773</name>
  </trkpt>
  <trkpt lat="-13.1624" lon="-72.53634">
    <name>TP774</name>
  </trkpt>
  <trkpt lat="-13.16233" lon="-72.53644">
    <name>TP775</name>
  </trkpt>
  <trkpt lat="-13.1623" lon="-72.5365">
    <name>TP776</name>
  </trkpt>
  <trkpt lat="-13.16221" lon="-72.53665">
    <name>TP777</name>
  </trkpt>
  <trkpt lat="-13.16221" lon="-72.53666">
    <name>TP778</name>
  </trkpt>
  <trkpt lat="-13.16211" lon="-72.5368">
    <name>TP779</name>
  </trkpt>
  <trkpt lat="-13.16211" lon="-72.53681">
    <name>TP780</name>
  </trkpt>
  <trkpt lat="-13.16205" lon="-72.53685">
    <name>TP781</name>
  </trkpt>
  <trkpt lat="-13.16202" lon="-72.53687">
    <name>TP782</name>
  </trkpt>
  <trkpt lat="-13.16195" lon="-72.53688">
    <name>TP783</name>
  </trkpt>
  <trkpt lat="-13.16191" lon="-72.53689">
    <name>TP784</name>
  </trkpt>
  <trkpt lat="-13.16178" lon="-72.53688">
    <name>TP785</name>
  </trkpt>
  <trkpt lat="-13.16172" lon="-72.53685">
    <name>TP786</name>
  </trkpt>
  <trkpt lat="-13.16166" lon="-72.53682">
    <name>TP787</name>
  </trkpt>
  <trkpt lat="-13.16162" lon="-72.5368">
    <name>TP788</name>
  </trkpt>
  <trkpt lat="-13.16159" lon="-72.53679">
    <name>TP789</name>
  </trkpt>
  <trkpt lat="-13.16146" lon="-72.53672">
    <name>TP790</name>
  </trkpt>
  <trkpt lat="-13.16159" lon="-72.53644">
    <name>TP791</name>
  </trkpt>
  <trkpt lat="-13.16161" lon="-72.53636">
    <name>TP792</name>
  </trkpt>
  <trkpt lat="-13.16167" lon="-72.53619">
    <name>TP793</name>
  </trkpt>
  <trkpt lat="-13.16172" lon="-72.53602">
    <name>TP794</name>
  </trkpt>
  <trkpt lat="-13.16172" lon="-72.53601">
    <name>TP795</name>
  </trkpt>
  <trkpt lat="-13.16174" lon="-72.53583">
    <name>TP796</name>
  </trkpt>
  <trkpt lat="-13.16176" lon="-72.53565">
    <name>TP797</name>
  </trkpt>
  <trkpt lat="-13.16176" lon="-72.53564">
    <name>TP798</name>
  </trkpt>
  <trkpt lat="-13.16173" lon="-72.53531">
    <name>TP799</name>
  </trkpt>
  <trkpt lat="-13.16173" lon="-72.53527">
    <name>TP800</name>
  </trkpt>
  <trkpt lat="-13.16166" lon="-72.53491">
    <name>TP801</name>
  </trkpt>
  <trkpt lat="-13.16166" lon="-72.53489">
    <name>TP802</name>
  </trkpt>
  <trkpt lat="-13.16157" lon="-72.53452">
    <name>TP803</name>
  </trkpt>
  <trkpt lat="-13.16146" lon="-72.5342">
    <name>TP804</name>
  </trkpt>
  <trkpt lat="-13.16129" lon="-72.53392">
    <name>TP805</name>
  </trkpt>
  <trkpt lat="-13.16114" lon="-72.53376">
    <name>TP806</name>
  </trkpt>
  <trkpt lat="-13.161" lon="-72.53364">
    <name>TP807</name>
  </trkpt>
  <trkpt lat="-13.16099" lon="-72.53363">
    <name>TP808</name>
  </trkpt>
  <trkpt lat="-13.16087" lon="-72.53352">
    <name>TP809</name>
  </trkpt>
  <trkpt lat="-13.16086" lon="-72.53352">
    <name>TP810</name>
  </trkpt>
  <trkpt lat="-13.16075" lon="-72.53342">
    <name>TP811</name>
  </trkpt>
  <trkpt lat="-13.16072" lon="-72.53341">
    <name>TP812</name>
  </trkpt>
  <trkpt lat="-13.16056" lon="-72.53333">
    <name>TP813</name>
  </trkpt>
  <trkpt lat="-13.1604" lon="-72.53326">
    <name>TP814</name>
  </trkpt>
  <trkpt lat="-13.16027" lon="-72.5332">
    <name>TP815</name>
  </trkpt>
  <trkpt lat="-13.16023" lon="-72.53318">
    <name>TP816</name>
  </trkpt>
  <trkpt lat="-13.16007" lon="-72.5331">
    <name>TP817</name>
  </trkpt>
  <trkpt lat="-13.15975" lon="-72.53294">
    <name>TP818</name>
  </trkpt>
  <trkpt lat="-13.15952" lon="-72.53283">
    <name>TP819</name>
  </trkpt>
  <trkpt lat="-13.15942" lon="-72.53278">
    <name>TP820</name>
  </trkpt>
  <trkpt lat="-13.1591" lon="-72.53262">
    <name>TP821</name>
  </trkpt>
  <trkpt lat="-13.15874" lon="-72.53255">
    <name>TP822</name>
  </trkpt>
  <trkpt lat="-13.15842" lon="-72.53239">
    <name>TP823</name>
  </trkpt>
  <trkpt lat="-13.1583" lon="-72.53233">
    <name>TP824</name>
  </trkpt>
  <trkpt lat="-13.15826" lon="-72.53232">
    <name>TP825</name>
  </trkpt>
  <trkpt lat="-13.15791" lon="-72.53222">
    <name>TP826</name>
  </trkpt>
  <trkpt lat="-13.15789" lon="-72.53222">
    <name>TP827</name>
  </trkpt>
  <trkpt lat="-13.15741" lon="-72.53202">
    <name>TP828</name>
  </trkpt>
  <trkpt lat="-13.15732" lon="-72.53198">
    <name>TP829</name>
  </trkpt>
  <trkpt lat="-13.15693" lon="-72.53176">
    <name>TP830</name>
  </trkpt>
  <trkpt lat="-13.15662" lon="-72.53158">
    <name>TP831</name>
  </trkpt>
  <trkpt lat="-13.1566" lon="-72.53157">
    <name>TP832</name>
  </trkpt>
  <trkpt lat="-13.15643" lon="-72.53145">
    <name>TP833</name>
  </trkpt>
  <trkpt lat="-13.15633" lon="-72.53137">
    <name>TP834</name>
  </trkpt>
  <trkpt lat="-13.15623" lon="-72.53126">
    <name>TP835</name>
  </trkpt>
  <trkpt lat="-13.1561" lon="-72.53108">
    <name>TP836</name>
  </trkpt>
  <trkpt lat="-13.15608" lon="-72.53104">
    <name>TP837</name>
  </trkpt>
  <trkpt lat="-13.15589" lon="-72.53078">
    <name>TP838</name>
  </trkpt>
  <trkpt lat="-13.15586" lon="-72.53073">
    <name>TP839</name>
  </trkpt>
  <trkpt lat="-13.15566" lon="-72.53027">
    <name>TP840</name>
  </trkpt>
  <trkpt lat="-13.15565" lon="-72.53023">
    <name>TP841</name>
  </trkpt>
  <trkpt lat="-13.15552" lon="-72.52994">
    <name>TP842</name>
  </trkpt>
  <trkpt lat="-13.15549" lon="-72.52987">
    <name>TP843</name>
  </trkpt>
  <trkpt lat="-13.15543" lon="-72.52978">
    <name>TP844</name>
  </trkpt>
  <trkpt lat="-13.15534" lon="-72.52966">
    <name>TP845</name>
  </trkpt>
  <trkpt lat="-13.15514" lon="-72.52942">
    <name>TP846</name>
  </trkpt>
  <trkpt lat="-13.15508" lon="-72.52936">
    <name>TP847</name>
  </trkpt>
  <trkpt lat="-13.15478" lon="-72.52906">
    <name>TP848</name>
  </trkpt>
  <trkpt lat="-13.1547" lon="-72.52897">
    <name>TP849</name>
  </trkpt>
  <trkpt lat="-13.15464" lon="-72.5289">
    <name>TP850</name>
  </trkpt>
  <trkpt lat="-13.15458" lon="-72.52882">
    <name>TP851</name>
  </trkpt>
  <trkpt lat="-13.15454" lon="-72.52877">
    <name>TP852</name>
  </trkpt>
  <trkpt lat="-13.15445" lon="-72.52862">
    <name>TP853</name>
  </trkpt>
  <trkpt lat="-13.15437" lon="-72.52847">
    <name>TP854</name>
  </trkpt>
  <trkpt lat="-13.15428" lon="-72.52828">
    <name>TP855</name>
  </trkpt>
  <trkpt lat="-13.1542" lon="-72.52811">
    <name>TP856</name>
  </trkpt>
  <trkpt lat="-13.15418" lon="-72.52804">
    <name>TP857</name>
  </trkpt>
  <trkpt lat="-13.15416" lon="-72.52798">
    <name>TP858</name>
  </trkpt>
  <trkpt lat="-13.15416" lon="-72.52796">
    <name>TP859</name>
  </trkpt>
  <trkpt lat="-13.15416" lon="-72.5279">
    <name>TP860</name>
  </trkpt>
  <trkpt lat="-13.15417" lon="-72.52778">
    <name>TP861</name>
  </trkpt>
  <trkpt lat="-13.15423" lon="-72.52761">
    <name>TP862</name>
  </trkpt>
  <trkpt lat="-13.15423" lon="-72.52759">
    <name>TP863</name>
  </trkpt>
  <trkpt lat="-13.15428" lon="-72.52743">
    <name>TP864</name>
  </trkpt>
  <trkpt lat="-13.15431" lon="-72.52736">
    <name>TP865</name>
  </trkpt>
  <trkpt lat="-13.15436" lon="-72.52722">
    <name>TP866</name>
  </trkpt>
  <trkpt lat="-13.15436" lon="-72.52721">
    <name>TP867</name>
  </trkpt>
  <trkpt lat="-13.15447" lon="-72.52702">
    <name>TP868</name>
  </trkpt>
  <trkpt lat="-13.15456" lon="-72.52688">
    <name>TP869</name>
  </trkpt>
  <trkpt lat="-13.15465" lon="-72.52672">
    <name>TP870</name>
  </trkpt>
  <trkpt lat="-13.15475" lon="-72.52657">
    <name>TP871</name>
  </trkpt>
  <trkpt lat="-13.15481" lon="-72.52647">
    <name>TP872</name>
  </trkpt>
  <trkpt lat="-13.15484" lon="-72.52641">
    <name>TP873</name>
  </trkpt>
  <trkpt lat="-13.15488" lon="-72.52631">
    <name>TP874</name>
  </trkpt>
  <trkpt lat="-13.15492" lon="-72.52624">
    <name>TP875</name>
  </trkpt>
  <trkpt lat="-13.15497" lon="-72.52613">
    <name>TP876</name>
  </trkpt>
  <trkpt lat="-13.155" lon="-72.526">
    <name>TP877</name>
  </trkpt>
  <trkpt lat="-13.15502" lon="-72.52588">
    <name>TP878</name>
  </trkpt>
  <trkpt lat="-13.15502" lon="-72.5258">
    <name>TP879</name>
  </trkpt>
  <trkpt lat="-13.15503" lon="-72.52575">
    <name>TP880</name>
  </trkpt>
  <trkpt lat="-13.15503" lon="-72.52571">
    <name>TP881</name>
  </trkpt>
  <trkpt lat="-13.15503" lon="-72.52564">
    <name>TP882</name>
  </trkpt>
  <trkpt lat="-13.1550299" lon="-72.5256414">
    <name>TP883</name>
  </trkpt>
  <trkpt lat="-13.1550299" lon="-72.5256414">
    <name>TP884</name>
  </trkpt>
  <trkpt lat="-13.1550299" lon="-72.5256414">
    <name>TP885</name>
  </trkpt>
  </trkseg>
</trk>
</gpx>