<?xml version="1.0" encoding="UTF-8" standalone="no" ?>
<gpx xmlns="http://www.topografix.com/GPX/1/1" xmlns:gpxx="http://www.garmin.com/xmlschemas/GpxExtensions/v3" xmlns:gpxtpx="http://www.garmin.com/xmlschemas/TrackPointExtension/v1" creator="mapstogpx.com" version="1.1" xmlns:xsi="http://www.w3.org/2001/XMLSchema-instance" xsi:schemaLocation="http://www.topografix.com/GPX/1/1 http://www.topografix.com/GPX/1/1/gpx.xsd http://www.garmin.com/xmlschemas/GpxExtensions/v3 http://www.garmin.com/xmlschemas/GpxExtensionsv3.xsd http://www.garmin.com/xmlschemas/TrackPointExtension/v1 http://www.garmin.com/xmlschemas/TrackPointExtensionv1.xsd">
  <metadata>
    <link href="http://www.mapstogpx.com">
      <text>Sverrir Sigmundarson</text>
    </link>
    <!--desc>Map data ©2024 Google</desc-->
    <!--copyright author="Google Inc">
    	<year>2024</year>
    	<license>https://developers.google.com/maps/terms</license>
    </copyright-->
    <!--url>https://www.google.com/maps/dir/Jorge+Chavez+International+Airport+(LIM),+Av.+Elmer+Faucett+s%2Fn,+Callao+07031,+Peru/Viajero+Lima+-+Barranco+Hostels,+Avenida+Almirante+Miguel+Grau,+Barranco,+Peru/@-12.1453669,-77.035207,4156m/data=!3m1!1e3!4m14!4m13!1m5!1m1!1s0x9105cc3d52f51e01:0x1f75ae97fb12652c!2m2!1d-77.1079976!2d-12.0230437!1m5!1m1!1s0x9105b7f203f9d9f9:0xfe996953549e900b!2m2!1d-77.0213392!2d-12.1467742!3e0?entry=tts&g_ep=EgoyMDI0MTIxMS4wKgBIAVAD&hl=en</url-->
    <time>2024-12-19T18:39:51Z</time>
  </metadata>
  <wpt lat="-12.0230437" lon="-77.1079976">
    <name>Jorge Chavez International Airport (LIM)</name>
    <desc>Jorge Chavez International Airport, Av. Elmer Faucett s/n, Callao 07031, Peru</desc>
  </wpt>
  <wpt lat="-12.1467742" lon="-77.0213392">
    <name>Viajero Lima - Barranco Hostels</name>
    <desc>Kokopelli Hostel Barranco, Av. Almte. Miguel Grau 428, Barranco 15063, Peru</desc>
  </wpt>
<trk>
  <name>Jorge Chavez International Airport (LIM) to Viajero Lima - Barranco Hostels</name>
  <number>1</number>
  <trkseg>
  <trkpt lat="-12.02286" lon="-77.107604">
    <name>TP001</name>
  </trkpt>
  <trkpt lat="-12.0233" lon="-77.10739">
    <name>TP002</name>
  </trkpt>
  <trkpt lat="-12.0232974" lon="-77.1073906">
    <name>TP003</name>
  </trkpt>
  <trkpt lat="-12.02333" lon="-77.10728">
    <name>TP004</name>
  </trkpt>
  <trkpt lat="-12.02342" lon="-77.10724">
    <name>TP005</name>
  </trkpt>
  <trkpt lat="-12.02355" lon="-77.10717">
    <name>TP006</name>
  </trkpt>
  <trkpt lat="-12.02405" lon="-77.10693">
    <name>TP007</name>
  </trkpt>
  <trkpt lat="-12.02409" lon="-77.1069">
    <name>TP008</name>
  </trkpt>
  <trkpt lat="-12.02411" lon="-77.10688">
    <name>TP009</name>
  </trkpt>
  <trkpt lat="-12.02412" lon="-77.10686">
    <name>TP010</name>
  </trkpt>
  <trkpt lat="-12.02412" lon="-77.10685">
    <name>TP011</name>
  </trkpt>
  <trkpt lat="-12.02413" lon="-77.10683">
    <name>TP012</name>
  </trkpt>
  <trkpt lat="-12.02414" lon="-77.10681">
    <name>TP013</name>
  </trkpt>
  <trkpt lat="-12.02414" lon="-77.1068">
    <name>TP014</name>
  </trkpt>
  <trkpt lat="-12.02413" lon="-77.10678">
    <name>TP015</name>
  </trkpt>
  <trkpt lat="-12.02413" lon="-77.10676">
    <name>TP016</name>
  </trkpt>
  <trkpt lat="-12.02411" lon="-77.10672">
    <name>TP017</name>
  </trkpt>
  <trkpt lat="-12.02408" lon="-77.10666">
    <name>TP018</name>
  </trkpt>
  <trkpt lat="-12.02404" lon="-77.10657">
    <name>TP019</name>
  </trkpt>
  <trkpt lat="-12.02396" lon="-77.10641">
    <name>TP020</name>
  </trkpt>
  <trkpt lat="-12.023963" lon="-77.1064119">
    <name>TP021</name>
  </trkpt>
  <trkpt lat="-12.02347" lon="-77.1054">
    <name>TP022</name>
  </trkpt>
  <trkpt lat="-12.0234686" lon="-77.1054045">
    <name>TP023</name>
  </trkpt>
  <trkpt lat="-12.02355" lon="-77.10537">
    <name>TP024</name>
  </trkpt>
  <trkpt lat="-12.02374" lon="-77.10528">
    <name>TP025</name>
  </trkpt>
  <trkpt lat="-12.02398" lon="-77.10516">
    <name>TP026</name>
  </trkpt>
  <trkpt lat="-12.0247" lon="-77.10477">
    <name>TP027</name>
  </trkpt>
  <trkpt lat="-12.02489" lon="-77.10467">
    <name>TP028</name>
  </trkpt>
  <trkpt lat="-12.02555" lon="-77.10429">
    <name>TP029</name>
  </trkpt>
  <trkpt lat="-12.02725" lon="-77.10334">
    <name>TP030</name>
  </trkpt>
  <trkpt lat="-12.02779" lon="-77.10309">
    <name>TP031</name>
  </trkpt>
  <trkpt lat="-12.02817" lon="-77.10291">
    <name>TP032</name>
  </trkpt>
  <trkpt lat="-12.02901" lon="-77.10249">
    <name>TP033</name>
  </trkpt>
  <trkpt lat="-12.03021" lon="-77.10189">
    <name>TP034</name>
  </trkpt>
  <trkpt lat="-12.03037" lon="-77.10181">
    <name>TP035</name>
  </trkpt>
  <trkpt lat="-12.03099" lon="-77.1015">
    <name>TP036</name>
  </trkpt>
  <trkpt lat="-12.03111" lon="-77.10144">
    <name>TP037</name>
  </trkpt>
  <trkpt lat="-12.03131" lon="-77.10134">
    <name>TP038</name>
  </trkpt>
  <trkpt lat="-12.03163" lon="-77.10119">
    <name>TP039</name>
  </trkpt>
  <trkpt lat="-12.03198" lon="-77.10101">
    <name>TP040</name>
  </trkpt>
  <trkpt lat="-12.03226" lon="-77.10088">
    <name>TP041</name>
  </trkpt>
  <trkpt lat="-12.03253" lon="-77.10074">
    <name>TP042</name>
  </trkpt>
  <trkpt lat="-12.03277" lon="-77.10063">
    <name>TP043</name>
  </trkpt>
  <trkpt lat="-12.03288" lon="-77.10057">
    <name>TP044</name>
  </trkpt>
  <trkpt lat="-12.03312" lon="-77.10045">
    <name>TP045</name>
  </trkpt>
  <trkpt lat="-12.03342" lon="-77.10031">
    <name>TP046</name>
  </trkpt>
  <trkpt lat="-12.03369" lon="-77.10017">
    <name>TP047</name>
  </trkpt>
  <trkpt lat="-12.03389" lon="-77.10008">
    <name>TP048</name>
  </trkpt>
  <trkpt lat="-12.03408" lon="-77.09999">
    <name>TP049</name>
  </trkpt>
  <trkpt lat="-12.03429" lon="-77.09991">
    <name>TP050</name>
  </trkpt>
  <trkpt lat="-12.03458" lon="-77.09981">
    <name>TP051</name>
  </trkpt>
  <trkpt lat="-12.03483" lon="-77.09973">
    <name>TP052</name>
  </trkpt>
  <trkpt lat="-12.03516" lon="-77.09964">
    <name>TP053</name>
  </trkpt>
  <trkpt lat="-12.03542" lon="-77.09957">
    <name>TP054</name>
  </trkpt>
  <trkpt lat="-12.03568" lon="-77.0995">
    <name>TP055</name>
  </trkpt>
  <trkpt lat="-12.03581" lon="-77.09947">
    <name>TP056</name>
  </trkpt>
  <trkpt lat="-12.03589" lon="-77.09946">
    <name>TP057</name>
  </trkpt>
  <trkpt lat="-12.03594" lon="-77.09946">
    <name>TP058</name>
  </trkpt>
  <trkpt lat="-12.0361" lon="-77.09943">
    <name>TP059</name>
  </trkpt>
  <trkpt lat="-12.03616" lon="-77.09942">
    <name>TP060</name>
  </trkpt>
  <trkpt lat="-12.03634" lon="-77.09941">
    <name>TP061</name>
  </trkpt>
  <trkpt lat="-12.03659" lon="-77.0994">
    <name>TP062</name>
  </trkpt>
  <trkpt lat="-12.03673" lon="-77.09941">
    <name>TP063</name>
  </trkpt>
  <trkpt lat="-12.03699" lon="-77.09944">
    <name>TP064</name>
  </trkpt>
  <trkpt lat="-12.03726" lon="-77.09946">
    <name>TP065</name>
  </trkpt>
  <trkpt lat="-12.03755" lon="-77.09948">
    <name>TP066</name>
  </trkpt>
  <trkpt lat="-12.03759" lon="-77.09948">
    <name>TP067</name>
  </trkpt>
  <trkpt lat="-12.03768" lon="-77.09949">
    <name>TP068</name>
  </trkpt>
  <trkpt lat="-12.03775" lon="-77.09949">
    <name>TP069</name>
  </trkpt>
  <trkpt lat="-12.03781" lon="-77.09949">
    <name>TP070</name>
  </trkpt>
  <trkpt lat="-12.03785" lon="-77.09948">
    <name>TP071</name>
  </trkpt>
  <trkpt lat="-12.03878" lon="-77.09938">
    <name>TP072</name>
  </trkpt>
  <trkpt lat="-12.03901" lon="-77.09935">
    <name>TP073</name>
  </trkpt>
  <trkpt lat="-12.03919" lon="-77.09933">
    <name>TP074</name>
  </trkpt>
  <trkpt lat="-12.0395" lon="-77.09931">
    <name>TP075</name>
  </trkpt>
  <trkpt lat="-12.03968" lon="-77.0993">
    <name>TP076</name>
  </trkpt>
  <trkpt lat="-12.03986" lon="-77.09928">
    <name>TP077</name>
  </trkpt>
  <trkpt lat="-12.04001" lon="-77.09926">
    <name>TP078</name>
  </trkpt>
  <trkpt lat="-12.04023" lon="-77.09922">
    <name>TP079</name>
  </trkpt>
  <trkpt lat="-12.0402312" lon="-77.099222">
    <name>TP080</name>
  </trkpt>
  <trkpt lat="-12.04029" lon="-77.09938">
    <name>TP081</name>
  </trkpt>
  <trkpt lat="-12.04036" lon="-77.09959">
    <name>TP082</name>
  </trkpt>
  <trkpt lat="-12.04039" lon="-77.09968">
    <name>TP083</name>
  </trkpt>
  <trkpt lat="-12.04059" lon="-77.10034">
    <name>TP084</name>
  </trkpt>
  <trkpt lat="-12.04059" lon="-77.10036">
    <name>TP085</name>
  </trkpt>
  <trkpt lat="-12.04065" lon="-77.10054">
    <name>TP086</name>
  </trkpt>
  <trkpt lat="-12.04089" lon="-77.10135">
    <name>TP087</name>
  </trkpt>
  <trkpt lat="-12.041" lon="-77.10172">
    <name>TP088</name>
  </trkpt>
  <trkpt lat="-12.04112" lon="-77.10215">
    <name>TP089</name>
  </trkpt>
  <trkpt lat="-12.04118" lon="-77.10238">
    <name>TP090</name>
  </trkpt>
  <trkpt lat="-12.0412" lon="-77.10252">
    <name>TP091</name>
  </trkpt>
  <trkpt lat="-12.04149" lon="-77.10462">
    <name>TP092</name>
  </trkpt>
  <trkpt lat="-12.04161" lon="-77.10554">
    <name>TP093</name>
  </trkpt>
  <trkpt lat="-12.04172" lon="-77.10642">
    <name>TP094</name>
  </trkpt>
  <trkpt lat="-12.04181" lon="-77.10712">
    <name>TP095</name>
  </trkpt>
  <trkpt lat="-12.04187" lon="-77.10749">
    <name>TP096</name>
  </trkpt>
  <trkpt lat="-12.0419" lon="-77.10766">
    <name>TP097</name>
  </trkpt>
  <trkpt lat="-12.04191" lon="-77.10778">
    <name>TP098</name>
  </trkpt>
  <trkpt lat="-12.04193" lon="-77.10795">
    <name>TP099</name>
  </trkpt>
  <trkpt lat="-12.04197" lon="-77.10825">
    <name>TP100</name>
  </trkpt>
  <trkpt lat="-12.04198" lon="-77.10835">
    <name>TP101</name>
  </trkpt>
  <trkpt lat="-12.04198" lon="-77.10843">
    <name>TP102</name>
  </trkpt>
  <trkpt lat="-12.04199" lon="-77.10864">
    <name>TP103</name>
  </trkpt>
  <trkpt lat="-12.04199" lon="-77.10874">
    <name>TP104</name>
  </trkpt>
  <trkpt lat="-12.04199" lon="-77.1088">
    <name>TP105</name>
  </trkpt>
  <trkpt lat="-12.04199" lon="-77.10892">
    <name>TP106</name>
  </trkpt>
  <trkpt lat="-12.04198" lon="-77.10907">
    <name>TP107</name>
  </trkpt>
  <trkpt lat="-12.04197" lon="-77.1092">
    <name>TP108</name>
  </trkpt>
  <trkpt lat="-12.04177" lon="-77.11012">
    <name>TP109</name>
  </trkpt>
  <trkpt lat="-12.04161" lon="-77.11076">
    <name>TP110</name>
  </trkpt>
  <trkpt lat="-12.04148" lon="-77.11127">
    <name>TP111</name>
  </trkpt>
  <trkpt lat="-12.04133" lon="-77.11186">
    <name>TP112</name>
  </trkpt>
  <trkpt lat="-12.0412" lon="-77.11237">
    <name>TP113</name>
  </trkpt>
  <trkpt lat="-12.04106" lon="-77.11294">
    <name>TP114</name>
  </trkpt>
  <trkpt lat="-12.04091" lon="-77.11348">
    <name>TP115</name>
  </trkpt>
  <trkpt lat="-12.0408" lon="-77.11398">
    <name>TP116</name>
  </trkpt>
  <trkpt lat="-12.04079" lon="-77.11401">
    <name>TP117</name>
  </trkpt>
  <trkpt lat="-12.04056" lon="-77.11484">
    <name>TP118</name>
  </trkpt>
  <trkpt lat="-12.04047" lon="-77.11519">
    <name>TP119</name>
  </trkpt>
  <trkpt lat="-12.04045" lon="-77.11525">
    <name>TP120</name>
  </trkpt>
  <trkpt lat="-12.04031" lon="-77.11585">
    <name>TP121</name>
  </trkpt>
  <trkpt lat="-12.0403102" lon="-77.1158453">
    <name>TP122</name>
  </trkpt>
  <trkpt lat="-12.04029" lon="-77.11599">
    <name>TP123</name>
  </trkpt>
  <trkpt lat="-12.04038" lon="-77.11601">
    <name>TP124</name>
  </trkpt>
  <trkpt lat="-12.04053" lon="-77.11602">
    <name>TP125</name>
  </trkpt>
  <trkpt lat="-12.04088" lon="-77.11601">
    <name>TP126</name>
  </trkpt>
  <trkpt lat="-12.04124" lon="-77.11599">
    <name>TP127</name>
  </trkpt>
  <trkpt lat="-12.04172" lon="-77.11595">
    <name>TP128</name>
  </trkpt>
  <trkpt lat="-12.04183" lon="-77.11595">
    <name>TP129</name>
  </trkpt>
  <trkpt lat="-12.04196" lon="-77.11595">
    <name>TP130</name>
  </trkpt>
  <trkpt lat="-12.04219" lon="-77.11594">
    <name>TP131</name>
  </trkpt>
  <trkpt lat="-12.04235" lon="-77.11593">
    <name>TP132</name>
  </trkpt>
  <trkpt lat="-12.04241" lon="-77.11593">
    <name>TP133</name>
  </trkpt>
  <trkpt lat="-12.04258" lon="-77.11591">
    <name>TP134</name>
  </trkpt>
  <trkpt lat="-12.0427" lon="-77.1159">
    <name>TP135</name>
  </trkpt>
  <trkpt lat="-12.0432" lon="-77.11588">
    <name>TP136</name>
  </trkpt>
  <trkpt lat="-12.0439" lon="-77.11585">
    <name>TP137</name>
  </trkpt>
  <trkpt lat="-12.04407" lon="-77.11584">
    <name>TP138</name>
  </trkpt>
  <trkpt lat="-12.04556" lon="-77.11578">
    <name>TP139</name>
  </trkpt>
  <trkpt lat="-12.0458" lon="-77.11576">
    <name>TP140</name>
  </trkpt>
  <trkpt lat="-12.04596" lon="-77.11573">
    <name>TP141</name>
  </trkpt>
  <trkpt lat="-12.0459622" lon="-77.1157293">
    <name>TP142</name>
  </trkpt>
  <trkpt lat="-12.04602" lon="-77.11569">
    <name>TP143</name>
  </trkpt>
  <trkpt lat="-12.04608" lon="-77.11566">
    <name>TP144</name>
  </trkpt>
  <trkpt lat="-12.04624" lon="-77.11563">
    <name>TP145</name>
  </trkpt>
  <trkpt lat="-12.04654" lon="-77.11558">
    <name>TP146</name>
  </trkpt>
  <trkpt lat="-12.04664" lon="-77.11557">
    <name>TP147</name>
  </trkpt>
  <trkpt lat="-12.0466358" lon="-77.1155718">
    <name>TP148</name>
  </trkpt>
  <trkpt lat="-12.04666" lon="-77.11557">
    <name>TP149</name>
  </trkpt>
  <trkpt lat="-12.04677" lon="-77.11555">
    <name>TP150</name>
  </trkpt>
  <trkpt lat="-12.04733" lon="-77.11549">
    <name>TP151</name>
  </trkpt>
  <trkpt lat="-12.04744" lon="-77.11547">
    <name>TP152</name>
  </trkpt>
  <trkpt lat="-12.04747" lon="-77.11547">
    <name>TP153</name>
  </trkpt>
  <trkpt lat="-12.0474731" lon="-77.1154695">
    <name>TP154</name>
  </trkpt>
  <trkpt lat="-12.04757" lon="-77.11546">
    <name>TP155</name>
  </trkpt>
  <trkpt lat="-12.04766" lon="-77.11545">
    <name>TP156</name>
  </trkpt>
  <trkpt lat="-12.04804" lon="-77.11541">
    <name>TP157</name>
  </trkpt>
  <trkpt lat="-12.04805" lon="-77.11541">
    <name>TP158</name>
  </trkpt>
  <trkpt lat="-12.04807" lon="-77.1154">
    <name>TP159</name>
  </trkpt>
  <trkpt lat="-12.04818" lon="-77.11539">
    <name>TP160</name>
  </trkpt>
  <trkpt lat="-12.04858" lon="-77.11536">
    <name>TP161</name>
  </trkpt>
  <trkpt lat="-12.04869" lon="-77.11536">
    <name>TP162</name>
  </trkpt>
  <trkpt lat="-12.0486907" lon="-77.1153552">
    <name>TP163</name>
  </trkpt>
  <trkpt lat="-12.04871" lon="-77.11535">
    <name>TP164</name>
  </trkpt>
  <trkpt lat="-12.04882" lon="-77.11534">
    <name>TP165</name>
  </trkpt>
  <trkpt lat="-12.04898" lon="-77.11534">
    <name>TP166</name>
  </trkpt>
  <trkpt lat="-12.04918" lon="-77.11533">
    <name>TP167</name>
  </trkpt>
  <trkpt lat="-12.04975" lon="-77.1153">
    <name>TP168</name>
  </trkpt>
  <trkpt lat="-12.04986" lon="-77.1153">
    <name>TP169</name>
  </trkpt>
  <trkpt lat="-12.04997" lon="-77.11529">
    <name>TP170</name>
  </trkpt>
  <trkpt lat="-12.05102" lon="-77.1152">
    <name>TP171</name>
  </trkpt>
  <trkpt lat="-12.05197" lon="-77.11512">
    <name>TP172</name>
  </trkpt>
  <trkpt lat="-12.05209" lon="-77.11511">
    <name>TP173</name>
  </trkpt>
  <trkpt lat="-12.0526" lon="-77.11507">
    <name>TP174</name>
  </trkpt>
  <trkpt lat="-12.05263" lon="-77.11507">
    <name>TP175</name>
  </trkpt>
  <trkpt lat="-12.05267" lon="-77.11508">
    <name>TP176</name>
  </trkpt>
  <trkpt lat="-12.0527" lon="-77.11508">
    <name>TP177</name>
  </trkpt>
  <trkpt lat="-12.05272" lon="-77.11508">
    <name>TP178</name>
  </trkpt>
  <trkpt lat="-12.05275" lon="-77.11509">
    <name>TP179</name>
  </trkpt>
  <trkpt lat="-12.05277" lon="-77.1151">
    <name>TP180</name>
  </trkpt>
  <trkpt lat="-12.0529" lon="-77.11514">
    <name>TP181</name>
  </trkpt>
  <trkpt lat="-12.05297" lon="-77.11516">
    <name>TP182</name>
  </trkpt>
  <trkpt lat="-12.053" lon="-77.11517">
    <name>TP183</name>
  </trkpt>
  <trkpt lat="-12.05303" lon="-77.11517">
    <name>TP184</name>
  </trkpt>
  <trkpt lat="-12.05307" lon="-77.11517">
    <name>TP185</name>
  </trkpt>
  <trkpt lat="-12.05311" lon="-77.11517">
    <name>TP186</name>
  </trkpt>
  <trkpt lat="-12.05346" lon="-77.11513">
    <name>TP187</name>
  </trkpt>
  <trkpt lat="-12.0534607" lon="-77.1151313">
    <name>TP188</name>
  </trkpt>
  <trkpt lat="-12.05346" lon="-77.11529">
    <name>TP189</name>
  </trkpt>
  <trkpt lat="-12.05355" lon="-77.11528">
    <name>TP190</name>
  </trkpt>
  <trkpt lat="-12.05374" lon="-77.11526">
    <name>TP191</name>
  </trkpt>
  <trkpt lat="-12.05392" lon="-77.11524">
    <name>TP192</name>
  </trkpt>
  <trkpt lat="-12.05406" lon="-77.11522">
    <name>TP193</name>
  </trkpt>
  <trkpt lat="-12.05433" lon="-77.1152">
    <name>TP194</name>
  </trkpt>
  <trkpt lat="-12.05466" lon="-77.11517">
    <name>TP195</name>
  </trkpt>
  <trkpt lat="-12.05584" lon="-77.11507">
    <name>TP196</name>
  </trkpt>
  <trkpt lat="-12.0558381" lon="-77.11507">
    <name>TP197</name>
  </trkpt>
  <trkpt lat="-12.05583" lon="-77.11494">
    <name>TP198</name>
  </trkpt>
  <trkpt lat="-12.05628" lon="-77.1149">
    <name>TP199</name>
  </trkpt>
  <trkpt lat="-12.05688" lon="-77.11482">
    <name>TP200</name>
  </trkpt>
  <trkpt lat="-12.057" lon="-77.1148">
    <name>TP201</name>
  </trkpt>
  <trkpt lat="-12.05787" lon="-77.11475">
    <name>TP202</name>
  </trkpt>
  <trkpt lat="-12.05818" lon="-77.11472">
    <name>TP203</name>
  </trkpt>
  <trkpt lat="-12.0583" lon="-77.11471">
    <name>TP204</name>
  </trkpt>
  <trkpt lat="-12.05846" lon="-77.1147">
    <name>TP205</name>
  </trkpt>
  <trkpt lat="-12.05857" lon="-77.1147">
    <name>TP206</name>
  </trkpt>
  <trkpt lat="-12.05869" lon="-77.11471">
    <name>TP207</name>
  </trkpt>
  <trkpt lat="-12.05882" lon="-77.11473">
    <name>TP208</name>
  </trkpt>
  <trkpt lat="-12.05893" lon="-77.11476">
    <name>TP209</name>
  </trkpt>
  <trkpt lat="-12.05906" lon="-77.1148">
    <name>TP210</name>
  </trkpt>
  <trkpt lat="-12.05919" lon="-77.11485">
    <name>TP211</name>
  </trkpt>
  <trkpt lat="-12.05929" lon="-77.11491">
    <name>TP212</name>
  </trkpt>
  <trkpt lat="-12.05932" lon="-77.11492">
    <name>TP213</name>
  </trkpt>
  <trkpt lat="-12.05947" lon="-77.11502">
    <name>TP214</name>
  </trkpt>
  <trkpt lat="-12.05966" lon="-77.11517">
    <name>TP215</name>
  </trkpt>
  <trkpt lat="-12.05995" lon="-77.11539">
    <name>TP216</name>
  </trkpt>
  <trkpt lat="-12.06032" lon="-77.11565">
    <name>TP217</name>
  </trkpt>
  <trkpt lat="-12.0604" lon="-77.11571">
    <name>TP218</name>
  </trkpt>
  <trkpt lat="-12.06055" lon="-77.11582">
    <name>TP219</name>
  </trkpt>
  <trkpt lat="-12.06078" lon="-77.11598">
    <name>TP220</name>
  </trkpt>
  <trkpt lat="-12.0627" lon="-77.11742">
    <name>TP221</name>
  </trkpt>
  <trkpt lat="-12.0635" lon="-77.11801">
    <name>TP222</name>
  </trkpt>
  <trkpt lat="-12.06437" lon="-77.11867">
    <name>TP223</name>
  </trkpt>
  <trkpt lat="-12.06465" lon="-77.11889">
    <name>TP224</name>
  </trkpt>
  <trkpt lat="-12.06473" lon="-77.11897">
    <name>TP225</name>
  </trkpt>
  <trkpt lat="-12.06477" lon="-77.11903">
    <name>TP226</name>
  </trkpt>
  <trkpt lat="-12.0648" lon="-77.11909">
    <name>TP227</name>
  </trkpt>
  <trkpt lat="-12.06482" lon="-77.11916">
    <name>TP228</name>
  </trkpt>
  <trkpt lat="-12.06483" lon="-77.11928">
    <name>TP229</name>
  </trkpt>
  <trkpt lat="-12.0648253" lon="-77.1192805">
    <name>TP230</name>
  </trkpt>
  <trkpt lat="-12.06481" lon="-77.11932">
    <name>TP231</name>
  </trkpt>
  <trkpt lat="-12.0648" lon="-77.11937">
    <name>TP232</name>
  </trkpt>
  <trkpt lat="-12.06479" lon="-77.11941">
    <name>TP233</name>
  </trkpt>
  <trkpt lat="-12.06479" lon="-77.11946">
    <name>TP234</name>
  </trkpt>
  <trkpt lat="-12.06478" lon="-77.1195">
    <name>TP235</name>
  </trkpt>
  <trkpt lat="-12.06478" lon="-77.11955">
    <name>TP236</name>
  </trkpt>
  <trkpt lat="-12.06478" lon="-77.1196">
    <name>TP237</name>
  </trkpt>
  <trkpt lat="-12.06478" lon="-77.11964">
    <name>TP238</name>
  </trkpt>
  <trkpt lat="-12.06481" lon="-77.1197">
    <name>TP239</name>
  </trkpt>
  <trkpt lat="-12.06484" lon="-77.11975">
    <name>TP240</name>
  </trkpt>
  <trkpt lat="-12.06487" lon="-77.1198">
    <name>TP241</name>
  </trkpt>
  <trkpt lat="-12.06492" lon="-77.11984">
    <name>TP242</name>
  </trkpt>
  <trkpt lat="-12.06496" lon="-77.11988">
    <name>TP243</name>
  </trkpt>
  <trkpt lat="-12.06502" lon="-77.11991">
    <name>TP244</name>
  </trkpt>
  <trkpt lat="-12.06507" lon="-77.11993">
    <name>TP245</name>
  </trkpt>
  <trkpt lat="-12.06513" lon="-77.11995">
    <name>TP246</name>
  </trkpt>
  <trkpt lat="-12.06514" lon="-77.11995">
    <name>TP247</name>
  </trkpt>
  <trkpt lat="-12.06515" lon="-77.11995">
    <name>TP248</name>
  </trkpt>
  <trkpt lat="-12.06516" lon="-77.11995">
    <name>TP249</name>
  </trkpt>
  <trkpt lat="-12.06517" lon="-77.11995">
    <name>TP250</name>
  </trkpt>
  <trkpt lat="-12.06518" lon="-77.11995">
    <name>TP251</name>
  </trkpt>
  <trkpt lat="-12.06519" lon="-77.11995">
    <name>TP252</name>
  </trkpt>
  <trkpt lat="-12.0652" lon="-77.11995">
    <name>TP253</name>
  </trkpt>
  <trkpt lat="-12.06523" lon="-77.11995">
    <name>TP254</name>
  </trkpt>
  <trkpt lat="-12.06533" lon="-77.11993">
    <name>TP255</name>
  </trkpt>
  <trkpt lat="-12.06539" lon="-77.11991">
    <name>TP256</name>
  </trkpt>
  <trkpt lat="-12.06545" lon="-77.11988">
    <name>TP257</name>
  </trkpt>
  <trkpt lat="-12.0655" lon="-77.11985">
    <name>TP258</name>
  </trkpt>
  <trkpt lat="-12.06554" lon="-77.11981">
    <name>TP259</name>
  </trkpt>
  <trkpt lat="-12.06561" lon="-77.11973">
    <name>TP260</name>
  </trkpt>
  <trkpt lat="-12.06563" lon="-77.11972">
    <name>TP261</name>
  </trkpt>
  <trkpt lat="-12.06564" lon="-77.1197">
    <name>TP262</name>
  </trkpt>
  <trkpt lat="-12.06565" lon="-77.11969">
    <name>TP263</name>
  </trkpt>
  <trkpt lat="-12.06567" lon="-77.11967">
    <name>TP264</name>
  </trkpt>
  <trkpt lat="-12.06568" lon="-77.11966">
    <name>TP265</name>
  </trkpt>
  <trkpt lat="-12.06569" lon="-77.11964">
    <name>TP266</name>
  </trkpt>
  <trkpt lat="-12.0657" lon="-77.11963">
    <name>TP267</name>
  </trkpt>
  <trkpt lat="-12.06572" lon="-77.11961">
    <name>TP268</name>
  </trkpt>
  <trkpt lat="-12.0658" lon="-77.11956">
    <name>TP269</name>
  </trkpt>
  <trkpt lat="-12.06584" lon="-77.11955">
    <name>TP270</name>
  </trkpt>
  <trkpt lat="-12.06588" lon="-77.11955">
    <name>TP271</name>
  </trkpt>
  <trkpt lat="-12.06592" lon="-77.11955">
    <name>TP272</name>
  </trkpt>
  <trkpt lat="-12.06596" lon="-77.11956">
    <name>TP273</name>
  </trkpt>
  <trkpt lat="-12.0664" lon="-77.11982">
    <name>TP274</name>
  </trkpt>
  <trkpt lat="-12.06747" lon="-77.12041">
    <name>TP275</name>
  </trkpt>
  <trkpt lat="-12.06755" lon="-77.12046">
    <name>TP276</name>
  </trkpt>
  <trkpt lat="-12.06785" lon="-77.12063">
    <name>TP277</name>
  </trkpt>
  <trkpt lat="-12.06792" lon="-77.12067">
    <name>TP278</name>
  </trkpt>
  <trkpt lat="-12.06798" lon="-77.12072">
    <name>TP279</name>
  </trkpt>
  <trkpt lat="-12.06871" lon="-77.12113">
    <name>TP280</name>
  </trkpt>
  <trkpt lat="-12.06948" lon="-77.12157">
    <name>TP281</name>
  </trkpt>
  <trkpt lat="-12.06953" lon="-77.1216">
    <name>TP282</name>
  </trkpt>
  <trkpt lat="-12.0696" lon="-77.12164">
    <name>TP283</name>
  </trkpt>
  <trkpt lat="-12.07033" lon="-77.12206">
    <name>TP284</name>
  </trkpt>
  <trkpt lat="-12.07111" lon="-77.12251">
    <name>TP285</name>
  </trkpt>
  <trkpt lat="-12.07188" lon="-77.12291">
    <name>TP286</name>
  </trkpt>
  <trkpt lat="-12.07193" lon="-77.12294">
    <name>TP287</name>
  </trkpt>
  <trkpt lat="-12.07198" lon="-77.12298">
    <name>TP288</name>
  </trkpt>
  <trkpt lat="-12.07258" lon="-77.12329">
    <name>TP289</name>
  </trkpt>
  <trkpt lat="-12.07264" lon="-77.12333">
    <name>TP290</name>
  </trkpt>
  <trkpt lat="-12.0726355" lon="-77.1233259">
    <name>TP291</name>
  </trkpt>
  <trkpt lat="-12.07271" lon="-77.12335">
    <name>TP292</name>
  </trkpt>
  <trkpt lat="-12.07302" lon="-77.12352">
    <name>TP293</name>
  </trkpt>
  <trkpt lat="-12.07339" lon="-77.12374">
    <name>TP294</name>
  </trkpt>
  <trkpt lat="-12.0733931" lon="-77.1237381">
    <name>TP295</name>
  </trkpt>
  <trkpt lat="-12.07353" lon="-77.12379">
    <name>TP296</name>
  </trkpt>
  <trkpt lat="-12.07368" lon="-77.12383">
    <name>TP297</name>
  </trkpt>
  <trkpt lat="-12.07377" lon="-77.12383">
    <name>TP298</name>
  </trkpt>
  <trkpt lat="-12.0738" lon="-77.12383">
    <name>TP299</name>
  </trkpt>
  <trkpt lat="-12.07385" lon="-77.12383">
    <name>TP300</name>
  </trkpt>
  <trkpt lat="-12.07396" lon="-77.1238">
    <name>TP301</name>
  </trkpt>
  <trkpt lat="-12.07409" lon="-77.12372">
    <name>TP302</name>
  </trkpt>
  <trkpt lat="-12.07416" lon="-77.12363">
    <name>TP303</name>
  </trkpt>
  <trkpt lat="-12.07419" lon="-77.12358">
    <name>TP304</name>
  </trkpt>
  <trkpt lat="-12.07425" lon="-77.12346">
    <name>TP305</name>
  </trkpt>
  <trkpt lat="-12.07451" lon="-77.1229">
    <name>TP306</name>
  </trkpt>
  <trkpt lat="-12.07478" lon="-77.12229">
    <name>TP307</name>
  </trkpt>
  <trkpt lat="-12.07482" lon="-77.12223">
    <name>TP308</name>
  </trkpt>
  <trkpt lat="-12.07494" lon="-77.12197">
    <name>TP309</name>
  </trkpt>
  <trkpt lat="-12.07501" lon="-77.12185">
    <name>TP310</name>
  </trkpt>
  <trkpt lat="-12.07512" lon="-77.12171">
    <name>TP311</name>
  </trkpt>
  <trkpt lat="-12.07534" lon="-77.12124">
    <name>TP312</name>
  </trkpt>
  <trkpt lat="-12.07548" lon="-77.12081">
    <name>TP313</name>
  </trkpt>
  <trkpt lat="-12.07549" lon="-77.12079">
    <name>TP314</name>
  </trkpt>
  <trkpt lat="-12.0755" lon="-77.12076">
    <name>TP315</name>
  </trkpt>
  <trkpt lat="-12.07569" lon="-77.12018">
    <name>TP316</name>
  </trkpt>
  <trkpt lat="-12.07593" lon="-77.1196">
    <name>TP317</name>
  </trkpt>
  <trkpt lat="-12.07598" lon="-77.11949">
    <name>TP318</name>
  </trkpt>
  <trkpt lat="-12.07616" lon="-77.11907">
    <name>TP319</name>
  </trkpt>
  <trkpt lat="-12.07648" lon="-77.11828">
    <name>TP320</name>
  </trkpt>
  <trkpt lat="-12.07648" lon="-77.11827">
    <name>TP321</name>
  </trkpt>
  <trkpt lat="-12.07654" lon="-77.11813">
    <name>TP322</name>
  </trkpt>
  <trkpt lat="-12.07669" lon="-77.11777">
    <name>TP323</name>
  </trkpt>
  <trkpt lat="-12.07676" lon="-77.1176">
    <name>TP324</name>
  </trkpt>
  <trkpt lat="-12.07683" lon="-77.11743">
    <name>TP325</name>
  </trkpt>
  <trkpt lat="-12.07738" lon="-77.11628">
    <name>TP326</name>
  </trkpt>
  <trkpt lat="-12.07791" lon="-77.11511">
    <name>TP327</name>
  </trkpt>
  <trkpt lat="-12.07837" lon="-77.11409">
    <name>TP328</name>
  </trkpt>
  <trkpt lat="-12.07897" lon="-77.11281">
    <name>TP329</name>
  </trkpt>
  <trkpt lat="-12.07946" lon="-77.11166">
    <name>TP330</name>
  </trkpt>
  <trkpt lat="-12.07963" lon="-77.11127">
    <name>TP331</name>
  </trkpt>
  <trkpt lat="-12.07974" lon="-77.11101">
    <name>TP332</name>
  </trkpt>
  <trkpt lat="-12.07999" lon="-77.11054">
    <name>TP333</name>
  </trkpt>
  <trkpt lat="-12.08022" lon="-77.11013">
    <name>TP334</name>
  </trkpt>
  <trkpt lat="-12.08039" lon="-77.10984">
    <name>TP335</name>
  </trkpt>
  <trkpt lat="-12.08053" lon="-77.10962">
    <name>TP336</name>
  </trkpt>
  <trkpt lat="-12.08067" lon="-77.1094">
    <name>TP337</name>
  </trkpt>
  <trkpt lat="-12.08093" lon="-77.10899">
    <name>TP338</name>
  </trkpt>
  <trkpt lat="-12.08113" lon="-77.10867">
    <name>TP339</name>
  </trkpt>
  <trkpt lat="-12.08135" lon="-77.10834">
    <name>TP340</name>
  </trkpt>
  <trkpt lat="-12.08158" lon="-77.10799">
    <name>TP341</name>
  </trkpt>
  <trkpt lat="-12.08208" lon="-77.10723">
    <name>TP342</name>
  </trkpt>
  <trkpt lat="-12.08225" lon="-77.10694">
    <name>TP343</name>
  </trkpt>
  <trkpt lat="-12.08247" lon="-77.1066">
    <name>TP344</name>
  </trkpt>
  <trkpt lat="-12.08286" lon="-77.106">
    <name>TP345</name>
  </trkpt>
  <trkpt lat="-12.08287" lon="-77.10599">
    <name>TP346</name>
  </trkpt>
  <trkpt lat="-12.0829" lon="-77.10593">
    <name>TP347</name>
  </trkpt>
  <trkpt lat="-12.08296" lon="-77.10584">
    <name>TP348</name>
  </trkpt>
  <trkpt lat="-12.08314" lon="-77.10557">
    <name>TP349</name>
  </trkpt>
  <trkpt lat="-12.08332" lon="-77.1053">
    <name>TP350</name>
  </trkpt>
  <trkpt lat="-12.08358" lon="-77.10488">
    <name>TP351</name>
  </trkpt>
  <trkpt lat="-12.08398" lon="-77.10421">
    <name>TP352</name>
  </trkpt>
  <trkpt lat="-12.08415" lon="-77.10389">
    <name>TP353</name>
  </trkpt>
  <trkpt lat="-12.08424" lon="-77.10369">
    <name>TP354</name>
  </trkpt>
  <trkpt lat="-12.08483" lon="-77.10228">
    <name>TP355</name>
  </trkpt>
  <trkpt lat="-12.08561" lon="-77.09974">
    <name>TP356</name>
  </trkpt>
  <trkpt lat="-12.08576" lon="-77.09937">
    <name>TP357</name>
  </trkpt>
  <trkpt lat="-12.08577" lon="-77.09932">
    <name>TP358</name>
  </trkpt>
  <trkpt lat="-12.0858" lon="-77.09924">
    <name>TP359</name>
  </trkpt>
  <trkpt lat="-12.08587" lon="-77.099">
    <name>TP360</name>
  </trkpt>
  <trkpt lat="-12.08593" lon="-77.09884">
    <name>TP361</name>
  </trkpt>
  <trkpt lat="-12.08607" lon="-77.09847">
    <name>TP362</name>
  </trkpt>
  <trkpt lat="-12.08618" lon="-77.09817">
    <name>TP363</name>
  </trkpt>
  <trkpt lat="-12.0864" lon="-77.0977">
    <name>TP364</name>
  </trkpt>
  <trkpt lat="-12.08649" lon="-77.09753">
    <name>TP365</name>
  </trkpt>
  <trkpt lat="-12.0867" lon="-77.09713">
    <name>TP366</name>
  </trkpt>
  <trkpt lat="-12.08678" lon="-77.09696">
    <name>TP367</name>
  </trkpt>
  <trkpt lat="-12.08718" lon="-77.09629">
    <name>TP368</name>
  </trkpt>
  <trkpt lat="-12.08776" lon="-77.09528">
    <name>TP369</name>
  </trkpt>
  <trkpt lat="-12.08824" lon="-77.09443">
    <name>TP370</name>
  </trkpt>
  <trkpt lat="-12.08836" lon="-77.09417">
    <name>TP371</name>
  </trkpt>
  <trkpt lat="-12.08848" lon="-77.0939">
    <name>TP372</name>
  </trkpt>
  <trkpt lat="-12.08865" lon="-77.09349">
    <name>TP373</name>
  </trkpt>
  <trkpt lat="-12.08972" lon="-77.09048">
    <name>TP374</name>
  </trkpt>
  <trkpt lat="-12.08981" lon="-77.09023">
    <name>TP375</name>
  </trkpt>
  <trkpt lat="-12.08998" lon="-77.08971">
    <name>TP376</name>
  </trkpt>
  <trkpt lat="-12.09006" lon="-77.08947">
    <name>TP377</name>
  </trkpt>
  <trkpt lat="-12.0901" lon="-77.08936">
    <name>TP378</name>
  </trkpt>
  <trkpt lat="-12.09028" lon="-77.08884">
    <name>TP379</name>
  </trkpt>
  <trkpt lat="-12.09034" lon="-77.08867">
    <name>TP380</name>
  </trkpt>
  <trkpt lat="-12.09041" lon="-77.0885">
    <name>TP381</name>
  </trkpt>
  <trkpt lat="-12.09048" lon="-77.08833">
    <name>TP382</name>
  </trkpt>
  <trkpt lat="-12.09056" lon="-77.08813">
    <name>TP383</name>
  </trkpt>
  <trkpt lat="-12.09072" lon="-77.08783">
    <name>TP384</name>
  </trkpt>
  <trkpt lat="-12.09092" lon="-77.08742">
    <name>TP385</name>
  </trkpt>
  <trkpt lat="-12.09109" lon="-77.08716">
    <name>TP386</name>
  </trkpt>
  <trkpt lat="-12.09111" lon="-77.08711">
    <name>TP387</name>
  </trkpt>
  <trkpt lat="-12.09121" lon="-77.08695">
    <name>TP388</name>
  </trkpt>
  <trkpt lat="-12.0913" lon="-77.08679">
    <name>TP389</name>
  </trkpt>
  <trkpt lat="-12.09132" lon="-77.08677">
    <name>TP390</name>
  </trkpt>
  <trkpt lat="-12.09135" lon="-77.08672">
    <name>TP391</name>
  </trkpt>
  <trkpt lat="-12.09148" lon="-77.08649">
    <name>TP392</name>
  </trkpt>
  <trkpt lat="-12.09156" lon="-77.08634">
    <name>TP393</name>
  </trkpt>
  <trkpt lat="-12.09164" lon="-77.08616">
    <name>TP394</name>
  </trkpt>
  <trkpt lat="-12.09171" lon="-77.086">
    <name>TP395</name>
  </trkpt>
  <trkpt lat="-12.09179" lon="-77.08576">
    <name>TP396</name>
  </trkpt>
  <trkpt lat="-12.0919" lon="-77.08543">
    <name>TP397</name>
  </trkpt>
  <trkpt lat="-12.09199" lon="-77.08514">
    <name>TP398</name>
  </trkpt>
  <trkpt lat="-12.09206" lon="-77.08483">
    <name>TP399</name>
  </trkpt>
  <trkpt lat="-12.09212" lon="-77.08455">
    <name>TP400</name>
  </trkpt>
  <trkpt lat="-12.09218" lon="-77.08428">
    <name>TP401</name>
  </trkpt>
  <trkpt lat="-12.09219" lon="-77.08421">
    <name>TP402</name>
  </trkpt>
  <trkpt lat="-12.09223" lon="-77.08397">
    <name>TP403</name>
  </trkpt>
  <trkpt lat="-12.09232" lon="-77.08373">
    <name>TP404</name>
  </trkpt>
  <trkpt lat="-12.09242" lon="-77.08347">
    <name>TP405</name>
  </trkpt>
  <trkpt lat="-12.09296" lon="-77.08244">
    <name>TP406</name>
  </trkpt>
  <trkpt lat="-12.093" lon="-77.08235">
    <name>TP407</name>
  </trkpt>
  <trkpt lat="-12.09325" lon="-77.08188">
    <name>TP408</name>
  </trkpt>
  <trkpt lat="-12.09327" lon="-77.08183">
    <name>TP409</name>
  </trkpt>
  <trkpt lat="-12.09334" lon="-77.08172">
    <name>TP410</name>
  </trkpt>
  <trkpt lat="-12.09349" lon="-77.08145">
    <name>TP411</name>
  </trkpt>
  <trkpt lat="-12.09369" lon="-77.08113">
    <name>TP412</name>
  </trkpt>
  <trkpt lat="-12.0939" lon="-77.08081">
    <name>TP413</name>
  </trkpt>
  <trkpt lat="-12.09418" lon="-77.08038">
    <name>TP414</name>
  </trkpt>
  <trkpt lat="-12.09419" lon="-77.08037">
    <name>TP415</name>
  </trkpt>
  <trkpt lat="-12.09434" lon="-77.08013">
    <name>TP416</name>
  </trkpt>
  <trkpt lat="-12.09446" lon="-77.07989">
    <name>TP417</name>
  </trkpt>
  <trkpt lat="-12.09455" lon="-77.0797">
    <name>TP418</name>
  </trkpt>
  <trkpt lat="-12.09467" lon="-77.07944">
    <name>TP419</name>
  </trkpt>
  <trkpt lat="-12.09487" lon="-77.07901">
    <name>TP420</name>
  </trkpt>
  <trkpt lat="-12.09506" lon="-77.07858">
    <name>TP421</name>
  </trkpt>
  <trkpt lat="-12.09514" lon="-77.07841">
    <name>TP422</name>
  </trkpt>
  <trkpt lat="-12.09538" lon="-77.07793">
    <name>TP423</name>
  </trkpt>
  <trkpt lat="-12.0954" lon="-77.07789">
    <name>TP424</name>
  </trkpt>
  <trkpt lat="-12.09554" lon="-77.0776">
    <name>TP425</name>
  </trkpt>
  <trkpt lat="-12.09574" lon="-77.07721">
    <name>TP426</name>
  </trkpt>
  <trkpt lat="-12.09606" lon="-77.07657">
    <name>TP427</name>
  </trkpt>
  <trkpt lat="-12.09629" lon="-77.07612">
    <name>TP428</name>
  </trkpt>
  <trkpt lat="-12.09661" lon="-77.07551">
    <name>TP429</name>
  </trkpt>
  <trkpt lat="-12.0968" lon="-77.07513">
    <name>TP430</name>
  </trkpt>
  <trkpt lat="-12.09699" lon="-77.07474">
    <name>TP431</name>
  </trkpt>
  <trkpt lat="-12.09708" lon="-77.07451">
    <name>TP432</name>
  </trkpt>
  <trkpt lat="-12.0971" lon="-77.07448">
    <name>TP433</name>
  </trkpt>
  <trkpt lat="-12.09731" lon="-77.07396">
    <name>TP434</name>
  </trkpt>
  <trkpt lat="-12.09741" lon="-77.07379">
    <name>TP435</name>
  </trkpt>
  <trkpt lat="-12.09748" lon="-77.07366">
    <name>TP436</name>
  </trkpt>
  <trkpt lat="-12.09755" lon="-77.07354">
    <name>TP437</name>
  </trkpt>
  <trkpt lat="-12.09765" lon="-77.07338">
    <name>TP438</name>
  </trkpt>
  <trkpt lat="-12.09774" lon="-77.07324">
    <name>TP439</name>
  </trkpt>
  <trkpt lat="-12.09786" lon="-77.07305">
    <name>TP440</name>
  </trkpt>
  <trkpt lat="-12.09832" lon="-77.07245">
    <name>TP441</name>
  </trkpt>
  <trkpt lat="-12.09838" lon="-77.07239">
    <name>TP442</name>
  </trkpt>
  <trkpt lat="-12.09844" lon="-77.07233">
    <name>TP443</name>
  </trkpt>
  <trkpt lat="-12.099" lon="-77.07182">
    <name>TP444</name>
  </trkpt>
  <trkpt lat="-12.09913" lon="-77.07169">
    <name>TP445</name>
  </trkpt>
  <trkpt lat="-12.09923" lon="-77.07158">
    <name>TP446</name>
  </trkpt>
  <trkpt lat="-12.09936" lon="-77.07143">
    <name>TP447</name>
  </trkpt>
  <trkpt lat="-12.09958" lon="-77.07112">
    <name>TP448</name>
  </trkpt>
  <trkpt lat="-12.09989" lon="-77.07062">
    <name>TP449</name>
  </trkpt>
  <trkpt lat="-12.09998" lon="-77.07047">
    <name>TP450</name>
  </trkpt>
  <trkpt lat="-12.10004" lon="-77.07037">
    <name>TP451</name>
  </trkpt>
  <trkpt lat="-12.10016" lon="-77.07015">
    <name>TP452</name>
  </trkpt>
  <trkpt lat="-12.10017" lon="-77.07013">
    <name>TP453</name>
  </trkpt>
  <trkpt lat="-12.10024" lon="-77.06996">
    <name>TP454</name>
  </trkpt>
  <trkpt lat="-12.10031" lon="-77.06981">
    <name>TP455</name>
  </trkpt>
  <trkpt lat="-12.10038" lon="-77.06965">
    <name>TP456</name>
  </trkpt>
  <trkpt lat="-12.10044" lon="-77.06949">
    <name>TP457</name>
  </trkpt>
  <trkpt lat="-12.10047" lon="-77.06943">
    <name>TP458</name>
  </trkpt>
  <trkpt lat="-12.10054" lon="-77.06927">
    <name>TP459</name>
  </trkpt>
  <trkpt lat="-12.10061" lon="-77.06911">
    <name>TP460</name>
  </trkpt>
  <trkpt lat="-12.10063" lon="-77.06907">
    <name>TP461</name>
  </trkpt>
  <trkpt lat="-12.10069" lon="-77.06895">
    <name>TP462</name>
  </trkpt>
  <trkpt lat="-12.10077" lon="-77.0688">
    <name>TP463</name>
  </trkpt>
  <trkpt lat="-12.10085" lon="-77.06864">
    <name>TP464</name>
  </trkpt>
  <trkpt lat="-12.10088" lon="-77.06857">
    <name>TP465</name>
  </trkpt>
  <trkpt lat="-12.10092" lon="-77.06848">
    <name>TP466</name>
  </trkpt>
  <trkpt lat="-12.10096" lon="-77.06838">
    <name>TP467</name>
  </trkpt>
  <trkpt lat="-12.10099" lon="-77.0683">
    <name>TP468</name>
  </trkpt>
  <trkpt lat="-12.10108" lon="-77.06813">
    <name>TP469</name>
  </trkpt>
  <trkpt lat="-12.10116" lon="-77.06795">
    <name>TP470</name>
  </trkpt>
  <trkpt lat="-12.10124" lon="-77.06777">
    <name>TP471</name>
  </trkpt>
  <trkpt lat="-12.10132" lon="-77.06759">
    <name>TP472</name>
  </trkpt>
  <trkpt lat="-12.1014" lon="-77.06741">
    <name>TP473</name>
  </trkpt>
  <trkpt lat="-12.10158" lon="-77.06704">
    <name>TP474</name>
  </trkpt>
  <trkpt lat="-12.10177" lon="-77.06665">
    <name>TP475</name>
  </trkpt>
  <trkpt lat="-12.10206" lon="-77.06611">
    <name>TP476</name>
  </trkpt>
  <trkpt lat="-12.10225" lon="-77.06577">
    <name>TP477</name>
  </trkpt>
  <trkpt lat="-12.1025" lon="-77.06541">
    <name>TP478</name>
  </trkpt>
  <trkpt lat="-12.10289" lon="-77.06488">
    <name>TP479</name>
  </trkpt>
  <trkpt lat="-12.10295" lon="-77.0648">
    <name>TP480</name>
  </trkpt>
  <trkpt lat="-12.10301" lon="-77.06473">
    <name>TP481</name>
  </trkpt>
  <trkpt lat="-12.10319" lon="-77.06457">
    <name>TP482</name>
  </trkpt>
  <trkpt lat="-12.10361" lon="-77.06422">
    <name>TP483</name>
  </trkpt>
  <trkpt lat="-12.10376" lon="-77.06409">
    <name>TP484</name>
  </trkpt>
  <trkpt lat="-12.10397" lon="-77.0639">
    <name>TP485</name>
  </trkpt>
  <trkpt lat="-12.10434" lon="-77.06347">
    <name>TP486</name>
  </trkpt>
  <trkpt lat="-12.10464" lon="-77.06303">
    <name>TP487</name>
  </trkpt>
  <trkpt lat="-12.1047" lon="-77.06295">
    <name>TP488</name>
  </trkpt>
  <trkpt lat="-12.10526" lon="-77.06215">
    <name>TP489</name>
  </trkpt>
  <trkpt lat="-12.10561" lon="-77.06167">
    <name>TP490</name>
  </trkpt>
  <trkpt lat="-12.10565" lon="-77.06161">
    <name>TP491</name>
  </trkpt>
  <trkpt lat="-12.10582" lon="-77.0614">
    <name>TP492</name>
  </trkpt>
  <trkpt lat="-12.10592" lon="-77.06127">
    <name>TP493</name>
  </trkpt>
  <trkpt lat="-12.10623" lon="-77.06097">
    <name>TP494</name>
  </trkpt>
  <trkpt lat="-12.1065" lon="-77.06079">
    <name>TP495</name>
  </trkpt>
  <trkpt lat="-12.10665" lon="-77.06071">
    <name>TP496</name>
  </trkpt>
  <trkpt lat="-12.1068" lon="-77.06062">
    <name>TP497</name>
  </trkpt>
  <trkpt lat="-12.1069" lon="-77.06056">
    <name>TP498</name>
  </trkpt>
  <trkpt lat="-12.10702" lon="-77.06047">
    <name>TP499</name>
  </trkpt>
  <trkpt lat="-12.10714" lon="-77.06038">
    <name>TP500</name>
  </trkpt>
  <trkpt lat="-12.10724" lon="-77.06022">
    <name>TP501</name>
  </trkpt>
  <trkpt lat="-12.10745" lon="-77.05989">
    <name>TP502</name>
  </trkpt>
  <trkpt lat="-12.10784" lon="-77.05932">
    <name>TP503</name>
  </trkpt>
  <trkpt lat="-12.10796" lon="-77.05916">
    <name>TP504</name>
  </trkpt>
  <trkpt lat="-12.1084" lon="-77.05853">
    <name>TP505</name>
  </trkpt>
  <trkpt lat="-12.10863" lon="-77.05816">
    <name>TP506</name>
  </trkpt>
  <trkpt lat="-12.10878" lon="-77.05791">
    <name>TP507</name>
  </trkpt>
  <trkpt lat="-12.10882" lon="-77.05784">
    <name>TP508</name>
  </trkpt>
  <trkpt lat="-12.10888" lon="-77.05772">
    <name>TP509</name>
  </trkpt>
  <trkpt lat="-12.10908" lon="-77.05735">
    <name>TP510</name>
  </trkpt>
  <trkpt lat="-12.10919" lon="-77.05715">
    <name>TP511</name>
  </trkpt>
  <trkpt lat="-12.10922" lon="-77.05707">
    <name>TP512</name>
  </trkpt>
  <trkpt lat="-12.10941" lon="-77.05669">
    <name>TP513</name>
  </trkpt>
  <trkpt lat="-12.10948" lon="-77.05656">
    <name>TP514</name>
  </trkpt>
  <trkpt lat="-12.10955" lon="-77.05643">
    <name>TP515</name>
  </trkpt>
  <trkpt lat="-12.10962" lon="-77.05635">
    <name>TP516</name>
  </trkpt>
  <trkpt lat="-12.10967" lon="-77.05628">
    <name>TP517</name>
  </trkpt>
  <trkpt lat="-12.10971" lon="-77.05623">
    <name>TP518</name>
  </trkpt>
  <trkpt lat="-12.10979" lon="-77.05614">
    <name>TP519</name>
  </trkpt>
  <trkpt lat="-12.10988" lon="-77.05606">
    <name>TP520</name>
  </trkpt>
  <trkpt lat="-12.10993" lon="-77.05601">
    <name>TP521</name>
  </trkpt>
  <trkpt lat="-12.11" lon="-77.05595">
    <name>TP522</name>
  </trkpt>
  <trkpt lat="-12.11011" lon="-77.05586">
    <name>TP523</name>
  </trkpt>
  <trkpt lat="-12.11046" lon="-77.05561">
    <name>TP524</name>
  </trkpt>
  <trkpt lat="-12.11054" lon="-77.05556">
    <name>TP525</name>
  </trkpt>
  <trkpt lat="-12.11059" lon="-77.05552">
    <name>TP526</name>
  </trkpt>
  <trkpt lat="-12.11073" lon="-77.05542">
    <name>TP527</name>
  </trkpt>
  <trkpt lat="-12.11081" lon="-77.05534">
    <name>TP528</name>
  </trkpt>
  <trkpt lat="-12.11089" lon="-77.05527">
    <name>TP529</name>
  </trkpt>
  <trkpt lat="-12.11096" lon="-77.05518">
    <name>TP530</name>
  </trkpt>
  <trkpt lat="-12.11102" lon="-77.0551">
    <name>TP531</name>
  </trkpt>
  <trkpt lat="-12.11109" lon="-77.05498">
    <name>TP532</name>
  </trkpt>
  <trkpt lat="-12.11114" lon="-77.05487">
    <name>TP533</name>
  </trkpt>
  <trkpt lat="-12.11119" lon="-77.05474">
    <name>TP534</name>
  </trkpt>
  <trkpt lat="-12.11124" lon="-77.05454">
    <name>TP535</name>
  </trkpt>
  <trkpt lat="-12.11129" lon="-77.05433">
    <name>TP536</name>
  </trkpt>
  <trkpt lat="-12.11133" lon="-77.05413">
    <name>TP537</name>
  </trkpt>
  <trkpt lat="-12.11136" lon="-77.05402">
    <name>TP538</name>
  </trkpt>
  <trkpt lat="-12.11143" lon="-77.05382">
    <name>TP539</name>
  </trkpt>
  <trkpt lat="-12.11152" lon="-77.05364">
    <name>TP540</name>
  </trkpt>
  <trkpt lat="-12.11156" lon="-77.05356">
    <name>TP541</name>
  </trkpt>
  <trkpt lat="-12.1115605" lon="-77.0535619">
    <name>TP542</name>
  </trkpt>
  <trkpt lat="-12.11162" lon="-77.05347">
    <name>TP543</name>
  </trkpt>
  <trkpt lat="-12.11175" lon="-77.05328">
    <name>TP544</name>
  </trkpt>
  <trkpt lat="-12.11187" lon="-77.0531">
    <name>TP545</name>
  </trkpt>
  <trkpt lat="-12.11197" lon="-77.05295">
    <name>TP546</name>
  </trkpt>
  <trkpt lat="-12.11206" lon="-77.05281">
    <name>TP547</name>
  </trkpt>
  <trkpt lat="-12.11213" lon="-77.05273">
    <name>TP548</name>
  </trkpt>
  <trkpt lat="-12.11218" lon="-77.05265">
    <name>TP549</name>
  </trkpt>
  <trkpt lat="-12.11228" lon="-77.0525">
    <name>TP550</name>
  </trkpt>
  <trkpt lat="-12.11238" lon="-77.05235">
    <name>TP551</name>
  </trkpt>
  <trkpt lat="-12.11248" lon="-77.0522">
    <name>TP552</name>
  </trkpt>
  <trkpt lat="-12.11255" lon="-77.05211">
    <name>TP553</name>
  </trkpt>
  <trkpt lat="-12.11259" lon="-77.05204">
    <name>TP554</name>
  </trkpt>
  <trkpt lat="-12.11269" lon="-77.0519">
    <name>TP555</name>
  </trkpt>
  <trkpt lat="-12.11271" lon="-77.05187">
    <name>TP556</name>
  </trkpt>
  <trkpt lat="-12.11279" lon="-77.05176">
    <name>TP557</name>
  </trkpt>
  <trkpt lat="-12.11279" lon="-77.05175">
    <name>TP558</name>
  </trkpt>
  <trkpt lat="-12.1128" lon="-77.05175">
    <name>TP559</name>
  </trkpt>
  <trkpt lat="-12.11289" lon="-77.05161">
    <name>TP560</name>
  </trkpt>
  <trkpt lat="-12.1129" lon="-77.0516">
    <name>TP561</name>
  </trkpt>
  <trkpt lat="-12.11297" lon="-77.05152">
    <name>TP562</name>
  </trkpt>
  <trkpt lat="-12.11302" lon="-77.05146">
    <name>TP563</name>
  </trkpt>
  <trkpt lat="-12.11308" lon="-77.05138">
    <name>TP564</name>
  </trkpt>
  <trkpt lat="-12.11314" lon="-77.05133">
    <name>TP565</name>
  </trkpt>
  <trkpt lat="-12.11317" lon="-77.05129">
    <name>TP566</name>
  </trkpt>
  <trkpt lat="-12.11324" lon="-77.05123">
    <name>TP567</name>
  </trkpt>
  <trkpt lat="-12.11327" lon="-77.0512">
    <name>TP568</name>
  </trkpt>
  <trkpt lat="-12.11335" lon="-77.05114">
    <name>TP569</name>
  </trkpt>
  <trkpt lat="-12.1134" lon="-77.05109">
    <name>TP570</name>
  </trkpt>
  <trkpt lat="-12.11348" lon="-77.05103">
    <name>TP571</name>
  </trkpt>
  <trkpt lat="-12.11355" lon="-77.05098">
    <name>TP572</name>
  </trkpt>
  <trkpt lat="-12.11368" lon="-77.05088">
    <name>TP573</name>
  </trkpt>
  <trkpt lat="-12.11385" lon="-77.05079">
    <name>TP574</name>
  </trkpt>
  <trkpt lat="-12.11387" lon="-77.05077">
    <name>TP575</name>
  </trkpt>
  <trkpt lat="-12.11394" lon="-77.05073">
    <name>TP576</name>
  </trkpt>
  <trkpt lat="-12.11396" lon="-77.05073">
    <name>TP577</name>
  </trkpt>
  <trkpt lat="-12.11402" lon="-77.0507">
    <name>TP578</name>
  </trkpt>
  <trkpt lat="-12.11412" lon="-77.05065">
    <name>TP579</name>
  </trkpt>
  <trkpt lat="-12.11429" lon="-77.05059">
    <name>TP580</name>
  </trkpt>
  <trkpt lat="-12.11437" lon="-77.05057">
    <name>TP581</name>
  </trkpt>
  <trkpt lat="-12.11446" lon="-77.05055">
    <name>TP582</name>
  </trkpt>
  <trkpt lat="-12.1145" lon="-77.05054">
    <name>TP583</name>
  </trkpt>
  <trkpt lat="-12.11468" lon="-77.05051">
    <name>TP584</name>
  </trkpt>
  <trkpt lat="-12.1147" lon="-77.0505">
    <name>TP585</name>
  </trkpt>
  <trkpt lat="-12.11486" lon="-77.05047">
    <name>TP586</name>
  </trkpt>
  <trkpt lat="-12.11493" lon="-77.05045">
    <name>TP587</name>
  </trkpt>
  <trkpt lat="-12.11499" lon="-77.05044">
    <name>TP588</name>
  </trkpt>
  <trkpt lat="-12.11505" lon="-77.05043">
    <name>TP589</name>
  </trkpt>
  <trkpt lat="-12.11512" lon="-77.05041">
    <name>TP590</name>
  </trkpt>
  <trkpt lat="-12.11526" lon="-77.05036">
    <name>TP591</name>
  </trkpt>
  <trkpt lat="-12.11553" lon="-77.05024">
    <name>TP592</name>
  </trkpt>
  <trkpt lat="-12.11563" lon="-77.0502">
    <name>TP593</name>
  </trkpt>
  <trkpt lat="-12.11578" lon="-77.05013">
    <name>TP594</name>
  </trkpt>
  <trkpt lat="-12.11585" lon="-77.05012">
    <name>TP595</name>
  </trkpt>
  <trkpt lat="-12.11595" lon="-77.05009">
    <name>TP596</name>
  </trkpt>
  <trkpt lat="-12.11597" lon="-77.05008">
    <name>TP597</name>
  </trkpt>
  <trkpt lat="-12.11605" lon="-77.05005">
    <name>TP598</name>
  </trkpt>
  <trkpt lat="-12.11624" lon="-77.04995">
    <name>TP599</name>
  </trkpt>
  <trkpt lat="-12.1165" lon="-77.04982">
    <name>TP600</name>
  </trkpt>
  <trkpt lat="-12.11667" lon="-77.0497">
    <name>TP601</name>
  </trkpt>
  <trkpt lat="-12.1168" lon="-77.04959">
    <name>TP602</name>
  </trkpt>
  <trkpt lat="-12.11682" lon="-77.04958">
    <name>TP603</name>
  </trkpt>
  <trkpt lat="-12.11695" lon="-77.04944">
    <name>TP604</name>
  </trkpt>
  <trkpt lat="-12.11709" lon="-77.04931">
    <name>TP605</name>
  </trkpt>
  <trkpt lat="-12.11717" lon="-77.04922">
    <name>TP606</name>
  </trkpt>
  <trkpt lat="-12.11725" lon="-77.04913">
    <name>TP607</name>
  </trkpt>
  <trkpt lat="-12.11737" lon="-77.049">
    <name>TP608</name>
  </trkpt>
  <trkpt lat="-12.11745" lon="-77.04891">
    <name>TP609</name>
  </trkpt>
  <trkpt lat="-12.11754" lon="-77.04879">
    <name>TP610</name>
  </trkpt>
  <trkpt lat="-12.1176" lon="-77.0487">
    <name>TP611</name>
  </trkpt>
  <trkpt lat="-12.11769" lon="-77.04855">
    <name>TP612</name>
  </trkpt>
  <trkpt lat="-12.11778" lon="-77.04835">
    <name>TP613</name>
  </trkpt>
  <trkpt lat="-12.11787" lon="-77.04816">
    <name>TP614</name>
  </trkpt>
  <trkpt lat="-12.11806" lon="-77.04774">
    <name>TP615</name>
  </trkpt>
  <trkpt lat="-12.11817" lon="-77.04749">
    <name>TP616</name>
  </trkpt>
  <trkpt lat="-12.11828" lon="-77.04729">
    <name>TP617</name>
  </trkpt>
  <trkpt lat="-12.11836" lon="-77.04714">
    <name>TP618</name>
  </trkpt>
  <trkpt lat="-12.11847" lon="-77.04697">
    <name>TP619</name>
  </trkpt>
  <trkpt lat="-12.11855" lon="-77.04686">
    <name>TP620</name>
  </trkpt>
  <trkpt lat="-12.11864" lon="-77.04675">
    <name>TP621</name>
  </trkpt>
  <trkpt lat="-12.11875" lon="-77.04661">
    <name>TP622</name>
  </trkpt>
  <trkpt lat="-12.11879" lon="-77.04656">
    <name>TP623</name>
  </trkpt>
  <trkpt lat="-12.11882" lon="-77.04652">
    <name>TP624</name>
  </trkpt>
  <trkpt lat="-12.11883" lon="-77.04651">
    <name>TP625</name>
  </trkpt>
  <trkpt lat="-12.1189" lon="-77.04642">
    <name>TP626</name>
  </trkpt>
  <trkpt lat="-12.11894" lon="-77.04638">
    <name>TP627</name>
  </trkpt>
  <trkpt lat="-12.11898" lon="-77.04633">
    <name>TP628</name>
  </trkpt>
  <trkpt lat="-12.11902" lon="-77.04628">
    <name>TP629</name>
  </trkpt>
  <trkpt lat="-12.1192" lon="-77.04608">
    <name>TP630</name>
  </trkpt>
  <trkpt lat="-12.1193" lon="-77.04597">
    <name>TP631</name>
  </trkpt>
  <trkpt lat="-12.1194" lon="-77.04587">
    <name>TP632</name>
  </trkpt>
  <trkpt lat="-12.11946" lon="-77.04583">
    <name>TP633</name>
  </trkpt>
  <trkpt lat="-12.11958" lon="-77.04575">
    <name>TP634</name>
  </trkpt>
  <trkpt lat="-12.1196" lon="-77.04573">
    <name>TP635</name>
  </trkpt>
  <trkpt lat="-12.11977" lon="-77.04564">
    <name>TP636</name>
  </trkpt>
  <trkpt lat="-12.11991" lon="-77.04556">
    <name>TP637</name>
  </trkpt>
  <trkpt lat="-12.12008" lon="-77.04549">
    <name>TP638</name>
  </trkpt>
  <trkpt lat="-12.12014" lon="-77.04547">
    <name>TP639</name>
  </trkpt>
  <trkpt lat="-12.12039" lon="-77.04541">
    <name>TP640</name>
  </trkpt>
  <trkpt lat="-12.12041" lon="-77.04541">
    <name>TP641</name>
  </trkpt>
  <trkpt lat="-12.12054" lon="-77.04537">
    <name>TP642</name>
  </trkpt>
  <trkpt lat="-12.12063" lon="-77.04536">
    <name>TP643</name>
  </trkpt>
  <trkpt lat="-12.12065" lon="-77.04535">
    <name>TP644</name>
  </trkpt>
  <trkpt lat="-12.1208" lon="-77.0453">
    <name>TP645</name>
  </trkpt>
  <trkpt lat="-12.12083" lon="-77.04529">
    <name>TP646</name>
  </trkpt>
  <trkpt lat="-12.12099" lon="-77.04523">
    <name>TP647</name>
  </trkpt>
  <trkpt lat="-12.1211" lon="-77.04517">
    <name>TP648</name>
  </trkpt>
  <trkpt lat="-12.12118" lon="-77.04514">
    <name>TP649</name>
  </trkpt>
  <trkpt lat="-12.12145" lon="-77.04499">
    <name>TP650</name>
  </trkpt>
  <trkpt lat="-12.12147" lon="-77.04498">
    <name>TP651</name>
  </trkpt>
  <trkpt lat="-12.12149" lon="-77.04496">
    <name>TP652</name>
  </trkpt>
  <trkpt lat="-12.12163" lon="-77.04487">
    <name>TP653</name>
  </trkpt>
  <trkpt lat="-12.12175" lon="-77.04477">
    <name>TP654</name>
  </trkpt>
  <trkpt lat="-12.12176" lon="-77.04477">
    <name>TP655</name>
  </trkpt>
  <trkpt lat="-12.12188" lon="-77.04464">
    <name>TP656</name>
  </trkpt>
  <trkpt lat="-12.12194" lon="-77.04458">
    <name>TP657</name>
  </trkpt>
  <trkpt lat="-12.12214" lon="-77.04436">
    <name>TP658</name>
  </trkpt>
  <trkpt lat="-12.12234" lon="-77.04412">
    <name>TP659</name>
  </trkpt>
  <trkpt lat="-12.12266" lon="-77.04372">
    <name>TP660</name>
  </trkpt>
  <trkpt lat="-12.12283" lon="-77.04346">
    <name>TP661</name>
  </trkpt>
  <trkpt lat="-12.12292" lon="-77.04325">
    <name>TP662</name>
  </trkpt>
  <trkpt lat="-12.12303" lon="-77.04296">
    <name>TP663</name>
  </trkpt>
  <trkpt lat="-12.12313" lon="-77.04274">
    <name>TP664</name>
  </trkpt>
  <trkpt lat="-12.12326" lon="-77.04246">
    <name>TP665</name>
  </trkpt>
  <trkpt lat="-12.12334" lon="-77.04234">
    <name>TP666</name>
  </trkpt>
  <trkpt lat="-12.12355" lon="-77.04203">
    <name>TP667</name>
  </trkpt>
  <trkpt lat="-12.12382" lon="-77.04161">
    <name>TP668</name>
  </trkpt>
  <trkpt lat="-12.12402" lon="-77.04128">
    <name>TP669</name>
  </trkpt>
  <trkpt lat="-12.12416" lon="-77.041">
    <name>TP670</name>
  </trkpt>
  <trkpt lat="-12.12427" lon="-77.04073">
    <name>TP671</name>
  </trkpt>
  <trkpt lat="-12.12431" lon="-77.04064">
    <name>TP672</name>
  </trkpt>
  <trkpt lat="-12.12438" lon="-77.04046">
    <name>TP673</name>
  </trkpt>
  <trkpt lat="-12.12449" lon="-77.04023">
    <name>TP674</name>
  </trkpt>
  <trkpt lat="-12.12458" lon="-77.04009">
    <name>TP675</name>
  </trkpt>
  <trkpt lat="-12.1247" lon="-77.03993">
    <name>TP676</name>
  </trkpt>
  <trkpt lat="-12.12481" lon="-77.0398">
    <name>TP677</name>
  </trkpt>
  <trkpt lat="-12.12494" lon="-77.03963">
    <name>TP678</name>
  </trkpt>
  <trkpt lat="-12.125" lon="-77.03955">
    <name>TP679</name>
  </trkpt>
  <trkpt lat="-12.12516" lon="-77.03932">
    <name>TP680</name>
  </trkpt>
  <trkpt lat="-12.12544" lon="-77.03907">
    <name>TP681</name>
  </trkpt>
  <trkpt lat="-12.12559" lon="-77.03894">
    <name>TP682</name>
  </trkpt>
  <trkpt lat="-12.12589" lon="-77.03869">
    <name>TP683</name>
  </trkpt>
  <trkpt lat="-12.12607" lon="-77.03856">
    <name>TP684</name>
  </trkpt>
  <trkpt lat="-12.12649" lon="-77.03829">
    <name>TP685</name>
  </trkpt>
  <trkpt lat="-12.12665" lon="-77.03818">
    <name>TP686</name>
  </trkpt>
  <trkpt lat="-12.12668" lon="-77.03815">
    <name>TP687</name>
  </trkpt>
  <trkpt lat="-12.12701" lon="-77.03792">
    <name>TP688</name>
  </trkpt>
  <trkpt lat="-12.12705" lon="-77.03789">
    <name>TP689</name>
  </trkpt>
  <trkpt lat="-12.12727" lon="-77.03772">
    <name>TP690</name>
  </trkpt>
  <trkpt lat="-12.12769" lon="-77.0374">
    <name>TP691</name>
  </trkpt>
  <trkpt lat="-12.12814" lon="-77.03705">
    <name>TP692</name>
  </trkpt>
  <trkpt lat="-12.1283" lon="-77.03693">
    <name>TP693</name>
  </trkpt>
  <trkpt lat="-12.1284" lon="-77.03684">
    <name>TP694</name>
  </trkpt>
  <trkpt lat="-12.12848" lon="-77.03679">
    <name>TP695</name>
  </trkpt>
  <trkpt lat="-12.1285" lon="-77.03678">
    <name>TP696</name>
  </trkpt>
  <trkpt lat="-12.12869" lon="-77.03662">
    <name>TP697</name>
  </trkpt>
  <trkpt lat="-12.12897" lon="-77.0364">
    <name>TP698</name>
  </trkpt>
  <trkpt lat="-12.12899" lon="-77.03638">
    <name>TP699</name>
  </trkpt>
  <trkpt lat="-12.12924" lon="-77.03618">
    <name>TP700</name>
  </trkpt>
  <trkpt lat="-12.12982" lon="-77.03571">
    <name>TP701</name>
  </trkpt>
  <trkpt lat="-12.13" lon="-77.03556">
    <name>TP702</name>
  </trkpt>
  <trkpt lat="-12.13008" lon="-77.03548">
    <name>TP703</name>
  </trkpt>
  <trkpt lat="-12.13023" lon="-77.03531">
    <name>TP704</name>
  </trkpt>
  <trkpt lat="-12.13025" lon="-77.03529">
    <name>TP705</name>
  </trkpt>
  <trkpt lat="-12.13037" lon="-77.03515">
    <name>TP706</name>
  </trkpt>
  <trkpt lat="-12.13052" lon="-77.03495">
    <name>TP707</name>
  </trkpt>
  <trkpt lat="-12.13056" lon="-77.03489">
    <name>TP708</name>
  </trkpt>
  <trkpt lat="-12.13065" lon="-77.03474">
    <name>TP709</name>
  </trkpt>
  <trkpt lat="-12.13072" lon="-77.03464">
    <name>TP710</name>
  </trkpt>
  <trkpt lat="-12.13094" lon="-77.03433">
    <name>TP711</name>
  </trkpt>
  <trkpt lat="-12.13096" lon="-77.03429">
    <name>TP712</name>
  </trkpt>
  <trkpt lat="-12.13106" lon="-77.03416">
    <name>TP713</name>
  </trkpt>
  <trkpt lat="-12.1312" lon="-77.03397">
    <name>TP714</name>
  </trkpt>
  <trkpt lat="-12.131204" lon="-77.033969">
    <name>TP715</name>
  </trkpt>
  <trkpt lat="-12.13123" lon="-77.03391">
    <name>TP716</name>
  </trkpt>
  <trkpt lat="-12.13127" lon="-77.03384">
    <name>TP717</name>
  </trkpt>
  <trkpt lat="-12.13129" lon="-77.03377">
    <name>TP718</name>
  </trkpt>
  <trkpt lat="-12.13132" lon="-77.03367">
    <name>TP719</name>
  </trkpt>
  <trkpt lat="-12.13134" lon="-77.03352">
    <name>TP720</name>
  </trkpt>
  <trkpt lat="-12.13137" lon="-77.03338">
    <name>TP721</name>
  </trkpt>
  <trkpt lat="-12.13138" lon="-77.03332">
    <name>TP722</name>
  </trkpt>
  <trkpt lat="-12.13143" lon="-77.03314">
    <name>TP723</name>
  </trkpt>
  <trkpt lat="-12.13153" lon="-77.03292">
    <name>TP724</name>
  </trkpt>
  <trkpt lat="-12.13164" lon="-77.03275">
    <name>TP725</name>
  </trkpt>
  <trkpt lat="-12.13173" lon="-77.03263">
    <name>TP726</name>
  </trkpt>
  <trkpt lat="-12.13178" lon="-77.03254">
    <name>TP727</name>
  </trkpt>
  <trkpt lat="-12.132" lon="-77.03219">
    <name>TP728</name>
  </trkpt>
  <trkpt lat="-12.13208" lon="-77.03205">
    <name>TP729</name>
  </trkpt>
  <trkpt lat="-12.13211" lon="-77.03201">
    <name>TP730</name>
  </trkpt>
  <trkpt lat="-12.13218" lon="-77.0319">
    <name>TP731</name>
  </trkpt>
  <trkpt lat="-12.13221" lon="-77.03185">
    <name>TP732</name>
  </trkpt>
  <trkpt lat="-12.1325" lon="-77.03139">
    <name>TP733</name>
  </trkpt>
  <trkpt lat="-12.13253" lon="-77.03135">
    <name>TP734</name>
  </trkpt>
  <trkpt lat="-12.13263" lon="-77.03119">
    <name>TP735</name>
  </trkpt>
  <trkpt lat="-12.13283" lon="-77.03092">
    <name>TP736</name>
  </trkpt>
  <trkpt lat="-12.13292" lon="-77.03084">
    <name>TP737</name>
  </trkpt>
  <trkpt lat="-12.13302" lon="-77.03073">
    <name>TP738</name>
  </trkpt>
  <trkpt lat="-12.13322" lon="-77.03055">
    <name>TP739</name>
  </trkpt>
  <trkpt lat="-12.13332" lon="-77.03046">
    <name>TP740</name>
  </trkpt>
  <trkpt lat="-12.13347" lon="-77.03032">
    <name>TP741</name>
  </trkpt>
  <trkpt lat="-12.13369" lon="-77.03016">
    <name>TP742</name>
  </trkpt>
  <trkpt lat="-12.13385" lon="-77.03004">
    <name>TP743</name>
  </trkpt>
  <trkpt lat="-12.134" lon="-77.02994">
    <name>TP744</name>
  </trkpt>
  <trkpt lat="-12.13458" lon="-77.02964">
    <name>TP745</name>
  </trkpt>
  <trkpt lat="-12.13526" lon="-77.0293">
    <name>TP746</name>
  </trkpt>
  <trkpt lat="-12.1352606" lon="-77.0293003">
    <name>TP747</name>
  </trkpt>
  <trkpt lat="-12.13544" lon="-77.02923">
    <name>TP748</name>
  </trkpt>
  <trkpt lat="-12.13551" lon="-77.0292">
    <name>TP749</name>
  </trkpt>
  <trkpt lat="-12.13563" lon="-77.02915">
    <name>TP750</name>
  </trkpt>
  <trkpt lat="-12.13758" lon="-77.02848">
    <name>TP751</name>
  </trkpt>
  <trkpt lat="-12.13766" lon="-77.02845">
    <name>TP752</name>
  </trkpt>
  <trkpt lat="-12.13779" lon="-77.02842">
    <name>TP753</name>
  </trkpt>
  <trkpt lat="-12.13796" lon="-77.02838">
    <name>TP754</name>
  </trkpt>
  <trkpt lat="-12.13797" lon="-77.02838">
    <name>TP755</name>
  </trkpt>
  <trkpt lat="-12.1381" lon="-77.02835">
    <name>TP756</name>
  </trkpt>
  <trkpt lat="-12.13815" lon="-77.02834">
    <name>TP757</name>
  </trkpt>
  <trkpt lat="-12.13817" lon="-77.02833">
    <name>TP758</name>
  </trkpt>
  <trkpt lat="-12.13827" lon="-77.02833">
    <name>TP759</name>
  </trkpt>
  <trkpt lat="-12.1383" lon="-77.02832">
    <name>TP760</name>
  </trkpt>
  <trkpt lat="-12.13841" lon="-77.0283">
    <name>TP761</name>
  </trkpt>
  <trkpt lat="-12.13843" lon="-77.0283">
    <name>TP762</name>
  </trkpt>
  <trkpt lat="-12.13847" lon="-77.0283">
    <name>TP763</name>
  </trkpt>
  <trkpt lat="-12.13861" lon="-77.02829">
    <name>TP764</name>
  </trkpt>
  <trkpt lat="-12.13862" lon="-77.02829">
    <name>TP765</name>
  </trkpt>
  <trkpt lat="-12.13866" lon="-77.02829">
    <name>TP766</name>
  </trkpt>
  <trkpt lat="-12.13881" lon="-77.02828">
    <name>TP767</name>
  </trkpt>
  <trkpt lat="-12.13896" lon="-77.02828">
    <name>TP768</name>
  </trkpt>
  <trkpt lat="-12.13914" lon="-77.02828">
    <name>TP769</name>
  </trkpt>
  <trkpt lat="-12.1393" lon="-77.02827">
    <name>TP770</name>
  </trkpt>
  <trkpt lat="-12.13933" lon="-77.02827">
    <name>TP771</name>
  </trkpt>
  <trkpt lat="-12.13936" lon="-77.02826">
    <name>TP772</name>
  </trkpt>
  <trkpt lat="-12.13947" lon="-77.02826">
    <name>TP773</name>
  </trkpt>
  <trkpt lat="-12.13958" lon="-77.02824">
    <name>TP774</name>
  </trkpt>
  <trkpt lat="-12.13964" lon="-77.02823">
    <name>TP775</name>
  </trkpt>
  <trkpt lat="-12.13972" lon="-77.02822">
    <name>TP776</name>
  </trkpt>
  <trkpt lat="-12.13975" lon="-77.02821">
    <name>TP777</name>
  </trkpt>
  <trkpt lat="-12.13982" lon="-77.0282">
    <name>TP778</name>
  </trkpt>
  <trkpt lat="-12.13986" lon="-77.02818">
    <name>TP779</name>
  </trkpt>
  <trkpt lat="-12.13995" lon="-77.02815">
    <name>TP780</name>
  </trkpt>
  <trkpt lat="-12.13998" lon="-77.02814">
    <name>TP781</name>
  </trkpt>
  <trkpt lat="-12.14" lon="-77.02813">
    <name>TP782</name>
  </trkpt>
  <trkpt lat="-12.14006" lon="-77.02811">
    <name>TP783</name>
  </trkpt>
  <trkpt lat="-12.14011" lon="-77.02809">
    <name>TP784</name>
  </trkpt>
  <trkpt lat="-12.14014" lon="-77.02807">
    <name>TP785</name>
  </trkpt>
  <trkpt lat="-12.14018" lon="-77.02805">
    <name>TP786</name>
  </trkpt>
  <trkpt lat="-12.14028" lon="-77.02799">
    <name>TP787</name>
  </trkpt>
  <trkpt lat="-12.14029" lon="-77.02799">
    <name>TP788</name>
  </trkpt>
  <trkpt lat="-12.14038" lon="-77.02793">
    <name>TP789</name>
  </trkpt>
  <trkpt lat="-12.14044" lon="-77.02789">
    <name>TP790</name>
  </trkpt>
  <trkpt lat="-12.14047" lon="-77.02786">
    <name>TP791</name>
  </trkpt>
  <trkpt lat="-12.14058" lon="-77.02778">
    <name>TP792</name>
  </trkpt>
  <trkpt lat="-12.14064" lon="-77.02774">
    <name>TP793</name>
  </trkpt>
  <trkpt lat="-12.14071" lon="-77.02767">
    <name>TP794</name>
  </trkpt>
  <trkpt lat="-12.14085" lon="-77.02756">
    <name>TP795</name>
  </trkpt>
  <trkpt lat="-12.1409" lon="-77.02752">
    <name>TP796</name>
  </trkpt>
  <trkpt lat="-12.14119" lon="-77.02729">
    <name>TP797</name>
  </trkpt>
  <trkpt lat="-12.14132" lon="-77.02719">
    <name>TP798</name>
  </trkpt>
  <trkpt lat="-12.14135" lon="-77.02718">
    <name>TP799</name>
  </trkpt>
  <trkpt lat="-12.14161" lon="-77.02698">
    <name>TP800</name>
  </trkpt>
  <trkpt lat="-12.14163" lon="-77.02697">
    <name>TP801</name>
  </trkpt>
  <trkpt lat="-12.14169" lon="-77.02692">
    <name>TP802</name>
  </trkpt>
  <trkpt lat="-12.14176" lon="-77.02686">
    <name>TP803</name>
  </trkpt>
  <trkpt lat="-12.14179" lon="-77.02683">
    <name>TP804</name>
  </trkpt>
  <trkpt lat="-12.14182" lon="-77.02678">
    <name>TP805</name>
  </trkpt>
  <trkpt lat="-12.14184" lon="-77.02675">
    <name>TP806</name>
  </trkpt>
  <trkpt lat="-12.14206" lon="-77.0266">
    <name>TP807</name>
  </trkpt>
  <trkpt lat="-12.14213" lon="-77.02656">
    <name>TP808</name>
  </trkpt>
  <trkpt lat="-12.14228" lon="-77.02647">
    <name>TP809</name>
  </trkpt>
  <trkpt lat="-12.14233" lon="-77.02644">
    <name>TP810</name>
  </trkpt>
  <trkpt lat="-12.14243" lon="-77.02638">
    <name>TP811</name>
  </trkpt>
  <trkpt lat="-12.14249" lon="-77.02635">
    <name>TP812</name>
  </trkpt>
  <trkpt lat="-12.14251" lon="-77.02634">
    <name>TP813</name>
  </trkpt>
  <trkpt lat="-12.14266" lon="-77.0263">
    <name>TP814</name>
  </trkpt>
  <trkpt lat="-12.14273" lon="-77.02628">
    <name>TP815</name>
  </trkpt>
  <trkpt lat="-12.14281" lon="-77.02625">
    <name>TP816</name>
  </trkpt>
  <trkpt lat="-12.14284" lon="-77.02624">
    <name>TP817</name>
  </trkpt>
  <trkpt lat="-12.1429" lon="-77.02623">
    <name>TP818</name>
  </trkpt>
  <trkpt lat="-12.14293" lon="-77.02622">
    <name>TP819</name>
  </trkpt>
  <trkpt lat="-12.14294" lon="-77.02622">
    <name>TP820</name>
  </trkpt>
  <trkpt lat="-12.14301" lon="-77.0262">
    <name>TP821</name>
  </trkpt>
  <trkpt lat="-12.14307" lon="-77.02618">
    <name>TP822</name>
  </trkpt>
  <trkpt lat="-12.1431" lon="-77.02617">
    <name>TP823</name>
  </trkpt>
  <trkpt lat="-12.14311" lon="-77.02616">
    <name>TP824</name>
  </trkpt>
  <trkpt lat="-12.14321" lon="-77.02613">
    <name>TP825</name>
  </trkpt>
  <trkpt lat="-12.14328" lon="-77.02609">
    <name>TP826</name>
  </trkpt>
  <trkpt lat="-12.14336" lon="-77.02606">
    <name>TP827</name>
  </trkpt>
  <trkpt lat="-12.14344" lon="-77.02602">
    <name>TP828</name>
  </trkpt>
  <trkpt lat="-12.14352" lon="-77.02599">
    <name>TP829</name>
  </trkpt>
  <trkpt lat="-12.14359" lon="-77.02596">
    <name>TP830</name>
  </trkpt>
  <trkpt lat="-12.14376" lon="-77.02586">
    <name>TP831</name>
  </trkpt>
  <trkpt lat="-12.14378" lon="-77.02585">
    <name>TP832</name>
  </trkpt>
  <trkpt lat="-12.1441" lon="-77.0257">
    <name>TP833</name>
  </trkpt>
  <trkpt lat="-12.14418" lon="-77.02566">
    <name>TP834</name>
  </trkpt>
  <trkpt lat="-12.14428" lon="-77.02562">
    <name>TP835</name>
  </trkpt>
  <trkpt lat="-12.14437" lon="-77.02558">
    <name>TP836</name>
  </trkpt>
  <trkpt lat="-12.14446" lon="-77.02555">
    <name>TP837</name>
  </trkpt>
  <trkpt lat="-12.14453" lon="-77.02552">
    <name>TP838</name>
  </trkpt>
  <trkpt lat="-12.14464" lon="-77.0255">
    <name>TP839</name>
  </trkpt>
  <trkpt lat="-12.14469" lon="-77.02549">
    <name>TP840</name>
  </trkpt>
  <trkpt lat="-12.14482" lon="-77.02547">
    <name>TP841</name>
  </trkpt>
  <trkpt lat="-12.14483" lon="-77.02547">
    <name>TP842</name>
  </trkpt>
  <trkpt lat="-12.14491" lon="-77.02547">
    <name>TP843</name>
  </trkpt>
  <trkpt lat="-12.14495" lon="-77.02547">
    <name>TP844</name>
  </trkpt>
  <trkpt lat="-12.145" lon="-77.02547">
    <name>TP845</name>
  </trkpt>
  <trkpt lat="-12.14501" lon="-77.02547">
    <name>TP846</name>
  </trkpt>
  <trkpt lat="-12.14506" lon="-77.02548">
    <name>TP847</name>
  </trkpt>
  <trkpt lat="-12.14515" lon="-77.0255">
    <name>TP848</name>
  </trkpt>
  <trkpt lat="-12.14518" lon="-77.02551">
    <name>TP849</name>
  </trkpt>
  <trkpt lat="-12.14523" lon="-77.02552">
    <name>TP850</name>
  </trkpt>
  <trkpt lat="-12.14535" lon="-77.02555">
    <name>TP851</name>
  </trkpt>
  <trkpt lat="-12.14537" lon="-77.02556">
    <name>TP852</name>
  </trkpt>
  <trkpt lat="-12.1454" lon="-77.02556">
    <name>TP853</name>
  </trkpt>
  <trkpt lat="-12.14552" lon="-77.02557">
    <name>TP854</name>
  </trkpt>
  <trkpt lat="-12.1455232" lon="-77.0255667">
    <name>TP855</name>
  </trkpt>
  <trkpt lat="-12.14559" lon="-77.02552">
    <name>TP856</name>
  </trkpt>
  <trkpt lat="-12.14561" lon="-77.0255">
    <name>TP857</name>
  </trkpt>
  <trkpt lat="-12.14562" lon="-77.02548">
    <name>TP858</name>
  </trkpt>
  <trkpt lat="-12.14563" lon="-77.02546">
    <name>TP859</name>
  </trkpt>
  <trkpt lat="-12.14564" lon="-77.02544">
    <name>TP860</name>
  </trkpt>
  <trkpt lat="-12.14564" lon="-77.02541">
    <name>TP861</name>
  </trkpt>
  <trkpt lat="-12.14563" lon="-77.02539">
    <name>TP862</name>
  </trkpt>
  <trkpt lat="-12.14561" lon="-77.02537">
    <name>TP863</name>
  </trkpt>
  <trkpt lat="-12.1456" lon="-77.02535">
    <name>TP864</name>
  </trkpt>
  <trkpt lat="-12.14559" lon="-77.02534">
    <name>TP865</name>
  </trkpt>
  <trkpt lat="-12.14553" lon="-77.02531">
    <name>TP866</name>
  </trkpt>
  <trkpt lat="-12.1455282" lon="-77.0253111">
    <name>TP867</name>
  </trkpt>
  <trkpt lat="-12.14497" lon="-77.02536">
    <name>TP868</name>
  </trkpt>
  <trkpt lat="-12.14479" lon="-77.02537">
    <name>TP869</name>
  </trkpt>
  <trkpt lat="-12.1445" lon="-77.02542">
    <name>TP870</name>
  </trkpt>
  <trkpt lat="-12.14431" lon="-77.02546">
    <name>TP871</name>
  </trkpt>
  <trkpt lat="-12.14411" lon="-77.02552">
    <name>TP872</name>
  </trkpt>
  <trkpt lat="-12.14389" lon="-77.02559">
    <name>TP873</name>
  </trkpt>
  <trkpt lat="-12.14362" lon="-77.02573">
    <name>TP874</name>
  </trkpt>
  <trkpt lat="-12.14353" lon="-77.02577">
    <name>TP875</name>
  </trkpt>
  <trkpt lat="-12.14338" lon="-77.02584">
    <name>TP876</name>
  </trkpt>
  <trkpt lat="-12.14336" lon="-77.02584">
    <name>TP877</name>
  </trkpt>
  <trkpt lat="-12.14319" lon="-77.02592">
    <name>TP878</name>
  </trkpt>
  <trkpt lat="-12.14314" lon="-77.02594">
    <name>TP879</name>
  </trkpt>
  <trkpt lat="-12.14309" lon="-77.02596">
    <name>TP880</name>
  </trkpt>
  <trkpt lat="-12.14233" lon="-77.02625">
    <name>TP881</name>
  </trkpt>
  <trkpt lat="-12.1423288" lon="-77.0262494">
    <name>TP882</name>
  </trkpt>
  <trkpt lat="-12.14216" lon="-77.02631">
    <name>TP883</name>
  </trkpt>
  <trkpt lat="-12.14208" lon="-77.02634">
    <name>TP884</name>
  </trkpt>
  <trkpt lat="-12.142" lon="-77.02638">
    <name>TP885</name>
  </trkpt>
  <trkpt lat="-12.142" lon="-77.02639">
    <name>TP886</name>
  </trkpt>
  <trkpt lat="-12.14193" lon="-77.02644">
    <name>TP887</name>
  </trkpt>
  <trkpt lat="-12.14186" lon="-77.02649">
    <name>TP888</name>
  </trkpt>
  <trkpt lat="-12.14171" lon="-77.0266">
    <name>TP889</name>
  </trkpt>
  <trkpt lat="-12.14157" lon="-77.02671">
    <name>TP890</name>
  </trkpt>
  <trkpt lat="-12.14143" lon="-77.02681">
    <name>TP891</name>
  </trkpt>
  <trkpt lat="-12.14128" lon="-77.02692">
    <name>TP892</name>
  </trkpt>
  <trkpt lat="-12.1412" lon="-77.02698">
    <name>TP893</name>
  </trkpt>
  <trkpt lat="-12.14115" lon="-77.02702">
    <name>TP894</name>
  </trkpt>
  <trkpt lat="-12.14102" lon="-77.02711">
    <name>TP895</name>
  </trkpt>
  <trkpt lat="-12.14098" lon="-77.02715">
    <name>TP896</name>
  </trkpt>
  <trkpt lat="-12.1409" lon="-77.02721">
    <name>TP897</name>
  </trkpt>
  <trkpt lat="-12.14077" lon="-77.0273">
    <name>TP898</name>
  </trkpt>
  <trkpt lat="-12.14074" lon="-77.02732">
    <name>TP899</name>
  </trkpt>
  <trkpt lat="-12.1406" lon="-77.02743">
    <name>TP900</name>
  </trkpt>
  <trkpt lat="-12.14051" lon="-77.0275">
    <name>TP901</name>
  </trkpt>
  <trkpt lat="-12.14045" lon="-77.02754">
    <name>TP902</name>
  </trkpt>
  <trkpt lat="-12.14044" lon="-77.02754">
    <name>TP903</name>
  </trkpt>
  <trkpt lat="-12.14035" lon="-77.0276">
    <name>TP904</name>
  </trkpt>
  <trkpt lat="-12.1403" lon="-77.02763">
    <name>TP905</name>
  </trkpt>
  <trkpt lat="-12.14029" lon="-77.02764">
    <name>TP906</name>
  </trkpt>
  <trkpt lat="-12.14018" lon="-77.02769">
    <name>TP907</name>
  </trkpt>
  <trkpt lat="-12.14014" lon="-77.02771">
    <name>TP908</name>
  </trkpt>
  <trkpt lat="-12.14012" lon="-77.02772">
    <name>TP909</name>
  </trkpt>
  <trkpt lat="-12.1401" lon="-77.02773">
    <name>TP910</name>
  </trkpt>
  <trkpt lat="-12.14002" lon="-77.02775">
    <name>TP911</name>
  </trkpt>
  <trkpt lat="-12.14001" lon="-77.02775">
    <name>TP912</name>
  </trkpt>
  <trkpt lat="-12.13996" lon="-77.02775">
    <name>TP913</name>
  </trkpt>
  <trkpt lat="-12.13995" lon="-77.02776">
    <name>TP914</name>
  </trkpt>
  <trkpt lat="-12.13994" lon="-77.02776">
    <name>TP915</name>
  </trkpt>
  <trkpt lat="-12.13985" lon="-77.02776">
    <name>TP916</name>
  </trkpt>
  <trkpt lat="-12.13978" lon="-77.02775">
    <name>TP917</name>
  </trkpt>
  <trkpt lat="-12.13971" lon="-77.02775">
    <name>TP918</name>
  </trkpt>
  <trkpt lat="-12.13964" lon="-77.02773">
    <name>TP919</name>
  </trkpt>
  <trkpt lat="-12.13956" lon="-77.02771">
    <name>TP920</name>
  </trkpt>
  <trkpt lat="-12.1395" lon="-77.02768">
    <name>TP921</name>
  </trkpt>
  <trkpt lat="-12.13942" lon="-77.02764">
    <name>TP922</name>
  </trkpt>
  <trkpt lat="-12.13936" lon="-77.0276">
    <name>TP923</name>
  </trkpt>
  <trkpt lat="-12.1393" lon="-77.02755">
    <name>TP924</name>
  </trkpt>
  <trkpt lat="-12.1392" lon="-77.02746">
    <name>TP925</name>
  </trkpt>
  <trkpt lat="-12.13919" lon="-77.02745">
    <name>TP926</name>
  </trkpt>
  <trkpt lat="-12.13917" lon="-77.02743">
    <name>TP927</name>
  </trkpt>
  <trkpt lat="-12.13915" lon="-77.02741">
    <name>TP928</name>
  </trkpt>
  <trkpt lat="-12.13911" lon="-77.02738">
    <name>TP929</name>
  </trkpt>
  <trkpt lat="-12.13909" lon="-77.02736">
    <name>TP930</name>
  </trkpt>
  <trkpt lat="-12.139" lon="-77.02729">
    <name>TP931</name>
  </trkpt>
  <trkpt lat="-12.13897" lon="-77.02727">
    <name>TP932</name>
  </trkpt>
  <trkpt lat="-12.13887" lon="-77.02718">
    <name>TP933</name>
  </trkpt>
  <trkpt lat="-12.13877" lon="-77.02711">
    <name>TP934</name>
  </trkpt>
  <trkpt lat="-12.13868" lon="-77.02705">
    <name>TP935</name>
  </trkpt>
  <trkpt lat="-12.13857" lon="-77.02697">
    <name>TP936</name>
  </trkpt>
  <trkpt lat="-12.13844" lon="-77.0269">
    <name>TP937</name>
  </trkpt>
  <trkpt lat="-12.13823" lon="-77.02678">
    <name>TP938</name>
  </trkpt>
  <trkpt lat="-12.13817" lon="-77.02675">
    <name>TP939</name>
  </trkpt>
  <trkpt lat="-12.1376" lon="-77.02644">
    <name>TP940</name>
  </trkpt>
  <trkpt lat="-12.13758" lon="-77.02643">
    <name>TP941</name>
  </trkpt>
  <trkpt lat="-12.13746" lon="-77.02637">
    <name>TP942</name>
  </trkpt>
  <trkpt lat="-12.13715" lon="-77.02618">
    <name>TP943</name>
  </trkpt>
  <trkpt lat="-12.13677" lon="-77.02594">
    <name>TP944</name>
  </trkpt>
  <trkpt lat="-12.13659" lon="-77.02581">
    <name>TP945</name>
  </trkpt>
  <trkpt lat="-12.1365" lon="-77.02573">
    <name>TP946</name>
  </trkpt>
  <trkpt lat="-12.1364" lon="-77.02562">
    <name>TP947</name>
  </trkpt>
  <trkpt lat="-12.13634" lon="-77.02554">
    <name>TP948</name>
  </trkpt>
  <trkpt lat="-12.13631" lon="-77.0255">
    <name>TP949</name>
  </trkpt>
  <trkpt lat="-12.13625" lon="-77.02541">
    <name>TP950</name>
  </trkpt>
  <trkpt lat="-12.13621" lon="-77.02532">
    <name>TP951</name>
  </trkpt>
  <trkpt lat="-12.13617" lon="-77.02524">
    <name>TP952</name>
  </trkpt>
  <trkpt lat="-12.13614" lon="-77.02516">
    <name>TP953</name>
  </trkpt>
  <trkpt lat="-12.13612" lon="-77.02513">
    <name>TP954</name>
  </trkpt>
  <trkpt lat="-12.1361" lon="-77.02508">
    <name>TP955</name>
  </trkpt>
  <trkpt lat="-12.13607" lon="-77.02499">
    <name>TP956</name>
  </trkpt>
  <trkpt lat="-12.13604" lon="-77.0249">
    <name>TP957</name>
  </trkpt>
  <trkpt lat="-12.13602" lon="-77.0248">
    <name>TP958</name>
  </trkpt>
  <trkpt lat="-12.13595" lon="-77.02437">
    <name>TP959</name>
  </trkpt>
  <trkpt lat="-12.13589" lon="-77.02418">
    <name>TP960</name>
  </trkpt>
  <trkpt lat="-12.1358889" lon="-77.0241757">
    <name>TP961</name>
  </trkpt>
  <trkpt lat="-12.13589" lon="-77.02405">
    <name>TP962</name>
  </trkpt>
  <trkpt lat="-12.13588" lon="-77.02398">
    <name>TP963</name>
  </trkpt>
  <trkpt lat="-12.13579" lon="-77.02372">
    <name>TP964</name>
  </trkpt>
  <trkpt lat="-12.13577" lon="-77.02366">
    <name>TP965</name>
  </trkpt>
  <trkpt lat="-12.13575" lon="-77.0236">
    <name>TP966</name>
  </trkpt>
  <trkpt lat="-12.13573" lon="-77.02351">
    <name>TP967</name>
  </trkpt>
  <trkpt lat="-12.13573" lon="-77.02347">
    <name>TP968</name>
  </trkpt>
  <trkpt lat="-12.13572" lon="-77.02343">
    <name>TP969</name>
  </trkpt>
  <trkpt lat="-12.13573" lon="-77.02333">
    <name>TP970</name>
  </trkpt>
  <trkpt lat="-12.13576" lon="-77.02323">
    <name>TP971</name>
  </trkpt>
  <trkpt lat="-12.13579" lon="-77.02317">
    <name>TP972</name>
  </trkpt>
  <trkpt lat="-12.13582" lon="-77.02312">
    <name>TP973</name>
  </trkpt>
  <trkpt lat="-12.13587" lon="-77.02305">
    <name>TP974</name>
  </trkpt>
  <trkpt lat="-12.13593" lon="-77.02301">
    <name>TP975</name>
  </trkpt>
  <trkpt lat="-12.13604" lon="-77.02293">
    <name>TP976</name>
  </trkpt>
  <trkpt lat="-12.13611" lon="-77.02291">
    <name>TP977</name>
  </trkpt>
  <trkpt lat="-12.13618" lon="-77.02288">
    <name>TP978</name>
  </trkpt>
  <trkpt lat="-12.13624" lon="-77.02287">
    <name>TP979</name>
  </trkpt>
  <trkpt lat="-12.13625" lon="-77.02287">
    <name>TP980</name>
  </trkpt>
  <trkpt lat="-12.13628" lon="-77.02286">
    <name>TP981</name>
  </trkpt>
  <trkpt lat="-12.1364" lon="-77.02283">
    <name>TP982</name>
  </trkpt>
  <trkpt lat="-12.13642" lon="-77.02283">
    <name>TP983</name>
  </trkpt>
  <trkpt lat="-12.13673" lon="-77.02275">
    <name>TP984</name>
  </trkpt>
  <trkpt lat="-12.13688" lon="-77.0227">
    <name>TP985</name>
  </trkpt>
  <trkpt lat="-12.13724" lon="-77.02264">
    <name>TP986</name>
  </trkpt>
  <trkpt lat="-12.13776" lon="-77.02256">
    <name>TP987</name>
  </trkpt>
  <trkpt lat="-12.1378" lon="-77.02256">
    <name>TP988</name>
  </trkpt>
  <trkpt lat="-12.13789" lon="-77.02255">
    <name>TP989</name>
  </trkpt>
  <trkpt lat="-12.13807" lon="-77.02251">
    <name>TP990</name>
  </trkpt>
  <trkpt lat="-12.13828" lon="-77.02249">
    <name>TP991</name>
  </trkpt>
  <trkpt lat="-12.13848" lon="-77.02247">
    <name>TP992</name>
  </trkpt>
  <trkpt lat="-12.13853" lon="-77.02246">
    <name>TP993</name>
  </trkpt>
  <trkpt lat="-12.13868" lon="-77.02244">
    <name>TP994</name>
  </trkpt>
  <trkpt lat="-12.13889" lon="-77.02242">
    <name>TP995</name>
  </trkpt>
  <trkpt lat="-12.13901" lon="-77.02241">
    <name>TP996</name>
  </trkpt>
  <trkpt lat="-12.13905" lon="-77.0224">
    <name>TP997</name>
  </trkpt>
  <trkpt lat="-12.13913" lon="-77.0224">
    <name>TP998</name>
  </trkpt>
  <trkpt lat="-12.13923" lon="-77.02239">
    <name>TP999</name>
  </trkpt>
  <trkpt lat="-12.1392284" lon="-77.022392">
    <name>TP1000</name>
  </trkpt>
  <trkpt lat="-12.13938" lon="-77.02252">
    <name>TP1001</name>
  </trkpt>
  <trkpt lat="-12.13943" lon="-77.02259">
    <name>TP1002</name>
  </trkpt>
  <trkpt lat="-12.13951" lon="-77.02269">
    <name>TP1003</name>
  </trkpt>
  <trkpt lat="-12.13951" lon="-77.02296">
    <name>TP1004</name>
  </trkpt>
  <trkpt lat="-12.13949" lon="-77.02325">
    <name>TP1005</name>
  </trkpt>
  <trkpt lat="-12.13947" lon="-77.02338">
    <name>TP1006</name>
  </trkpt>
  <trkpt lat="-12.13939" lon="-77.02371">
    <name>TP1007</name>
  </trkpt>
  <trkpt lat="-12.1393882" lon="-77.023708">
    <name>TP1008</name>
  </trkpt>
  <trkpt lat="-12.13981" lon="-77.02358">
    <name>TP1009</name>
  </trkpt>
  <trkpt lat="-12.14008" lon="-77.02348">
    <name>TP1010</name>
  </trkpt>
  <trkpt lat="-12.14033" lon="-77.02342">
    <name>TP1011</name>
  </trkpt>
  <trkpt lat="-12.14052" lon="-77.02338">
    <name>TP1012</name>
  </trkpt>
  <trkpt lat="-12.14069" lon="-77.02336">
    <name>TP1013</name>
  </trkpt>
  <trkpt lat="-12.14071" lon="-77.02336">
    <name>TP1014</name>
  </trkpt>
  <trkpt lat="-12.14087" lon="-77.02335">
    <name>TP1015</name>
  </trkpt>
  <trkpt lat="-12.14105" lon="-77.02333">
    <name>TP1016</name>
  </trkpt>
  <trkpt lat="-12.14115" lon="-77.02332">
    <name>TP1017</name>
  </trkpt>
  <trkpt lat="-12.14123" lon="-77.02331">
    <name>TP1018</name>
  </trkpt>
  <trkpt lat="-12.14127" lon="-77.02331">
    <name>TP1019</name>
  </trkpt>
  <trkpt lat="-12.14145" lon="-77.02329">
    <name>TP1020</name>
  </trkpt>
  <trkpt lat="-12.14163" lon="-77.02328">
    <name>TP1021</name>
  </trkpt>
  <trkpt lat="-12.14181" lon="-77.02327">
    <name>TP1022</name>
  </trkpt>
  <trkpt lat="-12.14199" lon="-77.02326">
    <name>TP1023</name>
  </trkpt>
  <trkpt lat="-12.14217" lon="-77.02324">
    <name>TP1024</name>
  </trkpt>
  <trkpt lat="-12.14231" lon="-77.02323">
    <name>TP1025</name>
  </trkpt>
  <trkpt lat="-12.14251" lon="-77.02322">
    <name>TP1026</name>
  </trkpt>
  <trkpt lat="-12.14305" lon="-77.02318">
    <name>TP1027</name>
  </trkpt>
  <trkpt lat="-12.14307" lon="-77.02317">
    <name>TP1028</name>
  </trkpt>
  <trkpt lat="-12.1430744" lon="-77.023174">
    <name>TP1029</name>
  </trkpt>
  <trkpt lat="-12.14317" lon="-77.02311">
    <name>TP1030</name>
  </trkpt>
  <trkpt lat="-12.14341" lon="-77.02308">
    <name>TP1031</name>
  </trkpt>
  <trkpt lat="-12.1435" lon="-77.02312">
    <name>TP1032</name>
  </trkpt>
  <trkpt lat="-12.14361" lon="-77.02312">
    <name>TP1033</name>
  </trkpt>
  <trkpt lat="-12.14378" lon="-77.0231">
    <name>TP1034</name>
  </trkpt>
  <trkpt lat="-12.14395" lon="-77.02309">
    <name>TP1035</name>
  </trkpt>
  <trkpt lat="-12.14412" lon="-77.02307">
    <name>TP1036</name>
  </trkpt>
  <trkpt lat="-12.1443" lon="-77.02306">
    <name>TP1037</name>
  </trkpt>
  <trkpt lat="-12.14447" lon="-77.02304">
    <name>TP1038</name>
  </trkpt>
  <trkpt lat="-12.14464" lon="-77.02303">
    <name>TP1039</name>
  </trkpt>
  <trkpt lat="-12.14465" lon="-77.02303">
    <name>TP1040</name>
  </trkpt>
  <trkpt lat="-12.1447" lon="-77.02302">
    <name>TP1041</name>
  </trkpt>
  <trkpt lat="-12.14474" lon="-77.02302">
    <name>TP1042</name>
  </trkpt>
  <trkpt lat="-12.14488" lon="-77.02301">
    <name>TP1043</name>
  </trkpt>
  <trkpt lat="-12.145" lon="-77.023">
    <name>TP1044</name>
  </trkpt>
  <trkpt lat="-12.14506" lon="-77.02299">
    <name>TP1045</name>
  </trkpt>
  <trkpt lat="-12.14524" lon="-77.02298">
    <name>TP1046</name>
  </trkpt>
  <trkpt lat="-12.14543" lon="-77.02296">
    <name>TP1047</name>
  </trkpt>
  <trkpt lat="-12.14557" lon="-77.02295">
    <name>TP1048</name>
  </trkpt>
  <trkpt lat="-12.14561" lon="-77.02294">
    <name>TP1049</name>
  </trkpt>
  <trkpt lat="-12.14579" lon="-77.02293">
    <name>TP1050</name>
  </trkpt>
  <trkpt lat="-12.14598" lon="-77.02291">
    <name>TP1051</name>
  </trkpt>
  <trkpt lat="-12.14601" lon="-77.02291">
    <name>TP1052</name>
  </trkpt>
  <trkpt lat="-12.14606" lon="-77.0229">
    <name>TP1053</name>
  </trkpt>
  <trkpt lat="-12.14608" lon="-77.0229">
    <name>TP1054</name>
  </trkpt>
  <trkpt lat="-12.1461" lon="-77.02289">
    <name>TP1055</name>
  </trkpt>
  <trkpt lat="-12.14616" lon="-77.02288">
    <name>TP1056</name>
  </trkpt>
  <trkpt lat="-12.146156" lon="-77.0228761">
    <name>TP1057</name>
  </trkpt>
  <trkpt lat="-12.14618" lon="-77.02287">
    <name>TP1058</name>
  </trkpt>
  <trkpt lat="-12.14622" lon="-77.02286">
    <name>TP1059</name>
  </trkpt>
  <trkpt lat="-12.14625" lon="-77.02284">
    <name>TP1060</name>
  </trkpt>
  <trkpt lat="-12.1463" lon="-77.02282">
    <name>TP1061</name>
  </trkpt>
  <trkpt lat="-12.14632" lon="-77.02281">
    <name>TP1062</name>
  </trkpt>
  <trkpt lat="-12.14646" lon="-77.02275">
    <name>TP1063</name>
  </trkpt>
  <trkpt lat="-12.14649" lon="-77.02273">
    <name>TP1064</name>
  </trkpt>
  <trkpt lat="-12.14665" lon="-77.02266">
    <name>TP1065</name>
  </trkpt>
  <trkpt lat="-12.14682" lon="-77.02259">
    <name>TP1066</name>
  </trkpt>
  <trkpt lat="-12.14689" lon="-77.02255">
    <name>TP1067</name>
  </trkpt>
  <trkpt lat="-12.14697" lon="-77.02252">
    <name>TP1068</name>
  </trkpt>
  <trkpt lat="-12.1471" lon="-77.02245">
    <name>TP1069</name>
  </trkpt>
  <trkpt lat="-12.14732" lon="-77.02234">
    <name>TP1070</name>
  </trkpt>
  <trkpt lat="-12.14769" lon="-77.02219">
    <name>TP1071</name>
  </trkpt>
  <trkpt lat="-12.14785" lon="-77.02212">
    <name>TP1072</name>
  </trkpt>
  <trkpt lat="-12.14816" lon="-77.022">
    <name>TP1073</name>
  </trkpt>
  <trkpt lat="-12.14829" lon="-77.02196">
    <name>TP1074</name>
  </trkpt>
  <trkpt lat="-12.14841" lon="-77.02192">
    <name>TP1075</name>
  </trkpt>
  <trkpt lat="-12.14856" lon="-77.02187">
    <name>TP1076</name>
  </trkpt>
  <trkpt lat="-12.14861" lon="-77.02186">
    <name>TP1077</name>
  </trkpt>
  <trkpt lat="-12.14915" lon="-77.02167">
    <name>TP1078</name>
  </trkpt>
  <trkpt lat="-12.1491474" lon="-77.0216725">
    <name>TP1079</name>
  </trkpt>
  <trkpt lat="-12.14918" lon="-77.02163">
    <name>TP1080</name>
  </trkpt>
  <trkpt lat="-12.14919" lon="-77.02161">
    <name>TP1081</name>
  </trkpt>
  <trkpt lat="-12.1492" lon="-77.02158">
    <name>TP1082</name>
  </trkpt>
  <trkpt lat="-12.14921" lon="-77.02156">
    <name>TP1083</name>
  </trkpt>
  <trkpt lat="-12.14922" lon="-77.02152">
    <name>TP1084</name>
  </trkpt>
  <trkpt lat="-12.14902" lon="-77.02096">
    <name>TP1085</name>
  </trkpt>
  <trkpt lat="-12.1490176" lon="-77.0209644">
    <name>TP1086</name>
  </trkpt>
  <trkpt lat="-12.14885" lon="-77.02101">
    <name>TP1087</name>
  </trkpt>
  <trkpt lat="-12.1486" lon="-77.02108">
    <name>TP1088</name>
  </trkpt>
  <trkpt lat="-12.1484" lon="-77.02114">
    <name>TP1089</name>
  </trkpt>
  <trkpt lat="-12.14826" lon="-77.02119">
    <name>TP1090</name>
  </trkpt>
  <trkpt lat="-12.14819" lon="-77.02121">
    <name>TP1091</name>
  </trkpt>
  <trkpt lat="-12.14761" lon="-77.02139">
    <name>TP1092</name>
  </trkpt>
  <trkpt lat="-12.14741" lon="-77.02145">
    <name>TP1093</name>
  </trkpt>
  <trkpt lat="-12.14707" lon="-77.02152">
    <name>TP1094</name>
  </trkpt>
  <trkpt lat="-12.14691" lon="-77.02156">
    <name>TP1095</name>
  </trkpt>
  <trkpt lat="-12.1469117" lon="-77.0215565">
    <name>TP1096</name>
  </trkpt>
  <trkpt lat="-12.1469117" lon="-77.0215565">
    <name>TP1097</name>
  </trkpt>
  <trkpt lat="-12.1469117" lon="-77.0215565">
    <name>TP1098</name>
  </trkpt>
  </trkseg>
</trk>
</gpx>