<?xml version="1.0" encoding="UTF-8" standalone="no" ?>
<gpx xmlns="http://www.topografix.com/GPX/1/1" xmlns:gpxx="http://www.garmin.com/xmlschemas/GpxExtensions/v3" xmlns:gpxtpx="http://www.garmin.com/xmlschemas/TrackPointExtension/v1" creator="mapstogpx.com" version="1.1" xmlns:xsi="http://www.w3.org/2001/XMLSchema-instance" xsi:schemaLocation="http://www.topografix.com/GPX/1/1 http://www.topografix.com/GPX/1/1/gpx.xsd http://www.garmin.com/xmlschemas/GpxExtensions/v3 http://www.garmin.com/xmlschemas/GpxExtensionsv3.xsd http://www.garmin.com/xmlschemas/TrackPointExtension/v1 http://www.garmin.com/xmlschemas/TrackPointExtensionv1.xsd">
  <metadata>
    <link href="http://www.mapstogpx.com">
      <text>Sverrir Sigmundarson</text>
    </link>
    <!--desc>Map data ©2024 INEGI</desc-->
    <!--copyright author="Google Inc">
    	<year>2024</year>
    	<license>https://developers.google.com/maps/terms</license>
    </copyright-->
    <!--url>https://www.google.com/maps/dir/15.862993,-97.072441/Ecoturismo+Manialtepec+(Aguas+Termales),+San+jose+manialtepec,+71831+Puerto+Escondido,+Oax./@15.9507518,-97.3306602,30209m/data=!3m1!1e3!4m9!4m8!1m0!1m5!1m1!1s0x85b85cc280c0f7b1:0xdc900bb7420a397a!2m2!1d-97.2437912!2d15.9744127!3e0?entry=tts&g_ep=EgoyMDI0MTExMy4xKgBIAVAD&hl=en</url-->
    <time>2024-12-19T17:05:28Z</time>
  </metadata>
  <wpt lat="15.862993" lon="-97.072441">
    <name>Reforma</name>
    <desc>Primera Nte. 410, Reforma, 71994 Puerto Escondido, Oax., Mexico</desc>
  </wpt>
  <wpt lat="15.9744555" lon="-97.2437866">
    <name>Ecoturismo Manialtepec (Aguas Termales)</name>
    <desc>Ecoturismo Manialtepec (Aguas Termales), San jose manialtepec, 71831 Puerto Escondido, Oax., Mexico</desc>
  </wpt>
<trk>
  <name>Reforma to Ecoturismo Manialtepec (Aguas Termales)</name>
  <number>1</number>
  <trkseg>
  <trkpt lat="15.8626599" lon="-97.0723515">
    <name>TP001</name>
  </trkpt>
  <trkpt lat="15.86265" lon="-97.07239">
    <name>TP002</name>
  </trkpt>
  <trkpt lat="15.86262" lon="-97.0725">
    <name>TP003</name>
  </trkpt>
  <trkpt lat="15.86256" lon="-97.07276">
    <name>TP004</name>
  </trkpt>
  <trkpt lat="15.8625621" lon="-97.0727649">
    <name>TP005</name>
  </trkpt>
  <trkpt lat="15.86331" lon="-97.07295">
    <name>TP006</name>
  </trkpt>
  <trkpt lat="15.86398" lon="-97.07313">
    <name>TP007</name>
  </trkpt>
  <trkpt lat="15.8641" lon="-97.07313">
    <name>TP008</name>
  </trkpt>
  <trkpt lat="15.8641027" lon="-97.0731292">
    <name>TP009</name>
  </trkpt>
  <trkpt lat="15.86417" lon="-97.0731">
    <name>TP010</name>
  </trkpt>
  <trkpt lat="15.86467" lon="-97.07391">
    <name>TP011</name>
  </trkpt>
  <trkpt lat="15.86503" lon="-97.0745">
    <name>TP012</name>
  </trkpt>
  <trkpt lat="15.86508" lon="-97.0746">
    <name>TP013</name>
  </trkpt>
  <trkpt lat="15.86562" lon="-97.0755">
    <name>TP014</name>
  </trkpt>
  <trkpt lat="15.86573" lon="-97.07568">
    <name>TP015</name>
  </trkpt>
  <trkpt lat="15.86588" lon="-97.07592">
    <name>TP016</name>
  </trkpt>
  <trkpt lat="15.86641" lon="-97.07679">
    <name>TP017</name>
  </trkpt>
  <trkpt lat="15.86662" lon="-97.07728">
    <name>TP018</name>
  </trkpt>
  <trkpt lat="15.86682" lon="-97.0778">
    <name>TP019</name>
  </trkpt>
  <trkpt lat="15.86722" lon="-97.07888">
    <name>TP020</name>
  </trkpt>
  <trkpt lat="15.86724" lon="-97.07894">
    <name>TP021</name>
  </trkpt>
  <trkpt lat="15.8676" lon="-97.07992">
    <name>TP022</name>
  </trkpt>
  <trkpt lat="15.86774" lon="-97.08031">
    <name>TP023</name>
  </trkpt>
  <trkpt lat="15.86785" lon="-97.08062">
    <name>TP024</name>
  </trkpt>
  <trkpt lat="15.86797" lon="-97.08099">
    <name>TP025</name>
  </trkpt>
  <trkpt lat="15.86803" lon="-97.08116">
    <name>TP026</name>
  </trkpt>
  <trkpt lat="15.8682" lon="-97.08165">
    <name>TP027</name>
  </trkpt>
  <trkpt lat="15.86852" lon="-97.08252">
    <name>TP028</name>
  </trkpt>
  <trkpt lat="15.86859" lon="-97.0827">
    <name>TP029</name>
  </trkpt>
  <trkpt lat="15.86867" lon="-97.08293">
    <name>TP030</name>
  </trkpt>
  <trkpt lat="15.86896" lon="-97.08372">
    <name>TP031</name>
  </trkpt>
  <trkpt lat="15.86932" lon="-97.08464">
    <name>TP032</name>
  </trkpt>
  <trkpt lat="15.86937" lon="-97.08478">
    <name>TP033</name>
  </trkpt>
  <trkpt lat="15.86951" lon="-97.0852">
    <name>TP034</name>
  </trkpt>
  <trkpt lat="15.86959" lon="-97.08544">
    <name>TP035</name>
  </trkpt>
  <trkpt lat="15.86991" lon="-97.08633">
    <name>TP036</name>
  </trkpt>
  <trkpt lat="15.8701" lon="-97.08686">
    <name>TP037</name>
  </trkpt>
  <trkpt lat="15.87027" lon="-97.08732">
    <name>TP038</name>
  </trkpt>
  <trkpt lat="15.87061" lon="-97.08822">
    <name>TP039</name>
  </trkpt>
  <trkpt lat="15.87076" lon="-97.08865">
    <name>TP040</name>
  </trkpt>
  <trkpt lat="15.87116" lon="-97.08977">
    <name>TP041</name>
  </trkpt>
  <trkpt lat="15.87121" lon="-97.08991">
    <name>TP042</name>
  </trkpt>
  <trkpt lat="15.87128" lon="-97.0901">
    <name>TP043</name>
  </trkpt>
  <trkpt lat="15.87174" lon="-97.09142">
    <name>TP044</name>
  </trkpt>
  <trkpt lat="15.87187" lon="-97.09178">
    <name>TP045</name>
  </trkpt>
  <trkpt lat="15.87195" lon="-97.09197">
    <name>TP046</name>
  </trkpt>
  <trkpt lat="15.8721" lon="-97.09235">
    <name>TP047</name>
  </trkpt>
  <trkpt lat="15.87237" lon="-97.09313">
    <name>TP048</name>
  </trkpt>
  <trkpt lat="15.87241" lon="-97.09325">
    <name>TP049</name>
  </trkpt>
  <trkpt lat="15.87243" lon="-97.09334">
    <name>TP050</name>
  </trkpt>
  <trkpt lat="15.87246" lon="-97.09346">
    <name>TP051</name>
  </trkpt>
  <trkpt lat="15.87251" lon="-97.09364">
    <name>TP052</name>
  </trkpt>
  <trkpt lat="15.87253" lon="-97.09371">
    <name>TP053</name>
  </trkpt>
  <trkpt lat="15.87254" lon="-97.09377">
    <name>TP054</name>
  </trkpt>
  <trkpt lat="15.87255" lon="-97.09388">
    <name>TP055</name>
  </trkpt>
  <trkpt lat="15.8725523" lon="-97.093876">
    <name>TP056</name>
  </trkpt>
  <trkpt lat="15.87267" lon="-97.0942">
    <name>TP057</name>
  </trkpt>
  <trkpt lat="15.87285" lon="-97.09458">
    <name>TP058</name>
  </trkpt>
  <trkpt lat="15.87318" lon="-97.09513">
    <name>TP059</name>
  </trkpt>
  <trkpt lat="15.87366" lon="-97.09588">
    <name>TP060</name>
  </trkpt>
  <trkpt lat="15.8741" lon="-97.09657">
    <name>TP061</name>
  </trkpt>
  <trkpt lat="15.8742" lon="-97.09673">
    <name>TP062</name>
  </trkpt>
  <trkpt lat="15.87449" lon="-97.0972">
    <name>TP063</name>
  </trkpt>
  <trkpt lat="15.87478" lon="-97.09766">
    <name>TP064</name>
  </trkpt>
  <trkpt lat="15.87515" lon="-97.09825">
    <name>TP065</name>
  </trkpt>
  <trkpt lat="15.87591" lon="-97.09945">
    <name>TP066</name>
  </trkpt>
  <trkpt lat="15.87642" lon="-97.10027">
    <name>TP067</name>
  </trkpt>
  <trkpt lat="15.87717" lon="-97.10147">
    <name>TP068</name>
  </trkpt>
  <trkpt lat="15.87731" lon="-97.1017">
    <name>TP069</name>
  </trkpt>
  <trkpt lat="15.87778" lon="-97.10244">
    <name>TP070</name>
  </trkpt>
  <trkpt lat="15.87838" lon="-97.10341">
    <name>TP071</name>
  </trkpt>
  <trkpt lat="15.87874" lon="-97.10397">
    <name>TP072</name>
  </trkpt>
  <trkpt lat="15.87904" lon="-97.10443">
    <name>TP073</name>
  </trkpt>
  <trkpt lat="15.87943" lon="-97.10505">
    <name>TP074</name>
  </trkpt>
  <trkpt lat="15.87946" lon="-97.1051">
    <name>TP075</name>
  </trkpt>
  <trkpt lat="15.87977" lon="-97.10559">
    <name>TP076</name>
  </trkpt>
  <trkpt lat="15.88" lon="-97.10596">
    <name>TP077</name>
  </trkpt>
  <trkpt lat="15.88026" lon="-97.10635">
    <name>TP078</name>
  </trkpt>
  <trkpt lat="15.88027" lon="-97.10636">
    <name>TP079</name>
  </trkpt>
  <trkpt lat="15.88042" lon="-97.10657">
    <name>TP080</name>
  </trkpt>
  <trkpt lat="15.88055" lon="-97.1067">
    <name>TP081</name>
  </trkpt>
  <trkpt lat="15.88058" lon="-97.10673">
    <name>TP082</name>
  </trkpt>
  <trkpt lat="15.88074" lon="-97.10686">
    <name>TP083</name>
  </trkpt>
  <trkpt lat="15.88086" lon="-97.10695">
    <name>TP084</name>
  </trkpt>
  <trkpt lat="15.88099" lon="-97.10704">
    <name>TP085</name>
  </trkpt>
  <trkpt lat="15.8811" lon="-97.10711">
    <name>TP086</name>
  </trkpt>
  <trkpt lat="15.88122" lon="-97.10717">
    <name>TP087</name>
  </trkpt>
  <trkpt lat="15.88174" lon="-97.10737">
    <name>TP088</name>
  </trkpt>
  <trkpt lat="15.88185" lon="-97.1074">
    <name>TP089</name>
  </trkpt>
  <trkpt lat="15.8819" lon="-97.10742">
    <name>TP090</name>
  </trkpt>
  <trkpt lat="15.88202" lon="-97.10746">
    <name>TP091</name>
  </trkpt>
  <trkpt lat="15.88228" lon="-97.10754">
    <name>TP092</name>
  </trkpt>
  <trkpt lat="15.88244" lon="-97.1076">
    <name>TP093</name>
  </trkpt>
  <trkpt lat="15.88251" lon="-97.10763">
    <name>TP094</name>
  </trkpt>
  <trkpt lat="15.88278" lon="-97.10776">
    <name>TP095</name>
  </trkpt>
  <trkpt lat="15.88303" lon="-97.10791">
    <name>TP096</name>
  </trkpt>
  <trkpt lat="15.88329" lon="-97.10812">
    <name>TP097</name>
  </trkpt>
  <trkpt lat="15.88331" lon="-97.10814">
    <name>TP098</name>
  </trkpt>
  <trkpt lat="15.88334" lon="-97.10817">
    <name>TP099</name>
  </trkpt>
  <trkpt lat="15.88343" lon="-97.10827">
    <name>TP100</name>
  </trkpt>
  <trkpt lat="15.88349" lon="-97.10834">
    <name>TP101</name>
  </trkpt>
  <trkpt lat="15.88361" lon="-97.1085">
    <name>TP102</name>
  </trkpt>
  <trkpt lat="15.88368" lon="-97.10858">
    <name>TP103</name>
  </trkpt>
  <trkpt lat="15.88396" lon="-97.10898">
    <name>TP104</name>
  </trkpt>
  <trkpt lat="15.88404" lon="-97.10908">
    <name>TP105</name>
  </trkpt>
  <trkpt lat="15.88425" lon="-97.10936">
    <name>TP106</name>
  </trkpt>
  <trkpt lat="15.88442" lon="-97.1096">
    <name>TP107</name>
  </trkpt>
  <trkpt lat="15.88445" lon="-97.10964">
    <name>TP108</name>
  </trkpt>
  <trkpt lat="15.88456" lon="-97.1098">
    <name>TP109</name>
  </trkpt>
  <trkpt lat="15.8855" lon="-97.11108">
    <name>TP110</name>
  </trkpt>
  <trkpt lat="15.88571" lon="-97.11136">
    <name>TP111</name>
  </trkpt>
  <trkpt lat="15.88606" lon="-97.11186">
    <name>TP112</name>
  </trkpt>
  <trkpt lat="15.88616" lon="-97.112">
    <name>TP113</name>
  </trkpt>
  <trkpt lat="15.88631" lon="-97.11222">
    <name>TP114</name>
  </trkpt>
  <trkpt lat="15.88654" lon="-97.11257">
    <name>TP115</name>
  </trkpt>
  <trkpt lat="15.88664" lon="-97.11271">
    <name>TP116</name>
  </trkpt>
  <trkpt lat="15.88697" lon="-97.11316">
    <name>TP117</name>
  </trkpt>
  <trkpt lat="15.88712" lon="-97.11336">
    <name>TP118</name>
  </trkpt>
  <trkpt lat="15.88755" lon="-97.11397">
    <name>TP119</name>
  </trkpt>
  <trkpt lat="15.88761" lon="-97.11405">
    <name>TP120</name>
  </trkpt>
  <trkpt lat="15.8878" lon="-97.11432">
    <name>TP121</name>
  </trkpt>
  <trkpt lat="15.88783" lon="-97.11435">
    <name>TP122</name>
  </trkpt>
  <trkpt lat="15.88788" lon="-97.11441">
    <name>TP123</name>
  </trkpt>
  <trkpt lat="15.88797" lon="-97.1145">
    <name>TP124</name>
  </trkpt>
  <trkpt lat="15.88807" lon="-97.1146">
    <name>TP125</name>
  </trkpt>
  <trkpt lat="15.88839" lon="-97.1149">
    <name>TP126</name>
  </trkpt>
  <trkpt lat="15.88875" lon="-97.1152">
    <name>TP127</name>
  </trkpt>
  <trkpt lat="15.88901" lon="-97.11543">
    <name>TP128</name>
  </trkpt>
  <trkpt lat="15.88935" lon="-97.11572">
    <name>TP129</name>
  </trkpt>
  <trkpt lat="15.8894" lon="-97.11576">
    <name>TP130</name>
  </trkpt>
  <trkpt lat="15.8896" lon="-97.11593">
    <name>TP131</name>
  </trkpt>
  <trkpt lat="15.88994" lon="-97.1162">
    <name>TP132</name>
  </trkpt>
  <trkpt lat="15.89039" lon="-97.11657">
    <name>TP133</name>
  </trkpt>
  <trkpt lat="15.89106" lon="-97.11713">
    <name>TP134</name>
  </trkpt>
  <trkpt lat="15.8914" lon="-97.11739">
    <name>TP135</name>
  </trkpt>
  <trkpt lat="15.89155" lon="-97.11746">
    <name>TP136</name>
  </trkpt>
  <trkpt lat="15.89177" lon="-97.11754">
    <name>TP137</name>
  </trkpt>
  <trkpt lat="15.89196" lon="-97.1176">
    <name>TP138</name>
  </trkpt>
  <trkpt lat="15.8921" lon="-97.11762">
    <name>TP139</name>
  </trkpt>
  <trkpt lat="15.89228" lon="-97.11764">
    <name>TP140</name>
  </trkpt>
  <trkpt lat="15.89241" lon="-97.11763">
    <name>TP141</name>
  </trkpt>
  <trkpt lat="15.89268" lon="-97.11761">
    <name>TP142</name>
  </trkpt>
  <trkpt lat="15.89306" lon="-97.11757">
    <name>TP143</name>
  </trkpt>
  <trkpt lat="15.89335" lon="-97.11753">
    <name>TP144</name>
  </trkpt>
  <trkpt lat="15.8936" lon="-97.11751">
    <name>TP145</name>
  </trkpt>
  <trkpt lat="15.89402" lon="-97.11749">
    <name>TP146</name>
  </trkpt>
  <trkpt lat="15.89429" lon="-97.11748">
    <name>TP147</name>
  </trkpt>
  <trkpt lat="15.89454" lon="-97.11745">
    <name>TP148</name>
  </trkpt>
  <trkpt lat="15.8949" lon="-97.11741">
    <name>TP149</name>
  </trkpt>
  <trkpt lat="15.89504" lon="-97.1174">
    <name>TP150</name>
  </trkpt>
  <trkpt lat="15.89549" lon="-97.11735">
    <name>TP151</name>
  </trkpt>
  <trkpt lat="15.8959" lon="-97.11731">
    <name>TP152</name>
  </trkpt>
  <trkpt lat="15.89637" lon="-97.11726">
    <name>TP153</name>
  </trkpt>
  <trkpt lat="15.89741" lon="-97.11716">
    <name>TP154</name>
  </trkpt>
  <trkpt lat="15.89803" lon="-97.11709">
    <name>TP155</name>
  </trkpt>
  <trkpt lat="15.89824" lon="-97.11707">
    <name>TP156</name>
  </trkpt>
  <trkpt lat="15.8985" lon="-97.11706">
    <name>TP157</name>
  </trkpt>
  <trkpt lat="15.89853" lon="-97.11706">
    <name>TP158</name>
  </trkpt>
  <trkpt lat="15.89933" lon="-97.11713">
    <name>TP159</name>
  </trkpt>
  <trkpt lat="15.89946" lon="-97.11714">
    <name>TP160</name>
  </trkpt>
  <trkpt lat="15.90001" lon="-97.11719">
    <name>TP161</name>
  </trkpt>
  <trkpt lat="15.90012" lon="-97.1172">
    <name>TP162</name>
  </trkpt>
  <trkpt lat="15.90042" lon="-97.11723">
    <name>TP163</name>
  </trkpt>
  <trkpt lat="15.90078" lon="-97.11727">
    <name>TP164</name>
  </trkpt>
  <trkpt lat="15.90126" lon="-97.11731">
    <name>TP165</name>
  </trkpt>
  <trkpt lat="15.90162" lon="-97.11735">
    <name>TP166</name>
  </trkpt>
  <trkpt lat="15.90182" lon="-97.11737">
    <name>TP167</name>
  </trkpt>
  <trkpt lat="15.90216" lon="-97.1174">
    <name>TP168</name>
  </trkpt>
  <trkpt lat="15.90269" lon="-97.11746">
    <name>TP169</name>
  </trkpt>
  <trkpt lat="15.90285" lon="-97.11747">
    <name>TP170</name>
  </trkpt>
  <trkpt lat="15.90411" lon="-97.1176">
    <name>TP171</name>
  </trkpt>
  <trkpt lat="15.90471" lon="-97.11765">
    <name>TP172</name>
  </trkpt>
  <trkpt lat="15.9048" lon="-97.11766">
    <name>TP173</name>
  </trkpt>
  <trkpt lat="15.90517" lon="-97.1177">
    <name>TP174</name>
  </trkpt>
  <trkpt lat="15.90529" lon="-97.11772">
    <name>TP175</name>
  </trkpt>
  <trkpt lat="15.90606" lon="-97.11781">
    <name>TP176</name>
  </trkpt>
  <trkpt lat="15.90619" lon="-97.11783">
    <name>TP177</name>
  </trkpt>
  <trkpt lat="15.90621" lon="-97.11783">
    <name>TP178</name>
  </trkpt>
  <trkpt lat="15.90755" lon="-97.11796">
    <name>TP179</name>
  </trkpt>
  <trkpt lat="15.90791" lon="-97.118">
    <name>TP180</name>
  </trkpt>
  <trkpt lat="15.90797" lon="-97.118">
    <name>TP181</name>
  </trkpt>
  <trkpt lat="15.90837" lon="-97.11805">
    <name>TP182</name>
  </trkpt>
  <trkpt lat="15.909" lon="-97.11811">
    <name>TP183</name>
  </trkpt>
  <trkpt lat="15.90914" lon="-97.1181">
    <name>TP184</name>
  </trkpt>
  <trkpt lat="15.90939" lon="-97.11815">
    <name>TP185</name>
  </trkpt>
  <trkpt lat="15.90958" lon="-97.11821">
    <name>TP186</name>
  </trkpt>
  <trkpt lat="15.90969" lon="-97.11826">
    <name>TP187</name>
  </trkpt>
  <trkpt lat="15.90976" lon="-97.1183">
    <name>TP188</name>
  </trkpt>
  <trkpt lat="15.90992" lon="-97.1184">
    <name>TP189</name>
  </trkpt>
  <trkpt lat="15.91003" lon="-97.11846">
    <name>TP190</name>
  </trkpt>
  <trkpt lat="15.91019" lon="-97.11859">
    <name>TP191</name>
  </trkpt>
  <trkpt lat="15.91031" lon="-97.11871">
    <name>TP192</name>
  </trkpt>
  <trkpt lat="15.91071" lon="-97.11916">
    <name>TP193</name>
  </trkpt>
  <trkpt lat="15.91122" lon="-97.11976">
    <name>TP194</name>
  </trkpt>
  <trkpt lat="15.91211" lon="-97.12081">
    <name>TP195</name>
  </trkpt>
  <trkpt lat="15.91248" lon="-97.12125">
    <name>TP196</name>
  </trkpt>
  <trkpt lat="15.91295" lon="-97.12181">
    <name>TP197</name>
  </trkpt>
  <trkpt lat="15.91318" lon="-97.12208">
    <name>TP198</name>
  </trkpt>
  <trkpt lat="15.91419" lon="-97.12328">
    <name>TP199</name>
  </trkpt>
  <trkpt lat="15.91448" lon="-97.12364">
    <name>TP200</name>
  </trkpt>
  <trkpt lat="15.91459" lon="-97.12376">
    <name>TP201</name>
  </trkpt>
  <trkpt lat="15.9157" lon="-97.12506">
    <name>TP202</name>
  </trkpt>
  <trkpt lat="15.91655" lon="-97.12605">
    <name>TP203</name>
  </trkpt>
  <trkpt lat="15.91687" lon="-97.12643">
    <name>TP204</name>
  </trkpt>
  <trkpt lat="15.91699" lon="-97.12658">
    <name>TP205</name>
  </trkpt>
  <trkpt lat="15.91735" lon="-97.12698">
    <name>TP206</name>
  </trkpt>
  <trkpt lat="15.91763" lon="-97.1273">
    <name>TP207</name>
  </trkpt>
  <trkpt lat="15.91768" lon="-97.12736">
    <name>TP208</name>
  </trkpt>
  <trkpt lat="15.91792" lon="-97.12766">
    <name>TP209</name>
  </trkpt>
  <trkpt lat="15.91806" lon="-97.12783">
    <name>TP210</name>
  </trkpt>
  <trkpt lat="15.91822" lon="-97.12817">
    <name>TP211</name>
  </trkpt>
  <trkpt lat="15.91839" lon="-97.12853">
    <name>TP212</name>
  </trkpt>
  <trkpt lat="15.91862" lon="-97.12908">
    <name>TP213</name>
  </trkpt>
  <trkpt lat="15.91877" lon="-97.12943">
    <name>TP214</name>
  </trkpt>
  <trkpt lat="15.91888" lon="-97.12969">
    <name>TP215</name>
  </trkpt>
  <trkpt lat="15.91944" lon="-97.13102">
    <name>TP216</name>
  </trkpt>
  <trkpt lat="15.91951" lon="-97.13119">
    <name>TP217</name>
  </trkpt>
  <trkpt lat="15.91957" lon="-97.13134">
    <name>TP218</name>
  </trkpt>
  <trkpt lat="15.91975" lon="-97.13175">
    <name>TP219</name>
  </trkpt>
  <trkpt lat="15.91978" lon="-97.13182">
    <name>TP220</name>
  </trkpt>
  <trkpt lat="15.92092" lon="-97.13444">
    <name>TP221</name>
  </trkpt>
  <trkpt lat="15.92134" lon="-97.13539">
    <name>TP222</name>
  </trkpt>
  <trkpt lat="15.92171" lon="-97.13624">
    <name>TP223</name>
  </trkpt>
  <trkpt lat="15.92226" lon="-97.13752">
    <name>TP224</name>
  </trkpt>
  <trkpt lat="15.92252" lon="-97.13814">
    <name>TP225</name>
  </trkpt>
  <trkpt lat="15.92294" lon="-97.1391">
    <name>TP226</name>
  </trkpt>
  <trkpt lat="15.92333" lon="-97.14003">
    <name>TP227</name>
  </trkpt>
  <trkpt lat="15.92336" lon="-97.14009">
    <name>TP228</name>
  </trkpt>
  <trkpt lat="15.92371" lon="-97.14088">
    <name>TP229</name>
  </trkpt>
  <trkpt lat="15.92387" lon="-97.14124">
    <name>TP230</name>
  </trkpt>
  <trkpt lat="15.9246" lon="-97.14298">
    <name>TP231</name>
  </trkpt>
  <trkpt lat="15.92518" lon="-97.14435">
    <name>TP232</name>
  </trkpt>
  <trkpt lat="15.92522" lon="-97.14445">
    <name>TP233</name>
  </trkpt>
  <trkpt lat="15.92554" lon="-97.14517">
    <name>TP234</name>
  </trkpt>
  <trkpt lat="15.9262" lon="-97.14669">
    <name>TP235</name>
  </trkpt>
  <trkpt lat="15.92675" lon="-97.14792">
    <name>TP236</name>
  </trkpt>
  <trkpt lat="15.92712" lon="-97.14882">
    <name>TP237</name>
  </trkpt>
  <trkpt lat="15.9273" lon="-97.14926">
    <name>TP238</name>
  </trkpt>
  <trkpt lat="15.92742" lon="-97.14951">
    <name>TP239</name>
  </trkpt>
  <trkpt lat="15.92757" lon="-97.14987">
    <name>TP240</name>
  </trkpt>
  <trkpt lat="15.9279" lon="-97.15064">
    <name>TP241</name>
  </trkpt>
  <trkpt lat="15.92825" lon="-97.15146">
    <name>TP242</name>
  </trkpt>
  <trkpt lat="15.92836" lon="-97.15173">
    <name>TP243</name>
  </trkpt>
  <trkpt lat="15.92847" lon="-97.15196">
    <name>TP244</name>
  </trkpt>
  <trkpt lat="15.9285" lon="-97.15203">
    <name>TP245</name>
  </trkpt>
  <trkpt lat="15.9286" lon="-97.15221">
    <name>TP246</name>
  </trkpt>
  <trkpt lat="15.9287" lon="-97.15233">
    <name>TP247</name>
  </trkpt>
  <trkpt lat="15.9288" lon="-97.15242">
    <name>TP248</name>
  </trkpt>
  <trkpt lat="15.92894" lon="-97.15252">
    <name>TP249</name>
  </trkpt>
  <trkpt lat="15.92904" lon="-97.15257">
    <name>TP250</name>
  </trkpt>
  <trkpt lat="15.92907" lon="-97.15258">
    <name>TP251</name>
  </trkpt>
  <trkpt lat="15.92921" lon="-97.15262">
    <name>TP252</name>
  </trkpt>
  <trkpt lat="15.92933" lon="-97.15265">
    <name>TP253</name>
  </trkpt>
  <trkpt lat="15.92938" lon="-97.15266">
    <name>TP254</name>
  </trkpt>
  <trkpt lat="15.92939" lon="-97.15266">
    <name>TP255</name>
  </trkpt>
  <trkpt lat="15.92946" lon="-97.15266">
    <name>TP256</name>
  </trkpt>
  <trkpt lat="15.92954" lon="-97.15266">
    <name>TP257</name>
  </trkpt>
  <trkpt lat="15.92964" lon="-97.15264">
    <name>TP258</name>
  </trkpt>
  <trkpt lat="15.92979" lon="-97.1526">
    <name>TP259</name>
  </trkpt>
  <trkpt lat="15.92991" lon="-97.15254">
    <name>TP260</name>
  </trkpt>
  <trkpt lat="15.93011" lon="-97.15241">
    <name>TP261</name>
  </trkpt>
  <trkpt lat="15.93034" lon="-97.1522">
    <name>TP262</name>
  </trkpt>
  <trkpt lat="15.93066" lon="-97.1519">
    <name>TP263</name>
  </trkpt>
  <trkpt lat="15.93091" lon="-97.15169">
    <name>TP264</name>
  </trkpt>
  <trkpt lat="15.93106" lon="-97.1516">
    <name>TP265</name>
  </trkpt>
  <trkpt lat="15.93129" lon="-97.15151">
    <name>TP266</name>
  </trkpt>
  <trkpt lat="15.93156" lon="-97.15141">
    <name>TP267</name>
  </trkpt>
  <trkpt lat="15.93171" lon="-97.15136">
    <name>TP268</name>
  </trkpt>
  <trkpt lat="15.93189" lon="-97.15131">
    <name>TP269</name>
  </trkpt>
  <trkpt lat="15.93199" lon="-97.15129">
    <name>TP270</name>
  </trkpt>
  <trkpt lat="15.93208" lon="-97.15128">
    <name>TP271</name>
  </trkpt>
  <trkpt lat="15.9323" lon="-97.15126">
    <name>TP272</name>
  </trkpt>
  <trkpt lat="15.93249" lon="-97.15127">
    <name>TP273</name>
  </trkpt>
  <trkpt lat="15.93265" lon="-97.15129">
    <name>TP274</name>
  </trkpt>
  <trkpt lat="15.93278" lon="-97.15133">
    <name>TP275</name>
  </trkpt>
  <trkpt lat="15.93288" lon="-97.15137">
    <name>TP276</name>
  </trkpt>
  <trkpt lat="15.93296" lon="-97.1514">
    <name>TP277</name>
  </trkpt>
  <trkpt lat="15.93303" lon="-97.15144">
    <name>TP278</name>
  </trkpt>
  <trkpt lat="15.93309" lon="-97.15149">
    <name>TP279</name>
  </trkpt>
  <trkpt lat="15.93321" lon="-97.15158">
    <name>TP280</name>
  </trkpt>
  <trkpt lat="15.93328" lon="-97.15164">
    <name>TP281</name>
  </trkpt>
  <trkpt lat="15.93336" lon="-97.15172">
    <name>TP282</name>
  </trkpt>
  <trkpt lat="15.93365" lon="-97.15213">
    <name>TP283</name>
  </trkpt>
  <trkpt lat="15.93444" lon="-97.15338">
    <name>TP284</name>
  </trkpt>
  <trkpt lat="15.93516" lon="-97.15452">
    <name>TP285</name>
  </trkpt>
  <trkpt lat="15.93526" lon="-97.15467">
    <name>TP286</name>
  </trkpt>
  <trkpt lat="15.93575" lon="-97.15546">
    <name>TP287</name>
  </trkpt>
  <trkpt lat="15.93586" lon="-97.15564">
    <name>TP288</name>
  </trkpt>
  <trkpt lat="15.93589" lon="-97.15568">
    <name>TP289</name>
  </trkpt>
  <trkpt lat="15.93598" lon="-97.15584">
    <name>TP290</name>
  </trkpt>
  <trkpt lat="15.93632" lon="-97.1564">
    <name>TP291</name>
  </trkpt>
  <trkpt lat="15.93681" lon="-97.15718">
    <name>TP292</name>
  </trkpt>
  <trkpt lat="15.9369" lon="-97.15731">
    <name>TP293</name>
  </trkpt>
  <trkpt lat="15.937" lon="-97.15743">
    <name>TP294</name>
  </trkpt>
  <trkpt lat="15.93709" lon="-97.15753">
    <name>TP295</name>
  </trkpt>
  <trkpt lat="15.93718" lon="-97.15761">
    <name>TP296</name>
  </trkpt>
  <trkpt lat="15.93737" lon="-97.15778">
    <name>TP297</name>
  </trkpt>
  <trkpt lat="15.93772" lon="-97.15806">
    <name>TP298</name>
  </trkpt>
  <trkpt lat="15.9382" lon="-97.15842">
    <name>TP299</name>
  </trkpt>
  <trkpt lat="15.93842" lon="-97.15859">
    <name>TP300</name>
  </trkpt>
  <trkpt lat="15.93877" lon="-97.15886">
    <name>TP301</name>
  </trkpt>
  <trkpt lat="15.93902" lon="-97.15905">
    <name>TP302</name>
  </trkpt>
  <trkpt lat="15.93921" lon="-97.1592">
    <name>TP303</name>
  </trkpt>
  <trkpt lat="15.93928" lon="-97.15926">
    <name>TP304</name>
  </trkpt>
  <trkpt lat="15.93936" lon="-97.15932">
    <name>TP305</name>
  </trkpt>
  <trkpt lat="15.93946" lon="-97.15941">
    <name>TP306</name>
  </trkpt>
  <trkpt lat="15.93954" lon="-97.15948">
    <name>TP307</name>
  </trkpt>
  <trkpt lat="15.93973" lon="-97.15975">
    <name>TP308</name>
  </trkpt>
  <trkpt lat="15.93979" lon="-97.15986">
    <name>TP309</name>
  </trkpt>
  <trkpt lat="15.93981" lon="-97.15992">
    <name>TP310</name>
  </trkpt>
  <trkpt lat="15.93984" lon="-97.16004">
    <name>TP311</name>
  </trkpt>
  <trkpt lat="15.93986" lon="-97.16018">
    <name>TP312</name>
  </trkpt>
  <trkpt lat="15.93987" lon="-97.16027">
    <name>TP313</name>
  </trkpt>
  <trkpt lat="15.93986" lon="-97.16047">
    <name>TP314</name>
  </trkpt>
  <trkpt lat="15.93983" lon="-97.16061">
    <name>TP315</name>
  </trkpt>
  <trkpt lat="15.93973" lon="-97.16102">
    <name>TP316</name>
  </trkpt>
  <trkpt lat="15.93961" lon="-97.16138">
    <name>TP317</name>
  </trkpt>
  <trkpt lat="15.9394" lon="-97.1621">
    <name>TP318</name>
  </trkpt>
  <trkpt lat="15.93935" lon="-97.16226">
    <name>TP319</name>
  </trkpt>
  <trkpt lat="15.93914" lon="-97.16297">
    <name>TP320</name>
  </trkpt>
  <trkpt lat="15.93911" lon="-97.1631">
    <name>TP321</name>
  </trkpt>
  <trkpt lat="15.93908" lon="-97.16325">
    <name>TP322</name>
  </trkpt>
  <trkpt lat="15.93907" lon="-97.1634">
    <name>TP323</name>
  </trkpt>
  <trkpt lat="15.93906" lon="-97.16352">
    <name>TP324</name>
  </trkpt>
  <trkpt lat="15.93906" lon="-97.16368">
    <name>TP325</name>
  </trkpt>
  <trkpt lat="15.93908" lon="-97.16385">
    <name>TP326</name>
  </trkpt>
  <trkpt lat="15.93911" lon="-97.16396">
    <name>TP327</name>
  </trkpt>
  <trkpt lat="15.93916" lon="-97.16412">
    <name>TP328</name>
  </trkpt>
  <trkpt lat="15.93924" lon="-97.16428">
    <name>TP329</name>
  </trkpt>
  <trkpt lat="15.93932" lon="-97.16442">
    <name>TP330</name>
  </trkpt>
  <trkpt lat="15.93934" lon="-97.16445">
    <name>TP331</name>
  </trkpt>
  <trkpt lat="15.93942" lon="-97.16455">
    <name>TP332</name>
  </trkpt>
  <trkpt lat="15.93955" lon="-97.1647">
    <name>TP333</name>
  </trkpt>
  <trkpt lat="15.93971" lon="-97.16486">
    <name>TP334</name>
  </trkpt>
  <trkpt lat="15.93992" lon="-97.16506">
    <name>TP335</name>
  </trkpt>
  <trkpt lat="15.94023" lon="-97.16535">
    <name>TP336</name>
  </trkpt>
  <trkpt lat="15.9403" lon="-97.16544">
    <name>TP337</name>
  </trkpt>
  <trkpt lat="15.94036" lon="-97.16551">
    <name>TP338</name>
  </trkpt>
  <trkpt lat="15.9404" lon="-97.16559">
    <name>TP339</name>
  </trkpt>
  <trkpt lat="15.94054" lon="-97.16598">
    <name>TP340</name>
  </trkpt>
  <trkpt lat="15.94057" lon="-97.16613">
    <name>TP341</name>
  </trkpt>
  <trkpt lat="15.94058" lon="-97.16627">
    <name>TP342</name>
  </trkpt>
  <trkpt lat="15.94055" lon="-97.1665">
    <name>TP343</name>
  </trkpt>
  <trkpt lat="15.94052" lon="-97.16662">
    <name>TP344</name>
  </trkpt>
  <trkpt lat="15.94046" lon="-97.16681">
    <name>TP345</name>
  </trkpt>
  <trkpt lat="15.94028" lon="-97.16708">
    <name>TP346</name>
  </trkpt>
  <trkpt lat="15.94001" lon="-97.1674">
    <name>TP347</name>
  </trkpt>
  <trkpt lat="15.93991" lon="-97.16751">
    <name>TP348</name>
  </trkpt>
  <trkpt lat="15.93989" lon="-97.16754">
    <name>TP349</name>
  </trkpt>
  <trkpt lat="15.93966" lon="-97.1678">
    <name>TP350</name>
  </trkpt>
  <trkpt lat="15.93949" lon="-97.16807">
    <name>TP351</name>
  </trkpt>
  <trkpt lat="15.93947" lon="-97.16811">
    <name>TP352</name>
  </trkpt>
  <trkpt lat="15.93947" lon="-97.16815">
    <name>TP353</name>
  </trkpt>
  <trkpt lat="15.93947" lon="-97.16817">
    <name>TP354</name>
  </trkpt>
  <trkpt lat="15.93948" lon="-97.16827">
    <name>TP355</name>
  </trkpt>
  <trkpt lat="15.93948" lon="-97.16829">
    <name>TP356</name>
  </trkpt>
  <trkpt lat="15.93943" lon="-97.16854">
    <name>TP357</name>
  </trkpt>
  <trkpt lat="15.93942" lon="-97.16866">
    <name>TP358</name>
  </trkpt>
  <trkpt lat="15.93943" lon="-97.16877">
    <name>TP359</name>
  </trkpt>
  <trkpt lat="15.93953" lon="-97.16949">
    <name>TP360</name>
  </trkpt>
  <trkpt lat="15.93957" lon="-97.16983">
    <name>TP361</name>
  </trkpt>
  <trkpt lat="15.93962" lon="-97.17016">
    <name>TP362</name>
  </trkpt>
  <trkpt lat="15.93972" lon="-97.17095">
    <name>TP363</name>
  </trkpt>
  <trkpt lat="15.93976" lon="-97.17127">
    <name>TP364</name>
  </trkpt>
  <trkpt lat="15.93988" lon="-97.172">
    <name>TP365</name>
  </trkpt>
  <trkpt lat="15.9399" lon="-97.17206">
    <name>TP366</name>
  </trkpt>
  <trkpt lat="15.93995" lon="-97.17224">
    <name>TP367</name>
  </trkpt>
  <trkpt lat="15.93997" lon="-97.17228">
    <name>TP368</name>
  </trkpt>
  <trkpt lat="15.94001" lon="-97.17238">
    <name>TP369</name>
  </trkpt>
  <trkpt lat="15.94007" lon="-97.17246">
    <name>TP370</name>
  </trkpt>
  <trkpt lat="15.94016" lon="-97.17257">
    <name>TP371</name>
  </trkpt>
  <trkpt lat="15.94023" lon="-97.17264">
    <name>TP372</name>
  </trkpt>
  <trkpt lat="15.94033" lon="-97.17272">
    <name>TP373</name>
  </trkpt>
  <trkpt lat="15.94071" lon="-97.17299">
    <name>TP374</name>
  </trkpt>
  <trkpt lat="15.94088" lon="-97.17312">
    <name>TP375</name>
  </trkpt>
  <trkpt lat="15.941" lon="-97.17321">
    <name>TP376</name>
  </trkpt>
  <trkpt lat="15.94112" lon="-97.17333">
    <name>TP377</name>
  </trkpt>
  <trkpt lat="15.9412" lon="-97.17346">
    <name>TP378</name>
  </trkpt>
  <trkpt lat="15.94128" lon="-97.17361">
    <name>TP379</name>
  </trkpt>
  <trkpt lat="15.94133" lon="-97.17374">
    <name>TP380</name>
  </trkpt>
  <trkpt lat="15.94138" lon="-97.17398">
    <name>TP381</name>
  </trkpt>
  <trkpt lat="15.94142" lon="-97.17437">
    <name>TP382</name>
  </trkpt>
  <trkpt lat="15.94146" lon="-97.17465">
    <name>TP383</name>
  </trkpt>
  <trkpt lat="15.9415" lon="-97.1748">
    <name>TP384</name>
  </trkpt>
  <trkpt lat="15.9415" lon="-97.17482">
    <name>TP385</name>
  </trkpt>
  <trkpt lat="15.94156" lon="-97.17498">
    <name>TP386</name>
  </trkpt>
  <trkpt lat="15.94158" lon="-97.17505">
    <name>TP387</name>
  </trkpt>
  <trkpt lat="15.94172" lon="-97.17536">
    <name>TP388</name>
  </trkpt>
  <trkpt lat="15.94195" lon="-97.1758">
    <name>TP389</name>
  </trkpt>
  <trkpt lat="15.94225" lon="-97.17631">
    <name>TP390</name>
  </trkpt>
  <trkpt lat="15.94232" lon="-97.17643">
    <name>TP391</name>
  </trkpt>
  <trkpt lat="15.9424" lon="-97.17652">
    <name>TP392</name>
  </trkpt>
  <trkpt lat="15.94244" lon="-97.17655">
    <name>TP393</name>
  </trkpt>
  <trkpt lat="15.94256" lon="-97.17668">
    <name>TP394</name>
  </trkpt>
  <trkpt lat="15.94288" lon="-97.1769">
    <name>TP395</name>
  </trkpt>
  <trkpt lat="15.94318" lon="-97.17711">
    <name>TP396</name>
  </trkpt>
  <trkpt lat="15.94359" lon="-97.17735">
    <name>TP397</name>
  </trkpt>
  <trkpt lat="15.94389" lon="-97.17756">
    <name>TP398</name>
  </trkpt>
  <trkpt lat="15.94418" lon="-97.17775">
    <name>TP399</name>
  </trkpt>
  <trkpt lat="15.94486" lon="-97.17822">
    <name>TP400</name>
  </trkpt>
  <trkpt lat="15.94501" lon="-97.17832">
    <name>TP401</name>
  </trkpt>
  <trkpt lat="15.9454" lon="-97.17862">
    <name>TP402</name>
  </trkpt>
  <trkpt lat="15.94553" lon="-97.17875">
    <name>TP403</name>
  </trkpt>
  <trkpt lat="15.9457" lon="-97.17897">
    <name>TP404</name>
  </trkpt>
  <trkpt lat="15.9458" lon="-97.17912">
    <name>TP405</name>
  </trkpt>
  <trkpt lat="15.94585" lon="-97.17926">
    <name>TP406</name>
  </trkpt>
  <trkpt lat="15.94592" lon="-97.17951">
    <name>TP407</name>
  </trkpt>
  <trkpt lat="15.94594" lon="-97.17967">
    <name>TP408</name>
  </trkpt>
  <trkpt lat="15.94594" lon="-97.17984">
    <name>TP409</name>
  </trkpt>
  <trkpt lat="15.9459" lon="-97.1807">
    <name>TP410</name>
  </trkpt>
  <trkpt lat="15.94583" lon="-97.18179">
    <name>TP411</name>
  </trkpt>
  <trkpt lat="15.9458" lon="-97.18215">
    <name>TP412</name>
  </trkpt>
  <trkpt lat="15.9458" lon="-97.18217">
    <name>TP413</name>
  </trkpt>
  <trkpt lat="15.94577" lon="-97.18271">
    <name>TP414</name>
  </trkpt>
  <trkpt lat="15.94578" lon="-97.18317">
    <name>TP415</name>
  </trkpt>
  <trkpt lat="15.9458" lon="-97.18339">
    <name>TP416</name>
  </trkpt>
  <trkpt lat="15.94583" lon="-97.18355">
    <name>TP417</name>
  </trkpt>
  <trkpt lat="15.94593" lon="-97.18387">
    <name>TP418</name>
  </trkpt>
  <trkpt lat="15.94613" lon="-97.18448">
    <name>TP419</name>
  </trkpt>
  <trkpt lat="15.94613" lon="-97.18449">
    <name>TP420</name>
  </trkpt>
  <trkpt lat="15.94628" lon="-97.18489">
    <name>TP421</name>
  </trkpt>
  <trkpt lat="15.94643" lon="-97.18529">
    <name>TP422</name>
  </trkpt>
  <trkpt lat="15.94647" lon="-97.18539">
    <name>TP423</name>
  </trkpt>
  <trkpt lat="15.94661" lon="-97.18579">
    <name>TP424</name>
  </trkpt>
  <trkpt lat="15.9467" lon="-97.18602">
    <name>TP425</name>
  </trkpt>
  <trkpt lat="15.94672" lon="-97.18608">
    <name>TP426</name>
  </trkpt>
  <trkpt lat="15.9468" lon="-97.18627">
    <name>TP427</name>
  </trkpt>
  <trkpt lat="15.94699" lon="-97.1867">
    <name>TP428</name>
  </trkpt>
  <trkpt lat="15.94705" lon="-97.18683">
    <name>TP429</name>
  </trkpt>
  <trkpt lat="15.94746" lon="-97.18765">
    <name>TP430</name>
  </trkpt>
  <trkpt lat="15.94776" lon="-97.18825">
    <name>TP431</name>
  </trkpt>
  <trkpt lat="15.94802" lon="-97.18877">
    <name>TP432</name>
  </trkpt>
  <trkpt lat="15.94804" lon="-97.18881">
    <name>TP433</name>
  </trkpt>
  <trkpt lat="15.94826" lon="-97.18921">
    <name>TP434</name>
  </trkpt>
  <trkpt lat="15.94845" lon="-97.18949">
    <name>TP435</name>
  </trkpt>
  <trkpt lat="15.94873" lon="-97.18984">
    <name>TP436</name>
  </trkpt>
  <trkpt lat="15.94927" lon="-97.1905">
    <name>TP437</name>
  </trkpt>
  <trkpt lat="15.94931" lon="-97.19055">
    <name>TP438</name>
  </trkpt>
  <trkpt lat="15.94943" lon="-97.1907">
    <name>TP439</name>
  </trkpt>
  <trkpt lat="15.94972" lon="-97.19105">
    <name>TP440</name>
  </trkpt>
  <trkpt lat="15.94982" lon="-97.19116">
    <name>TP441</name>
  </trkpt>
  <trkpt lat="15.95019" lon="-97.1916">
    <name>TP442</name>
  </trkpt>
  <trkpt lat="15.95053" lon="-97.19204">
    <name>TP443</name>
  </trkpt>
  <trkpt lat="15.95081" lon="-97.19237">
    <name>TP444</name>
  </trkpt>
  <trkpt lat="15.95107" lon="-97.19273">
    <name>TP445</name>
  </trkpt>
  <trkpt lat="15.95121" lon="-97.19298">
    <name>TP446</name>
  </trkpt>
  <trkpt lat="15.95128" lon="-97.19313">
    <name>TP447</name>
  </trkpt>
  <trkpt lat="15.95134" lon="-97.19328">
    <name>TP448</name>
  </trkpt>
  <trkpt lat="15.9514" lon="-97.19348">
    <name>TP449</name>
  </trkpt>
  <trkpt lat="15.95148" lon="-97.19376">
    <name>TP450</name>
  </trkpt>
  <trkpt lat="15.95155" lon="-97.1941">
    <name>TP451</name>
  </trkpt>
  <trkpt lat="15.95165" lon="-97.19459">
    <name>TP452</name>
  </trkpt>
  <trkpt lat="15.95168" lon="-97.19472">
    <name>TP453</name>
  </trkpt>
  <trkpt lat="15.95169" lon="-97.19477">
    <name>TP454</name>
  </trkpt>
  <trkpt lat="15.95175" lon="-97.19492">
    <name>TP455</name>
  </trkpt>
  <trkpt lat="15.95182" lon="-97.19509">
    <name>TP456</name>
  </trkpt>
  <trkpt lat="15.95195" lon="-97.19535">
    <name>TP457</name>
  </trkpt>
  <trkpt lat="15.95237" lon="-97.19613">
    <name>TP458</name>
  </trkpt>
  <trkpt lat="15.95277" lon="-97.19686">
    <name>TP459</name>
  </trkpt>
  <trkpt lat="15.95305" lon="-97.1974">
    <name>TP460</name>
  </trkpt>
  <trkpt lat="15.95325" lon="-97.19776">
    <name>TP461</name>
  </trkpt>
  <trkpt lat="15.9533" lon="-97.19786">
    <name>TP462</name>
  </trkpt>
  <trkpt lat="15.95342" lon="-97.19808">
    <name>TP463</name>
  </trkpt>
  <trkpt lat="15.95365" lon="-97.19851">
    <name>TP464</name>
  </trkpt>
  <trkpt lat="15.95385" lon="-97.19887">
    <name>TP465</name>
  </trkpt>
  <trkpt lat="15.95413" lon="-97.19941">
    <name>TP466</name>
  </trkpt>
  <trkpt lat="15.95433" lon="-97.19979">
    <name>TP467</name>
  </trkpt>
  <trkpt lat="15.95467" lon="-97.20041">
    <name>TP468</name>
  </trkpt>
  <trkpt lat="15.95472" lon="-97.20049">
    <name>TP469</name>
  </trkpt>
  <trkpt lat="15.95487" lon="-97.20083">
    <name>TP470</name>
  </trkpt>
  <trkpt lat="15.95497" lon="-97.20109">
    <name>TP471</name>
  </trkpt>
  <trkpt lat="15.95501" lon="-97.20122">
    <name>TP472</name>
  </trkpt>
  <trkpt lat="15.95504" lon="-97.20134">
    <name>TP473</name>
  </trkpt>
  <trkpt lat="15.95506" lon="-97.20145">
    <name>TP474</name>
  </trkpt>
  <trkpt lat="15.95507" lon="-97.20158">
    <name>TP475</name>
  </trkpt>
  <trkpt lat="15.95509" lon="-97.20175">
    <name>TP476</name>
  </trkpt>
  <trkpt lat="15.9551" lon="-97.20201">
    <name>TP477</name>
  </trkpt>
  <trkpt lat="15.95511" lon="-97.20216">
    <name>TP478</name>
  </trkpt>
  <trkpt lat="15.95511" lon="-97.20251">
    <name>TP479</name>
  </trkpt>
  <trkpt lat="15.95511" lon="-97.20276">
    <name>TP480</name>
  </trkpt>
  <trkpt lat="15.95512" lon="-97.20314">
    <name>TP481</name>
  </trkpt>
  <trkpt lat="15.95513" lon="-97.20388">
    <name>TP482</name>
  </trkpt>
  <trkpt lat="15.95514" lon="-97.2047">
    <name>TP483</name>
  </trkpt>
  <trkpt lat="15.95514" lon="-97.205">
    <name>TP484</name>
  </trkpt>
  <trkpt lat="15.95515" lon="-97.20537">
    <name>TP485</name>
  </trkpt>
  <trkpt lat="15.95516" lon="-97.20594">
    <name>TP486</name>
  </trkpt>
  <trkpt lat="15.95516" lon="-97.20617">
    <name>TP487</name>
  </trkpt>
  <trkpt lat="15.95516" lon="-97.20657">
    <name>TP488</name>
  </trkpt>
  <trkpt lat="15.95517" lon="-97.20686">
    <name>TP489</name>
  </trkpt>
  <trkpt lat="15.95517" lon="-97.20706">
    <name>TP490</name>
  </trkpt>
  <trkpt lat="15.95517" lon="-97.20746">
    <name>TP491</name>
  </trkpt>
  <trkpt lat="15.95518" lon="-97.20777">
    <name>TP492</name>
  </trkpt>
  <trkpt lat="15.95519" lon="-97.208">
    <name>TP493</name>
  </trkpt>
  <trkpt lat="15.9552" lon="-97.20816">
    <name>TP494</name>
  </trkpt>
  <trkpt lat="15.9552" lon="-97.20821">
    <name>TP495</name>
  </trkpt>
  <trkpt lat="15.95523" lon="-97.2084">
    <name>TP496</name>
  </trkpt>
  <trkpt lat="15.95526" lon="-97.20855">
    <name>TP497</name>
  </trkpt>
  <trkpt lat="15.95531" lon="-97.2087">
    <name>TP498</name>
  </trkpt>
  <trkpt lat="15.95534" lon="-97.2088">
    <name>TP499</name>
  </trkpt>
  <trkpt lat="15.95541" lon="-97.20895">
    <name>TP500</name>
  </trkpt>
  <trkpt lat="15.95545" lon="-97.20902">
    <name>TP501</name>
  </trkpt>
  <trkpt lat="15.95548" lon="-97.20907">
    <name>TP502</name>
  </trkpt>
  <trkpt lat="15.95557" lon="-97.2092">
    <name>TP503</name>
  </trkpt>
  <trkpt lat="15.95567" lon="-97.20935">
    <name>TP504</name>
  </trkpt>
  <trkpt lat="15.95581" lon="-97.20955">
    <name>TP505</name>
  </trkpt>
  <trkpt lat="15.95598" lon="-97.20979">
    <name>TP506</name>
  </trkpt>
  <trkpt lat="15.95622" lon="-97.21015">
    <name>TP507</name>
  </trkpt>
  <trkpt lat="15.95635" lon="-97.21032">
    <name>TP508</name>
  </trkpt>
  <trkpt lat="15.95651" lon="-97.21058">
    <name>TP509</name>
  </trkpt>
  <trkpt lat="15.9566" lon="-97.21074">
    <name>TP510</name>
  </trkpt>
  <trkpt lat="15.95669" lon="-97.21089">
    <name>TP511</name>
  </trkpt>
  <trkpt lat="15.95675" lon="-97.21101">
    <name>TP512</name>
  </trkpt>
  <trkpt lat="15.95681" lon="-97.21116">
    <name>TP513</name>
  </trkpt>
  <trkpt lat="15.95685" lon="-97.21126">
    <name>TP514</name>
  </trkpt>
  <trkpt lat="15.95691" lon="-97.21145">
    <name>TP515</name>
  </trkpt>
  <trkpt lat="15.95694" lon="-97.21159">
    <name>TP516</name>
  </trkpt>
  <trkpt lat="15.95697" lon="-97.21177">
    <name>TP517</name>
  </trkpt>
  <trkpt lat="15.95699" lon="-97.21193">
    <name>TP518</name>
  </trkpt>
  <trkpt lat="15.95699" lon="-97.21197">
    <name>TP519</name>
  </trkpt>
  <trkpt lat="15.957" lon="-97.21235">
    <name>TP520</name>
  </trkpt>
  <trkpt lat="15.957" lon="-97.21238">
    <name>TP521</name>
  </trkpt>
  <trkpt lat="15.95699" lon="-97.21259">
    <name>TP522</name>
  </trkpt>
  <trkpt lat="15.95698" lon="-97.21294">
    <name>TP523</name>
  </trkpt>
  <trkpt lat="15.95693" lon="-97.21375">
    <name>TP524</name>
  </trkpt>
  <trkpt lat="15.95692" lon="-97.21402">
    <name>TP525</name>
  </trkpt>
  <trkpt lat="15.9569" lon="-97.21443">
    <name>TP526</name>
  </trkpt>
  <trkpt lat="15.95689" lon="-97.21462">
    <name>TP527</name>
  </trkpt>
  <trkpt lat="15.95683" lon="-97.21592">
    <name>TP528</name>
  </trkpt>
  <trkpt lat="15.9568" lon="-97.21656">
    <name>TP529</name>
  </trkpt>
  <trkpt lat="15.95679" lon="-97.21701">
    <name>TP530</name>
  </trkpt>
  <trkpt lat="15.95678" lon="-97.2172">
    <name>TP531</name>
  </trkpt>
  <trkpt lat="15.95678" lon="-97.21724">
    <name>TP532</name>
  </trkpt>
  <trkpt lat="15.95677" lon="-97.21743">
    <name>TP533</name>
  </trkpt>
  <trkpt lat="15.95677" lon="-97.21744">
    <name>TP534</name>
  </trkpt>
  <trkpt lat="15.95676" lon="-97.21754">
    <name>TP535</name>
  </trkpt>
  <trkpt lat="15.95675" lon="-97.21762">
    <name>TP536</name>
  </trkpt>
  <trkpt lat="15.95672" lon="-97.21787">
    <name>TP537</name>
  </trkpt>
  <trkpt lat="15.95668" lon="-97.21803">
    <name>TP538</name>
  </trkpt>
  <trkpt lat="15.95663" lon="-97.21819">
    <name>TP539</name>
  </trkpt>
  <trkpt lat="15.95659" lon="-97.2183">
    <name>TP540</name>
  </trkpt>
  <trkpt lat="15.95653" lon="-97.21842">
    <name>TP541</name>
  </trkpt>
  <trkpt lat="15.95641" lon="-97.21861">
    <name>TP542</name>
  </trkpt>
  <trkpt lat="15.95632" lon="-97.21875">
    <name>TP543</name>
  </trkpt>
  <trkpt lat="15.95614" lon="-97.21897">
    <name>TP544</name>
  </trkpt>
  <trkpt lat="15.95582" lon="-97.21936">
    <name>TP545</name>
  </trkpt>
  <trkpt lat="15.95561" lon="-97.21961">
    <name>TP546</name>
  </trkpt>
  <trkpt lat="15.95557" lon="-97.21966">
    <name>TP547</name>
  </trkpt>
  <trkpt lat="15.95534" lon="-97.21994">
    <name>TP548</name>
  </trkpt>
  <trkpt lat="15.95522" lon="-97.22009">
    <name>TP549</name>
  </trkpt>
  <trkpt lat="15.95496" lon="-97.2204">
    <name>TP550</name>
  </trkpt>
  <trkpt lat="15.95459" lon="-97.22085">
    <name>TP551</name>
  </trkpt>
  <trkpt lat="15.95425" lon="-97.22127">
    <name>TP552</name>
  </trkpt>
  <trkpt lat="15.95417" lon="-97.22136">
    <name>TP553</name>
  </trkpt>
  <trkpt lat="15.95417" lon="-97.22137">
    <name>TP554</name>
  </trkpt>
  <trkpt lat="15.95412" lon="-97.22143">
    <name>TP555</name>
  </trkpt>
  <trkpt lat="15.95405" lon="-97.22151">
    <name>TP556</name>
  </trkpt>
  <trkpt lat="15.95401" lon="-97.22156">
    <name>TP557</name>
  </trkpt>
  <trkpt lat="15.95385" lon="-97.22177">
    <name>TP558</name>
  </trkpt>
  <trkpt lat="15.95382" lon="-97.2218">
    <name>TP559</name>
  </trkpt>
  <trkpt lat="15.95376" lon="-97.22189">
    <name>TP560</name>
  </trkpt>
  <trkpt lat="15.95372" lon="-97.22198">
    <name>TP561</name>
  </trkpt>
  <trkpt lat="15.9537" lon="-97.22202">
    <name>TP562</name>
  </trkpt>
  <trkpt lat="15.95368" lon="-97.22207">
    <name>TP563</name>
  </trkpt>
  <trkpt lat="15.95366" lon="-97.22212">
    <name>TP564</name>
  </trkpt>
  <trkpt lat="15.95366" lon="-97.22213">
    <name>TP565</name>
  </trkpt>
  <trkpt lat="15.95364" lon="-97.22219">
    <name>TP566</name>
  </trkpt>
  <trkpt lat="15.95363" lon="-97.22226">
    <name>TP567</name>
  </trkpt>
  <trkpt lat="15.95363" lon="-97.22231">
    <name>TP568</name>
  </trkpt>
  <trkpt lat="15.95362" lon="-97.22241">
    <name>TP569</name>
  </trkpt>
  <trkpt lat="15.95363" lon="-97.22248">
    <name>TP570</name>
  </trkpt>
  <trkpt lat="15.95364" lon="-97.22255">
    <name>TP571</name>
  </trkpt>
  <trkpt lat="15.95367" lon="-97.22265">
    <name>TP572</name>
  </trkpt>
  <trkpt lat="15.95368" lon="-97.22268">
    <name>TP573</name>
  </trkpt>
  <trkpt lat="15.9537" lon="-97.22274">
    <name>TP574</name>
  </trkpt>
  <trkpt lat="15.95373" lon="-97.22281">
    <name>TP575</name>
  </trkpt>
  <trkpt lat="15.95375" lon="-97.22285">
    <name>TP576</name>
  </trkpt>
  <trkpt lat="15.95377" lon="-97.22288">
    <name>TP577</name>
  </trkpt>
  <trkpt lat="15.95382" lon="-97.22296">
    <name>TP578</name>
  </trkpt>
  <trkpt lat="15.95388" lon="-97.22304">
    <name>TP579</name>
  </trkpt>
  <trkpt lat="15.95399" lon="-97.22315">
    <name>TP580</name>
  </trkpt>
  <trkpt lat="15.95406" lon="-97.22322">
    <name>TP581</name>
  </trkpt>
  <trkpt lat="15.95414" lon="-97.2233">
    <name>TP582</name>
  </trkpt>
  <trkpt lat="15.95424" lon="-97.22341">
    <name>TP583</name>
  </trkpt>
  <trkpt lat="15.95435" lon="-97.22354">
    <name>TP584</name>
  </trkpt>
  <trkpt lat="15.95435" lon="-97.22355">
    <name>TP585</name>
  </trkpt>
  <trkpt lat="15.95443" lon="-97.22366">
    <name>TP586</name>
  </trkpt>
  <trkpt lat="15.9545" lon="-97.22378">
    <name>TP587</name>
  </trkpt>
  <trkpt lat="15.95453" lon="-97.22387">
    <name>TP588</name>
  </trkpt>
  <trkpt lat="15.95454" lon="-97.22388">
    <name>TP589</name>
  </trkpt>
  <trkpt lat="15.95458" lon="-97.22401">
    <name>TP590</name>
  </trkpt>
  <trkpt lat="15.9546" lon="-97.22413">
    <name>TP591</name>
  </trkpt>
  <trkpt lat="15.95463" lon="-97.22428">
    <name>TP592</name>
  </trkpt>
  <trkpt lat="15.95463" lon="-97.22444">
    <name>TP593</name>
  </trkpt>
  <trkpt lat="15.95463" lon="-97.22454">
    <name>TP594</name>
  </trkpt>
  <trkpt lat="15.95462" lon="-97.2246">
    <name>TP595</name>
  </trkpt>
  <trkpt lat="15.95462" lon="-97.22461">
    <name>TP596</name>
  </trkpt>
  <trkpt lat="15.95461" lon="-97.22466">
    <name>TP597</name>
  </trkpt>
  <trkpt lat="15.95459" lon="-97.22479">
    <name>TP598</name>
  </trkpt>
  <trkpt lat="15.95458" lon="-97.22483">
    <name>TP599</name>
  </trkpt>
  <trkpt lat="15.95453" lon="-97.22506">
    <name>TP600</name>
  </trkpt>
  <trkpt lat="15.95451" lon="-97.22516">
    <name>TP601</name>
  </trkpt>
  <trkpt lat="15.95448" lon="-97.22527">
    <name>TP602</name>
  </trkpt>
  <trkpt lat="15.95447" lon="-97.22533">
    <name>TP603</name>
  </trkpt>
  <trkpt lat="15.95447" lon="-97.22534">
    <name>TP604</name>
  </trkpt>
  <trkpt lat="15.95442" lon="-97.22552">
    <name>TP605</name>
  </trkpt>
  <trkpt lat="15.95437" lon="-97.2257">
    <name>TP606</name>
  </trkpt>
  <trkpt lat="15.95435" lon="-97.2258">
    <name>TP607</name>
  </trkpt>
  <trkpt lat="15.95433" lon="-97.22592">
    <name>TP608</name>
  </trkpt>
  <trkpt lat="15.95432" lon="-97.22604">
    <name>TP609</name>
  </trkpt>
  <trkpt lat="15.95432" lon="-97.22607">
    <name>TP610</name>
  </trkpt>
  <trkpt lat="15.95431" lon="-97.22614">
    <name>TP611</name>
  </trkpt>
  <trkpt lat="15.95431" lon="-97.22623">
    <name>TP612</name>
  </trkpt>
  <trkpt lat="15.95432" lon="-97.22633">
    <name>TP613</name>
  </trkpt>
  <trkpt lat="15.95433" lon="-97.2264">
    <name>TP614</name>
  </trkpt>
  <trkpt lat="15.95434" lon="-97.22643">
    <name>TP615</name>
  </trkpt>
  <trkpt lat="15.95435" lon="-97.22644">
    <name>TP616</name>
  </trkpt>
  <trkpt lat="15.95436" lon="-97.22647">
    <name>TP617</name>
  </trkpt>
  <trkpt lat="15.95439" lon="-97.22656">
    <name>TP618</name>
  </trkpt>
  <trkpt lat="15.95441" lon="-97.2266">
    <name>TP619</name>
  </trkpt>
  <trkpt lat="15.95441" lon="-97.22661">
    <name>TP620</name>
  </trkpt>
  <trkpt lat="15.95444" lon="-97.22666">
    <name>TP621</name>
  </trkpt>
  <trkpt lat="15.95449" lon="-97.22675">
    <name>TP622</name>
  </trkpt>
  <trkpt lat="15.95456" lon="-97.22683">
    <name>TP623</name>
  </trkpt>
  <trkpt lat="15.95464" lon="-97.22693">
    <name>TP624</name>
  </trkpt>
  <trkpt lat="15.95476" lon="-97.22707">
    <name>TP625</name>
  </trkpt>
  <trkpt lat="15.95485" lon="-97.22718">
    <name>TP626</name>
  </trkpt>
  <trkpt lat="15.95491" lon="-97.22728">
    <name>TP627</name>
  </trkpt>
  <trkpt lat="15.95497" lon="-97.22738">
    <name>TP628</name>
  </trkpt>
  <trkpt lat="15.955" lon="-97.22748">
    <name>TP629</name>
  </trkpt>
  <trkpt lat="15.95501" lon="-97.22752">
    <name>TP630</name>
  </trkpt>
  <trkpt lat="15.95502" lon="-97.22757">
    <name>TP631</name>
  </trkpt>
  <trkpt lat="15.95504" lon="-97.22767">
    <name>TP632</name>
  </trkpt>
  <trkpt lat="15.95504" lon="-97.22771">
    <name>TP633</name>
  </trkpt>
  <trkpt lat="15.95504" lon="-97.22775">
    <name>TP634</name>
  </trkpt>
  <trkpt lat="15.95503" lon="-97.22784">
    <name>TP635</name>
  </trkpt>
  <trkpt lat="15.95502" lon="-97.22792">
    <name>TP636</name>
  </trkpt>
  <trkpt lat="15.95501" lon="-97.228">
    <name>TP637</name>
  </trkpt>
  <trkpt lat="15.95499" lon="-97.22808">
    <name>TP638</name>
  </trkpt>
  <trkpt lat="15.95498" lon="-97.2281">
    <name>TP639</name>
  </trkpt>
  <trkpt lat="15.95495" lon="-97.22823">
    <name>TP640</name>
  </trkpt>
  <trkpt lat="15.95487" lon="-97.22854">
    <name>TP641</name>
  </trkpt>
  <trkpt lat="15.95474" lon="-97.22904">
    <name>TP642</name>
  </trkpt>
  <trkpt lat="15.95463" lon="-97.22943">
    <name>TP643</name>
  </trkpt>
  <trkpt lat="15.95455" lon="-97.2297">
    <name>TP644</name>
  </trkpt>
  <trkpt lat="15.95455" lon="-97.22973">
    <name>TP645</name>
  </trkpt>
  <trkpt lat="15.9545" lon="-97.2299">
    <name>TP646</name>
  </trkpt>
  <trkpt lat="15.95445" lon="-97.23007">
    <name>TP647</name>
  </trkpt>
  <trkpt lat="15.95442" lon="-97.23026">
    <name>TP648</name>
  </trkpt>
  <trkpt lat="15.95438" lon="-97.2305">
    <name>TP649</name>
  </trkpt>
  <trkpt lat="15.95434" lon="-97.23074">
    <name>TP650</name>
  </trkpt>
  <trkpt lat="15.95431" lon="-97.23099">
    <name>TP651</name>
  </trkpt>
  <trkpt lat="15.9543" lon="-97.23109">
    <name>TP652</name>
  </trkpt>
  <trkpt lat="15.95429" lon="-97.23132">
    <name>TP653</name>
  </trkpt>
  <trkpt lat="15.95429" lon="-97.23136">
    <name>TP654</name>
  </trkpt>
  <trkpt lat="15.95429" lon="-97.23145">
    <name>TP655</name>
  </trkpt>
  <trkpt lat="15.95429" lon="-97.23155">
    <name>TP656</name>
  </trkpt>
  <trkpt lat="15.95429" lon="-97.23159">
    <name>TP657</name>
  </trkpt>
  <trkpt lat="15.95431" lon="-97.23172">
    <name>TP658</name>
  </trkpt>
  <trkpt lat="15.95433" lon="-97.23185">
    <name>TP659</name>
  </trkpt>
  <trkpt lat="15.95436" lon="-97.23197">
    <name>TP660</name>
  </trkpt>
  <trkpt lat="15.9544" lon="-97.23211">
    <name>TP661</name>
  </trkpt>
  <trkpt lat="15.95444" lon="-97.23224">
    <name>TP662</name>
  </trkpt>
  <trkpt lat="15.95448" lon="-97.23237">
    <name>TP663</name>
  </trkpt>
  <trkpt lat="15.95463" lon="-97.23283">
    <name>TP664</name>
  </trkpt>
  <trkpt lat="15.95479" lon="-97.23334">
    <name>TP665</name>
  </trkpt>
  <trkpt lat="15.955" lon="-97.23394">
    <name>TP666</name>
  </trkpt>
  <trkpt lat="15.95512" lon="-97.23435">
    <name>TP667</name>
  </trkpt>
  <trkpt lat="15.95524" lon="-97.23475">
    <name>TP668</name>
  </trkpt>
  <trkpt lat="15.95532" lon="-97.23514">
    <name>TP669</name>
  </trkpt>
  <trkpt lat="15.95558" lon="-97.23641">
    <name>TP670</name>
  </trkpt>
  <trkpt lat="15.95576" lon="-97.23735">
    <name>TP671</name>
  </trkpt>
  <trkpt lat="15.95586" lon="-97.23796">
    <name>TP672</name>
  </trkpt>
  <trkpt lat="15.95614" lon="-97.23924">
    <name>TP673</name>
  </trkpt>
  <trkpt lat="15.95615" lon="-97.23929">
    <name>TP674</name>
  </trkpt>
  <trkpt lat="15.95626" lon="-97.2399">
    <name>TP675</name>
  </trkpt>
  <trkpt lat="15.95634" lon="-97.2403">
    <name>TP676</name>
  </trkpt>
  <trkpt lat="15.9564" lon="-97.24065">
    <name>TP677</name>
  </trkpt>
  <trkpt lat="15.95648" lon="-97.24103">
    <name>TP678</name>
  </trkpt>
  <trkpt lat="15.95657" lon="-97.24148">
    <name>TP679</name>
  </trkpt>
  <trkpt lat="15.956566" lon="-97.2414804">
    <name>TP680</name>
  </trkpt>
  <trkpt lat="15.95674" lon="-97.24152">
    <name>TP681</name>
  </trkpt>
  <trkpt lat="15.95677" lon="-97.24152">
    <name>TP682</name>
  </trkpt>
  <trkpt lat="15.95687" lon="-97.24156">
    <name>TP683</name>
  </trkpt>
  <trkpt lat="15.95725" lon="-97.2417">
    <name>TP684</name>
  </trkpt>
  <trkpt lat="15.95726" lon="-97.24171">
    <name>TP685</name>
  </trkpt>
  <trkpt lat="15.95743" lon="-97.24177">
    <name>TP686</name>
  </trkpt>
  <trkpt lat="15.95751" lon="-97.2418">
    <name>TP687</name>
  </trkpt>
  <trkpt lat="15.9576" lon="-97.24184">
    <name>TP688</name>
  </trkpt>
  <trkpt lat="15.95775" lon="-97.2419">
    <name>TP689</name>
  </trkpt>
  <trkpt lat="15.95792" lon="-97.24197">
    <name>TP690</name>
  </trkpt>
  <trkpt lat="15.95793" lon="-97.24198">
    <name>TP691</name>
  </trkpt>
  <trkpt lat="15.95797" lon="-97.24199">
    <name>TP692</name>
  </trkpt>
  <trkpt lat="15.95807" lon="-97.24205">
    <name>TP693</name>
  </trkpt>
  <trkpt lat="15.95809" lon="-97.24207">
    <name>TP694</name>
  </trkpt>
  <trkpt lat="15.95815" lon="-97.24213">
    <name>TP695</name>
  </trkpt>
  <trkpt lat="15.95831" lon="-97.24233">
    <name>TP696</name>
  </trkpt>
  <trkpt lat="15.95843" lon="-97.24251">
    <name>TP697</name>
  </trkpt>
  <trkpt lat="15.95849" lon="-97.24256">
    <name>TP698</name>
  </trkpt>
  <trkpt lat="15.95864" lon="-97.24268">
    <name>TP699</name>
  </trkpt>
  <trkpt lat="15.95888" lon="-97.24281">
    <name>TP700</name>
  </trkpt>
  <trkpt lat="15.95898" lon="-97.24287">
    <name>TP701</name>
  </trkpt>
  <trkpt lat="15.95903" lon="-97.24289">
    <name>TP702</name>
  </trkpt>
  <trkpt lat="15.95904" lon="-97.24289">
    <name>TP703</name>
  </trkpt>
  <trkpt lat="15.95935" lon="-97.24304">
    <name>TP704</name>
  </trkpt>
  <trkpt lat="15.95963" lon="-97.24314">
    <name>TP705</name>
  </trkpt>
  <trkpt lat="15.95982" lon="-97.24323">
    <name>TP706</name>
  </trkpt>
  <trkpt lat="15.95999" lon="-97.24338">
    <name>TP707</name>
  </trkpt>
  <trkpt lat="15.96005" lon="-97.24343">
    <name>TP708</name>
  </trkpt>
  <trkpt lat="15.96036" lon="-97.24377">
    <name>TP709</name>
  </trkpt>
  <trkpt lat="15.96051" lon="-97.24386">
    <name>TP710</name>
  </trkpt>
  <trkpt lat="15.96053" lon="-97.24386">
    <name>TP711</name>
  </trkpt>
  <trkpt lat="15.96073" lon="-97.24392">
    <name>TP712</name>
  </trkpt>
  <trkpt lat="15.96105" lon="-97.24407">
    <name>TP713</name>
  </trkpt>
  <trkpt lat="15.96124" lon="-97.24422">
    <name>TP714</name>
  </trkpt>
  <trkpt lat="15.96135" lon="-97.24431">
    <name>TP715</name>
  </trkpt>
  <trkpt lat="15.96146" lon="-97.2444">
    <name>TP716</name>
  </trkpt>
  <trkpt lat="15.96149" lon="-97.24442">
    <name>TP717</name>
  </trkpt>
  <trkpt lat="15.96183" lon="-97.24469">
    <name>TP718</name>
  </trkpt>
  <trkpt lat="15.96213" lon="-97.24502">
    <name>TP719</name>
  </trkpt>
  <trkpt lat="15.96243" lon="-97.24535">
    <name>TP720</name>
  </trkpt>
  <trkpt lat="15.96268" lon="-97.24562">
    <name>TP721</name>
  </trkpt>
  <trkpt lat="15.96286" lon="-97.24584">
    <name>TP722</name>
  </trkpt>
  <trkpt lat="15.96303" lon="-97.24599">
    <name>TP723</name>
  </trkpt>
  <trkpt lat="15.96307" lon="-97.24604">
    <name>TP724</name>
  </trkpt>
  <trkpt lat="15.96315" lon="-97.2461">
    <name>TP725</name>
  </trkpt>
  <trkpt lat="15.96325" lon="-97.24615">
    <name>TP726</name>
  </trkpt>
  <trkpt lat="15.96361" lon="-97.24629">
    <name>TP727</name>
  </trkpt>
  <trkpt lat="15.96373" lon="-97.24633">
    <name>TP728</name>
  </trkpt>
  <trkpt lat="15.96388" lon="-97.2464">
    <name>TP729</name>
  </trkpt>
  <trkpt lat="15.96399" lon="-97.24648">
    <name>TP730</name>
  </trkpt>
  <trkpt lat="15.96414" lon="-97.24661">
    <name>TP731</name>
  </trkpt>
  <trkpt lat="15.96432" lon="-97.24676">
    <name>TP732</name>
  </trkpt>
  <trkpt lat="15.96434" lon="-97.24677">
    <name>TP733</name>
  </trkpt>
  <trkpt lat="15.96448" lon="-97.24687">
    <name>TP734</name>
  </trkpt>
  <trkpt lat="15.96472" lon="-97.24694">
    <name>TP735</name>
  </trkpt>
  <trkpt lat="15.96489" lon="-97.24698">
    <name>TP736</name>
  </trkpt>
  <trkpt lat="15.96501" lon="-97.24699">
    <name>TP737</name>
  </trkpt>
  <trkpt lat="15.96508" lon="-97.24701">
    <name>TP738</name>
  </trkpt>
  <trkpt lat="15.96519" lon="-97.24701">
    <name>TP739</name>
  </trkpt>
  <trkpt lat="15.96543" lon="-97.24699">
    <name>TP740</name>
  </trkpt>
  <trkpt lat="15.96573" lon="-97.24696">
    <name>TP741</name>
  </trkpt>
  <trkpt lat="15.9659" lon="-97.24692">
    <name>TP742</name>
  </trkpt>
  <trkpt lat="15.96604" lon="-97.24683">
    <name>TP743</name>
  </trkpt>
  <trkpt lat="15.96616" lon="-97.24677">
    <name>TP744</name>
  </trkpt>
  <trkpt lat="15.96631" lon="-97.24674">
    <name>TP745</name>
  </trkpt>
  <trkpt lat="15.96667" lon="-97.24671">
    <name>TP746</name>
  </trkpt>
  <trkpt lat="15.9669" lon="-97.24671">
    <name>TP747</name>
  </trkpt>
  <trkpt lat="15.96719" lon="-97.24666">
    <name>TP748</name>
  </trkpt>
  <trkpt lat="15.96761" lon="-97.24657">
    <name>TP749</name>
  </trkpt>
  <trkpt lat="15.96781" lon="-97.24657">
    <name>TP750</name>
  </trkpt>
  <trkpt lat="15.96783" lon="-97.24656">
    <name>TP751</name>
  </trkpt>
  <trkpt lat="15.9679" lon="-97.24653">
    <name>TP752</name>
  </trkpt>
  <trkpt lat="15.96801" lon="-97.24647">
    <name>TP753</name>
  </trkpt>
  <trkpt lat="15.96816" lon="-97.24636">
    <name>TP754</name>
  </trkpt>
  <trkpt lat="15.9684" lon="-97.24615">
    <name>TP755</name>
  </trkpt>
  <trkpt lat="15.96873" lon="-97.24591">
    <name>TP756</name>
  </trkpt>
  <trkpt lat="15.96902" lon="-97.24574">
    <name>TP757</name>
  </trkpt>
  <trkpt lat="15.96912" lon="-97.24568">
    <name>TP758</name>
  </trkpt>
  <trkpt lat="15.96941" lon="-97.2455">
    <name>TP759</name>
  </trkpt>
  <trkpt lat="15.96965" lon="-97.24538">
    <name>TP760</name>
  </trkpt>
  <trkpt lat="15.96969" lon="-97.24538">
    <name>TP761</name>
  </trkpt>
  <trkpt lat="15.96974" lon="-97.24537">
    <name>TP762</name>
  </trkpt>
  <trkpt lat="15.96992" lon="-97.24535">
    <name>TP763</name>
  </trkpt>
  <trkpt lat="15.97011" lon="-97.24534">
    <name>TP764</name>
  </trkpt>
  <trkpt lat="15.97065" lon="-97.24529">
    <name>TP765</name>
  </trkpt>
  <trkpt lat="15.97138" lon="-97.24522">
    <name>TP766</name>
  </trkpt>
  <trkpt lat="15.97159" lon="-97.2452">
    <name>TP767</name>
  </trkpt>
  <trkpt lat="15.9717" lon="-97.24519">
    <name>TP768</name>
  </trkpt>
  <trkpt lat="15.97205" lon="-97.24513">
    <name>TP769</name>
  </trkpt>
  <trkpt lat="15.97218" lon="-97.24511">
    <name>TP770</name>
  </trkpt>
  <trkpt lat="15.97302" lon="-97.245">
    <name>TP771</name>
  </trkpt>
  <trkpt lat="15.97385" lon="-97.24491">
    <name>TP772</name>
  </trkpt>
  <trkpt lat="15.9738513" lon="-97.2449075">
    <name>TP773</name>
  </trkpt>
  <trkpt lat="15.97374" lon="-97.24406">
    <name>TP774</name>
  </trkpt>
  <trkpt lat="15.9737438" lon="-97.2440566">
    <name>TP775</name>
  </trkpt>
  <trkpt lat="15.97424" lon="-97.24399">
    <name>TP776</name>
  </trkpt>
  <trkpt lat="15.97442" lon="-97.24397">
    <name>TP777</name>
  </trkpt>
  <trkpt lat="15.9746" lon="-97.24395">
    <name>TP778</name>
  </trkpt>
  <trkpt lat="15.9745973" lon="-97.2439492">
    <name>TP779</name>
  </trkpt>
  <trkpt lat="15.97457" lon="-97.24377">
    <name>TP780</name>
  </trkpt>
  <trkpt lat="15.9745705" lon="-97.2437682">
    <name>TP781</name>
  </trkpt>
  <trkpt lat="15.9745705" lon="-97.2437682">
    <name>TP782</name>
  </trkpt>
  <trkpt lat="15.9745705" lon="-97.2437682">
    <name>TP783</name>
  </trkpt>
  </trkseg>
</trk>
</gpx>