<?xml version="1.0" encoding="UTF-8" standalone="no" ?>
<gpx xmlns="http://www.topografix.com/GPX/1/1" xmlns:gpxx="http://www.garmin.com/xmlschemas/GpxExtensions/v3" xmlns:gpxtpx="http://www.garmin.com/xmlschemas/TrackPointExtension/v1" creator="mapstogpx.com" version="1.1" xmlns:xsi="http://www.w3.org/2001/XMLSchema-instance" xsi:schemaLocation="http://www.topografix.com/GPX/1/1 http://www.topografix.com/GPX/1/1/gpx.xsd http://www.garmin.com/xmlschemas/GpxExtensions/v3 http://www.garmin.com/xmlschemas/GpxExtensionsv3.xsd http://www.garmin.com/xmlschemas/TrackPointExtension/v1 http://www.garmin.com/xmlschemas/TrackPointExtensionv1.xsd">
  <metadata>
    <link href="http://www.mapstogpx.com">
      <text>Sverrir Sigmundarson</text>
    </link>
    <!--desc>Map data ©2024 INEGI</desc-->
    <!--copyright author="Google Inc">
    	<year>2024</year>
    	<license>https://developers.google.com/maps/terms</license>
    </copyright-->
    <!--url>https://www.google.com/maps/dir/17.067735,-96.726323/Monte+Alb%C3%A1n,+Oaxaca/@17.0605521,-96.7709204,8150m/data=!3m1!1e3!4m9!4m8!1m0!1m5!1m1!1s0x85c7187d793ab219:0xbec62ae73fc32413!2m2!1d-96.7681104!2d17.0438035!3e0?entry=tts&g_ep=EgoyMDI0MTExMy4xKgBIAVAD&hl=en</url-->
    <time>2024-12-19T17:06:11Z</time>
  </metadata>
  <wpt lat="17.067735" lon="-96.726323">
    <name>RUTA INDEPENDENCIA</name>
    <desc>Calle de Tinoco y Palacios 604-610, RUTA INDEPENDENCIA, Centro, 68070 Oaxaca de Juárez, Oax., Mexico</desc>
  </wpt>
  <wpt lat="17.0438035" lon="-96.7681104">
    <name>Monte Albán</name>
    <desc>Monte Albán, Oaxaca, Mexico</desc>
  </wpt>
<trk>
  <name>RUTA INDEPENDENCIA to Monte Albán</name>
  <number>1</number>
  <trkseg>
  <trkpt lat="17.0677449" lon="-96.7264837">
    <name>TP001</name>
  </trkpt>
  <trkpt lat="17.06763" lon="-96.72649">
    <name>TP002</name>
  </trkpt>
  <trkpt lat="17.0674" lon="-96.72651">
    <name>TP003</name>
  </trkpt>
  <trkpt lat="17.06736" lon="-96.72651">
    <name>TP004</name>
  </trkpt>
  <trkpt lat="17.06721" lon="-96.72653">
    <name>TP005</name>
  </trkpt>
  <trkpt lat="17.06703" lon="-96.72656">
    <name>TP006</name>
  </trkpt>
  <trkpt lat="17.06648" lon="-96.72666">
    <name>TP007</name>
  </trkpt>
  <trkpt lat="17.06619" lon="-96.72672">
    <name>TP008</name>
  </trkpt>
  <trkpt lat="17.06527" lon="-96.72691">
    <name>TP009</name>
  </trkpt>
  <trkpt lat="17.0652662" lon="-96.7269092">
    <name>TP010</name>
  </trkpt>
  <trkpt lat="17.06528" lon="-96.72701">
    <name>TP011</name>
  </trkpt>
  <trkpt lat="17.06544" lon="-96.7279">
    <name>TP012</name>
  </trkpt>
  <trkpt lat="17.0654429" lon="-96.7279038">
    <name>TP013</name>
  </trkpt>
  <trkpt lat="17.06568" lon="-96.72786">
    <name>TP014</name>
  </trkpt>
  <trkpt lat="17.06592" lon="-96.7278">
    <name>TP015</name>
  </trkpt>
  <trkpt lat="17.06632" lon="-96.72773">
    <name>TP016</name>
  </trkpt>
  <trkpt lat="17.06649" lon="-96.72771">
    <name>TP017</name>
  </trkpt>
  <trkpt lat="17.06673" lon="-96.72766">
    <name>TP018</name>
  </trkpt>
  <trkpt lat="17.0668" lon="-96.72765">
    <name>TP019</name>
  </trkpt>
  <trkpt lat="17.0671" lon="-96.72759">
    <name>TP020</name>
  </trkpt>
  <trkpt lat="17.06737" lon="-96.72754">
    <name>TP021</name>
  </trkpt>
  <trkpt lat="17.06756" lon="-96.72751">
    <name>TP022</name>
  </trkpt>
  <trkpt lat="17.06768" lon="-96.72749">
    <name>TP023</name>
  </trkpt>
  <trkpt lat="17.06779" lon="-96.72748">
    <name>TP024</name>
  </trkpt>
  <trkpt lat="17.06823" lon="-96.72753">
    <name>TP025</name>
  </trkpt>
  <trkpt lat="17.0684" lon="-96.72754">
    <name>TP026</name>
  </trkpt>
  <trkpt lat="17.06859" lon="-96.72759">
    <name>TP027</name>
  </trkpt>
  <trkpt lat="17.06923" lon="-96.72764">
    <name>TP028</name>
  </trkpt>
  <trkpt lat="17.06927" lon="-96.72765">
    <name>TP029</name>
  </trkpt>
  <trkpt lat="17.06928" lon="-96.72765">
    <name>TP030</name>
  </trkpt>
  <trkpt lat="17.06958" lon="-96.72768">
    <name>TP031</name>
  </trkpt>
  <trkpt lat="17.0703" lon="-96.72759">
    <name>TP032</name>
  </trkpt>
  <trkpt lat="17.07083" lon="-96.72744">
    <name>TP033</name>
  </trkpt>
  <trkpt lat="17.0709" lon="-96.72742">
    <name>TP034</name>
  </trkpt>
  <trkpt lat="17.07093" lon="-96.72742">
    <name>TP035</name>
  </trkpt>
  <trkpt lat="17.07101" lon="-96.7274">
    <name>TP036</name>
  </trkpt>
  <trkpt lat="17.07132" lon="-96.72736">
    <name>TP037</name>
  </trkpt>
  <trkpt lat="17.07137" lon="-96.72735">
    <name>TP038</name>
  </trkpt>
  <trkpt lat="17.07142" lon="-96.72734">
    <name>TP039</name>
  </trkpt>
  <trkpt lat="17.07195" lon="-96.72723">
    <name>TP040</name>
  </trkpt>
  <trkpt lat="17.07204" lon="-96.72721">
    <name>TP041</name>
  </trkpt>
  <trkpt lat="17.07212" lon="-96.7272">
    <name>TP042</name>
  </trkpt>
  <trkpt lat="17.07283" lon="-96.72708">
    <name>TP043</name>
  </trkpt>
  <trkpt lat="17.07291" lon="-96.72707">
    <name>TP044</name>
  </trkpt>
  <trkpt lat="17.073" lon="-96.72704">
    <name>TP045</name>
  </trkpt>
  <trkpt lat="17.07309" lon="-96.72699">
    <name>TP046</name>
  </trkpt>
  <trkpt lat="17.07316" lon="-96.72693">
    <name>TP047</name>
  </trkpt>
  <trkpt lat="17.0732" lon="-96.7269">
    <name>TP048</name>
  </trkpt>
  <trkpt lat="17.0732017" lon="-96.726901">
    <name>TP049</name>
  </trkpt>
  <trkpt lat="17.07326" lon="-96.72686">
    <name>TP050</name>
  </trkpt>
  <trkpt lat="17.0734" lon="-96.7273">
    <name>TP051</name>
  </trkpt>
  <trkpt lat="17.07345" lon="-96.72749">
    <name>TP052</name>
  </trkpt>
  <trkpt lat="17.07347" lon="-96.7276">
    <name>TP053</name>
  </trkpt>
  <trkpt lat="17.07347" lon="-96.72762">
    <name>TP054</name>
  </trkpt>
  <trkpt lat="17.07347" lon="-96.72768">
    <name>TP055</name>
  </trkpt>
  <trkpt lat="17.07347" lon="-96.72773">
    <name>TP056</name>
  </trkpt>
  <trkpt lat="17.07345" lon="-96.72782">
    <name>TP057</name>
  </trkpt>
  <trkpt lat="17.07341" lon="-96.72794">
    <name>TP058</name>
  </trkpt>
  <trkpt lat="17.07337" lon="-96.72798">
    <name>TP059</name>
  </trkpt>
  <trkpt lat="17.07331" lon="-96.72804">
    <name>TP060</name>
  </trkpt>
  <trkpt lat="17.07326" lon="-96.72807">
    <name>TP061</name>
  </trkpt>
  <trkpt lat="17.07323" lon="-96.72808">
    <name>TP062</name>
  </trkpt>
  <trkpt lat="17.07317" lon="-96.72809">
    <name>TP063</name>
  </trkpt>
  <trkpt lat="17.07314" lon="-96.7281">
    <name>TP064</name>
  </trkpt>
  <trkpt lat="17.07311" lon="-96.7281">
    <name>TP065</name>
  </trkpt>
  <trkpt lat="17.07297" lon="-96.7281">
    <name>TP066</name>
  </trkpt>
  <trkpt lat="17.0729" lon="-96.7281">
    <name>TP067</name>
  </trkpt>
  <trkpt lat="17.0728" lon="-96.72809">
    <name>TP068</name>
  </trkpt>
  <trkpt lat="17.07274" lon="-96.72809">
    <name>TP069</name>
  </trkpt>
  <trkpt lat="17.0727" lon="-96.72808">
    <name>TP070</name>
  </trkpt>
  <trkpt lat="17.07267" lon="-96.72808">
    <name>TP071</name>
  </trkpt>
  <trkpt lat="17.07263" lon="-96.72808">
    <name>TP072</name>
  </trkpt>
  <trkpt lat="17.07259" lon="-96.72808">
    <name>TP073</name>
  </trkpt>
  <trkpt lat="17.07255" lon="-96.72808">
    <name>TP074</name>
  </trkpt>
  <trkpt lat="17.07252" lon="-96.72809">
    <name>TP075</name>
  </trkpt>
  <trkpt lat="17.07248" lon="-96.72809">
    <name>TP076</name>
  </trkpt>
  <trkpt lat="17.07245" lon="-96.7281">
    <name>TP077</name>
  </trkpt>
  <trkpt lat="17.07241" lon="-96.72812">
    <name>TP078</name>
  </trkpt>
  <trkpt lat="17.07237" lon="-96.72813">
    <name>TP079</name>
  </trkpt>
  <trkpt lat="17.07235" lon="-96.72814">
    <name>TP080</name>
  </trkpt>
  <trkpt lat="17.07231" lon="-96.72816">
    <name>TP081</name>
  </trkpt>
  <trkpt lat="17.07228" lon="-96.72818">
    <name>TP082</name>
  </trkpt>
  <trkpt lat="17.07227" lon="-96.72819">
    <name>TP083</name>
  </trkpt>
  <trkpt lat="17.07225" lon="-96.7282">
    <name>TP084</name>
  </trkpt>
  <trkpt lat="17.07222" lon="-96.72824">
    <name>TP085</name>
  </trkpt>
  <trkpt lat="17.07218" lon="-96.72827">
    <name>TP086</name>
  </trkpt>
  <trkpt lat="17.072" lon="-96.72851">
    <name>TP087</name>
  </trkpt>
  <trkpt lat="17.07179" lon="-96.7288">
    <name>TP088</name>
  </trkpt>
  <trkpt lat="17.07173" lon="-96.72889">
    <name>TP089</name>
  </trkpt>
  <trkpt lat="17.07155" lon="-96.72914">
    <name>TP090</name>
  </trkpt>
  <trkpt lat="17.07153" lon="-96.72918">
    <name>TP091</name>
  </trkpt>
  <trkpt lat="17.07147" lon="-96.7293">
    <name>TP092</name>
  </trkpt>
  <trkpt lat="17.07146" lon="-96.7293">
    <name>TP093</name>
  </trkpt>
  <trkpt lat="17.07128" lon="-96.72973">
    <name>TP094</name>
  </trkpt>
  <trkpt lat="17.07127" lon="-96.72975">
    <name>TP095</name>
  </trkpt>
  <trkpt lat="17.07125" lon="-96.72978">
    <name>TP096</name>
  </trkpt>
  <trkpt lat="17.07123" lon="-96.72981">
    <name>TP097</name>
  </trkpt>
  <trkpt lat="17.07119" lon="-96.72988">
    <name>TP098</name>
  </trkpt>
  <trkpt lat="17.07113" lon="-96.72994">
    <name>TP099</name>
  </trkpt>
  <trkpt lat="17.07106" lon="-96.73">
    <name>TP100</name>
  </trkpt>
  <trkpt lat="17.07098" lon="-96.73008">
    <name>TP101</name>
  </trkpt>
  <trkpt lat="17.07083" lon="-96.73018">
    <name>TP102</name>
  </trkpt>
  <trkpt lat="17.07066" lon="-96.73026">
    <name>TP103</name>
  </trkpt>
  <trkpt lat="17.0705" lon="-96.7303">
    <name>TP104</name>
  </trkpt>
  <trkpt lat="17.07033" lon="-96.73031">
    <name>TP105</name>
  </trkpt>
  <trkpt lat="17.0702" lon="-96.73031">
    <name>TP106</name>
  </trkpt>
  <trkpt lat="17.07009" lon="-96.7303">
    <name>TP107</name>
  </trkpt>
  <trkpt lat="17.07001" lon="-96.73028">
    <name>TP108</name>
  </trkpt>
  <trkpt lat="17.06994" lon="-96.73027">
    <name>TP109</name>
  </trkpt>
  <trkpt lat="17.06985" lon="-96.73024">
    <name>TP110</name>
  </trkpt>
  <trkpt lat="17.06975" lon="-96.73021">
    <name>TP111</name>
  </trkpt>
  <trkpt lat="17.06944" lon="-96.73011">
    <name>TP112</name>
  </trkpt>
  <trkpt lat="17.06931" lon="-96.73007">
    <name>TP113</name>
  </trkpt>
  <trkpt lat="17.06916" lon="-96.73004">
    <name>TP114</name>
  </trkpt>
  <trkpt lat="17.06914" lon="-96.73004">
    <name>TP115</name>
  </trkpt>
  <trkpt lat="17.0691" lon="-96.73004">
    <name>TP116</name>
  </trkpt>
  <trkpt lat="17.06908" lon="-96.73003">
    <name>TP117</name>
  </trkpt>
  <trkpt lat="17.069" lon="-96.73004">
    <name>TP118</name>
  </trkpt>
  <trkpt lat="17.06892" lon="-96.73005">
    <name>TP119</name>
  </trkpt>
  <trkpt lat="17.06877" lon="-96.73008">
    <name>TP120</name>
  </trkpt>
  <trkpt lat="17.06871" lon="-96.7301">
    <name>TP121</name>
  </trkpt>
  <trkpt lat="17.06865" lon="-96.73013">
    <name>TP122</name>
  </trkpt>
  <trkpt lat="17.06859" lon="-96.73016">
    <name>TP123</name>
  </trkpt>
  <trkpt lat="17.0685" lon="-96.73022">
    <name>TP124</name>
  </trkpt>
  <trkpt lat="17.06836" lon="-96.73034">
    <name>TP125</name>
  </trkpt>
  <trkpt lat="17.06823" lon="-96.73043">
    <name>TP126</name>
  </trkpt>
  <trkpt lat="17.06782" lon="-96.73077">
    <name>TP127</name>
  </trkpt>
  <trkpt lat="17.06754" lon="-96.731">
    <name>TP128</name>
  </trkpt>
  <trkpt lat="17.06746" lon="-96.73107">
    <name>TP129</name>
  </trkpt>
  <trkpt lat="17.06744" lon="-96.7311">
    <name>TP130</name>
  </trkpt>
  <trkpt lat="17.06741" lon="-96.73114">
    <name>TP131</name>
  </trkpt>
  <trkpt lat="17.06737" lon="-96.7312">
    <name>TP132</name>
  </trkpt>
  <trkpt lat="17.06735" lon="-96.73125">
    <name>TP133</name>
  </trkpt>
  <trkpt lat="17.06734" lon="-96.73131">
    <name>TP134</name>
  </trkpt>
  <trkpt lat="17.06734" lon="-96.73132">
    <name>TP135</name>
  </trkpt>
  <trkpt lat="17.06734" lon="-96.73133">
    <name>TP136</name>
  </trkpt>
  <trkpt lat="17.06734" lon="-96.73136">
    <name>TP137</name>
  </trkpt>
  <trkpt lat="17.06733" lon="-96.73139">
    <name>TP138</name>
  </trkpt>
  <trkpt lat="17.06733" lon="-96.73142">
    <name>TP139</name>
  </trkpt>
  <trkpt lat="17.06733" lon="-96.73146">
    <name>TP140</name>
  </trkpt>
  <trkpt lat="17.06733" lon="-96.73149">
    <name>TP141</name>
  </trkpt>
  <trkpt lat="17.06733" lon="-96.73151">
    <name>TP142</name>
  </trkpt>
  <trkpt lat="17.06735" lon="-96.73155">
    <name>TP143</name>
  </trkpt>
  <trkpt lat="17.06737" lon="-96.73161">
    <name>TP144</name>
  </trkpt>
  <trkpt lat="17.06739" lon="-96.73165">
    <name>TP145</name>
  </trkpt>
  <trkpt lat="17.06743" lon="-96.73171">
    <name>TP146</name>
  </trkpt>
  <trkpt lat="17.06747" lon="-96.73175">
    <name>TP147</name>
  </trkpt>
  <trkpt lat="17.06753" lon="-96.73182">
    <name>TP148</name>
  </trkpt>
  <trkpt lat="17.06755" lon="-96.73183">
    <name>TP149</name>
  </trkpt>
  <trkpt lat="17.0676" lon="-96.73186">
    <name>TP150</name>
  </trkpt>
  <trkpt lat="17.06773" lon="-96.73194">
    <name>TP151</name>
  </trkpt>
  <trkpt lat="17.06798" lon="-96.7321">
    <name>TP152</name>
  </trkpt>
  <trkpt lat="17.06828" lon="-96.73232">
    <name>TP153</name>
  </trkpt>
  <trkpt lat="17.06836" lon="-96.7324">
    <name>TP154</name>
  </trkpt>
  <trkpt lat="17.06845" lon="-96.73249">
    <name>TP155</name>
  </trkpt>
  <trkpt lat="17.06852" lon="-96.73258">
    <name>TP156</name>
  </trkpt>
  <trkpt lat="17.06856" lon="-96.73265">
    <name>TP157</name>
  </trkpt>
  <trkpt lat="17.06871" lon="-96.73289">
    <name>TP158</name>
  </trkpt>
  <trkpt lat="17.06887" lon="-96.73316">
    <name>TP159</name>
  </trkpt>
  <trkpt lat="17.06906" lon="-96.73343">
    <name>TP160</name>
  </trkpt>
  <trkpt lat="17.06915" lon="-96.73355">
    <name>TP161</name>
  </trkpt>
  <trkpt lat="17.06939" lon="-96.73381">
    <name>TP162</name>
  </trkpt>
  <trkpt lat="17.06951" lon="-96.7339">
    <name>TP163</name>
  </trkpt>
  <trkpt lat="17.06969" lon="-96.73402">
    <name>TP164</name>
  </trkpt>
  <trkpt lat="17.06979" lon="-96.73406">
    <name>TP165</name>
  </trkpt>
  <trkpt lat="17.06988" lon="-96.73409">
    <name>TP166</name>
  </trkpt>
  <trkpt lat="17.06995" lon="-96.73411">
    <name>TP167</name>
  </trkpt>
  <trkpt lat="17.06998" lon="-96.73411">
    <name>TP168</name>
  </trkpt>
  <trkpt lat="17.07001" lon="-96.73412">
    <name>TP169</name>
  </trkpt>
  <trkpt lat="17.07003" lon="-96.73412">
    <name>TP170</name>
  </trkpt>
  <trkpt lat="17.0701" lon="-96.73412">
    <name>TP171</name>
  </trkpt>
  <trkpt lat="17.0702" lon="-96.73413">
    <name>TP172</name>
  </trkpt>
  <trkpt lat="17.0703" lon="-96.73412">
    <name>TP173</name>
  </trkpt>
  <trkpt lat="17.07041" lon="-96.73411">
    <name>TP174</name>
  </trkpt>
  <trkpt lat="17.07046" lon="-96.7341">
    <name>TP175</name>
  </trkpt>
  <trkpt lat="17.07054" lon="-96.73409">
    <name>TP176</name>
  </trkpt>
  <trkpt lat="17.07061" lon="-96.73407">
    <name>TP177</name>
  </trkpt>
  <trkpt lat="17.07066" lon="-96.73406">
    <name>TP178</name>
  </trkpt>
  <trkpt lat="17.07072" lon="-96.73404">
    <name>TP179</name>
  </trkpt>
  <trkpt lat="17.07087" lon="-96.734">
    <name>TP180</name>
  </trkpt>
  <trkpt lat="17.07122" lon="-96.73389">
    <name>TP181</name>
  </trkpt>
  <trkpt lat="17.07142" lon="-96.73384">
    <name>TP182</name>
  </trkpt>
  <trkpt lat="17.0715" lon="-96.73382">
    <name>TP183</name>
  </trkpt>
  <trkpt lat="17.0716" lon="-96.73382">
    <name>TP184</name>
  </trkpt>
  <trkpt lat="17.07163" lon="-96.73382">
    <name>TP185</name>
  </trkpt>
  <trkpt lat="17.0717" lon="-96.73382">
    <name>TP186</name>
  </trkpt>
  <trkpt lat="17.07174" lon="-96.73383">
    <name>TP187</name>
  </trkpt>
  <trkpt lat="17.07176" lon="-96.73383">
    <name>TP188</name>
  </trkpt>
  <trkpt lat="17.07179" lon="-96.73384">
    <name>TP189</name>
  </trkpt>
  <trkpt lat="17.07184" lon="-96.73387">
    <name>TP190</name>
  </trkpt>
  <trkpt lat="17.07189" lon="-96.73389">
    <name>TP191</name>
  </trkpt>
  <trkpt lat="17.07204" lon="-96.73396">
    <name>TP192</name>
  </trkpt>
  <trkpt lat="17.07215" lon="-96.73403">
    <name>TP193</name>
  </trkpt>
  <trkpt lat="17.07227" lon="-96.7341">
    <name>TP194</name>
  </trkpt>
  <trkpt lat="17.07251" lon="-96.73424">
    <name>TP195</name>
  </trkpt>
  <trkpt lat="17.0726" lon="-96.73429">
    <name>TP196</name>
  </trkpt>
  <trkpt lat="17.07263" lon="-96.7343">
    <name>TP197</name>
  </trkpt>
  <trkpt lat="17.07265" lon="-96.73431">
    <name>TP198</name>
  </trkpt>
  <trkpt lat="17.07267" lon="-96.73432">
    <name>TP199</name>
  </trkpt>
  <trkpt lat="17.0727" lon="-96.73433">
    <name>TP200</name>
  </trkpt>
  <trkpt lat="17.07273" lon="-96.73433">
    <name>TP201</name>
  </trkpt>
  <trkpt lat="17.07275" lon="-96.73434">
    <name>TP202</name>
  </trkpt>
  <trkpt lat="17.07276" lon="-96.73434">
    <name>TP203</name>
  </trkpt>
  <trkpt lat="17.07278" lon="-96.73435">
    <name>TP204</name>
  </trkpt>
  <trkpt lat="17.07281" lon="-96.73435">
    <name>TP205</name>
  </trkpt>
  <trkpt lat="17.07283" lon="-96.73436">
    <name>TP206</name>
  </trkpt>
  <trkpt lat="17.07291" lon="-96.73436">
    <name>TP207</name>
  </trkpt>
  <trkpt lat="17.07294" lon="-96.73436">
    <name>TP208</name>
  </trkpt>
  <trkpt lat="17.07297" lon="-96.73436">
    <name>TP209</name>
  </trkpt>
  <trkpt lat="17.073" lon="-96.73435">
    <name>TP210</name>
  </trkpt>
  <trkpt lat="17.07304" lon="-96.73434">
    <name>TP211</name>
  </trkpt>
  <trkpt lat="17.0731" lon="-96.73433">
    <name>TP212</name>
  </trkpt>
  <trkpt lat="17.07311" lon="-96.73432">
    <name>TP213</name>
  </trkpt>
  <trkpt lat="17.07312" lon="-96.73432">
    <name>TP214</name>
  </trkpt>
  <trkpt lat="17.07314" lon="-96.73431">
    <name>TP215</name>
  </trkpt>
  <trkpt lat="17.07317" lon="-96.7343">
    <name>TP216</name>
  </trkpt>
  <trkpt lat="17.0732" lon="-96.73428">
    <name>TP217</name>
  </trkpt>
  <trkpt lat="17.07323" lon="-96.73426">
    <name>TP218</name>
  </trkpt>
  <trkpt lat="17.07325" lon="-96.73425">
    <name>TP219</name>
  </trkpt>
  <trkpt lat="17.07327" lon="-96.73423">
    <name>TP220</name>
  </trkpt>
  <trkpt lat="17.07331" lon="-96.7342">
    <name>TP221</name>
  </trkpt>
  <trkpt lat="17.0734" lon="-96.7341">
    <name>TP222</name>
  </trkpt>
  <trkpt lat="17.07342" lon="-96.73409">
    <name>TP223</name>
  </trkpt>
  <trkpt lat="17.07352" lon="-96.73399">
    <name>TP224</name>
  </trkpt>
  <trkpt lat="17.07355" lon="-96.73397">
    <name>TP225</name>
  </trkpt>
  <trkpt lat="17.07356" lon="-96.73396">
    <name>TP226</name>
  </trkpt>
  <trkpt lat="17.07358" lon="-96.73394">
    <name>TP227</name>
  </trkpt>
  <trkpt lat="17.0736" lon="-96.73393">
    <name>TP228</name>
  </trkpt>
  <trkpt lat="17.07362" lon="-96.73391">
    <name>TP229</name>
  </trkpt>
  <trkpt lat="17.07365" lon="-96.73389">
    <name>TP230</name>
  </trkpt>
  <trkpt lat="17.07367" lon="-96.73388">
    <name>TP231</name>
  </trkpt>
  <trkpt lat="17.07369" lon="-96.73387">
    <name>TP232</name>
  </trkpt>
  <trkpt lat="17.0737" lon="-96.73386">
    <name>TP233</name>
  </trkpt>
  <trkpt lat="17.07373" lon="-96.73385">
    <name>TP234</name>
  </trkpt>
  <trkpt lat="17.07376" lon="-96.73383">
    <name>TP235</name>
  </trkpt>
  <trkpt lat="17.07378" lon="-96.73382">
    <name>TP236</name>
  </trkpt>
  <trkpt lat="17.07381" lon="-96.73381">
    <name>TP237</name>
  </trkpt>
  <trkpt lat="17.07385" lon="-96.7338">
    <name>TP238</name>
  </trkpt>
  <trkpt lat="17.0739" lon="-96.73379">
    <name>TP239</name>
  </trkpt>
  <trkpt lat="17.07393" lon="-96.73379">
    <name>TP240</name>
  </trkpt>
  <trkpt lat="17.07396" lon="-96.73379">
    <name>TP241</name>
  </trkpt>
  <trkpt lat="17.07399" lon="-96.73379">
    <name>TP242</name>
  </trkpt>
  <trkpt lat="17.07403" lon="-96.73379">
    <name>TP243</name>
  </trkpt>
  <trkpt lat="17.07407" lon="-96.7338">
    <name>TP244</name>
  </trkpt>
  <trkpt lat="17.07412" lon="-96.73381">
    <name>TP245</name>
  </trkpt>
  <trkpt lat="17.07418" lon="-96.73383">
    <name>TP246</name>
  </trkpt>
  <trkpt lat="17.0743" lon="-96.73389">
    <name>TP247</name>
  </trkpt>
  <trkpt lat="17.07432" lon="-96.73391">
    <name>TP248</name>
  </trkpt>
  <trkpt lat="17.07435" lon="-96.73393">
    <name>TP249</name>
  </trkpt>
  <trkpt lat="17.07441" lon="-96.73398">
    <name>TP250</name>
  </trkpt>
  <trkpt lat="17.07467" lon="-96.73419">
    <name>TP251</name>
  </trkpt>
  <trkpt lat="17.0748" lon="-96.7343">
    <name>TP252</name>
  </trkpt>
  <trkpt lat="17.07488" lon="-96.73437">
    <name>TP253</name>
  </trkpt>
  <trkpt lat="17.07498" lon="-96.73446">
    <name>TP254</name>
  </trkpt>
  <trkpt lat="17.07505" lon="-96.73453">
    <name>TP255</name>
  </trkpt>
  <trkpt lat="17.07507" lon="-96.73455">
    <name>TP256</name>
  </trkpt>
  <trkpt lat="17.07516" lon="-96.73465">
    <name>TP257</name>
  </trkpt>
  <trkpt lat="17.07519" lon="-96.73469">
    <name>TP258</name>
  </trkpt>
  <trkpt lat="17.07525" lon="-96.73476">
    <name>TP259</name>
  </trkpt>
  <trkpt lat="17.07541" lon="-96.73498">
    <name>TP260</name>
  </trkpt>
  <trkpt lat="17.07553" lon="-96.73515">
    <name>TP261</name>
  </trkpt>
  <trkpt lat="17.07577" lon="-96.73554">
    <name>TP262</name>
  </trkpt>
  <trkpt lat="17.07579" lon="-96.73557">
    <name>TP263</name>
  </trkpt>
  <trkpt lat="17.07615" lon="-96.73611">
    <name>TP264</name>
  </trkpt>
  <trkpt lat="17.07672" lon="-96.73694">
    <name>TP265</name>
  </trkpt>
  <trkpt lat="17.07683" lon="-96.7371">
    <name>TP266</name>
  </trkpt>
  <trkpt lat="17.07697" lon="-96.73727">
    <name>TP267</name>
  </trkpt>
  <trkpt lat="17.07715" lon="-96.73744">
    <name>TP268</name>
  </trkpt>
  <trkpt lat="17.07728" lon="-96.73755">
    <name>TP269</name>
  </trkpt>
  <trkpt lat="17.07738" lon="-96.73762">
    <name>TP270</name>
  </trkpt>
  <trkpt lat="17.07758" lon="-96.73779">
    <name>TP271</name>
  </trkpt>
  <trkpt lat="17.07776" lon="-96.73794">
    <name>TP272</name>
  </trkpt>
  <trkpt lat="17.07804" lon="-96.73817">
    <name>TP273</name>
  </trkpt>
  <trkpt lat="17.07816" lon="-96.73827">
    <name>TP274</name>
  </trkpt>
  <trkpt lat="17.07845" lon="-96.73857">
    <name>TP275</name>
  </trkpt>
  <trkpt lat="17.07854" lon="-96.73868">
    <name>TP276</name>
  </trkpt>
  <trkpt lat="17.07865" lon="-96.73883">
    <name>TP277</name>
  </trkpt>
  <trkpt lat="17.07874" lon="-96.73895">
    <name>TP278</name>
  </trkpt>
  <trkpt lat="17.07893" lon="-96.73928">
    <name>TP279</name>
  </trkpt>
  <trkpt lat="17.07933" lon="-96.74003">
    <name>TP280</name>
  </trkpt>
  <trkpt lat="17.07949" lon="-96.74033">
    <name>TP281</name>
  </trkpt>
  <trkpt lat="17.07991" lon="-96.74107">
    <name>TP282</name>
  </trkpt>
  <trkpt lat="17.08" lon="-96.74124">
    <name>TP283</name>
  </trkpt>
  <trkpt lat="17.08005" lon="-96.74132">
    <name>TP284</name>
  </trkpt>
  <trkpt lat="17.0800464" lon="-96.7413217">
    <name>TP285</name>
  </trkpt>
  <trkpt lat="17.08009" lon="-96.74141">
    <name>TP286</name>
  </trkpt>
  <trkpt lat="17.08001" lon="-96.74149">
    <name>TP287</name>
  </trkpt>
  <trkpt lat="17.08" lon="-96.74151">
    <name>TP288</name>
  </trkpt>
  <trkpt lat="17.07999" lon="-96.74154">
    <name>TP289</name>
  </trkpt>
  <trkpt lat="17.07999" lon="-96.74157">
    <name>TP290</name>
  </trkpt>
  <trkpt lat="17.07999" lon="-96.7416">
    <name>TP291</name>
  </trkpt>
  <trkpt lat="17.08" lon="-96.74173">
    <name>TP292</name>
  </trkpt>
  <trkpt lat="17.08001" lon="-96.74184">
    <name>TP293</name>
  </trkpt>
  <trkpt lat="17.08003" lon="-96.74203">
    <name>TP294</name>
  </trkpt>
  <trkpt lat="17.08004" lon="-96.74217">
    <name>TP295</name>
  </trkpt>
  <trkpt lat="17.08006" lon="-96.7423">
    <name>TP296</name>
  </trkpt>
  <trkpt lat="17.08007" lon="-96.74241">
    <name>TP297</name>
  </trkpt>
  <trkpt lat="17.08009" lon="-96.74253">
    <name>TP298</name>
  </trkpt>
  <trkpt lat="17.08012" lon="-96.74262">
    <name>TP299</name>
  </trkpt>
  <trkpt lat="17.08014" lon="-96.7427">
    <name>TP300</name>
  </trkpt>
  <trkpt lat="17.08016" lon="-96.74278">
    <name>TP301</name>
  </trkpt>
  <trkpt lat="17.08019" lon="-96.74286">
    <name>TP302</name>
  </trkpt>
  <trkpt lat="17.0802" lon="-96.7429">
    <name>TP303</name>
  </trkpt>
  <trkpt lat="17.08021" lon="-96.74295">
    <name>TP304</name>
  </trkpt>
  <trkpt lat="17.08022" lon="-96.743">
    <name>TP305</name>
  </trkpt>
  <trkpt lat="17.08023" lon="-96.74307">
    <name>TP306</name>
  </trkpt>
  <trkpt lat="17.08022" lon="-96.7432">
    <name>TP307</name>
  </trkpt>
  <trkpt lat="17.08022" lon="-96.74329">
    <name>TP308</name>
  </trkpt>
  <trkpt lat="17.08021" lon="-96.74337">
    <name>TP309</name>
  </trkpt>
  <trkpt lat="17.08018" lon="-96.74348">
    <name>TP310</name>
  </trkpt>
  <trkpt lat="17.08015" lon="-96.74359">
    <name>TP311</name>
  </trkpt>
  <trkpt lat="17.07973" lon="-96.74448">
    <name>TP312</name>
  </trkpt>
  <trkpt lat="17.07968" lon="-96.74457">
    <name>TP313</name>
  </trkpt>
  <trkpt lat="17.07965" lon="-96.74465">
    <name>TP314</name>
  </trkpt>
  <trkpt lat="17.0796" lon="-96.74473">
    <name>TP315</name>
  </trkpt>
  <trkpt lat="17.07952" lon="-96.7449">
    <name>TP316</name>
  </trkpt>
  <trkpt lat="17.07944" lon="-96.74504">
    <name>TP317</name>
  </trkpt>
  <trkpt lat="17.07938" lon="-96.74517">
    <name>TP318</name>
  </trkpt>
  <trkpt lat="17.07935" lon="-96.74523">
    <name>TP319</name>
  </trkpt>
  <trkpt lat="17.07917" lon="-96.74564">
    <name>TP320</name>
  </trkpt>
  <trkpt lat="17.0791" lon="-96.7458">
    <name>TP321</name>
  </trkpt>
  <trkpt lat="17.07907" lon="-96.74587">
    <name>TP322</name>
  </trkpt>
  <trkpt lat="17.07879" lon="-96.74649">
    <name>TP323</name>
  </trkpt>
  <trkpt lat="17.07875" lon="-96.74656">
    <name>TP324</name>
  </trkpt>
  <trkpt lat="17.07865" lon="-96.7468">
    <name>TP325</name>
  </trkpt>
  <trkpt lat="17.07858" lon="-96.74692">
    <name>TP326</name>
  </trkpt>
  <trkpt lat="17.07857" lon="-96.74693">
    <name>TP327</name>
  </trkpt>
  <trkpt lat="17.07851" lon="-96.74701">
    <name>TP328</name>
  </trkpt>
  <trkpt lat="17.07847" lon="-96.74707">
    <name>TP329</name>
  </trkpt>
  <trkpt lat="17.07847" lon="-96.74708">
    <name>TP330</name>
  </trkpt>
  <trkpt lat="17.07835" lon="-96.74734">
    <name>TP331</name>
  </trkpt>
  <trkpt lat="17.07825" lon="-96.74756">
    <name>TP332</name>
  </trkpt>
  <trkpt lat="17.07821" lon="-96.74764">
    <name>TP333</name>
  </trkpt>
  <trkpt lat="17.07819" lon="-96.74768">
    <name>TP334</name>
  </trkpt>
  <trkpt lat="17.07814" lon="-96.74781">
    <name>TP335</name>
  </trkpt>
  <trkpt lat="17.07794" lon="-96.74819">
    <name>TP336</name>
  </trkpt>
  <trkpt lat="17.07744" lon="-96.74927">
    <name>TP337</name>
  </trkpt>
  <trkpt lat="17.0771" lon="-96.75001">
    <name>TP338</name>
  </trkpt>
  <trkpt lat="17.0769" lon="-96.75043">
    <name>TP339</name>
  </trkpt>
  <trkpt lat="17.07685" lon="-96.75052">
    <name>TP340</name>
  </trkpt>
  <trkpt lat="17.07677" lon="-96.75069">
    <name>TP341</name>
  </trkpt>
  <trkpt lat="17.07655" lon="-96.75119">
    <name>TP342</name>
  </trkpt>
  <trkpt lat="17.07643" lon="-96.75148">
    <name>TP343</name>
  </trkpt>
  <trkpt lat="17.07642" lon="-96.7515">
    <name>TP344</name>
  </trkpt>
  <trkpt lat="17.07615" lon="-96.75209">
    <name>TP345</name>
  </trkpt>
  <trkpt lat="17.07576" lon="-96.75288">
    <name>TP346</name>
  </trkpt>
  <trkpt lat="17.0757" lon="-96.75302">
    <name>TP347</name>
  </trkpt>
  <trkpt lat="17.07528" lon="-96.7539">
    <name>TP348</name>
  </trkpt>
  <trkpt lat="17.07519" lon="-96.75413">
    <name>TP349</name>
  </trkpt>
  <trkpt lat="17.07513" lon="-96.7543">
    <name>TP350</name>
  </trkpt>
  <trkpt lat="17.07512" lon="-96.75433">
    <name>TP351</name>
  </trkpt>
  <trkpt lat="17.07504" lon="-96.75461">
    <name>TP352</name>
  </trkpt>
  <trkpt lat="17.075" lon="-96.75478">
    <name>TP353</name>
  </trkpt>
  <trkpt lat="17.07498" lon="-96.75496">
    <name>TP354</name>
  </trkpt>
  <trkpt lat="17.07496" lon="-96.75507">
    <name>TP355</name>
  </trkpt>
  <trkpt lat="17.07492" lon="-96.75545">
    <name>TP356</name>
  </trkpt>
  <trkpt lat="17.0749" lon="-96.7556">
    <name>TP357</name>
  </trkpt>
  <trkpt lat="17.07485" lon="-96.75596">
    <name>TP358</name>
  </trkpt>
  <trkpt lat="17.07479" lon="-96.75614">
    <name>TP359</name>
  </trkpt>
  <trkpt lat="17.07471" lon="-96.75631">
    <name>TP360</name>
  </trkpt>
  <trkpt lat="17.07461" lon="-96.75645">
    <name>TP361</name>
  </trkpt>
  <trkpt lat="17.07443" lon="-96.75662">
    <name>TP362</name>
  </trkpt>
  <trkpt lat="17.0744301" lon="-96.7566197">
    <name>TP363</name>
  </trkpt>
  <trkpt lat="17.07437" lon="-96.75667">
    <name>TP364</name>
  </trkpt>
  <trkpt lat="17.0742" lon="-96.75681">
    <name>TP365</name>
  </trkpt>
  <trkpt lat="17.07392" lon="-96.75704">
    <name>TP366</name>
  </trkpt>
  <trkpt lat="17.07377" lon="-96.7572">
    <name>TP367</name>
  </trkpt>
  <trkpt lat="17.07375" lon="-96.75722">
    <name>TP368</name>
  </trkpt>
  <trkpt lat="17.07372" lon="-96.75727">
    <name>TP369</name>
  </trkpt>
  <trkpt lat="17.07353" lon="-96.75748">
    <name>TP370</name>
  </trkpt>
  <trkpt lat="17.07349" lon="-96.75752">
    <name>TP371</name>
  </trkpt>
  <trkpt lat="17.07344" lon="-96.7576">
    <name>TP372</name>
  </trkpt>
  <trkpt lat="17.07339" lon="-96.75768">
    <name>TP373</name>
  </trkpt>
  <trkpt lat="17.07335" lon="-96.75782">
    <name>TP374</name>
  </trkpt>
  <trkpt lat="17.07333" lon="-96.75788">
    <name>TP375</name>
  </trkpt>
  <trkpt lat="17.07331" lon="-96.75799">
    <name>TP376</name>
  </trkpt>
  <trkpt lat="17.07329" lon="-96.75811">
    <name>TP377</name>
  </trkpt>
  <trkpt lat="17.07321" lon="-96.75871">
    <name>TP378</name>
  </trkpt>
  <trkpt lat="17.0732" lon="-96.7589">
    <name>TP379</name>
  </trkpt>
  <trkpt lat="17.0732" lon="-96.75909">
    <name>TP380</name>
  </trkpt>
  <trkpt lat="17.07319" lon="-96.7592">
    <name>TP381</name>
  </trkpt>
  <trkpt lat="17.0732" lon="-96.75946">
    <name>TP382</name>
  </trkpt>
  <trkpt lat="17.07324" lon="-96.75991">
    <name>TP383</name>
  </trkpt>
  <trkpt lat="17.07327" lon="-96.76013">
    <name>TP384</name>
  </trkpt>
  <trkpt lat="17.07338" lon="-96.76108">
    <name>TP385</name>
  </trkpt>
  <trkpt lat="17.07357" lon="-96.76241">
    <name>TP386</name>
  </trkpt>
  <trkpt lat="17.07358" lon="-96.76249">
    <name>TP387</name>
  </trkpt>
  <trkpt lat="17.07359" lon="-96.76282">
    <name>TP388</name>
  </trkpt>
  <trkpt lat="17.07362" lon="-96.76343">
    <name>TP389</name>
  </trkpt>
  <trkpt lat="17.07363" lon="-96.76374">
    <name>TP390</name>
  </trkpt>
  <trkpt lat="17.07362" lon="-96.7643">
    <name>TP391</name>
  </trkpt>
  <trkpt lat="17.07361" lon="-96.76449">
    <name>TP392</name>
  </trkpt>
  <trkpt lat="17.0736099" lon="-96.7644858">
    <name>TP393</name>
  </trkpt>
  <trkpt lat="17.07346" lon="-96.76473">
    <name>TP394</name>
  </trkpt>
  <trkpt lat="17.07337" lon="-96.76482">
    <name>TP395</name>
  </trkpt>
  <trkpt lat="17.07315" lon="-96.76509">
    <name>TP396</name>
  </trkpt>
  <trkpt lat="17.07278" lon="-96.76539">
    <name>TP397</name>
  </trkpt>
  <trkpt lat="17.0726" lon="-96.76553">
    <name>TP398</name>
  </trkpt>
  <trkpt lat="17.07248" lon="-96.76561">
    <name>TP399</name>
  </trkpt>
  <trkpt lat="17.07242" lon="-96.76565">
    <name>TP400</name>
  </trkpt>
  <trkpt lat="17.07237" lon="-96.76568">
    <name>TP401</name>
  </trkpt>
  <trkpt lat="17.07228" lon="-96.7657">
    <name>TP402</name>
  </trkpt>
  <trkpt lat="17.07227" lon="-96.76571">
    <name>TP403</name>
  </trkpt>
  <trkpt lat="17.07221" lon="-96.76572">
    <name>TP404</name>
  </trkpt>
  <trkpt lat="17.07199" lon="-96.76571">
    <name>TP405</name>
  </trkpt>
  <trkpt lat="17.07195" lon="-96.76571">
    <name>TP406</name>
  </trkpt>
  <trkpt lat="17.07163" lon="-96.76564">
    <name>TP407</name>
  </trkpt>
  <trkpt lat="17.07148" lon="-96.7656">
    <name>TP408</name>
  </trkpt>
  <trkpt lat="17.07128" lon="-96.76557">
    <name>TP409</name>
  </trkpt>
  <trkpt lat="17.07077" lon="-96.76553">
    <name>TP410</name>
  </trkpt>
  <trkpt lat="17.07038" lon="-96.7655">
    <name>TP411</name>
  </trkpt>
  <trkpt lat="17.07022" lon="-96.76549">
    <name>TP412</name>
  </trkpt>
  <trkpt lat="17.07006" lon="-96.76549">
    <name>TP413</name>
  </trkpt>
  <trkpt lat="17.06998" lon="-96.7655">
    <name>TP414</name>
  </trkpt>
  <trkpt lat="17.06991" lon="-96.76551">
    <name>TP415</name>
  </trkpt>
  <trkpt lat="17.06985" lon="-96.76552">
    <name>TP416</name>
  </trkpt>
  <trkpt lat="17.06979" lon="-96.76553">
    <name>TP417</name>
  </trkpt>
  <trkpt lat="17.06964" lon="-96.76558">
    <name>TP418</name>
  </trkpt>
  <trkpt lat="17.06959" lon="-96.76559">
    <name>TP419</name>
  </trkpt>
  <trkpt lat="17.06951" lon="-96.76562">
    <name>TP420</name>
  </trkpt>
  <trkpt lat="17.0695" lon="-96.76563">
    <name>TP421</name>
  </trkpt>
  <trkpt lat="17.06934" lon="-96.7657">
    <name>TP422</name>
  </trkpt>
  <trkpt lat="17.06915" lon="-96.76579">
    <name>TP423</name>
  </trkpt>
  <trkpt lat="17.06901" lon="-96.76585">
    <name>TP424</name>
  </trkpt>
  <trkpt lat="17.0689" lon="-96.76588">
    <name>TP425</name>
  </trkpt>
  <trkpt lat="17.06885" lon="-96.76589">
    <name>TP426</name>
  </trkpt>
  <trkpt lat="17.06881" lon="-96.7659">
    <name>TP427</name>
  </trkpt>
  <trkpt lat="17.06873" lon="-96.76591">
    <name>TP428</name>
  </trkpt>
  <trkpt lat="17.06863" lon="-96.76592">
    <name>TP429</name>
  </trkpt>
  <trkpt lat="17.06854" lon="-96.76592">
    <name>TP430</name>
  </trkpt>
  <trkpt lat="17.06829" lon="-96.76592">
    <name>TP431</name>
  </trkpt>
  <trkpt lat="17.06827" lon="-96.76592">
    <name>TP432</name>
  </trkpt>
  <trkpt lat="17.06811" lon="-96.76593">
    <name>TP433</name>
  </trkpt>
  <trkpt lat="17.068" lon="-96.76593">
    <name>TP434</name>
  </trkpt>
  <trkpt lat="17.06793" lon="-96.76594">
    <name>TP435</name>
  </trkpt>
  <trkpt lat="17.06784" lon="-96.76594">
    <name>TP436</name>
  </trkpt>
  <trkpt lat="17.06771" lon="-96.76596">
    <name>TP437</name>
  </trkpt>
  <trkpt lat="17.06759" lon="-96.76598">
    <name>TP438</name>
  </trkpt>
  <trkpt lat="17.06747" lon="-96.76601">
    <name>TP439</name>
  </trkpt>
  <trkpt lat="17.06737" lon="-96.76603">
    <name>TP440</name>
  </trkpt>
  <trkpt lat="17.06728" lon="-96.76606">
    <name>TP441</name>
  </trkpt>
  <trkpt lat="17.06722" lon="-96.76608">
    <name>TP442</name>
  </trkpt>
  <trkpt lat="17.06713" lon="-96.76612">
    <name>TP443</name>
  </trkpt>
  <trkpt lat="17.06705" lon="-96.76617">
    <name>TP444</name>
  </trkpt>
  <trkpt lat="17.06687" lon="-96.76629">
    <name>TP445</name>
  </trkpt>
  <trkpt lat="17.06673" lon="-96.76638">
    <name>TP446</name>
  </trkpt>
  <trkpt lat="17.06664" lon="-96.76645">
    <name>TP447</name>
  </trkpt>
  <trkpt lat="17.06652" lon="-96.76655">
    <name>TP448</name>
  </trkpt>
  <trkpt lat="17.06636" lon="-96.76668">
    <name>TP449</name>
  </trkpt>
  <trkpt lat="17.06623" lon="-96.7668">
    <name>TP450</name>
  </trkpt>
  <trkpt lat="17.06608" lon="-96.76692">
    <name>TP451</name>
  </trkpt>
  <trkpt lat="17.06594" lon="-96.76702">
    <name>TP452</name>
  </trkpt>
  <trkpt lat="17.06583" lon="-96.76709">
    <name>TP453</name>
  </trkpt>
  <trkpt lat="17.06575" lon="-96.76713">
    <name>TP454</name>
  </trkpt>
  <trkpt lat="17.0656" lon="-96.76719">
    <name>TP455</name>
  </trkpt>
  <trkpt lat="17.06541" lon="-96.76726">
    <name>TP456</name>
  </trkpt>
  <trkpt lat="17.06529" lon="-96.76731">
    <name>TP457</name>
  </trkpt>
  <trkpt lat="17.06498" lon="-96.76742">
    <name>TP458</name>
  </trkpt>
  <trkpt lat="17.06457" lon="-96.76752">
    <name>TP459</name>
  </trkpt>
  <trkpt lat="17.06419" lon="-96.76765">
    <name>TP460</name>
  </trkpt>
  <trkpt lat="17.06382" lon="-96.76778">
    <name>TP461</name>
  </trkpt>
  <trkpt lat="17.06365" lon="-96.76785">
    <name>TP462</name>
  </trkpt>
  <trkpt lat="17.06348" lon="-96.76792">
    <name>TP463</name>
  </trkpt>
  <trkpt lat="17.06346" lon="-96.76793">
    <name>TP464</name>
  </trkpt>
  <trkpt lat="17.0632" lon="-96.76803">
    <name>TP465</name>
  </trkpt>
  <trkpt lat="17.06306" lon="-96.76808">
    <name>TP466</name>
  </trkpt>
  <trkpt lat="17.06293" lon="-96.76813">
    <name>TP467</name>
  </trkpt>
  <trkpt lat="17.06286" lon="-96.76815">
    <name>TP468</name>
  </trkpt>
  <trkpt lat="17.06279" lon="-96.76816">
    <name>TP469</name>
  </trkpt>
  <trkpt lat="17.06268" lon="-96.76818">
    <name>TP470</name>
  </trkpt>
  <trkpt lat="17.06257" lon="-96.76818">
    <name>TP471</name>
  </trkpt>
  <trkpt lat="17.0625" lon="-96.76819">
    <name>TP472</name>
  </trkpt>
  <trkpt lat="17.06225" lon="-96.76817">
    <name>TP473</name>
  </trkpt>
  <trkpt lat="17.06206" lon="-96.76815">
    <name>TP474</name>
  </trkpt>
  <trkpt lat="17.06191" lon="-96.76812">
    <name>TP475</name>
  </trkpt>
  <trkpt lat="17.06179" lon="-96.76809">
    <name>TP476</name>
  </trkpt>
  <trkpt lat="17.0617" lon="-96.76806">
    <name>TP477</name>
  </trkpt>
  <trkpt lat="17.06158" lon="-96.76801">
    <name>TP478</name>
  </trkpt>
  <trkpt lat="17.0613" lon="-96.7679">
    <name>TP479</name>
  </trkpt>
  <trkpt lat="17.06091" lon="-96.76774">
    <name>TP480</name>
  </trkpt>
  <trkpt lat="17.0609" lon="-96.76773">
    <name>TP481</name>
  </trkpt>
  <trkpt lat="17.06073" lon="-96.76766">
    <name>TP482</name>
  </trkpt>
  <trkpt lat="17.06071" lon="-96.76765">
    <name>TP483</name>
  </trkpt>
  <trkpt lat="17.06056" lon="-96.7676">
    <name>TP484</name>
  </trkpt>
  <trkpt lat="17.06053" lon="-96.76759">
    <name>TP485</name>
  </trkpt>
  <trkpt lat="17.06042" lon="-96.76756">
    <name>TP486</name>
  </trkpt>
  <trkpt lat="17.06039" lon="-96.76756">
    <name>TP487</name>
  </trkpt>
  <trkpt lat="17.06037" lon="-96.76756">
    <name>TP488</name>
  </trkpt>
  <trkpt lat="17.06032" lon="-96.76756">
    <name>TP489</name>
  </trkpt>
  <trkpt lat="17.06029" lon="-96.76756">
    <name>TP490</name>
  </trkpt>
  <trkpt lat="17.06024" lon="-96.76757">
    <name>TP491</name>
  </trkpt>
  <trkpt lat="17.06021" lon="-96.76759">
    <name>TP492</name>
  </trkpt>
  <trkpt lat="17.06016" lon="-96.76761">
    <name>TP493</name>
  </trkpt>
  <trkpt lat="17.06012" lon="-96.76765">
    <name>TP494</name>
  </trkpt>
  <trkpt lat="17.06008" lon="-96.7677">
    <name>TP495</name>
  </trkpt>
  <trkpt lat="17.06002" lon="-96.76778">
    <name>TP496</name>
  </trkpt>
  <trkpt lat="17.05995" lon="-96.7679">
    <name>TP497</name>
  </trkpt>
  <trkpt lat="17.05993" lon="-96.76796">
    <name>TP498</name>
  </trkpt>
  <trkpt lat="17.0599" lon="-96.76803">
    <name>TP499</name>
  </trkpt>
  <trkpt lat="17.05988" lon="-96.76812">
    <name>TP500</name>
  </trkpt>
  <trkpt lat="17.05986" lon="-96.76821">
    <name>TP501</name>
  </trkpt>
  <trkpt lat="17.05983" lon="-96.76832">
    <name>TP502</name>
  </trkpt>
  <trkpt lat="17.05979" lon="-96.76849">
    <name>TP503</name>
  </trkpt>
  <trkpt lat="17.05976" lon="-96.76858">
    <name>TP504</name>
  </trkpt>
  <trkpt lat="17.05973" lon="-96.76867">
    <name>TP505</name>
  </trkpt>
  <trkpt lat="17.05971" lon="-96.76873">
    <name>TP506</name>
  </trkpt>
  <trkpt lat="17.05966" lon="-96.76882">
    <name>TP507</name>
  </trkpt>
  <trkpt lat="17.05962" lon="-96.76889">
    <name>TP508</name>
  </trkpt>
  <trkpt lat="17.0596" lon="-96.76891">
    <name>TP509</name>
  </trkpt>
  <trkpt lat="17.05951" lon="-96.76903">
    <name>TP510</name>
  </trkpt>
  <trkpt lat="17.05937" lon="-96.7692">
    <name>TP511</name>
  </trkpt>
  <trkpt lat="17.05888" lon="-96.76972">
    <name>TP512</name>
  </trkpt>
  <trkpt lat="17.05869" lon="-96.76991">
    <name>TP513</name>
  </trkpt>
  <trkpt lat="17.05859" lon="-96.77007">
    <name>TP514</name>
  </trkpt>
  <trkpt lat="17.05851" lon="-96.77022">
    <name>TP515</name>
  </trkpt>
  <trkpt lat="17.05846" lon="-96.77038">
    <name>TP516</name>
  </trkpt>
  <trkpt lat="17.0584" lon="-96.77068">
    <name>TP517</name>
  </trkpt>
  <trkpt lat="17.05835" lon="-96.77083">
    <name>TP518</name>
  </trkpt>
  <trkpt lat="17.05833" lon="-96.77087">
    <name>TP519</name>
  </trkpt>
  <trkpt lat="17.05828" lon="-96.77093">
    <name>TP520</name>
  </trkpt>
  <trkpt lat="17.05821" lon="-96.771">
    <name>TP521</name>
  </trkpt>
  <trkpt lat="17.05816" lon="-96.77104">
    <name>TP522</name>
  </trkpt>
  <trkpt lat="17.05811" lon="-96.77106">
    <name>TP523</name>
  </trkpt>
  <trkpt lat="17.05804" lon="-96.77107">
    <name>TP524</name>
  </trkpt>
  <trkpt lat="17.05799" lon="-96.77107">
    <name>TP525</name>
  </trkpt>
  <trkpt lat="17.05794" lon="-96.77106">
    <name>TP526</name>
  </trkpt>
  <trkpt lat="17.05784" lon="-96.77101">
    <name>TP527</name>
  </trkpt>
  <trkpt lat="17.05777" lon="-96.77096">
    <name>TP528</name>
  </trkpt>
  <trkpt lat="17.05773" lon="-96.77092">
    <name>TP529</name>
  </trkpt>
  <trkpt lat="17.05772" lon="-96.77091">
    <name>TP530</name>
  </trkpt>
  <trkpt lat="17.0577" lon="-96.77087">
    <name>TP531</name>
  </trkpt>
  <trkpt lat="17.05769" lon="-96.77084">
    <name>TP532</name>
  </trkpt>
  <trkpt lat="17.05768" lon="-96.77081">
    <name>TP533</name>
  </trkpt>
  <trkpt lat="17.05767" lon="-96.77077">
    <name>TP534</name>
  </trkpt>
  <trkpt lat="17.05767" lon="-96.77073">
    <name>TP535</name>
  </trkpt>
  <trkpt lat="17.05766" lon="-96.77053">
    <name>TP536</name>
  </trkpt>
  <trkpt lat="17.05772" lon="-96.77023">
    <name>TP537</name>
  </trkpt>
  <trkpt lat="17.05774" lon="-96.77017">
    <name>TP538</name>
  </trkpt>
  <trkpt lat="17.05777" lon="-96.77005">
    <name>TP539</name>
  </trkpt>
  <trkpt lat="17.05783" lon="-96.76987">
    <name>TP540</name>
  </trkpt>
  <trkpt lat="17.05789" lon="-96.7697">
    <name>TP541</name>
  </trkpt>
  <trkpt lat="17.05794" lon="-96.76952">
    <name>TP542</name>
  </trkpt>
  <trkpt lat="17.05799" lon="-96.76938">
    <name>TP543</name>
  </trkpt>
  <trkpt lat="17.058" lon="-96.76934">
    <name>TP544</name>
  </trkpt>
  <trkpt lat="17.05805" lon="-96.76916">
    <name>TP545</name>
  </trkpt>
  <trkpt lat="17.05807" lon="-96.76911">
    <name>TP546</name>
  </trkpt>
  <trkpt lat="17.05811" lon="-96.76898">
    <name>TP547</name>
  </trkpt>
  <trkpt lat="17.05816" lon="-96.7688">
    <name>TP548</name>
  </trkpt>
  <trkpt lat="17.05817" lon="-96.76875">
    <name>TP549</name>
  </trkpt>
  <trkpt lat="17.0582" lon="-96.76862">
    <name>TP550</name>
  </trkpt>
  <trkpt lat="17.05823" lon="-96.76849">
    <name>TP551</name>
  </trkpt>
  <trkpt lat="17.05824" lon="-96.76825">
    <name>TP552</name>
  </trkpt>
  <trkpt lat="17.0582" lon="-96.76806">
    <name>TP553</name>
  </trkpt>
  <trkpt lat="17.05815" lon="-96.76793">
    <name>TP554</name>
  </trkpt>
  <trkpt lat="17.05794" lon="-96.76757">
    <name>TP555</name>
  </trkpt>
  <trkpt lat="17.05791" lon="-96.76751">
    <name>TP556</name>
  </trkpt>
  <trkpt lat="17.05786" lon="-96.7674">
    <name>TP557</name>
  </trkpt>
  <trkpt lat="17.0578" lon="-96.76724">
    <name>TP558</name>
  </trkpt>
  <trkpt lat="17.05772" lon="-96.767">
    <name>TP559</name>
  </trkpt>
  <trkpt lat="17.05767" lon="-96.76676">
    <name>TP560</name>
  </trkpt>
  <trkpt lat="17.05765" lon="-96.76657">
    <name>TP561</name>
  </trkpt>
  <trkpt lat="17.05762" lon="-96.76649">
    <name>TP562</name>
  </trkpt>
  <trkpt lat="17.05758" lon="-96.76635">
    <name>TP563</name>
  </trkpt>
  <trkpt lat="17.05756" lon="-96.76632">
    <name>TP564</name>
  </trkpt>
  <trkpt lat="17.05751" lon="-96.76623">
    <name>TP565</name>
  </trkpt>
  <trkpt lat="17.05736" lon="-96.76609">
    <name>TP566</name>
  </trkpt>
  <trkpt lat="17.05709" lon="-96.76592">
    <name>TP567</name>
  </trkpt>
  <trkpt lat="17.05686" lon="-96.76576">
    <name>TP568</name>
  </trkpt>
  <trkpt lat="17.0568614" lon="-96.7657593">
    <name>TP569</name>
  </trkpt>
  <trkpt lat="17.05621" lon="-96.76537">
    <name>TP570</name>
  </trkpt>
  <trkpt lat="17.05613" lon="-96.76535">
    <name>TP571</name>
  </trkpt>
  <trkpt lat="17.05584" lon="-96.76526">
    <name>TP572</name>
  </trkpt>
  <trkpt lat="17.05565" lon="-96.76519">
    <name>TP573</name>
  </trkpt>
  <trkpt lat="17.05563" lon="-96.76518">
    <name>TP574</name>
  </trkpt>
  <trkpt lat="17.05539" lon="-96.76503">
    <name>TP575</name>
  </trkpt>
  <trkpt lat="17.05526" lon="-96.76494">
    <name>TP576</name>
  </trkpt>
  <trkpt lat="17.05514" lon="-96.76489">
    <name>TP577</name>
  </trkpt>
  <trkpt lat="17.05513" lon="-96.76488">
    <name>TP578</name>
  </trkpt>
  <trkpt lat="17.05496" lon="-96.76481">
    <name>TP579</name>
  </trkpt>
  <trkpt lat="17.05485" lon="-96.76476">
    <name>TP580</name>
  </trkpt>
  <trkpt lat="17.05456" lon="-96.76469">
    <name>TP581</name>
  </trkpt>
  <trkpt lat="17.05391" lon="-96.76459">
    <name>TP582</name>
  </trkpt>
  <trkpt lat="17.05383" lon="-96.76458">
    <name>TP583</name>
  </trkpt>
  <trkpt lat="17.05259" lon="-96.76432">
    <name>TP584</name>
  </trkpt>
  <trkpt lat="17.05146" lon="-96.76397">
    <name>TP585</name>
  </trkpt>
  <trkpt lat="17.05121" lon="-96.76391">
    <name>TP586</name>
  </trkpt>
  <trkpt lat="17.05106" lon="-96.7639">
    <name>TP587</name>
  </trkpt>
  <trkpt lat="17.05092" lon="-96.76391">
    <name>TP588</name>
  </trkpt>
  <trkpt lat="17.05084" lon="-96.76394">
    <name>TP589</name>
  </trkpt>
  <trkpt lat="17.05076" lon="-96.76395">
    <name>TP590</name>
  </trkpt>
  <trkpt lat="17.05067" lon="-96.76398">
    <name>TP591</name>
  </trkpt>
  <trkpt lat="17.05055" lon="-96.76401">
    <name>TP592</name>
  </trkpt>
  <trkpt lat="17.05038" lon="-96.76406">
    <name>TP593</name>
  </trkpt>
  <trkpt lat="17.05027" lon="-96.76408">
    <name>TP594</name>
  </trkpt>
  <trkpt lat="17.05018" lon="-96.76411">
    <name>TP595</name>
  </trkpt>
  <trkpt lat="17.05003" lon="-96.76416">
    <name>TP596</name>
  </trkpt>
  <trkpt lat="17.04994" lon="-96.76418">
    <name>TP597</name>
  </trkpt>
  <trkpt lat="17.04984" lon="-96.76418">
    <name>TP598</name>
  </trkpt>
  <trkpt lat="17.04975" lon="-96.76418">
    <name>TP599</name>
  </trkpt>
  <trkpt lat="17.04974" lon="-96.76418">
    <name>TP600</name>
  </trkpt>
  <trkpt lat="17.04959" lon="-96.76418">
    <name>TP601</name>
  </trkpt>
  <trkpt lat="17.04956" lon="-96.76418">
    <name>TP602</name>
  </trkpt>
  <trkpt lat="17.04938" lon="-96.76417">
    <name>TP603</name>
  </trkpt>
  <trkpt lat="17.0493" lon="-96.76417">
    <name>TP604</name>
  </trkpt>
  <trkpt lat="17.0492" lon="-96.76418">
    <name>TP605</name>
  </trkpt>
  <trkpt lat="17.04917" lon="-96.76418">
    <name>TP606</name>
  </trkpt>
  <trkpt lat="17.04916" lon="-96.76418">
    <name>TP607</name>
  </trkpt>
  <trkpt lat="17.04911" lon="-96.76418">
    <name>TP608</name>
  </trkpt>
  <trkpt lat="17.04884" lon="-96.76418">
    <name>TP609</name>
  </trkpt>
  <trkpt lat="17.04871" lon="-96.76419">
    <name>TP610</name>
  </trkpt>
  <trkpt lat="17.04824" lon="-96.76417">
    <name>TP611</name>
  </trkpt>
  <trkpt lat="17.04794" lon="-96.76416">
    <name>TP612</name>
  </trkpt>
  <trkpt lat="17.04779" lon="-96.76415">
    <name>TP613</name>
  </trkpt>
  <trkpt lat="17.04763" lon="-96.76415">
    <name>TP614</name>
  </trkpt>
  <trkpt lat="17.04756" lon="-96.76416">
    <name>TP615</name>
  </trkpt>
  <trkpt lat="17.0475" lon="-96.76417">
    <name>TP616</name>
  </trkpt>
  <trkpt lat="17.04745" lon="-96.76419">
    <name>TP617</name>
  </trkpt>
  <trkpt lat="17.04735" lon="-96.76421">
    <name>TP618</name>
  </trkpt>
  <trkpt lat="17.04721" lon="-96.76428">
    <name>TP619</name>
  </trkpt>
  <trkpt lat="17.04715" lon="-96.76431">
    <name>TP620</name>
  </trkpt>
  <trkpt lat="17.04711" lon="-96.76435">
    <name>TP621</name>
  </trkpt>
  <trkpt lat="17.04705" lon="-96.76442">
    <name>TP622</name>
  </trkpt>
  <trkpt lat="17.04702" lon="-96.76449">
    <name>TP623</name>
  </trkpt>
  <trkpt lat="17.047" lon="-96.76456">
    <name>TP624</name>
  </trkpt>
  <trkpt lat="17.04699" lon="-96.76463">
    <name>TP625</name>
  </trkpt>
  <trkpt lat="17.04698" lon="-96.76468">
    <name>TP626</name>
  </trkpt>
  <trkpt lat="17.04698" lon="-96.76469">
    <name>TP627</name>
  </trkpt>
  <trkpt lat="17.04699" lon="-96.76474">
    <name>TP628</name>
  </trkpt>
  <trkpt lat="17.04701" lon="-96.76478">
    <name>TP629</name>
  </trkpt>
  <trkpt lat="17.04706" lon="-96.76484">
    <name>TP630</name>
  </trkpt>
  <trkpt lat="17.04712" lon="-96.76492">
    <name>TP631</name>
  </trkpt>
  <trkpt lat="17.04713" lon="-96.76494">
    <name>TP632</name>
  </trkpt>
  <trkpt lat="17.04713" lon="-96.76496">
    <name>TP633</name>
  </trkpt>
  <trkpt lat="17.04713" lon="-96.76498">
    <name>TP634</name>
  </trkpt>
  <trkpt lat="17.04712" lon="-96.765">
    <name>TP635</name>
  </trkpt>
  <trkpt lat="17.04712" lon="-96.76502">
    <name>TP636</name>
  </trkpt>
  <trkpt lat="17.0471" lon="-96.76503">
    <name>TP637</name>
  </trkpt>
  <trkpt lat="17.04709" lon="-96.76504">
    <name>TP638</name>
  </trkpt>
  <trkpt lat="17.04706" lon="-96.76504">
    <name>TP639</name>
  </trkpt>
  <trkpt lat="17.04704" lon="-96.76504">
    <name>TP640</name>
  </trkpt>
  <trkpt lat="17.04702" lon="-96.76503">
    <name>TP641</name>
  </trkpt>
  <trkpt lat="17.047" lon="-96.76502">
    <name>TP642</name>
  </trkpt>
  <trkpt lat="17.04697" lon="-96.76499">
    <name>TP643</name>
  </trkpt>
  <trkpt lat="17.04693" lon="-96.76495">
    <name>TP644</name>
  </trkpt>
  <trkpt lat="17.0469" lon="-96.76493">
    <name>TP645</name>
  </trkpt>
  <trkpt lat="17.04688" lon="-96.76493">
    <name>TP646</name>
  </trkpt>
  <trkpt lat="17.04685" lon="-96.76493">
    <name>TP647</name>
  </trkpt>
  <trkpt lat="17.04681" lon="-96.76493">
    <name>TP648</name>
  </trkpt>
  <trkpt lat="17.04675" lon="-96.76495">
    <name>TP649</name>
  </trkpt>
  <trkpt lat="17.0467" lon="-96.76498">
    <name>TP650</name>
  </trkpt>
  <trkpt lat="17.04662" lon="-96.76502">
    <name>TP651</name>
  </trkpt>
  <trkpt lat="17.04653" lon="-96.76509">
    <name>TP652</name>
  </trkpt>
  <trkpt lat="17.04646" lon="-96.76515">
    <name>TP653</name>
  </trkpt>
  <trkpt lat="17.04641" lon="-96.76521">
    <name>TP654</name>
  </trkpt>
  <trkpt lat="17.04638" lon="-96.76527">
    <name>TP655</name>
  </trkpt>
  <trkpt lat="17.04635" lon="-96.76534">
    <name>TP656</name>
  </trkpt>
  <trkpt lat="17.04629" lon="-96.76553">
    <name>TP657</name>
  </trkpt>
  <trkpt lat="17.04624" lon="-96.76559">
    <name>TP658</name>
  </trkpt>
  <trkpt lat="17.04573" lon="-96.76578">
    <name>TP659</name>
  </trkpt>
  <trkpt lat="17.04567" lon="-96.76586">
    <name>TP660</name>
  </trkpt>
  <trkpt lat="17.04517" lon="-96.766">
    <name>TP661</name>
  </trkpt>
  <trkpt lat="17.0451713" lon="-96.7659954">
    <name>TP662</name>
  </trkpt>
  <trkpt lat="17.0451713" lon="-96.7659954">
    <name>TP663</name>
  </trkpt>
  <trkpt lat="17.0451713" lon="-96.7659954">
    <name>TP664</name>
  </trkpt>
  </trkseg>
</trk>
</gpx>