<?xml version="1.0" encoding="UTF-8" standalone="no" ?>
<gpx xmlns="http://www.topografix.com/GPX/1/1" xmlns:gpxx="http://www.garmin.com/xmlschemas/GpxExtensions/v3" xmlns:gpxtpx="http://www.garmin.com/xmlschemas/TrackPointExtension/v1" creator="mapstogpx.com" version="1.1" xmlns:xsi="http://www.w3.org/2001/XMLSchema-instance" xsi:schemaLocation="http://www.topografix.com/GPX/1/1 http://www.topografix.com/GPX/1/1/gpx.xsd http://www.garmin.com/xmlschemas/GpxExtensions/v3 http://www.garmin.com/xmlschemas/GpxExtensionsv3.xsd http://www.garmin.com/xmlschemas/TrackPointExtension/v1 http://www.garmin.com/xmlschemas/TrackPointExtensionv1.xsd">
  <metadata>
    <link href="http://www.mapstogpx.com">
      <text>Sverrir Sigmundarson</text>
    </link>
    <!--desc>Map data ©2024</desc-->
    <!--copyright author="Google Inc">
    	<year>2024</year>
    	<license>https://developers.google.com/maps/terms</license>
    </copyright-->
    <!--url>https://www.google.com/maps/dir/Vientosud+Restaurant+-+A%C3%A9roport,+Punta+Arenas/Hospedaje+Isla+Magdalena+-+Ruta+9+Km+16-320+Norte.,+Chabunco/@-53.0188841,-70.856446,5247m/data=!3m1!1e3!4m14!4m13!1m5!1m1!1s0xbdb26997f36d9301:0x1307f004bf8c74b8!2m2!1d-70.8425402!2d-53.005311!1m5!1m1!1s0xbdb2683785a3f09f:0x8c8c0e3251b160a8!2m2!1d-70.8370864!2d-53.0322099!3e0?entry=tts&g_ep=EgoyMDI0MTIxMS4wKgBIAVAD&hl=en</url-->
    <time>2024-12-19T18:40:18Z</time>
  </metadata>
  <wpt lat="-53.005311" lon="-70.8425402">
    <name>Vientosud Restaurant - Aéroport</name>
    <desc>Vientosud Restaurant, Aéroport, Punta Arenas, Chile</desc>
  </wpt>
  <wpt lat="-53.0322099" lon="-70.8370864">
    <name>Hospedaje Isla Magdalena - Ruta 9 Km 16-320 Norte.</name>
    <desc>Hospedaje Isla Magdalena, Ruta 9 Km 16-320 Norte., Chabunco, Chile</desc>
  </wpt>
<trk>
  <name>Vientosud Restaurant - Aéroport to Hospedaje Isla Magdalena - Ruta 9 Km 16-320 Norte.</name>
  <number>1</number>
  <trkseg>
  <trkpt lat="-53.0053435" lon="-70.8425395">
    <name>TP001</name>
  </trkpt>
  <trkpt lat="-53.00536" lon="-70.84409">
    <name>TP002</name>
  </trkpt>
  <trkpt lat="-53.00535" lon="-70.84409">
    <name>TP003</name>
  </trkpt>
  <trkpt lat="-53.00535" lon="-70.84411">
    <name>TP004</name>
  </trkpt>
  <trkpt lat="-53.00534" lon="-70.84413">
    <name>TP005</name>
  </trkpt>
  <trkpt lat="-53.00534" lon="-70.84419">
    <name>TP006</name>
  </trkpt>
  <trkpt lat="-53.00534" lon="-70.84423">
    <name>TP007</name>
  </trkpt>
  <trkpt lat="-53.00534" lon="-70.84436">
    <name>TP008</name>
  </trkpt>
  <trkpt lat="-53.00534" lon="-70.8446">
    <name>TP009</name>
  </trkpt>
  <trkpt lat="-53.00536" lon="-70.84498">
    <name>TP010</name>
  </trkpt>
  <trkpt lat="-53.00537" lon="-70.84553">
    <name>TP011</name>
  </trkpt>
  <trkpt lat="-53.00538" lon="-70.8458">
    <name>TP012</name>
  </trkpt>
  <trkpt lat="-53.00539" lon="-70.84595">
    <name>TP013</name>
  </trkpt>
  <trkpt lat="-53.00542" lon="-70.84606">
    <name>TP014</name>
  </trkpt>
  <trkpt lat="-53.00546" lon="-70.84616">
    <name>TP015</name>
  </trkpt>
  <trkpt lat="-53.00549" lon="-70.8462">
    <name>TP016</name>
  </trkpt>
  <trkpt lat="-53.00552" lon="-70.84623">
    <name>TP017</name>
  </trkpt>
  <trkpt lat="-53.00552" lon="-70.84624">
    <name>TP018</name>
  </trkpt>
  <trkpt lat="-53.00555" lon="-70.84631">
    <name>TP019</name>
  </trkpt>
  <trkpt lat="-53.00559" lon="-70.84638">
    <name>TP020</name>
  </trkpt>
  <trkpt lat="-53.0056" lon="-70.84641">
    <name>TP021</name>
  </trkpt>
  <trkpt lat="-53.00563" lon="-70.84643">
    <name>TP022</name>
  </trkpt>
  <trkpt lat="-53.00566" lon="-70.84645">
    <name>TP023</name>
  </trkpt>
  <trkpt lat="-53.00569" lon="-70.84644">
    <name>TP024</name>
  </trkpt>
  <trkpt lat="-53.00571" lon="-70.84643">
    <name>TP025</name>
  </trkpt>
  <trkpt lat="-53.00574" lon="-70.84641">
    <name>TP026</name>
  </trkpt>
  <trkpt lat="-53.00576" lon="-70.84637">
    <name>TP027</name>
  </trkpt>
  <trkpt lat="-53.00642" lon="-70.84523">
    <name>TP028</name>
  </trkpt>
  <trkpt lat="-53.00672" lon="-70.84493">
    <name>TP029</name>
  </trkpt>
  <trkpt lat="-53.00686" lon="-70.84486">
    <name>TP030</name>
  </trkpt>
  <trkpt lat="-53.00721" lon="-70.84459">
    <name>TP031</name>
  </trkpt>
  <trkpt lat="-53.0072081" lon="-70.8445873">
    <name>TP032</name>
  </trkpt>
  <trkpt lat="-53.00724" lon="-70.84455">
    <name>TP033</name>
  </trkpt>
  <trkpt lat="-53.00745" lon="-70.84436">
    <name>TP034</name>
  </trkpt>
  <trkpt lat="-53.00762" lon="-70.84419">
    <name>TP035</name>
  </trkpt>
  <trkpt lat="-53.00767" lon="-70.84414">
    <name>TP036</name>
  </trkpt>
  <trkpt lat="-53.00773" lon="-70.84408">
    <name>TP037</name>
  </trkpt>
  <trkpt lat="-53.00777" lon="-70.84403">
    <name>TP038</name>
  </trkpt>
  <trkpt lat="-53.00783" lon="-70.84396">
    <name>TP039</name>
  </trkpt>
  <trkpt lat="-53.00787" lon="-70.84391">
    <name>TP040</name>
  </trkpt>
  <trkpt lat="-53.00796" lon="-70.84379">
    <name>TP041</name>
  </trkpt>
  <trkpt lat="-53.00803" lon="-70.84369">
    <name>TP042</name>
  </trkpt>
  <trkpt lat="-53.00813" lon="-70.84356">
    <name>TP043</name>
  </trkpt>
  <trkpt lat="-53.00829" lon="-70.84328">
    <name>TP044</name>
  </trkpt>
  <trkpt lat="-53.0085" lon="-70.84288">
    <name>TP045</name>
  </trkpt>
  <trkpt lat="-53.00869" lon="-70.8425">
    <name>TP046</name>
  </trkpt>
  <trkpt lat="-53.00885" lon="-70.84211">
    <name>TP047</name>
  </trkpt>
  <trkpt lat="-53.00898" lon="-70.84178">
    <name>TP048</name>
  </trkpt>
  <trkpt lat="-53.00901" lon="-70.84162">
    <name>TP049</name>
  </trkpt>
  <trkpt lat="-53.0091" lon="-70.84139">
    <name>TP050</name>
  </trkpt>
  <trkpt lat="-53.00944" lon="-70.84038">
    <name>TP051</name>
  </trkpt>
  <trkpt lat="-53.00978" lon="-70.83916">
    <name>TP052</name>
  </trkpt>
  <trkpt lat="-53.00995" lon="-70.83842">
    <name>TP053</name>
  </trkpt>
  <trkpt lat="-53.01018" lon="-70.83727">
    <name>TP054</name>
  </trkpt>
  <trkpt lat="-53.0104" lon="-70.83575">
    <name>TP055</name>
  </trkpt>
  <trkpt lat="-53.01067" lon="-70.83359">
    <name>TP056</name>
  </trkpt>
  <trkpt lat="-53.01092" lon="-70.83163">
    <name>TP057</name>
  </trkpt>
  <trkpt lat="-53.01105" lon="-70.8306">
    <name>TP058</name>
  </trkpt>
  <trkpt lat="-53.01107" lon="-70.83045">
    <name>TP059</name>
  </trkpt>
  <trkpt lat="-53.01113" lon="-70.83001">
    <name>TP060</name>
  </trkpt>
  <trkpt lat="-53.01125" lon="-70.82902">
    <name>TP061</name>
  </trkpt>
  <trkpt lat="-53.01141" lon="-70.82767">
    <name>TP062</name>
  </trkpt>
  <trkpt lat="-53.0114088" lon="-70.8276737">
    <name>TP063</name>
  </trkpt>
  <trkpt lat="-53.01146" lon="-70.82746">
    <name>TP064</name>
  </trkpt>
  <trkpt lat="-53.01153" lon="-70.8272">
    <name>TP065</name>
  </trkpt>
  <trkpt lat="-53.01159" lon="-70.82695">
    <name>TP066</name>
  </trkpt>
  <trkpt lat="-53.01166" lon="-70.82673">
    <name>TP067</name>
  </trkpt>
  <trkpt lat="-53.01177" lon="-70.82646">
    <name>TP068</name>
  </trkpt>
  <trkpt lat="-53.0119" lon="-70.82624">
    <name>TP069</name>
  </trkpt>
  <trkpt lat="-53.01201" lon="-70.82608">
    <name>TP070</name>
  </trkpt>
  <trkpt lat="-53.01215" lon="-70.8259">
    <name>TP071</name>
  </trkpt>
  <trkpt lat="-53.01231" lon="-70.82574">
    <name>TP072</name>
  </trkpt>
  <trkpt lat="-53.01248" lon="-70.82561">
    <name>TP073</name>
  </trkpt>
  <trkpt lat="-53.01265" lon="-70.8255">
    <name>TP074</name>
  </trkpt>
  <trkpt lat="-53.01276" lon="-70.82544">
    <name>TP075</name>
  </trkpt>
  <trkpt lat="-53.01317" lon="-70.82525">
    <name>TP076</name>
  </trkpt>
  <trkpt lat="-53.0131684" lon="-70.8252476">
    <name>TP077</name>
  </trkpt>
  <trkpt lat="-53.01504" lon="-70.82539">
    <name>TP078</name>
  </trkpt>
  <trkpt lat="-53.01609" lon="-70.82544">
    <name>TP079</name>
  </trkpt>
  <trkpt lat="-53.01633" lon="-70.82545">
    <name>TP080</name>
  </trkpt>
  <trkpt lat="-53.01645" lon="-70.82546">
    <name>TP081</name>
  </trkpt>
  <trkpt lat="-53.01681" lon="-70.82548">
    <name>TP082</name>
  </trkpt>
  <trkpt lat="-53.01699" lon="-70.82549">
    <name>TP083</name>
  </trkpt>
  <trkpt lat="-53.01842" lon="-70.82557">
    <name>TP084</name>
  </trkpt>
  <trkpt lat="-53.019" lon="-70.82561">
    <name>TP085</name>
  </trkpt>
  <trkpt lat="-53.01937" lon="-70.82563">
    <name>TP086</name>
  </trkpt>
  <trkpt lat="-53.01968" lon="-70.82565">
    <name>TP087</name>
  </trkpt>
  <trkpt lat="-53.02031" lon="-70.82569">
    <name>TP088</name>
  </trkpt>
  <trkpt lat="-53.02061" lon="-70.82571">
    <name>TP089</name>
  </trkpt>
  <trkpt lat="-53.02131" lon="-70.82576">
    <name>TP090</name>
  </trkpt>
  <trkpt lat="-53.02156" lon="-70.82577">
    <name>TP091</name>
  </trkpt>
  <trkpt lat="-53.02267" lon="-70.82587">
    <name>TP092</name>
  </trkpt>
  <trkpt lat="-53.02303" lon="-70.8259">
    <name>TP093</name>
  </trkpt>
  <trkpt lat="-53.02333" lon="-70.82593">
    <name>TP094</name>
  </trkpt>
  <trkpt lat="-53.02352" lon="-70.82597">
    <name>TP095</name>
  </trkpt>
  <trkpt lat="-53.02379" lon="-70.82604">
    <name>TP096</name>
  </trkpt>
  <trkpt lat="-53.0241" lon="-70.82613">
    <name>TP097</name>
  </trkpt>
  <trkpt lat="-53.02442" lon="-70.82626">
    <name>TP098</name>
  </trkpt>
  <trkpt lat="-53.02484" lon="-70.82649">
    <name>TP099</name>
  </trkpt>
  <trkpt lat="-53.02514" lon="-70.8267">
    <name>TP100</name>
  </trkpt>
  <trkpt lat="-53.02572" lon="-70.82716">
    <name>TP101</name>
  </trkpt>
  <trkpt lat="-53.02601" lon="-70.82743">
    <name>TP102</name>
  </trkpt>
  <trkpt lat="-53.02621" lon="-70.82766">
    <name>TP103</name>
  </trkpt>
  <trkpt lat="-53.02638" lon="-70.82783">
    <name>TP104</name>
  </trkpt>
  <trkpt lat="-53.02674" lon="-70.82827">
    <name>TP105</name>
  </trkpt>
  <trkpt lat="-53.02697" lon="-70.8286">
    <name>TP106</name>
  </trkpt>
  <trkpt lat="-53.02721" lon="-70.82897">
    <name>TP107</name>
  </trkpt>
  <trkpt lat="-53.02754" lon="-70.82952">
    <name>TP108</name>
  </trkpt>
  <trkpt lat="-53.02771" lon="-70.82985">
    <name>TP109</name>
  </trkpt>
  <trkpt lat="-53.02799" lon="-70.83036">
    <name>TP110</name>
  </trkpt>
  <trkpt lat="-53.02809" lon="-70.83053">
    <name>TP111</name>
  </trkpt>
  <trkpt lat="-53.02828" lon="-70.83086">
    <name>TP112</name>
  </trkpt>
  <trkpt lat="-53.02845" lon="-70.8312">
    <name>TP113</name>
  </trkpt>
  <trkpt lat="-53.02857" lon="-70.83139">
    <name>TP114</name>
  </trkpt>
  <trkpt lat="-53.02878" lon="-70.83177">
    <name>TP115</name>
  </trkpt>
  <trkpt lat="-53.02894" lon="-70.83204">
    <name>TP116</name>
  </trkpt>
  <trkpt lat="-53.02919" lon="-70.83248">
    <name>TP117</name>
  </trkpt>
  <trkpt lat="-53.02944" lon="-70.8329">
    <name>TP118</name>
  </trkpt>
  <trkpt lat="-53.02959" lon="-70.83314">
    <name>TP119</name>
  </trkpt>
  <trkpt lat="-53.0295918" lon="-70.8331378">
    <name>TP120</name>
  </trkpt>
  <trkpt lat="-53.02972" lon="-70.83348">
    <name>TP121</name>
  </trkpt>
  <trkpt lat="-53.03004" lon="-70.83395">
    <name>TP122</name>
  </trkpt>
  <trkpt lat="-53.03029" lon="-70.83427">
    <name>TP123</name>
  </trkpt>
  <trkpt lat="-53.03035" lon="-70.83434">
    <name>TP124</name>
  </trkpt>
  <trkpt lat="-53.03075" lon="-70.8348">
    <name>TP125</name>
  </trkpt>
  <trkpt lat="-53.0311" lon="-70.83519">
    <name>TP126</name>
  </trkpt>
  <trkpt lat="-53.03135" lon="-70.83546">
    <name>TP127</name>
  </trkpt>
  <trkpt lat="-53.03185" lon="-70.83596">
    <name>TP128</name>
  </trkpt>
  <trkpt lat="-53.03186" lon="-70.83597">
    <name>TP129</name>
  </trkpt>
  <trkpt lat="-53.03216" lon="-70.83626">
    <name>TP130</name>
  </trkpt>
  <trkpt lat="-53.03262" lon="-70.83677">
    <name>TP131</name>
  </trkpt>
  <trkpt lat="-53.0326199" lon="-70.8367688">
    <name>TP132</name>
  </trkpt>
  <trkpt lat="-53.0326" lon="-70.83681">
    <name>TP133</name>
  </trkpt>
  <trkpt lat="-53.03258" lon="-70.83686">
    <name>TP134</name>
  </trkpt>
  <trkpt lat="-53.03256" lon="-70.8369">
    <name>TP135</name>
  </trkpt>
  <trkpt lat="-53.03252" lon="-70.83693">
    <name>TP136</name>
  </trkpt>
  <trkpt lat="-53.03247" lon="-70.83696">
    <name>TP137</name>
  </trkpt>
  <trkpt lat="-53.03243" lon="-70.83699">
    <name>TP138</name>
  </trkpt>
  <trkpt lat="-53.03238" lon="-70.83703">
    <name>TP139</name>
  </trkpt>
  <trkpt lat="-53.03234" lon="-70.83708">
    <name>TP140</name>
  </trkpt>
  <trkpt lat="-53.0323" lon="-70.83715">
    <name>TP141</name>
  </trkpt>
  <trkpt lat="-53.03228" lon="-70.83718">
    <name>TP142</name>
  </trkpt>
  <trkpt lat="-53.0322843" lon="-70.8371794">
    <name>TP143</name>
  </trkpt>
  <trkpt lat="-53.0322843" lon="-70.8371794">
    <name>TP144</name>
  </trkpt>
  <trkpt lat="-53.0322843" lon="-70.8371794">
    <name>TP145</name>
  </trkpt>
  </trkseg>
</trk>
</gpx>