<?xml version="1.0" encoding="UTF-8"?>
<gpx xmlns:xsi="http://www.w3.org/2001/XMLSchema-instance" xsi:schemaLocation="http://www.topografix.com/GPX/1/1 http://www.topografix.com/GPX/1/1/gpx.xsd" creator="StravaGPX" version="1.1" xmlns="http://www.topografix.com/GPX/1/1">
 <metadata>
  <time>2025-04-29T10:01:56Z</time>
 </metadata>
 <trk>
  <name>Lunch Walk</name>
  <type>walking</type>
  <trkseg>
   <trkpt lat="37.6053470" lon="-0.7287000">
    <ele>4.0</ele>
    <time>2025-04-29T10:01:56Z</time>
   </trkpt>
   <trkpt lat="37.6053470" lon="-0.7287000">
    <ele>4.0</ele>
    <time>2025-04-29T10:01:58Z</time>
   </trkpt>
   <trkpt lat="37.6053770" lon="-0.7287390">
    <ele>3.9</ele>
    <time>2025-04-29T10:01:59Z</time>
   </trkpt>
   <trkpt lat="37.6053680" lon="-0.7287480">
    <ele>3.9</ele>
    <time>2025-04-29T10:02:00Z</time>
   </trkpt>
   <trkpt lat="37.6053580" lon="-0.7287630">
    <ele>3.8</ele>
    <time>2025-04-29T10:02:01Z</time>
   </trkpt>
   <trkpt lat="37.6053440" lon="-0.7287700">
    <ele>3.8</ele>
    <time>2025-04-29T10:02:02Z</time>
   </trkpt>
   <trkpt lat="37.6053280" lon="-0.7287780">
    <ele>3.8</ele>
    <time>2025-04-29T10:02:03Z</time>
   </trkpt>
   <trkpt lat="37.6053180" lon="-0.7287880">
    <ele>3.8</ele>
    <time>2025-04-29T10:02:04Z</time>
   </trkpt>
   <trkpt lat="37.6053080" lon="-0.7287960">
    <ele>3.7</ele>
    <time>2025-04-29T10:02:05Z</time>
   </trkpt>
   <trkpt lat="37.6052930" lon="-0.7288000">
    <ele>3.7</ele>
    <time>2025-04-29T10:02:06Z</time>
   </trkpt>
   <trkpt lat="37.6052770" lon="-0.7288080">
    <ele>3.7</ele>
    <time>2025-04-29T10:02:07Z</time>
   </trkpt>
   <trkpt lat="37.6052660" lon="-0.7288140">
    <ele>3.7</ele>
    <time>2025-04-29T10:02:08Z</time>
   </trkpt>
   <trkpt lat="37.6052570" lon="-0.7288190">
    <ele>3.6</ele>
    <time>2025-04-29T10:02:09Z</time>
   </trkpt>
   <trkpt lat="37.6052440" lon="-0.7288250">
    <ele>3.6</ele>
    <time>2025-04-29T10:02:10Z</time>
   </trkpt>
   <trkpt lat="37.6052360" lon="-0.7288300">
    <ele>3.6</ele>
    <time>2025-04-29T10:02:11Z</time>
   </trkpt>
   <trkpt lat="37.6052150" lon="-0.7288360">
    <ele>3.5</ele>
    <time>2025-04-29T10:02:12Z</time>
   </trkpt>
   <trkpt lat="37.6052040" lon="-0.7288360">
    <ele>3.5</ele>
    <time>2025-04-29T10:02:13Z</time>
   </trkpt>
   <trkpt lat="37.6051920" lon="-0.7288370">
    <ele>3.5</ele>
    <time>2025-04-29T10:02:14Z</time>
   </trkpt>
   <trkpt lat="37.6051770" lon="-0.7288280">
    <ele>3.4</ele>
    <time>2025-04-29T10:02:15Z</time>
   </trkpt>
   <trkpt lat="37.6051630" lon="-0.7288250">
    <ele>3.4</ele>
    <time>2025-04-29T10:02:16Z</time>
   </trkpt>
   <trkpt lat="37.6051540" lon="-0.7288170">
    <ele>3.4</ele>
    <time>2025-04-29T10:02:17Z</time>
   </trkpt>
   <trkpt lat="37.6051440" lon="-0.7288210">
    <ele>3.3</ele>
    <time>2025-04-29T10:02:18Z</time>
   </trkpt>
   <trkpt lat="37.6051340" lon="-0.7288290">
    <ele>3.3</ele>
    <time>2025-04-29T10:02:20Z</time>
   </trkpt>
   <trkpt lat="37.6051290" lon="-0.7288370">
    <ele>3.3</ele>
    <time>2025-04-29T10:02:21Z</time>
   </trkpt>
   <trkpt lat="37.6051180" lon="-0.7288360">
    <ele>3.2</ele>
    <time>2025-04-29T10:02:22Z</time>
   </trkpt>
   <trkpt lat="37.6051080" lon="-0.7288260">
    <ele>3.2</ele>
    <time>2025-04-29T10:02:23Z</time>
   </trkpt>
   <trkpt lat="37.6051020" lon="-0.7288200">
    <ele>3.1</ele>
    <time>2025-04-29T10:02:24Z</time>
   </trkpt>
   <trkpt lat="37.6050900" lon="-0.7288170">
    <ele>3.1</ele>
    <time>2025-04-29T10:02:25Z</time>
   </trkpt>
   <trkpt lat="37.6050780" lon="-0.7288120">
    <ele>3.1</ele>
    <time>2025-04-29T10:02:26Z</time>
   </trkpt>
   <trkpt lat="37.6050690" lon="-0.7288090">
    <ele>3.1</ele>
    <time>2025-04-29T10:02:27Z</time>
   </trkpt>
   <trkpt lat="37.6050600" lon="-0.7288030">
    <ele>3.0</ele>
    <time>2025-04-29T10:02:28Z</time>
   </trkpt>
   <trkpt lat="37.6050520" lon="-0.7287970">
    <ele>3.0</ele>
    <time>2025-04-29T10:02:29Z</time>
   </trkpt>
   <trkpt lat="37.6050450" lon="-0.7288020">
    <ele>3.0</ele>
    <time>2025-04-29T10:02:30Z</time>
   </trkpt>
   <trkpt lat="37.6050580" lon="-0.7288060">
    <ele>2.9</ele>
    <time>2025-04-29T10:02:31Z</time>
   </trkpt>
   <trkpt lat="37.6050440" lon="-0.7288090">
    <ele>2.9</ele>
    <time>2025-04-29T10:02:32Z</time>
   </trkpt>
   <trkpt lat="37.6050340" lon="-0.7288040">
    <ele>2.9</ele>
    <time>2025-04-29T10:02:33Z</time>
   </trkpt>
   <trkpt lat="37.6050240" lon="-0.7288000">
    <ele>2.8</ele>
    <time>2025-04-29T10:02:34Z</time>
   </trkpt>
   <trkpt lat="37.6050170" lon="-0.7288040">
    <ele>2.8</ele>
    <time>2025-04-29T10:02:35Z</time>
   </trkpt>
   <trkpt lat="37.6050140" lon="-0.7288080">
    <ele>2.8</ele>
    <time>2025-04-29T10:02:36Z</time>
   </trkpt>
   <trkpt lat="37.6050060" lon="-0.7288080">
    <ele>2.8</ele>
    <time>2025-04-29T10:02:37Z</time>
   </trkpt>
   <trkpt lat="37.6049930" lon="-0.7288090">
    <ele>2.7</ele>
    <time>2025-04-29T10:02:38Z</time>
   </trkpt>
   <trkpt lat="37.6049770" lon="-0.7288120">
    <ele>2.7</ele>
    <time>2025-04-29T10:02:39Z</time>
   </trkpt>
   <trkpt lat="37.6049680" lon="-0.7288080">
    <ele>2.7</ele>
    <time>2025-04-29T10:02:40Z</time>
   </trkpt>
   <trkpt lat="37.6049570" lon="-0.7288060">
    <ele>2.6</ele>
    <time>2025-04-29T10:02:41Z</time>
   </trkpt>
   <trkpt lat="37.6049500" lon="-0.7288050">
    <ele>2.6</ele>
    <time>2025-04-29T10:02:42Z</time>
   </trkpt>
   <trkpt lat="37.6049360" lon="-0.7288070">
    <ele>2.6</ele>
    <time>2025-04-29T10:02:43Z</time>
   </trkpt>
   <trkpt lat="37.6049240" lon="-0.7288090">
    <ele>2.6</ele>
    <time>2025-04-29T10:02:44Z</time>
   </trkpt>
   <trkpt lat="37.6049160" lon="-0.7288080">
    <ele>2.5</ele>
    <time>2025-04-29T10:02:45Z</time>
   </trkpt>
   <trkpt lat="37.6049130" lon="-0.7288120">
    <ele>2.5</ele>
    <time>2025-04-29T10:02:46Z</time>
   </trkpt>
   <trkpt lat="37.6048950" lon="-0.7288110">
    <ele>2.5</ele>
    <time>2025-04-29T10:02:47Z</time>
   </trkpt>
   <trkpt lat="37.6048850" lon="-0.7288140">
    <ele>2.5</ele>
    <time>2025-04-29T10:02:48Z</time>
   </trkpt>
   <trkpt lat="37.6048740" lon="-0.7288120">
    <ele>2.4</ele>
    <time>2025-04-29T10:02:49Z</time>
   </trkpt>
   <trkpt lat="37.6048710" lon="-0.7288070">
    <ele>2.4</ele>
    <time>2025-04-29T10:02:50Z</time>
   </trkpt>
   <trkpt lat="37.6048580" lon="-0.7288120">
    <ele>2.4</ele>
    <time>2025-04-29T10:02:51Z</time>
   </trkpt>
   <trkpt lat="37.6048520" lon="-0.7288150">
    <ele>2.4</ele>
    <time>2025-04-29T10:02:52Z</time>
   </trkpt>
   <trkpt lat="37.6048440" lon="-0.7288140">
    <ele>2.4</ele>
    <time>2025-04-29T10:02:53Z</time>
   </trkpt>
   <trkpt lat="37.6048350" lon="-0.7288070">
    <ele>2.3</ele>
    <time>2025-04-29T10:02:54Z</time>
   </trkpt>
   <trkpt lat="37.6048260" lon="-0.7288000">
    <ele>2.3</ele>
    <time>2025-04-29T10:02:55Z</time>
   </trkpt>
   <trkpt lat="37.6048190" lon="-0.7287970">
    <ele>2.3</ele>
    <time>2025-04-29T10:02:56Z</time>
   </trkpt>
   <trkpt lat="37.6048100" lon="-0.7287950">
    <ele>2.3</ele>
    <time>2025-04-29T10:02:57Z</time>
   </trkpt>
   <trkpt lat="37.6048090" lon="-0.7287910">
    <ele>2.3</ele>
    <time>2025-04-29T10:02:58Z</time>
   </trkpt>
   <trkpt lat="37.6048090" lon="-0.7287970">
    <ele>2.3</ele>
    <time>2025-04-29T10:02:59Z</time>
   </trkpt>
   <trkpt lat="37.6048020" lon="-0.7287950">
    <ele>2.3</ele>
    <time>2025-04-29T10:03:00Z</time>
   </trkpt>
   <trkpt lat="37.6047900" lon="-0.7287940">
    <ele>2.2</ele>
    <time>2025-04-29T10:03:01Z</time>
   </trkpt>
   <trkpt lat="37.6047780" lon="-0.7288020">
    <ele>2.2</ele>
    <time>2025-04-29T10:03:02Z</time>
   </trkpt>
   <trkpt lat="37.6047710" lon="-0.7287970">
    <ele>2.2</ele>
    <time>2025-04-29T10:03:03Z</time>
   </trkpt>
   <trkpt lat="37.6047590" lon="-0.7287930">
    <ele>2.2</ele>
    <time>2025-04-29T10:03:04Z</time>
   </trkpt>
   <trkpt lat="37.6047510" lon="-0.7287900">
    <ele>2.2</ele>
    <time>2025-04-29T10:03:05Z</time>
   </trkpt>
   <trkpt lat="37.6047440" lon="-0.7287890">
    <ele>2.2</ele>
    <time>2025-04-29T10:03:06Z</time>
   </trkpt>
   <trkpt lat="37.6047340" lon="-0.7287830">
    <ele>2.1</ele>
    <time>2025-04-29T10:03:07Z</time>
   </trkpt>
   <trkpt lat="37.6047300" lon="-0.7287800">
    <ele>2.1</ele>
    <time>2025-04-29T10:03:08Z</time>
   </trkpt>
   <trkpt lat="37.6047260" lon="-0.7287810">
    <ele>2.1</ele>
    <time>2025-04-29T10:03:09Z</time>
   </trkpt>
   <trkpt lat="37.6047200" lon="-0.7287780">
    <ele>2.1</ele>
    <time>2025-04-29T10:03:10Z</time>
   </trkpt>
   <trkpt lat="37.6047070" lon="-0.7287720">
    <ele>2.1</ele>
    <time>2025-04-29T10:03:11Z</time>
   </trkpt>
   <trkpt lat="37.6047010" lon="-0.7287690">
    <ele>2.1</ele>
    <time>2025-04-29T10:03:12Z</time>
   </trkpt>
   <trkpt lat="37.6046930" lon="-0.7287640">
    <ele>2.1</ele>
    <time>2025-04-29T10:03:13Z</time>
   </trkpt>
   <trkpt lat="37.6046950" lon="-0.7287680">
    <ele>2.1</ele>
    <time>2025-04-29T10:03:14Z</time>
   </trkpt>
   <trkpt lat="37.6046990" lon="-0.7287710">
    <ele>2.1</ele>
    <time>2025-04-29T10:03:15Z</time>
   </trkpt>
   <trkpt lat="37.6046990" lon="-0.7287710">
    <ele>2.1</ele>
    <time>2025-04-29T10:03:16Z</time>
   </trkpt>
   <trkpt lat="37.6046990" lon="-0.7287710">
    <ele>2.1</ele>
    <time>2025-04-29T10:03:17Z</time>
   </trkpt>
   <trkpt lat="37.6046990" lon="-0.7287710">
    <ele>2.1</ele>
    <time>2025-04-29T10:03:18Z</time>
   </trkpt>
   <trkpt lat="37.6046990" lon="-0.7287710">
    <ele>2.1</ele>
    <time>2025-04-29T10:03:19Z</time>
   </trkpt>
   <trkpt lat="37.6046990" lon="-0.7287710">
    <ele>2.1</ele>
    <time>2025-04-29T10:03:20Z</time>
   </trkpt>
   <trkpt lat="37.6046990" lon="-0.7287710">
    <ele>2.1</ele>
    <time>2025-04-29T10:03:21Z</time>
   </trkpt>
   <trkpt lat="37.6046990" lon="-0.7287710">
    <ele>2.1</ele>
    <time>2025-04-29T10:03:22Z</time>
   </trkpt>
   <trkpt lat="37.6046990" lon="-0.7287710">
    <ele>2.1</ele>
    <time>2025-04-29T10:03:23Z</time>
   </trkpt>
   <trkpt lat="37.6046990" lon="-0.7287710">
    <ele>2.1</ele>
    <time>2025-04-29T10:03:24Z</time>
   </trkpt>
   <trkpt lat="37.6046990" lon="-0.7287740">
    <ele>2.1</ele>
    <time>2025-04-29T10:03:25Z</time>
   </trkpt>
   <trkpt lat="37.6046960" lon="-0.7287730">
    <ele>2.0</ele>
    <time>2025-04-29T10:03:26Z</time>
   </trkpt>
   <trkpt lat="37.6046960" lon="-0.7287720">
    <ele>2.0</ele>
    <time>2025-04-29T10:03:27Z</time>
   </trkpt>
   <trkpt lat="37.6046890" lon="-0.7287690">
    <ele>2.0</ele>
    <time>2025-04-29T10:03:28Z</time>
   </trkpt>
   <trkpt lat="37.6046810" lon="-0.7287640">
    <ele>2.0</ele>
    <time>2025-04-29T10:03:29Z</time>
   </trkpt>
   <trkpt lat="37.6046700" lon="-0.7287540">
    <ele>2.0</ele>
    <time>2025-04-29T10:03:30Z</time>
   </trkpt>
   <trkpt lat="37.6046630" lon="-0.7287510">
    <ele>2.0</ele>
    <time>2025-04-29T10:03:31Z</time>
   </trkpt>
   <trkpt lat="37.6046520" lon="-0.7287530">
    <ele>2.0</ele>
    <time>2025-04-29T10:03:32Z</time>
   </trkpt>
   <trkpt lat="37.6046450" lon="-0.7287540">
    <ele>2.0</ele>
    <time>2025-04-29T10:03:33Z</time>
   </trkpt>
   <trkpt lat="37.6046380" lon="-0.7287540">
    <ele>2.0</ele>
    <time>2025-04-29T10:03:34Z</time>
   </trkpt>
   <trkpt lat="37.6046230" lon="-0.7287500">
    <ele>2.0</ele>
    <time>2025-04-29T10:03:35Z</time>
   </trkpt>
   <trkpt lat="37.6046170" lon="-0.7287480">
    <ele>2.0</ele>
    <time>2025-04-29T10:03:36Z</time>
   </trkpt>
   <trkpt lat="37.6046120" lon="-0.7287450">
    <ele>2.0</ele>
    <time>2025-04-29T10:03:37Z</time>
   </trkpt>
   <trkpt lat="37.6046060" lon="-0.7287430">
    <ele>1.9</ele>
    <time>2025-04-29T10:03:38Z</time>
   </trkpt>
   <trkpt lat="37.6046010" lon="-0.7287410">
    <ele>1.9</ele>
    <time>2025-04-29T10:03:39Z</time>
   </trkpt>
   <trkpt lat="37.6045990" lon="-0.7287370">
    <ele>1.9</ele>
    <time>2025-04-29T10:03:40Z</time>
   </trkpt>
   <trkpt lat="37.6045930" lon="-0.7287350">
    <ele>1.9</ele>
    <time>2025-04-29T10:03:41Z</time>
   </trkpt>
   <trkpt lat="37.6045880" lon="-0.7287340">
    <ele>1.9</ele>
    <time>2025-04-29T10:03:42Z</time>
   </trkpt>
   <trkpt lat="37.6045830" lon="-0.7287330">
    <ele>1.9</ele>
    <time>2025-04-29T10:03:43Z</time>
   </trkpt>
   <trkpt lat="37.6045860" lon="-0.7287380">
    <ele>1.9</ele>
    <time>2025-04-29T10:03:44Z</time>
   </trkpt>
   <trkpt lat="37.6045870" lon="-0.7287380">
    <ele>1.9</ele>
    <time>2025-04-29T10:03:45Z</time>
   </trkpt>
   <trkpt lat="37.6045860" lon="-0.7287400">
    <ele>1.9</ele>
    <time>2025-04-29T10:03:46Z</time>
   </trkpt>
   <trkpt lat="37.6045870" lon="-0.7287400">
    <ele>1.9</ele>
    <time>2025-04-29T10:03:47Z</time>
   </trkpt>
   <trkpt lat="37.6045870" lon="-0.7287400">
    <ele>1.9</ele>
    <time>2025-04-29T10:03:48Z</time>
   </trkpt>
   <trkpt lat="37.6045870" lon="-0.7287400">
    <ele>1.9</ele>
    <time>2025-04-29T10:03:49Z</time>
   </trkpt>
   <trkpt lat="37.6045860" lon="-0.7287410">
    <ele>1.9</ele>
    <time>2025-04-29T10:03:50Z</time>
   </trkpt>
   <trkpt lat="37.6045850" lon="-0.7287390">
    <ele>1.9</ele>
    <time>2025-04-29T10:03:51Z</time>
   </trkpt>
   <trkpt lat="37.6045860" lon="-0.7287390">
    <ele>1.9</ele>
    <time>2025-04-29T10:03:52Z</time>
   </trkpt>
   <trkpt lat="37.6045850" lon="-0.7287390">
    <ele>1.9</ele>
    <time>2025-04-29T10:03:53Z</time>
   </trkpt>
   <trkpt lat="37.6045870" lon="-0.7287420">
    <ele>1.9</ele>
    <time>2025-04-29T10:03:54Z</time>
   </trkpt>
   <trkpt lat="37.6045900" lon="-0.7287460">
    <ele>1.9</ele>
    <time>2025-04-29T10:03:55Z</time>
   </trkpt>
   <trkpt lat="37.6045940" lon="-0.7287480">
    <ele>1.9</ele>
    <time>2025-04-29T10:03:56Z</time>
   </trkpt>
   <trkpt lat="37.6046040" lon="-0.7287500">
    <ele>1.9</ele>
    <time>2025-04-29T10:03:57Z</time>
   </trkpt>
   <trkpt lat="37.6046090" lon="-0.7287510">
    <ele>1.9</ele>
    <time>2025-04-29T10:03:58Z</time>
   </trkpt>
   <trkpt lat="37.6046170" lon="-0.7287530">
    <ele>1.9</ele>
    <time>2025-04-29T10:03:59Z</time>
   </trkpt>
   <trkpt lat="37.6046240" lon="-0.7287510">
    <ele>1.9</ele>
    <time>2025-04-29T10:04:00Z</time>
   </trkpt>
   <trkpt lat="37.6046320" lon="-0.7287510">
    <ele>1.9</ele>
    <time>2025-04-29T10:04:01Z</time>
   </trkpt>
   <trkpt lat="37.6046480" lon="-0.7287530">
    <ele>1.9</ele>
    <time>2025-04-29T10:04:02Z</time>
   </trkpt>
   <trkpt lat="37.6046550" lon="-0.7287550">
    <ele>1.9</ele>
    <time>2025-04-29T10:04:03Z</time>
   </trkpt>
   <trkpt lat="37.6046620" lon="-0.7287570">
    <ele>1.9</ele>
    <time>2025-04-29T10:04:04Z</time>
   </trkpt>
   <trkpt lat="37.6046690" lon="-0.7287590">
    <ele>1.9</ele>
    <time>2025-04-29T10:04:05Z</time>
   </trkpt>
   <trkpt lat="37.6046790" lon="-0.7287610">
    <ele>1.9</ele>
    <time>2025-04-29T10:04:06Z</time>
   </trkpt>
   <trkpt lat="37.6046860" lon="-0.7287610">
    <ele>1.9</ele>
    <time>2025-04-29T10:04:07Z</time>
   </trkpt>
   <trkpt lat="37.6046960" lon="-0.7287630">
    <ele>1.9</ele>
    <time>2025-04-29T10:04:08Z</time>
   </trkpt>
   <trkpt lat="37.6047090" lon="-0.7287630">
    <ele>1.8</ele>
    <time>2025-04-29T10:04:09Z</time>
   </trkpt>
   <trkpt lat="37.6047270" lon="-0.7287650">
    <ele>1.8</ele>
    <time>2025-04-29T10:04:10Z</time>
   </trkpt>
   <trkpt lat="37.6047410" lon="-0.7287680">
    <ele>1.8</ele>
    <time>2025-04-29T10:04:11Z</time>
   </trkpt>
   <trkpt lat="37.6047500" lon="-0.7287730">
    <ele>1.8</ele>
    <time>2025-04-29T10:04:12Z</time>
   </trkpt>
   <trkpt lat="37.6047580" lon="-0.7287790">
    <ele>1.8</ele>
    <time>2025-04-29T10:04:13Z</time>
   </trkpt>
   <trkpt lat="37.6047650" lon="-0.7287800">
    <ele>1.8</ele>
    <time>2025-04-29T10:04:14Z</time>
   </trkpt>
   <trkpt lat="37.6047730" lon="-0.7287770">
    <ele>1.9</ele>
    <time>2025-04-29T10:04:15Z</time>
   </trkpt>
   <trkpt lat="37.6047850" lon="-0.7287750">
    <ele>1.9</ele>
    <time>2025-04-29T10:04:16Z</time>
   </trkpt>
   <trkpt lat="37.6048030" lon="-0.7287750">
    <ele>1.9</ele>
    <time>2025-04-29T10:04:17Z</time>
   </trkpt>
   <trkpt lat="37.6048100" lon="-0.7287740">
    <ele>1.9</ele>
    <time>2025-04-29T10:04:18Z</time>
   </trkpt>
   <trkpt lat="37.6048170" lon="-0.7287720">
    <ele>1.9</ele>
    <time>2025-04-29T10:04:19Z</time>
   </trkpt>
   <trkpt lat="37.6048240" lon="-0.7287710">
    <ele>1.9</ele>
    <time>2025-04-29T10:04:20Z</time>
   </trkpt>
   <trkpt lat="37.6048310" lon="-0.7287720">
    <ele>1.9</ele>
    <time>2025-04-29T10:04:21Z</time>
   </trkpt>
   <trkpt lat="37.6048390" lon="-0.7287770">
    <ele>1.9</ele>
    <time>2025-04-29T10:04:22Z</time>
   </trkpt>
   <trkpt lat="37.6048470" lon="-0.7287740">
    <ele>1.9</ele>
    <time>2025-04-29T10:04:23Z</time>
   </trkpt>
   <trkpt lat="37.6048530" lon="-0.7287750">
    <ele>2.0</ele>
    <time>2025-04-29T10:04:24Z</time>
   </trkpt>
   <trkpt lat="37.6048600" lon="-0.7287750">
    <ele>2.0</ele>
    <time>2025-04-29T10:04:25Z</time>
   </trkpt>
   <trkpt lat="37.6048660" lon="-0.7287770">
    <ele>2.0</ele>
    <time>2025-04-29T10:04:26Z</time>
   </trkpt>
   <trkpt lat="37.6048710" lon="-0.7287800">
    <ele>2.0</ele>
    <time>2025-04-29T10:04:27Z</time>
   </trkpt>
   <trkpt lat="37.6048800" lon="-0.7287800">
    <ele>2.0</ele>
    <time>2025-04-29T10:04:28Z</time>
   </trkpt>
   <trkpt lat="37.6048890" lon="-0.7287830">
    <ele>2.0</ele>
    <time>2025-04-29T10:04:29Z</time>
   </trkpt>
   <trkpt lat="37.6048990" lon="-0.7287840">
    <ele>2.1</ele>
    <time>2025-04-29T10:04:30Z</time>
   </trkpt>
   <trkpt lat="37.6049060" lon="-0.7287870">
    <ele>2.1</ele>
    <time>2025-04-29T10:04:31Z</time>
   </trkpt>
   <trkpt lat="37.6049110" lon="-0.7287870">
    <ele>2.1</ele>
    <time>2025-04-29T10:04:32Z</time>
   </trkpt>
   <trkpt lat="37.6049230" lon="-0.7287890">
    <ele>2.2</ele>
    <time>2025-04-29T10:04:33Z</time>
   </trkpt>
   <trkpt lat="37.6049290" lon="-0.7287920">
    <ele>2.2</ele>
    <time>2025-04-29T10:04:34Z</time>
   </trkpt>
   <trkpt lat="37.6049320" lon="-0.7287960">
    <ele>2.2</ele>
    <time>2025-04-29T10:04:35Z</time>
   </trkpt>
   <trkpt lat="37.6049360" lon="-0.7287980">
    <ele>2.2</ele>
    <time>2025-04-29T10:04:36Z</time>
   </trkpt>
   <trkpt lat="37.6049380" lon="-0.7288000">
    <ele>2.2</ele>
    <time>2025-04-29T10:04:37Z</time>
   </trkpt>
   <trkpt lat="37.6049370" lon="-0.7287990">
    <ele>2.2</ele>
    <time>2025-04-29T10:04:38Z</time>
   </trkpt>
   <trkpt lat="37.6049360" lon="-0.7287980">
    <ele>2.2</ele>
    <time>2025-04-29T10:04:39Z</time>
   </trkpt>
   <trkpt lat="37.6049450" lon="-0.7287970">
    <ele>2.3</ele>
    <time>2025-04-29T10:04:40Z</time>
   </trkpt>
   <trkpt lat="37.6049500" lon="-0.7287990">
    <ele>2.3</ele>
    <time>2025-04-29T10:04:41Z</time>
   </trkpt>
   <trkpt lat="37.6049560" lon="-0.7288010">
    <ele>2.3</ele>
    <time>2025-04-29T10:04:42Z</time>
   </trkpt>
   <trkpt lat="37.6049600" lon="-0.7287970">
    <ele>2.3</ele>
    <time>2025-04-29T10:04:43Z</time>
   </trkpt>
   <trkpt lat="37.6049660" lon="-0.7287960">
    <ele>2.3</ele>
    <time>2025-04-29T10:04:44Z</time>
   </trkpt>
   <trkpt lat="37.6049760" lon="-0.7287910">
    <ele>2.4</ele>
    <time>2025-04-29T10:04:45Z</time>
   </trkpt>
   <trkpt lat="37.6049860" lon="-0.7287930">
    <ele>2.4</ele>
    <time>2025-04-29T10:04:46Z</time>
   </trkpt>
   <trkpt lat="37.6049940" lon="-0.7287910">
    <ele>2.5</ele>
    <time>2025-04-29T10:04:47Z</time>
   </trkpt>
   <trkpt lat="37.6050060" lon="-0.7287950">
    <ele>2.5</ele>
    <time>2025-04-29T10:04:48Z</time>
   </trkpt>
   <trkpt lat="37.6050200" lon="-0.7288020">
    <ele>2.6</ele>
    <time>2025-04-29T10:04:49Z</time>
   </trkpt>
   <trkpt lat="37.6050250" lon="-0.7287930">
    <ele>2.7</ele>
    <time>2025-04-29T10:04:50Z</time>
   </trkpt>
   <trkpt lat="37.6050340" lon="-0.7287920">
    <ele>2.7</ele>
    <time>2025-04-29T10:04:51Z</time>
   </trkpt>
   <trkpt lat="37.6050390" lon="-0.7287880">
    <ele>2.8</ele>
    <time>2025-04-29T10:04:52Z</time>
   </trkpt>
   <trkpt lat="37.6050410" lon="-0.7287910">
    <ele>2.8</ele>
    <time>2025-04-29T10:04:53Z</time>
   </trkpt>
   <trkpt lat="37.6050430" lon="-0.7287910">
    <ele>2.8</ele>
    <time>2025-04-29T10:04:54Z</time>
   </trkpt>
   <trkpt lat="37.6050470" lon="-0.7287900">
    <ele>2.8</ele>
    <time>2025-04-29T10:04:55Z</time>
   </trkpt>
   <trkpt lat="37.6050550" lon="-0.7287920">
    <ele>2.9</ele>
    <time>2025-04-29T10:04:56Z</time>
   </trkpt>
   <trkpt lat="37.6050620" lon="-0.7287940">
    <ele>2.9</ele>
    <time>2025-04-29T10:04:57Z</time>
   </trkpt>
   <trkpt lat="37.6050690" lon="-0.7287960">
    <ele>3.0</ele>
    <time>2025-04-29T10:04:58Z</time>
   </trkpt>
   <trkpt lat="37.6050760" lon="-0.7287980">
    <ele>3.0</ele>
    <time>2025-04-29T10:04:59Z</time>
   </trkpt>
   <trkpt lat="37.6050830" lon="-0.7288000">
    <ele>3.0</ele>
    <time>2025-04-29T10:05:00Z</time>
   </trkpt>
   <trkpt lat="37.6050950" lon="-0.7288100">
    <ele>3.1</ele>
    <time>2025-04-29T10:05:01Z</time>
   </trkpt>
   <trkpt lat="37.6051090" lon="-0.7288160">
    <ele>3.2</ele>
    <time>2025-04-29T10:05:02Z</time>
   </trkpt>
   <trkpt lat="37.6051310" lon="-0.7288100">
    <ele>3.3</ele>
    <time>2025-04-29T10:05:03Z</time>
   </trkpt>
   <trkpt lat="37.6051370" lon="-0.7288070">
    <ele>3.3</ele>
    <time>2025-04-29T10:05:04Z</time>
   </trkpt>
   <trkpt lat="37.6051440" lon="-0.7288040">
    <ele>3.3</ele>
    <time>2025-04-29T10:05:05Z</time>
   </trkpt>
   <trkpt lat="37.6051630" lon="-0.7288040">
    <ele>3.4</ele>
    <time>2025-04-29T10:05:06Z</time>
   </trkpt>
   <trkpt lat="37.6051740" lon="-0.7288060">
    <ele>3.5</ele>
    <time>2025-04-29T10:05:07Z</time>
   </trkpt>
   <trkpt lat="37.6051850" lon="-0.7288080">
    <ele>3.5</ele>
    <time>2025-04-29T10:05:08Z</time>
   </trkpt>
   <trkpt lat="37.6051980" lon="-0.7288110">
    <ele>3.5</ele>
    <time>2025-04-29T10:05:09Z</time>
   </trkpt>
   <trkpt lat="37.6052050" lon="-0.7288170">
    <ele>3.6</ele>
    <time>2025-04-29T10:05:10Z</time>
   </trkpt>
   <trkpt lat="37.6052160" lon="-0.7288090">
    <ele>3.6</ele>
    <time>2025-04-29T10:05:11Z</time>
   </trkpt>
   <trkpt lat="37.6052260" lon="-0.7288050">
    <ele>3.6</ele>
    <time>2025-04-29T10:05:12Z</time>
   </trkpt>
   <trkpt lat="37.6052420" lon="-0.7287980">
    <ele>3.7</ele>
    <time>2025-04-29T10:05:13Z</time>
   </trkpt>
   <trkpt lat="37.6052550" lon="-0.7287930">
    <ele>3.7</ele>
    <time>2025-04-29T10:05:14Z</time>
   </trkpt>
   <trkpt lat="37.6052710" lon="-0.7287860">
    <ele>3.8</ele>
    <time>2025-04-29T10:05:15Z</time>
   </trkpt>
   <trkpt lat="37.6052920" lon="-0.7287790">
    <ele>3.8</ele>
    <time>2025-04-29T10:05:16Z</time>
   </trkpt>
   <trkpt lat="37.6053010" lon="-0.7287790">
    <ele>3.8</ele>
    <time>2025-04-29T10:05:17Z</time>
   </trkpt>
   <trkpt lat="37.6053090" lon="-0.7287800">
    <ele>3.8</ele>
    <time>2025-04-29T10:05:18Z</time>
   </trkpt>
   <trkpt lat="37.6053250" lon="-0.7287690">
    <ele>3.9</ele>
    <time>2025-04-29T10:05:19Z</time>
   </trkpt>
   <trkpt lat="37.6053330" lon="-0.7287620">
    <ele>3.9</ele>
    <time>2025-04-29T10:05:20Z</time>
   </trkpt>
   <trkpt lat="37.6053400" lon="-0.7287550">
    <ele>3.9</ele>
    <time>2025-04-29T10:05:21Z</time>
   </trkpt>
   <trkpt lat="37.6053550" lon="-0.7287510">
    <ele>4.0</ele>
    <time>2025-04-29T10:05:22Z</time>
   </trkpt>
   <trkpt lat="37.6053660" lon="-0.7287450">
    <ele>4.0</ele>
    <time>2025-04-29T10:05:23Z</time>
   </trkpt>
   <trkpt lat="37.6053760" lon="-0.7287340">
    <ele>4.0</ele>
    <time>2025-04-29T10:05:24Z</time>
   </trkpt>
   <trkpt lat="37.6053860" lon="-0.7287240">
    <ele>4.0</ele>
    <time>2025-04-29T10:05:25Z</time>
   </trkpt>
   <trkpt lat="37.6053870" lon="-0.7287100">
    <ele>4.1</ele>
    <time>2025-04-29T10:05:26Z</time>
   </trkpt>
   <trkpt lat="37.6053880" lon="-0.7286990">
    <ele>4.1</ele>
    <time>2025-04-29T10:05:27Z</time>
   </trkpt>
   <trkpt lat="37.6053950" lon="-0.7286890">
    <ele>4.1</ele>
    <time>2025-04-29T10:05:28Z</time>
   </trkpt>
   <trkpt lat="37.6054050" lon="-0.7286780">
    <ele>4.1</ele>
    <time>2025-04-29T10:05:29Z</time>
   </trkpt>
   <trkpt lat="37.6054130" lon="-0.7286600">
    <ele>4.2</ele>
    <time>2025-04-29T10:05:30Z</time>
   </trkpt>
   <trkpt lat="37.6054180" lon="-0.7286430">
    <ele>4.2</ele>
    <time>2025-04-29T10:05:31Z</time>
   </trkpt>
   <trkpt lat="37.6054220" lon="-0.7286290">
    <ele>4.2</ele>
    <time>2025-04-29T10:05:32Z</time>
   </trkpt>
   <trkpt lat="37.6054300" lon="-0.7286190">
    <ele>4.3</ele>
    <time>2025-04-29T10:05:33Z</time>
   </trkpt>
   <trkpt lat="37.6054320" lon="-0.7286110">
    <ele>4.3</ele>
    <time>2025-04-29T10:05:34Z</time>
   </trkpt>
   <trkpt lat="37.6054360" lon="-0.7285830">
    <ele>4.3</ele>
    <time>2025-04-29T10:05:35Z</time>
   </trkpt>
   <trkpt lat="37.6054370" lon="-0.7285660">
    <ele>4.3</ele>
    <time>2025-04-29T10:05:36Z</time>
   </trkpt>
   <trkpt lat="37.6054390" lon="-0.7285490">
    <ele>4.4</ele>
    <time>2025-04-29T10:05:37Z</time>
   </trkpt>
   <trkpt lat="37.6054420" lon="-0.7285360">
    <ele>4.4</ele>
    <time>2025-04-29T10:05:38Z</time>
   </trkpt>
   <trkpt lat="37.6054440" lon="-0.7285180">
    <ele>4.4</ele>
    <time>2025-04-29T10:05:39Z</time>
   </trkpt>
   <trkpt lat="37.6054480" lon="-0.7285060">
    <ele>4.4</ele>
    <time>2025-04-29T10:05:40Z</time>
   </trkpt>
   <trkpt lat="37.6054510" lon="-0.7284880">
    <ele>4.4</ele>
    <time>2025-04-29T10:05:41Z</time>
   </trkpt>
   <trkpt lat="37.6054580" lon="-0.7284690">
    <ele>4.4</ele>
    <time>2025-04-29T10:05:42Z</time>
   </trkpt>
   <trkpt lat="37.6054630" lon="-0.7284440">
    <ele>4.4</ele>
    <time>2025-04-29T10:05:43Z</time>
   </trkpt>
   <trkpt lat="37.6054640" lon="-0.7284340">
    <ele>4.4</ele>
    <time>2025-04-29T10:05:44Z</time>
   </trkpt>
   <trkpt lat="37.6054650" lon="-0.7284230">
    <ele>4.4</ele>
    <time>2025-04-29T10:05:45Z</time>
   </trkpt>
   <trkpt lat="37.6054700" lon="-0.7284070">
    <ele>4.4</ele>
    <time>2025-04-29T10:05:46Z</time>
   </trkpt>
   <trkpt lat="37.6054720" lon="-0.7283890">
    <ele>4.4</ele>
    <time>2025-04-29T10:05:47Z</time>
   </trkpt>
   <trkpt lat="37.6054760" lon="-0.7283750">
    <ele>4.4</ele>
    <time>2025-04-29T10:05:48Z</time>
   </trkpt>
   <trkpt lat="37.6054790" lon="-0.7283550">
    <ele>4.4</ele>
    <time>2025-04-29T10:05:49Z</time>
   </trkpt>
   <trkpt lat="37.6054830" lon="-0.7283420">
    <ele>4.4</ele>
    <time>2025-04-29T10:05:50Z</time>
   </trkpt>
   <trkpt lat="37.6054880" lon="-0.7283270">
    <ele>4.4</ele>
    <time>2025-04-29T10:05:51Z</time>
   </trkpt>
   <trkpt lat="37.6054920" lon="-0.7283150">
    <ele>4.4</ele>
    <time>2025-04-29T10:05:52Z</time>
   </trkpt>
   <trkpt lat="37.6054940" lon="-0.7282980">
    <ele>4.4</ele>
    <time>2025-04-29T10:05:53Z</time>
   </trkpt>
   <trkpt lat="37.6054950" lon="-0.7282780">
    <ele>4.4</ele>
    <time>2025-04-29T10:05:54Z</time>
   </trkpt>
   <trkpt lat="37.6055030" lon="-0.7282610">
    <ele>4.4</ele>
    <time>2025-04-29T10:05:55Z</time>
   </trkpt>
   <trkpt lat="37.6055060" lon="-0.7282440">
    <ele>4.4</ele>
    <time>2025-04-29T10:05:56Z</time>
   </trkpt>
   <trkpt lat="37.6055060" lon="-0.7282260">
    <ele>4.4</ele>
    <time>2025-04-29T10:05:57Z</time>
   </trkpt>
   <trkpt lat="37.6055060" lon="-0.7282140">
    <ele>4.4</ele>
    <time>2025-04-29T10:05:58Z</time>
   </trkpt>
   <trkpt lat="37.6055130" lon="-0.7282060">
    <ele>4.4</ele>
    <time>2025-04-29T10:05:59Z</time>
   </trkpt>
   <trkpt lat="37.6055190" lon="-0.7281890">
    <ele>4.4</ele>
    <time>2025-04-29T10:06:00Z</time>
   </trkpt>
   <trkpt lat="37.6055210" lon="-0.7281720">
    <ele>4.4</ele>
    <time>2025-04-29T10:06:01Z</time>
   </trkpt>
   <trkpt lat="37.6055230" lon="-0.7281450">
    <ele>4.4</ele>
    <time>2025-04-29T10:06:02Z</time>
   </trkpt>
   <trkpt lat="37.6055250" lon="-0.7281350">
    <ele>4.4</ele>
    <time>2025-04-29T10:06:03Z</time>
   </trkpt>
   <trkpt lat="37.6055260" lon="-0.7281250">
    <ele>4.4</ele>
    <time>2025-04-29T10:06:04Z</time>
   </trkpt>
   <trkpt lat="37.6055280" lon="-0.7281010">
    <ele>4.4</ele>
    <time>2025-04-29T10:06:05Z</time>
   </trkpt>
   <trkpt lat="37.6055300" lon="-0.7280900">
    <ele>4.4</ele>
    <time>2025-04-29T10:06:06Z</time>
   </trkpt>
   <trkpt lat="37.6055320" lon="-0.7280790">
    <ele>4.4</ele>
    <time>2025-04-29T10:06:07Z</time>
   </trkpt>
   <trkpt lat="37.6055400" lon="-0.7280620">
    <ele>4.4</ele>
    <time>2025-04-29T10:06:08Z</time>
   </trkpt>
   <trkpt lat="37.6055450" lon="-0.7280480">
    <ele>4.4</ele>
    <time>2025-04-29T10:06:09Z</time>
   </trkpt>
   <trkpt lat="37.6055470" lon="-0.7280310">
    <ele>4.4</ele>
    <time>2025-04-29T10:06:10Z</time>
   </trkpt>
   <trkpt lat="37.6055480" lon="-0.7280130">
    <ele>4.4</ele>
    <time>2025-04-29T10:06:11Z</time>
   </trkpt>
   <trkpt lat="37.6055510" lon="-0.7279960">
    <ele>4.3</ele>
    <time>2025-04-29T10:06:12Z</time>
   </trkpt>
   <trkpt lat="37.6055540" lon="-0.7279820">
    <ele>4.3</ele>
    <time>2025-04-29T10:06:13Z</time>
   </trkpt>
   <trkpt lat="37.6055560" lon="-0.7279700">
    <ele>4.3</ele>
    <time>2025-04-29T10:06:14Z</time>
   </trkpt>
   <trkpt lat="37.6055580" lon="-0.7279510">
    <ele>4.3</ele>
    <time>2025-04-29T10:06:15Z</time>
   </trkpt>
   <trkpt lat="37.6055620" lon="-0.7279300">
    <ele>4.3</ele>
    <time>2025-04-29T10:06:16Z</time>
   </trkpt>
   <trkpt lat="37.6055650" lon="-0.7279150">
    <ele>4.3</ele>
    <time>2025-04-29T10:06:17Z</time>
   </trkpt>
   <trkpt lat="37.6055680" lon="-0.7279030">
    <ele>4.3</ele>
    <time>2025-04-29T10:06:18Z</time>
   </trkpt>
   <trkpt lat="37.6055670" lon="-0.7278870">
    <ele>4.3</ele>
    <time>2025-04-29T10:06:19Z</time>
   </trkpt>
   <trkpt lat="37.6055680" lon="-0.7278610">
    <ele>4.2</ele>
    <time>2025-04-29T10:06:20Z</time>
   </trkpt>
   <trkpt lat="37.6055690" lon="-0.7278490">
    <ele>4.2</ele>
    <time>2025-04-29T10:06:21Z</time>
   </trkpt>
   <trkpt lat="37.6055690" lon="-0.7278370">
    <ele>4.2</ele>
    <time>2025-04-29T10:06:22Z</time>
   </trkpt>
   <trkpt lat="37.6055690" lon="-0.7278220">
    <ele>4.2</ele>
    <time>2025-04-29T10:06:23Z</time>
   </trkpt>
   <trkpt lat="37.6055750" lon="-0.7278070">
    <ele>4.2</ele>
    <time>2025-04-29T10:06:24Z</time>
   </trkpt>
   <trkpt lat="37.6055810" lon="-0.7277950">
    <ele>4.2</ele>
    <time>2025-04-29T10:06:25Z</time>
   </trkpt>
   <trkpt lat="37.6055870" lon="-0.7277720">
    <ele>4.1</ele>
    <time>2025-04-29T10:06:26Z</time>
   </trkpt>
   <trkpt lat="37.6055900" lon="-0.7277560">
    <ele>4.1</ele>
    <time>2025-04-29T10:06:27Z</time>
   </trkpt>
   <trkpt lat="37.6055950" lon="-0.7277400">
    <ele>4.1</ele>
    <time>2025-04-29T10:06:28Z</time>
   </trkpt>
   <trkpt lat="37.6056050" lon="-0.7277260">
    <ele>4.1</ele>
    <time>2025-04-29T10:06:29Z</time>
   </trkpt>
   <trkpt lat="37.6056200" lon="-0.7277060">
    <ele>4.0</ele>
    <time>2025-04-29T10:06:30Z</time>
   </trkpt>
   <trkpt lat="37.6056250" lon="-0.7276990">
    <ele>4.0</ele>
    <time>2025-04-29T10:06:31Z</time>
   </trkpt>
   <trkpt lat="37.6056310" lon="-0.7276920">
    <ele>4.0</ele>
    <time>2025-04-29T10:06:32Z</time>
   </trkpt>
   <trkpt lat="37.6056490" lon="-0.7276780">
    <ele>4.0</ele>
    <time>2025-04-29T10:06:33Z</time>
   </trkpt>
   <trkpt lat="37.6056570" lon="-0.7276720">
    <ele>4.0</ele>
    <time>2025-04-29T10:06:34Z</time>
   </trkpt>
   <trkpt lat="37.6056640" lon="-0.7276670">
    <ele>3.9</ele>
    <time>2025-04-29T10:06:35Z</time>
   </trkpt>
   <trkpt lat="37.6056760" lon="-0.7276620">
    <ele>3.9</ele>
    <time>2025-04-29T10:06:36Z</time>
   </trkpt>
   <trkpt lat="37.6056870" lon="-0.7276530">
    <ele>3.9</ele>
    <time>2025-04-29T10:06:37Z</time>
   </trkpt>
   <trkpt lat="37.6056960" lon="-0.7276460">
    <ele>3.9</ele>
    <time>2025-04-29T10:06:38Z</time>
   </trkpt>
   <trkpt lat="37.6057050" lon="-0.7276380">
    <ele>3.9</ele>
    <time>2025-04-29T10:06:39Z</time>
   </trkpt>
   <trkpt lat="37.6057100" lon="-0.7276310">
    <ele>3.9</ele>
    <time>2025-04-29T10:06:40Z</time>
   </trkpt>
   <trkpt lat="37.6057200" lon="-0.7276240">
    <ele>3.8</ele>
    <time>2025-04-29T10:06:41Z</time>
   </trkpt>
   <trkpt lat="37.6057380" lon="-0.7276080">
    <ele>3.8</ele>
    <time>2025-04-29T10:06:42Z</time>
   </trkpt>
   <trkpt lat="37.6057450" lon="-0.7276010">
    <ele>3.8</ele>
    <time>2025-04-29T10:06:43Z</time>
   </trkpt>
   <trkpt lat="37.6057530" lon="-0.7275940">
    <ele>3.8</ele>
    <time>2025-04-29T10:06:44Z</time>
   </trkpt>
   <trkpt lat="37.6057610" lon="-0.7275860">
    <ele>3.8</ele>
    <time>2025-04-29T10:06:45Z</time>
   </trkpt>
   <trkpt lat="37.6057690" lon="-0.7275740">
    <ele>3.7</ele>
    <time>2025-04-29T10:06:46Z</time>
   </trkpt>
   <trkpt lat="37.6057780" lon="-0.7275710">
    <ele>3.7</ele>
    <time>2025-04-29T10:06:47Z</time>
   </trkpt>
   <trkpt lat="37.6057840" lon="-0.7275610">
    <ele>3.7</ele>
    <time>2025-04-29T10:06:48Z</time>
   </trkpt>
   <trkpt lat="37.6057930" lon="-0.7275400">
    <ele>3.6</ele>
    <time>2025-04-29T10:06:49Z</time>
   </trkpt>
   <trkpt lat="37.6058020" lon="-0.7275170">
    <ele>3.6</ele>
    <time>2025-04-29T10:06:50Z</time>
   </trkpt>
   <trkpt lat="37.6058070" lon="-0.7275080">
    <ele>3.6</ele>
    <time>2025-04-29T10:06:51Z</time>
   </trkpt>
   <trkpt lat="37.6058120" lon="-0.7275000">
    <ele>3.6</ele>
    <time>2025-04-29T10:06:52Z</time>
   </trkpt>
   <trkpt lat="37.6058230" lon="-0.7274760">
    <ele>3.5</ele>
    <time>2025-04-29T10:06:53Z</time>
   </trkpt>
   <trkpt lat="37.6058270" lon="-0.7274670">
    <ele>3.5</ele>
    <time>2025-04-29T10:06:54Z</time>
   </trkpt>
   <trkpt lat="37.6058310" lon="-0.7274590">
    <ele>3.5</ele>
    <time>2025-04-29T10:06:55Z</time>
   </trkpt>
   <trkpt lat="37.6058350" lon="-0.7274470">
    <ele>3.5</ele>
    <time>2025-04-29T10:06:56Z</time>
   </trkpt>
   <trkpt lat="37.6058390" lon="-0.7274290">
    <ele>3.4</ele>
    <time>2025-04-29T10:06:57Z</time>
   </trkpt>
   <trkpt lat="37.6058430" lon="-0.7274170">
    <ele>3.4</ele>
    <time>2025-04-29T10:06:58Z</time>
   </trkpt>
   <trkpt lat="37.6058490" lon="-0.7273910">
    <ele>3.4</ele>
    <time>2025-04-29T10:06:59Z</time>
   </trkpt>
   <trkpt lat="37.6058490" lon="-0.7273770">
    <ele>3.4</ele>
    <time>2025-04-29T10:07:00Z</time>
   </trkpt>
   <trkpt lat="37.6058540" lon="-0.7273620">
    <ele>3.4</ele>
    <time>2025-04-29T10:07:01Z</time>
   </trkpt>
   <trkpt lat="37.6058620" lon="-0.7273540">
    <ele>3.3</ele>
    <time>2025-04-29T10:07:02Z</time>
   </trkpt>
   <trkpt lat="37.6058730" lon="-0.7273460">
    <ele>3.3</ele>
    <time>2025-04-29T10:07:03Z</time>
   </trkpt>
   <trkpt lat="37.6058800" lon="-0.7273370">
    <ele>3.3</ele>
    <time>2025-04-29T10:07:04Z</time>
   </trkpt>
   <trkpt lat="37.6058920" lon="-0.7273260">
    <ele>3.2</ele>
    <time>2025-04-29T10:07:05Z</time>
   </trkpt>
   <trkpt lat="37.6058930" lon="-0.7273110">
    <ele>3.2</ele>
    <time>2025-04-29T10:07:06Z</time>
   </trkpt>
   <trkpt lat="37.6058910" lon="-0.7272930">
    <ele>3.2</ele>
    <time>2025-04-29T10:07:07Z</time>
   </trkpt>
   <trkpt lat="37.6058890" lon="-0.7272780">
    <ele>3.1</ele>
    <time>2025-04-29T10:07:08Z</time>
   </trkpt>
   <trkpt lat="37.6058870" lon="-0.7272620">
    <ele>3.1</ele>
    <time>2025-04-29T10:07:09Z</time>
   </trkpt>
   <trkpt lat="37.6058850" lon="-0.7272470">
    <ele>3.1</ele>
    <time>2025-04-29T10:07:10Z</time>
   </trkpt>
   <trkpt lat="37.6058760" lon="-0.7272260">
    <ele>3.0</ele>
    <time>2025-04-29T10:07:11Z</time>
   </trkpt>
   <trkpt lat="37.6058720" lon="-0.7272200">
    <ele>3.0</ele>
    <time>2025-04-29T10:07:12Z</time>
   </trkpt>
   <trkpt lat="37.6058610" lon="-0.7271960">
    <ele>3.0</ele>
    <time>2025-04-29T10:07:13Z</time>
   </trkpt>
   <trkpt lat="37.6058570" lon="-0.7271850">
    <ele>2.9</ele>
    <time>2025-04-29T10:07:14Z</time>
   </trkpt>
   <trkpt lat="37.6058530" lon="-0.7271740">
    <ele>2.9</ele>
    <time>2025-04-29T10:07:15Z</time>
   </trkpt>
   <trkpt lat="37.6058460" lon="-0.7271470">
    <ele>2.9</ele>
    <time>2025-04-29T10:07:16Z</time>
   </trkpt>
   <trkpt lat="37.6058440" lon="-0.7271370">
    <ele>2.8</ele>
    <time>2025-04-29T10:07:17Z</time>
   </trkpt>
   <trkpt lat="37.6058410" lon="-0.7271270">
    <ele>2.8</ele>
    <time>2025-04-29T10:07:18Z</time>
   </trkpt>
   <trkpt lat="37.6058340" lon="-0.7271160">
    <ele>2.8</ele>
    <time>2025-04-29T10:07:19Z</time>
   </trkpt>
   <trkpt lat="37.6058300" lon="-0.7271070">
    <ele>2.8</ele>
    <time>2025-04-29T10:07:20Z</time>
   </trkpt>
   <trkpt lat="37.6058350" lon="-0.7271140">
    <ele>2.8</ele>
    <time>2025-04-29T10:07:21Z</time>
   </trkpt>
   <trkpt lat="37.6058380" lon="-0.7271260">
    <ele>2.8</ele>
    <time>2025-04-29T10:07:22Z</time>
   </trkpt>
   <trkpt lat="37.6058380" lon="-0.7271270">
    <ele>2.8</ele>
    <time>2025-04-29T10:07:23Z</time>
   </trkpt>
   <trkpt lat="37.6058380" lon="-0.7271290">
    <ele>2.8</ele>
    <time>2025-04-29T10:07:24Z</time>
   </trkpt>
   <trkpt lat="37.6058400" lon="-0.7271300">
    <ele>2.8</ele>
    <time>2025-04-29T10:07:25Z</time>
   </trkpt>
   <trkpt lat="37.6058470" lon="-0.7271300">
    <ele>2.9</ele>
    <time>2025-04-29T10:07:26Z</time>
   </trkpt>
   <trkpt lat="37.6058540" lon="-0.7271350">
    <ele>2.9</ele>
    <time>2025-04-29T10:07:27Z</time>
   </trkpt>
   <trkpt lat="37.6058700" lon="-0.7271430">
    <ele>2.9</ele>
    <time>2025-04-29T10:07:28Z</time>
   </trkpt>
   <trkpt lat="37.6058780" lon="-0.7271550">
    <ele>3.0</ele>
    <time>2025-04-29T10:07:29Z</time>
   </trkpt>
   <trkpt lat="37.6058820" lon="-0.7271620">
    <ele>3.0</ele>
    <time>2025-04-29T10:07:30Z</time>
   </trkpt>
   <trkpt lat="37.6058920" lon="-0.7271710">
    <ele>3.0</ele>
    <time>2025-04-29T10:07:31Z</time>
   </trkpt>
   <trkpt lat="37.6058980" lon="-0.7271810">
    <ele>3.0</ele>
    <time>2025-04-29T10:07:32Z</time>
   </trkpt>
   <trkpt lat="37.6059060" lon="-0.7271840">
    <ele>3.0</ele>
    <time>2025-04-29T10:07:33Z</time>
   </trkpt>
   <trkpt lat="37.6059160" lon="-0.7271890">
    <ele>3.1</ele>
    <time>2025-04-29T10:07:34Z</time>
   </trkpt>
   <trkpt lat="37.6059240" lon="-0.7271980">
    <ele>3.1</ele>
    <time>2025-04-29T10:07:35Z</time>
   </trkpt>
   <trkpt lat="37.6059300" lon="-0.7272000">
    <ele>3.1</ele>
    <time>2025-04-29T10:07:36Z</time>
   </trkpt>
   <trkpt lat="37.6059460" lon="-0.7272110">
    <ele>3.2</ele>
    <time>2025-04-29T10:07:37Z</time>
   </trkpt>
   <trkpt lat="37.6059570" lon="-0.7272230">
    <ele>3.2</ele>
    <time>2025-04-29T10:07:38Z</time>
   </trkpt>
   <trkpt lat="37.6059660" lon="-0.7272270">
    <ele>3.2</ele>
    <time>2025-04-29T10:07:39Z</time>
   </trkpt>
   <trkpt lat="37.6059720" lon="-0.7272320">
    <ele>3.3</ele>
    <time>2025-04-29T10:07:40Z</time>
   </trkpt>
   <trkpt lat="37.6059920" lon="-0.7272440">
    <ele>3.3</ele>
    <time>2025-04-29T10:07:41Z</time>
   </trkpt>
   <trkpt lat="37.6060010" lon="-0.7272460">
    <ele>3.4</ele>
    <time>2025-04-29T10:07:42Z</time>
   </trkpt>
   <trkpt lat="37.6060100" lon="-0.7272490">
    <ele>3.4</ele>
    <time>2025-04-29T10:07:43Z</time>
   </trkpt>
   <trkpt lat="37.6060280" lon="-0.7272560">
    <ele>3.5</ele>
    <time>2025-04-29T10:07:44Z</time>
   </trkpt>
   <trkpt lat="37.6060380" lon="-0.7272660">
    <ele>3.6</ele>
    <time>2025-04-29T10:07:45Z</time>
   </trkpt>
   <trkpt lat="37.6060470" lon="-0.7272750">
    <ele>3.6</ele>
    <time>2025-04-29T10:07:46Z</time>
   </trkpt>
   <trkpt lat="37.6060580" lon="-0.7272830">
    <ele>3.7</ele>
    <time>2025-04-29T10:07:47Z</time>
   </trkpt>
   <trkpt lat="37.6060720" lon="-0.7272900">
    <ele>3.7</ele>
    <time>2025-04-29T10:07:48Z</time>
   </trkpt>
   <trkpt lat="37.6060800" lon="-0.7272890">
    <ele>3.8</ele>
    <time>2025-04-29T10:07:49Z</time>
   </trkpt>
   <trkpt lat="37.6060900" lon="-0.7272930">
    <ele>3.8</ele>
    <time>2025-04-29T10:07:50Z</time>
   </trkpt>
   <trkpt lat="37.6061030" lon="-0.7272940">
    <ele>3.9</ele>
    <time>2025-04-29T10:07:51Z</time>
   </trkpt>
   <trkpt lat="37.6061230" lon="-0.7272960">
    <ele>4.0</ele>
    <time>2025-04-29T10:07:52Z</time>
   </trkpt>
   <trkpt lat="37.6061370" lon="-0.7273030">
    <ele>4.0</ele>
    <time>2025-04-29T10:07:53Z</time>
   </trkpt>
   <trkpt lat="37.6061480" lon="-0.7273070">
    <ele>4.1</ele>
    <time>2025-04-29T10:07:54Z</time>
   </trkpt>
   <trkpt lat="37.6061590" lon="-0.7273140">
    <ele>4.1</ele>
    <time>2025-04-29T10:07:55Z</time>
   </trkpt>
   <trkpt lat="37.6061730" lon="-0.7273090">
    <ele>4.2</ele>
    <time>2025-04-29T10:07:56Z</time>
   </trkpt>
   <trkpt lat="37.6061840" lon="-0.7273090">
    <ele>4.2</ele>
    <time>2025-04-29T10:07:58Z</time>
   </trkpt>
   <trkpt lat="37.6061960" lon="-0.7273120">
    <ele>4.3</ele>
    <time>2025-04-29T10:07:59Z</time>
   </trkpt>
   <trkpt lat="37.6062090" lon="-0.7273070">
    <ele>4.3</ele>
    <time>2025-04-29T10:08:00Z</time>
   </trkpt>
   <trkpt lat="37.6062250" lon="-0.7273120">
    <ele>4.4</ele>
    <time>2025-04-29T10:08:01Z</time>
   </trkpt>
   <trkpt lat="37.6062360" lon="-0.7273160">
    <ele>4.4</ele>
    <time>2025-04-29T10:08:02Z</time>
   </trkpt>
   <trkpt lat="37.6062450" lon="-0.7273180">
    <ele>4.4</ele>
    <time>2025-04-29T10:08:03Z</time>
   </trkpt>
   <trkpt lat="37.6062540" lon="-0.7273160">
    <ele>4.5</ele>
    <time>2025-04-29T10:08:04Z</time>
   </trkpt>
   <trkpt lat="37.6062650" lon="-0.7273160">
    <ele>4.5</ele>
    <time>2025-04-29T10:08:05Z</time>
   </trkpt>
   <trkpt lat="37.6062780" lon="-0.7273220">
    <ele>4.6</ele>
    <time>2025-04-29T10:08:06Z</time>
   </trkpt>
   <trkpt lat="37.6062940" lon="-0.7273250">
    <ele>4.6</ele>
    <time>2025-04-29T10:08:07Z</time>
   </trkpt>
   <trkpt lat="37.6063050" lon="-0.7273230">
    <ele>4.7</ele>
    <time>2025-04-29T10:08:08Z</time>
   </trkpt>
   <trkpt lat="37.6063130" lon="-0.7273220">
    <ele>4.7</ele>
    <time>2025-04-29T10:08:09Z</time>
   </trkpt>
   <trkpt lat="37.6063220" lon="-0.7273190">
    <ele>4.7</ele>
    <time>2025-04-29T10:08:10Z</time>
   </trkpt>
   <trkpt lat="37.6063330" lon="-0.7273110">
    <ele>4.8</ele>
    <time>2025-04-29T10:08:11Z</time>
   </trkpt>
   <trkpt lat="37.6063370" lon="-0.7273030">
    <ele>4.8</ele>
    <time>2025-04-29T10:08:12Z</time>
   </trkpt>
   <trkpt lat="37.6063450" lon="-0.7273000">
    <ele>4.8</ele>
    <time>2025-04-29T10:08:13Z</time>
   </trkpt>
   <trkpt lat="37.6063460" lon="-0.7273030">
    <ele>4.9</ele>
    <time>2025-04-29T10:08:14Z</time>
   </trkpt>
   <trkpt lat="37.6063430" lon="-0.7273040">
    <ele>4.9</ele>
    <time>2025-04-29T10:08:15Z</time>
   </trkpt>
   <trkpt lat="37.6063430" lon="-0.7273030">
    <ele>4.9</ele>
    <time>2025-04-29T10:08:16Z</time>
   </trkpt>
   <trkpt lat="37.6063430" lon="-0.7273020">
    <ele>4.9</ele>
    <time>2025-04-29T10:08:17Z</time>
   </trkpt>
   <trkpt lat="37.6063410" lon="-0.7273010">
    <ele>4.9</ele>
    <time>2025-04-29T10:08:18Z</time>
   </trkpt>
   <trkpt lat="37.6063420" lon="-0.7272990">
    <ele>4.9</ele>
    <time>2025-04-29T10:08:19Z</time>
   </trkpt>
   <trkpt lat="37.6063420" lon="-0.7272990">
    <ele>4.9</ele>
    <time>2025-04-29T10:08:20Z</time>
   </trkpt>
   <trkpt lat="37.6063410" lon="-0.7272990">
    <ele>4.9</ele>
    <time>2025-04-29T10:08:21Z</time>
   </trkpt>
   <trkpt lat="37.6063430" lon="-0.7273030">
    <ele>4.9</ele>
    <time>2025-04-29T10:08:22Z</time>
   </trkpt>
   <trkpt lat="37.6063500" lon="-0.7273100">
    <ele>4.9</ele>
    <time>2025-04-29T10:08:23Z</time>
   </trkpt>
   <trkpt lat="37.6063560" lon="-0.7273200">
    <ele>5.0</ele>
    <time>2025-04-29T10:08:24Z</time>
   </trkpt>
   <trkpt lat="37.6063640" lon="-0.7273370">
    <ele>5.0</ele>
    <time>2025-04-29T10:08:25Z</time>
   </trkpt>
   <trkpt lat="37.6063710" lon="-0.7273510">
    <ele>5.1</ele>
    <time>2025-04-29T10:08:26Z</time>
   </trkpt>
   <trkpt lat="37.6063810" lon="-0.7273640">
    <ele>5.1</ele>
    <time>2025-04-29T10:08:27Z</time>
   </trkpt>
   <trkpt lat="37.6063890" lon="-0.7273710">
    <ele>5.2</ele>
    <time>2025-04-29T10:08:28Z</time>
   </trkpt>
   <trkpt lat="37.6063940" lon="-0.7273790">
    <ele>5.2</ele>
    <time>2025-04-29T10:08:29Z</time>
   </trkpt>
   <trkpt lat="37.6063990" lon="-0.7273930">
    <ele>5.2</ele>
    <time>2025-04-29T10:08:30Z</time>
   </trkpt>
   <trkpt lat="37.6064100" lon="-0.7274070">
    <ele>5.3</ele>
    <time>2025-04-29T10:08:31Z</time>
   </trkpt>
   <trkpt lat="37.6064170" lon="-0.7274200">
    <ele>5.3</ele>
    <time>2025-04-29T10:08:32Z</time>
   </trkpt>
   <trkpt lat="37.6064280" lon="-0.7274400">
    <ele>5.3</ele>
    <time>2025-04-29T10:08:33Z</time>
   </trkpt>
   <trkpt lat="37.6064350" lon="-0.7274520">
    <ele>5.3</ele>
    <time>2025-04-29T10:08:34Z</time>
   </trkpt>
   <trkpt lat="37.6064420" lon="-0.7274620">
    <ele>5.4</ele>
    <time>2025-04-29T10:08:35Z</time>
   </trkpt>
   <trkpt lat="37.6064480" lon="-0.7274740">
    <ele>5.4</ele>
    <time>2025-04-29T10:08:36Z</time>
   </trkpt>
   <trkpt lat="37.6064520" lon="-0.7274850">
    <ele>5.4</ele>
    <time>2025-04-29T10:08:37Z</time>
   </trkpt>
   <trkpt lat="37.6064570" lon="-0.7275030">
    <ele>5.4</ele>
    <time>2025-04-29T10:08:38Z</time>
   </trkpt>
   <trkpt lat="37.6064580" lon="-0.7275200">
    <ele>5.5</ele>
    <time>2025-04-29T10:08:39Z</time>
   </trkpt>
   <trkpt lat="37.6064570" lon="-0.7275360">
    <ele>5.5</ele>
    <time>2025-04-29T10:08:40Z</time>
   </trkpt>
   <trkpt lat="37.6064580" lon="-0.7275490">
    <ele>5.5</ele>
    <time>2025-04-29T10:08:41Z</time>
   </trkpt>
   <trkpt lat="37.6064590" lon="-0.7275640">
    <ele>5.5</ele>
    <time>2025-04-29T10:08:42Z</time>
   </trkpt>
   <trkpt lat="37.6064600" lon="-0.7275830">
    <ele>5.5</ele>
    <time>2025-04-29T10:08:43Z</time>
   </trkpt>
   <trkpt lat="37.6064610" lon="-0.7276000">
    <ele>5.6</ele>
    <time>2025-04-29T10:08:44Z</time>
   </trkpt>
   <trkpt lat="37.6064570" lon="-0.7276180">
    <ele>5.6</ele>
    <time>2025-04-29T10:08:45Z</time>
   </trkpt>
   <trkpt lat="37.6064550" lon="-0.7276350">
    <ele>5.6</ele>
    <time>2025-04-29T10:08:46Z</time>
   </trkpt>
   <trkpt lat="37.6064530" lon="-0.7276610">
    <ele>5.7</ele>
    <time>2025-04-29T10:08:47Z</time>
   </trkpt>
   <trkpt lat="37.6064530" lon="-0.7276730">
    <ele>5.7</ele>
    <time>2025-04-29T10:08:48Z</time>
   </trkpt>
   <trkpt lat="37.6064520" lon="-0.7276840">
    <ele>5.7</ele>
    <time>2025-04-29T10:08:49Z</time>
   </trkpt>
   <trkpt lat="37.6064410" lon="-0.7277030">
    <ele>5.7</ele>
    <time>2025-04-29T10:08:50Z</time>
   </trkpt>
   <trkpt lat="37.6064330" lon="-0.7277170">
    <ele>5.8</ele>
    <time>2025-04-29T10:08:51Z</time>
   </trkpt>
   <trkpt lat="37.6064220" lon="-0.7277310">
    <ele>5.8</ele>
    <time>2025-04-29T10:08:52Z</time>
   </trkpt>
   <trkpt lat="37.6064110" lon="-0.7277420">
    <ele>5.8</ele>
    <time>2025-04-29T10:08:53Z</time>
   </trkpt>
   <trkpt lat="37.6064040" lon="-0.7277510">
    <ele>5.9</ele>
    <time>2025-04-29T10:08:54Z</time>
   </trkpt>
   <trkpt lat="37.6063980" lon="-0.7277660">
    <ele>5.9</ele>
    <time>2025-04-29T10:08:55Z</time>
   </trkpt>
   <trkpt lat="37.6063890" lon="-0.7277740">
    <ele>5.9</ele>
    <time>2025-04-29T10:08:56Z</time>
   </trkpt>
   <trkpt lat="37.6063730" lon="-0.7277800">
    <ele>6.0</ele>
    <time>2025-04-29T10:08:57Z</time>
   </trkpt>
   <trkpt lat="37.6063600" lon="-0.7277940">
    <ele>6.0</ele>
    <time>2025-04-29T10:08:58Z</time>
   </trkpt>
   <trkpt lat="37.6063510" lon="-0.7278070">
    <ele>6.0</ele>
    <time>2025-04-29T10:08:59Z</time>
   </trkpt>
   <trkpt lat="37.6063390" lon="-0.7278200">
    <ele>6.1</ele>
    <time>2025-04-29T10:09:00Z</time>
   </trkpt>
   <trkpt lat="37.6063290" lon="-0.7278270">
    <ele>6.1</ele>
    <time>2025-04-29T10:09:01Z</time>
   </trkpt>
   <trkpt lat="37.6063240" lon="-0.7278380">
    <ele>6.1</ele>
    <time>2025-04-29T10:09:02Z</time>
   </trkpt>
   <trkpt lat="37.6063120" lon="-0.7278500">
    <ele>6.2</ele>
    <time>2025-04-29T10:09:03Z</time>
   </trkpt>
   <trkpt lat="37.6062990" lon="-0.7278600">
    <ele>6.2</ele>
    <time>2025-04-29T10:09:04Z</time>
   </trkpt>
   <trkpt lat="37.6062870" lon="-0.7278700">
    <ele>6.2</ele>
    <time>2025-04-29T10:09:05Z</time>
   </trkpt>
   <trkpt lat="37.6062760" lon="-0.7278790">
    <ele>6.3</ele>
    <time>2025-04-29T10:09:06Z</time>
   </trkpt>
   <trkpt lat="37.6062710" lon="-0.7278850">
    <ele>6.3</ele>
    <time>2025-04-29T10:09:07Z</time>
   </trkpt>
   <trkpt lat="37.6062580" lon="-0.7278960">
    <ele>6.3</ele>
    <time>2025-04-29T10:09:08Z</time>
   </trkpt>
   <trkpt lat="37.6062460" lon="-0.7279110">
    <ele>6.3</ele>
    <time>2025-04-29T10:09:09Z</time>
   </trkpt>
   <trkpt lat="37.6062370" lon="-0.7279220">
    <ele>6.3</ele>
    <time>2025-04-29T10:09:10Z</time>
   </trkpt>
   <trkpt lat="37.6062270" lon="-0.7279380">
    <ele>6.3</ele>
    <time>2025-04-29T10:09:11Z</time>
   </trkpt>
   <trkpt lat="37.6062190" lon="-0.7279510">
    <ele>6.3</ele>
    <time>2025-04-29T10:09:12Z</time>
   </trkpt>
   <trkpt lat="37.6062130" lon="-0.7279610">
    <ele>6.3</ele>
    <time>2025-04-29T10:09:13Z</time>
   </trkpt>
   <trkpt lat="37.6062080" lon="-0.7279720">
    <ele>6.3</ele>
    <time>2025-04-29T10:09:14Z</time>
   </trkpt>
   <trkpt lat="37.6062030" lon="-0.7279820">
    <ele>6.3</ele>
    <time>2025-04-29T10:09:15Z</time>
   </trkpt>
   <trkpt lat="37.6061900" lon="-0.7280000">
    <ele>6.3</ele>
    <time>2025-04-29T10:09:16Z</time>
   </trkpt>
   <trkpt lat="37.6061840" lon="-0.7280150">
    <ele>6.3</ele>
    <time>2025-04-29T10:09:17Z</time>
   </trkpt>
   <trkpt lat="37.6061790" lon="-0.7280300">
    <ele>6.3</ele>
    <time>2025-04-29T10:09:18Z</time>
   </trkpt>
   <trkpt lat="37.6061760" lon="-0.7280430">
    <ele>6.3</ele>
    <time>2025-04-29T10:09:19Z</time>
   </trkpt>
   <trkpt lat="37.6061680" lon="-0.7280520">
    <ele>6.3</ele>
    <time>2025-04-29T10:09:20Z</time>
   </trkpt>
   <trkpt lat="37.6061690" lon="-0.7280700">
    <ele>6.3</ele>
    <time>2025-04-29T10:09:21Z</time>
   </trkpt>
   <trkpt lat="37.6061600" lon="-0.7280880">
    <ele>6.3</ele>
    <time>2025-04-29T10:09:22Z</time>
   </trkpt>
   <trkpt lat="37.6061490" lon="-0.7281020">
    <ele>6.3</ele>
    <time>2025-04-29T10:09:23Z</time>
   </trkpt>
   <trkpt lat="37.6061440" lon="-0.7281150">
    <ele>6.3</ele>
    <time>2025-04-29T10:09:24Z</time>
   </trkpt>
   <trkpt lat="37.6061420" lon="-0.7281270">
    <ele>6.3</ele>
    <time>2025-04-29T10:09:25Z</time>
   </trkpt>
   <trkpt lat="37.6061350" lon="-0.7281480">
    <ele>6.3</ele>
    <time>2025-04-29T10:09:26Z</time>
   </trkpt>
   <trkpt lat="37.6061300" lon="-0.7281590">
    <ele>6.3</ele>
    <time>2025-04-29T10:09:27Z</time>
   </trkpt>
   <trkpt lat="37.6061250" lon="-0.7281710">
    <ele>6.3</ele>
    <time>2025-04-29T10:09:28Z</time>
   </trkpt>
   <trkpt lat="37.6061190" lon="-0.7281840">
    <ele>6.3</ele>
    <time>2025-04-29T10:09:29Z</time>
   </trkpt>
   <trkpt lat="37.6061150" lon="-0.7281980">
    <ele>6.3</ele>
    <time>2025-04-29T10:09:30Z</time>
   </trkpt>
   <trkpt lat="37.6061170" lon="-0.7282070">
    <ele>6.3</ele>
    <time>2025-04-29T10:09:31Z</time>
   </trkpt>
   <trkpt lat="37.6061100" lon="-0.7282330">
    <ele>6.4</ele>
    <time>2025-04-29T10:09:32Z</time>
   </trkpt>
   <trkpt lat="37.6061090" lon="-0.7282460">
    <ele>6.4</ele>
    <time>2025-04-29T10:09:33Z</time>
   </trkpt>
   <trkpt lat="37.6061070" lon="-0.7282580">
    <ele>6.4</ele>
    <time>2025-04-29T10:09:34Z</time>
   </trkpt>
   <trkpt lat="37.6061040" lon="-0.7282750">
    <ele>6.4</ele>
    <time>2025-04-29T10:09:35Z</time>
   </trkpt>
   <trkpt lat="37.6061030" lon="-0.7282890">
    <ele>6.4</ele>
    <time>2025-04-29T10:09:36Z</time>
   </trkpt>
   <trkpt lat="37.6061020" lon="-0.7282980">
    <ele>6.4</ele>
    <time>2025-04-29T10:09:37Z</time>
   </trkpt>
   <trkpt lat="37.6061010" lon="-0.7283270">
    <ele>6.4</ele>
    <time>2025-04-29T10:09:38Z</time>
   </trkpt>
   <trkpt lat="37.6061000" lon="-0.7283380">
    <ele>6.4</ele>
    <time>2025-04-29T10:09:39Z</time>
   </trkpt>
   <trkpt lat="37.6060990" lon="-0.7283490">
    <ele>6.4</ele>
    <time>2025-04-29T10:09:40Z</time>
   </trkpt>
   <trkpt lat="37.6060980" lon="-0.7283670">
    <ele>6.4</ele>
    <time>2025-04-29T10:09:41Z</time>
   </trkpt>
   <trkpt lat="37.6060990" lon="-0.7283810">
    <ele>6.4</ele>
    <time>2025-04-29T10:09:42Z</time>
   </trkpt>
   <trkpt lat="37.6061000" lon="-0.7283940">
    <ele>6.4</ele>
    <time>2025-04-29T10:09:43Z</time>
   </trkpt>
   <trkpt lat="37.6060990" lon="-0.7284070">
    <ele>6.5</ele>
    <time>2025-04-29T10:09:44Z</time>
   </trkpt>
   <trkpt lat="37.6060930" lon="-0.7284180">
    <ele>6.5</ele>
    <time>2025-04-29T10:09:45Z</time>
   </trkpt>
   <trkpt lat="37.6060900" lon="-0.7284230">
    <ele>6.5</ele>
    <time>2025-04-29T10:09:46Z</time>
   </trkpt>
   <trkpt lat="37.6060850" lon="-0.7284260">
    <ele>6.5</ele>
    <time>2025-04-29T10:09:47Z</time>
   </trkpt>
   <trkpt lat="37.6060840" lon="-0.7284280">
    <ele>6.5</ele>
    <time>2025-04-29T10:09:48Z</time>
   </trkpt>
   <trkpt lat="37.6060850" lon="-0.7284270">
    <ele>6.5</ele>
    <time>2025-04-29T10:09:49Z</time>
   </trkpt>
   <trkpt lat="37.6060850" lon="-0.7284260">
    <ele>6.5</ele>
    <time>2025-04-29T10:09:50Z</time>
   </trkpt>
   <trkpt lat="37.6060850" lon="-0.7284260">
    <ele>6.5</ele>
    <time>2025-04-29T10:09:51Z</time>
   </trkpt>
   <trkpt lat="37.6060830" lon="-0.7284260">
    <ele>6.5</ele>
    <time>2025-04-29T10:09:52Z</time>
   </trkpt>
   <trkpt lat="37.6060820" lon="-0.7284260">
    <ele>6.5</ele>
    <time>2025-04-29T10:09:53Z</time>
   </trkpt>
   <trkpt lat="37.6060820" lon="-0.7284260">
    <ele>6.5</ele>
    <time>2025-04-29T10:09:54Z</time>
   </trkpt>
   <trkpt lat="37.6060820" lon="-0.7284260">
    <ele>6.5</ele>
    <time>2025-04-29T10:09:55Z</time>
   </trkpt>
   <trkpt lat="37.6060820" lon="-0.7284260">
    <ele>6.5</ele>
    <time>2025-04-29T10:09:56Z</time>
   </trkpt>
   <trkpt lat="37.6060790" lon="-0.7284270">
    <ele>6.5</ele>
    <time>2025-04-29T10:09:57Z</time>
   </trkpt>
   <trkpt lat="37.6060770" lon="-0.7284270">
    <ele>6.5</ele>
    <time>2025-04-29T10:09:58Z</time>
   </trkpt>
   <trkpt lat="37.6060790" lon="-0.7284250">
    <ele>6.5</ele>
    <time>2025-04-29T10:09:59Z</time>
   </trkpt>
   <trkpt lat="37.6060790" lon="-0.7284250">
    <ele>6.5</ele>
    <time>2025-04-29T10:10:00Z</time>
   </trkpt>
   <trkpt lat="37.6060800" lon="-0.7284250">
    <ele>6.5</ele>
    <time>2025-04-29T10:10:01Z</time>
   </trkpt>
   <trkpt lat="37.6060810" lon="-0.7284250">
    <ele>6.5</ele>
    <time>2025-04-29T10:10:02Z</time>
   </trkpt>
   <trkpt lat="37.6060800" lon="-0.7284250">
    <ele>6.5</ele>
    <time>2025-04-29T10:10:03Z</time>
   </trkpt>
   <trkpt lat="37.6060800" lon="-0.7284250">
    <ele>6.5</ele>
    <time>2025-04-29T10:10:04Z</time>
   </trkpt>
   <trkpt lat="37.6060810" lon="-0.7284250">
    <ele>6.5</ele>
    <time>2025-04-29T10:10:05Z</time>
   </trkpt>
   <trkpt lat="37.6060810" lon="-0.7284250">
    <ele>6.5</ele>
    <time>2025-04-29T10:10:06Z</time>
   </trkpt>
   <trkpt lat="37.6060790" lon="-0.7284250">
    <ele>6.5</ele>
    <time>2025-04-29T10:10:07Z</time>
   </trkpt>
   <trkpt lat="37.6060780" lon="-0.7284250">
    <ele>6.5</ele>
    <time>2025-04-29T10:10:08Z</time>
   </trkpt>
   <trkpt lat="37.6060790" lon="-0.7284240">
    <ele>6.5</ele>
    <time>2025-04-29T10:10:09Z</time>
   </trkpt>
   <trkpt lat="37.6060790" lon="-0.7284240">
    <ele>6.5</ele>
    <time>2025-04-29T10:10:10Z</time>
   </trkpt>
   <trkpt lat="37.6060790" lon="-0.7284240">
    <ele>6.5</ele>
    <time>2025-04-29T10:10:11Z</time>
   </trkpt>
   <trkpt lat="37.6060790" lon="-0.7284240">
    <ele>6.5</ele>
    <time>2025-04-29T10:10:12Z</time>
   </trkpt>
   <trkpt lat="37.6060790" lon="-0.7284240">
    <ele>6.5</ele>
    <time>2025-04-29T10:10:13Z</time>
   </trkpt>
   <trkpt lat="37.6060780" lon="-0.7284250">
    <ele>6.5</ele>
    <time>2025-04-29T10:10:14Z</time>
   </trkpt>
   <trkpt lat="37.6060790" lon="-0.7284250">
    <ele>6.5</ele>
    <time>2025-04-29T10:10:15Z</time>
   </trkpt>
   <trkpt lat="37.6060800" lon="-0.7284250">
    <ele>6.5</ele>
    <time>2025-04-29T10:10:16Z</time>
   </trkpt>
   <trkpt lat="37.6060790" lon="-0.7284240">
    <ele>6.5</ele>
    <time>2025-04-29T10:10:17Z</time>
   </trkpt>
   <trkpt lat="37.6060760" lon="-0.7284300">
    <ele>6.5</ele>
    <time>2025-04-29T10:10:18Z</time>
   </trkpt>
   <trkpt lat="37.6060740" lon="-0.7284370">
    <ele>6.5</ele>
    <time>2025-04-29T10:10:19Z</time>
   </trkpt>
   <trkpt lat="37.6060640" lon="-0.7284560">
    <ele>6.5</ele>
    <time>2025-04-29T10:10:20Z</time>
   </trkpt>
   <trkpt lat="37.6060590" lon="-0.7284720">
    <ele>6.5</ele>
    <time>2025-04-29T10:10:21Z</time>
   </trkpt>
   <trkpt lat="37.6060490" lon="-0.7284900">
    <ele>6.5</ele>
    <time>2025-04-29T10:10:22Z</time>
   </trkpt>
   <trkpt lat="37.6060410" lon="-0.7285030">
    <ele>6.5</ele>
    <time>2025-04-29T10:10:23Z</time>
   </trkpt>
   <trkpt lat="37.6060330" lon="-0.7285150">
    <ele>6.4</ele>
    <time>2025-04-29T10:10:24Z</time>
   </trkpt>
   <trkpt lat="37.6060280" lon="-0.7285260">
    <ele>6.4</ele>
    <time>2025-04-29T10:10:25Z</time>
   </trkpt>
   <trkpt lat="37.6060130" lon="-0.7285480">
    <ele>6.3</ele>
    <time>2025-04-29T10:10:26Z</time>
   </trkpt>
   <trkpt lat="37.6060060" lon="-0.7285550">
    <ele>6.3</ele>
    <time>2025-04-29T10:10:27Z</time>
   </trkpt>
   <trkpt lat="37.6059990" lon="-0.7285620">
    <ele>6.3</ele>
    <time>2025-04-29T10:10:28Z</time>
   </trkpt>
   <trkpt lat="37.6059860" lon="-0.7285720">
    <ele>6.2</ele>
    <time>2025-04-29T10:10:29Z</time>
   </trkpt>
   <trkpt lat="37.6059750" lon="-0.7285780">
    <ele>6.2</ele>
    <time>2025-04-29T10:10:30Z</time>
   </trkpt>
   <trkpt lat="37.6059730" lon="-0.7285790">
    <ele>6.2</ele>
    <time>2025-04-29T10:10:31Z</time>
   </trkpt>
   <trkpt lat="37.6059540" lon="-0.7285910">
    <ele>6.1</ele>
    <time>2025-04-29T10:10:32Z</time>
   </trkpt>
   <trkpt lat="37.6059440" lon="-0.7285960">
    <ele>6.1</ele>
    <time>2025-04-29T10:10:33Z</time>
   </trkpt>
   <trkpt lat="37.6059350" lon="-0.7286000">
    <ele>6.0</ele>
    <time>2025-04-29T10:10:34Z</time>
   </trkpt>
   <trkpt lat="37.6059190" lon="-0.7286040">
    <ele>6.0</ele>
    <time>2025-04-29T10:10:35Z</time>
   </trkpt>
   <trkpt lat="37.6059060" lon="-0.7286090">
    <ele>5.9</ele>
    <time>2025-04-29T10:10:36Z</time>
   </trkpt>
   <trkpt lat="37.6058920" lon="-0.7286140">
    <ele>5.9</ele>
    <time>2025-04-29T10:10:37Z</time>
   </trkpt>
   <trkpt lat="37.6058780" lon="-0.7286140">
    <ele>5.8</ele>
    <time>2025-04-29T10:10:38Z</time>
   </trkpt>
   <trkpt lat="37.6058660" lon="-0.7286170">
    <ele>5.8</ele>
    <time>2025-04-29T10:10:39Z</time>
   </trkpt>
   <trkpt lat="37.6058540" lon="-0.7286180">
    <ele>5.8</ele>
    <time>2025-04-29T10:10:40Z</time>
   </trkpt>
   <trkpt lat="37.6058430" lon="-0.7286200">
    <ele>5.7</ele>
    <time>2025-04-29T10:10:41Z</time>
   </trkpt>
   <trkpt lat="37.6058320" lon="-0.7286170">
    <ele>5.7</ele>
    <time>2025-04-29T10:10:42Z</time>
   </trkpt>
   <trkpt lat="37.6058200" lon="-0.7286130">
    <ele>5.7</ele>
    <time>2025-04-29T10:10:43Z</time>
   </trkpt>
   <trkpt lat="37.6058120" lon="-0.7286120">
    <ele>5.6</ele>
    <time>2025-04-29T10:10:44Z</time>
   </trkpt>
   <trkpt lat="37.6058030" lon="-0.7286130">
    <ele>5.6</ele>
    <time>2025-04-29T10:10:45Z</time>
   </trkpt>
   <trkpt lat="37.6057920" lon="-0.7286090">
    <ele>5.6</ele>
    <time>2025-04-29T10:10:46Z</time>
   </trkpt>
   <trkpt lat="37.6057780" lon="-0.7286050">
    <ele>5.5</ele>
    <time>2025-04-29T10:10:47Z</time>
   </trkpt>
   <trkpt lat="37.6057640" lon="-0.7286030">
    <ele>5.5</ele>
    <time>2025-04-29T10:10:48Z</time>
   </trkpt>
   <trkpt lat="37.6057480" lon="-0.7286040">
    <ele>5.4</ele>
    <time>2025-04-29T10:10:49Z</time>
   </trkpt>
   <trkpt lat="37.6057360" lon="-0.7286000">
    <ele>5.4</ele>
    <time>2025-04-29T10:10:50Z</time>
   </trkpt>
   <trkpt lat="37.6057240" lon="-0.7285980">
    <ele>5.4</ele>
    <time>2025-04-29T10:10:51Z</time>
   </trkpt>
   <trkpt lat="37.6057140" lon="-0.7285950">
    <ele>5.3</ele>
    <time>2025-04-29T10:10:52Z</time>
   </trkpt>
   <trkpt lat="37.6057010" lon="-0.7285940">
    <ele>5.3</ele>
    <time>2025-04-29T10:10:53Z</time>
   </trkpt>
   <trkpt lat="37.6056930" lon="-0.7285870">
    <ele>5.3</ele>
    <time>2025-04-29T10:10:54Z</time>
   </trkpt>
   <trkpt lat="37.6056830" lon="-0.7285810">
    <ele>5.2</ele>
    <time>2025-04-29T10:10:55Z</time>
   </trkpt>
   <trkpt lat="37.6056640" lon="-0.7285720">
    <ele>5.2</ele>
    <time>2025-04-29T10:10:56Z</time>
   </trkpt>
   <trkpt lat="37.6056560" lon="-0.7285670">
    <ele>5.2</ele>
    <time>2025-04-29T10:10:57Z</time>
   </trkpt>
   <trkpt lat="37.6056490" lon="-0.7285630">
    <ele>5.1</ele>
    <time>2025-04-29T10:10:58Z</time>
   </trkpt>
   <trkpt lat="37.6056270" lon="-0.7285580">
    <ele>5.1</ele>
    <time>2025-04-29T10:10:59Z</time>
   </trkpt>
   <trkpt lat="37.6056190" lon="-0.7285550">
    <ele>5.1</ele>
    <time>2025-04-29T10:11:00Z</time>
   </trkpt>
   <trkpt lat="37.6056110" lon="-0.7285520">
    <ele>5.0</ele>
    <time>2025-04-29T10:11:01Z</time>
   </trkpt>
   <trkpt lat="37.6055990" lon="-0.7285470">
    <ele>5.0</ele>
    <time>2025-04-29T10:11:02Z</time>
   </trkpt>
   <trkpt lat="37.6055890" lon="-0.7285450">
    <ele>5.0</ele>
    <time>2025-04-29T10:11:03Z</time>
   </trkpt>
   <trkpt lat="37.6055800" lon="-0.7285430">
    <ele>4.9</ele>
    <time>2025-04-29T10:11:04Z</time>
   </trkpt>
   <trkpt lat="37.6055590" lon="-0.7285460">
    <ele>4.9</ele>
    <time>2025-04-29T10:11:05Z</time>
   </trkpt>
   <trkpt lat="37.6055500" lon="-0.7285450">
    <ele>4.9</ele>
    <time>2025-04-29T10:11:06Z</time>
   </trkpt>
   <trkpt lat="37.6055420" lon="-0.7285430">
    <ele>4.9</ele>
    <time>2025-04-29T10:11:07Z</time>
   </trkpt>
   <trkpt lat="37.6055300" lon="-0.7285410">
    <ele>4.8</ele>
    <time>2025-04-29T10:11:08Z</time>
   </trkpt>
   <trkpt lat="37.6055200" lon="-0.7285410">
    <ele>4.8</ele>
    <time>2025-04-29T10:11:09Z</time>
   </trkpt>
   <trkpt lat="37.6055070" lon="-0.7285410">
    <ele>4.8</ele>
    <time>2025-04-29T10:11:10Z</time>
   </trkpt>
   <trkpt lat="37.6054950" lon="-0.7285440">
    <ele>4.7</ele>
    <time>2025-04-29T10:11:11Z</time>
   </trkpt>
   <trkpt lat="37.6054860" lon="-0.7285450">
    <ele>4.7</ele>
    <time>2025-04-29T10:11:12Z</time>
   </trkpt>
   <trkpt lat="37.6054720" lon="-0.7285410">
    <ele>4.7</ele>
    <time>2025-04-29T10:11:13Z</time>
   </trkpt>
   <trkpt lat="37.6054590" lon="-0.7285310">
    <ele>4.6</ele>
    <time>2025-04-29T10:11:14Z</time>
   </trkpt>
   <trkpt lat="37.6054440" lon="-0.7285250">
    <ele>4.6</ele>
    <time>2025-04-29T10:11:15Z</time>
   </trkpt>
   <trkpt lat="37.6054330" lon="-0.7285270">
    <ele>4.6</ele>
    <time>2025-04-29T10:11:16Z</time>
   </trkpt>
   <trkpt lat="37.6054250" lon="-0.7285310">
    <ele>4.6</ele>
    <time>2025-04-29T10:11:17Z</time>
   </trkpt>
   <trkpt lat="37.6054140" lon="-0.7285260">
    <ele>4.5</ele>
    <time>2025-04-29T10:11:18Z</time>
   </trkpt>
   <trkpt lat="37.6054040" lon="-0.7285220">
    <ele>4.5</ele>
    <time>2025-04-29T10:11:19Z</time>
   </trkpt>
   <trkpt lat="37.6054080" lon="-0.7285240">
    <ele>4.5</ele>
    <time>2025-04-29T10:11:20Z</time>
   </trkpt>
   <trkpt lat="37.6054070" lon="-0.7285260">
    <ele>4.5</ele>
    <time>2025-04-29T10:11:21Z</time>
   </trkpt>
   <trkpt lat="37.6054060" lon="-0.7285260">
    <ele>4.5</ele>
    <time>2025-04-29T10:11:22Z</time>
   </trkpt>
   <trkpt lat="37.6054060" lon="-0.7285270">
    <ele>4.5</ele>
    <time>2025-04-29T10:11:23Z</time>
   </trkpt>
   <trkpt lat="37.6054030" lon="-0.7285260">
    <ele>4.5</ele>
    <time>2025-04-29T10:11:24Z</time>
   </trkpt>
   <trkpt lat="37.6054020" lon="-0.7285240">
    <ele>4.5</ele>
    <time>2025-04-29T10:11:25Z</time>
   </trkpt>
   <trkpt lat="37.6054000" lon="-0.7285200">
    <ele>4.5</ele>
    <time>2025-04-29T10:11:26Z</time>
   </trkpt>
   <trkpt lat="37.6053970" lon="-0.7285210">
    <ele>4.5</ele>
    <time>2025-04-29T10:11:27Z</time>
   </trkpt>
   <trkpt lat="37.6053980" lon="-0.7285230">
    <ele>4.5</ele>
    <time>2025-04-29T10:11:28Z</time>
   </trkpt>
   <trkpt lat="37.6053900" lon="-0.7285220">
    <ele>4.4</ele>
    <time>2025-04-29T10:11:29Z</time>
   </trkpt>
   <trkpt lat="37.6053910" lon="-0.7285210">
    <ele>4.4</ele>
    <time>2025-04-29T10:11:30Z</time>
   </trkpt>
   <trkpt lat="37.6053900" lon="-0.7285220">
    <ele>4.4</ele>
    <time>2025-04-29T10:11:31Z</time>
   </trkpt>
   <trkpt lat="37.6053930" lon="-0.7285200">
    <ele>4.4</ele>
    <time>2025-04-29T10:11:32Z</time>
   </trkpt>
   <trkpt lat="37.6053940" lon="-0.7285200">
    <ele>4.4</ele>
    <time>2025-04-29T10:11:33Z</time>
   </trkpt>
  </trkseg>
 </trk>
</gpx>
