<?xml version="1.0" encoding="UTF-8" standalone="no" ?>
<gpx xmlns="http://www.topografix.com/GPX/1/1" xmlns:gpxx="http://www.garmin.com/xmlschemas/GpxExtensions/v3" xmlns:gpxtpx="http://www.garmin.com/xmlschemas/TrackPointExtension/v1" creator="mapstogpx.com" version="1.1" xmlns:xsi="http://www.w3.org/2001/XMLSchema-instance" xsi:schemaLocation="http://www.topografix.com/GPX/1/1 http://www.topografix.com/GPX/1/1/gpx.xsd http://www.garmin.com/xmlschemas/GpxExtensions/v3 http://www.garmin.com/xmlschemas/GpxExtensionsv3.xsd http://www.garmin.com/xmlschemas/TrackPointExtension/v1 http://www.garmin.com/xmlschemas/TrackPointExtensionv1.xsd">
  <metadata>
    <link href="http://www.mapstogpx.com">
      <text>Sverrir Sigmundarson</text>
    </link>
    <!--desc>Powered by Google, ©2025 Google</desc-->
    <!--copyright author="Google Inc">
    	<year>2025</year>
    	<license>https://developers.google.com/maps/terms</license>
    </copyright-->
    <!--url>https://www.google.com/maps/dir/SL%C3%84TTAR%C3%85SBACKEN+20,+439+63+Frilles%C3%A5s,+Sweden/57.3170192,12.1533263/Coop+Konsum+Frilles%C3%A5s/57.3257149,12.2464032/@57.3287679,12.2226495,6174m/data=!3m1!1e3!4m16!4m15!1m5!1m1!1s0x464fdf2c00742b5f:0x7ffdbba8a8168c1e!2m2!1d12.2463355!2d57.3254102!1m0!1m5!1m1!1s0x464fd9003ba4540f:0xda1e0ed0eef68cac!2m2!1d12.174941!2d57.317548!1m0!3e0?entry=tts&g_ep=EgoyMDI1MDgzMC4wKgBIAVAD&skid=af524f8f-e836-43e0-8eae-245937edf44c&hl=en</url-->
    <time>2025-09-10T13:28:10Z</time>
  </metadata>
  <wpt lat="57.3254102" lon="12.2463355">
    <name>SLÄTTARÅSBACKEN 20</name>
    <desc>SLÄTTARÅSBACKEN 20, 439 63 Frillesås, Sweden</desc>
  </wpt>
  <wpt lat="57.3170192" lon="12.1533263">
    <name>439 61 Frillesås</name>
    <desc>Espenäsvägen, 439 61 Frillesås, Sweden</desc>
  </wpt>
  <wpt lat="57.317548" lon="12.174941">
    <name>Coop Konsum Frillesås</name>
    <desc>Coop Konsum Frillesås, Karl Johans väg 10, 439 62 Frillesås, Sweden</desc>
  </wpt>
  <wpt lat="57.3257149" lon="12.2464032">
    <name>439 63</name>
    <desc>Frillesås, 439 63, Sweden</desc>
  </wpt>
<trk>
  <name>July 27 2025 3 driving</name>
  <number>1</number>
  <trkseg>
  <trkpt lat="57.3255716" lon="12.2463023">
    <name>TP001</name>
  </trkpt>
  <trkpt lat="57.32589" lon="12.24639">
    <name>TP002</name>
  </trkpt>
  <trkpt lat="57.32595" lon="12.24641">
    <name>TP003</name>
  </trkpt>
  <trkpt lat="57.32606" lon="12.24633">
    <name>TP004</name>
  </trkpt>
  <trkpt lat="57.32623" lon="12.24621">
    <name>TP005</name>
  </trkpt>
  <trkpt lat="57.3263" lon="12.24617">
    <name>TP006</name>
  </trkpt>
  <trkpt lat="57.3263" lon="12.24616">
    <name>TP007</name>
  </trkpt>
  <trkpt lat="57.3265" lon="12.24615">
    <name>TP008</name>
  </trkpt>
  <trkpt lat="57.32661" lon="12.2463">
    <name>TP009</name>
  </trkpt>
  <trkpt lat="57.32668" lon="12.24664">
    <name>TP010</name>
  </trkpt>
  <trkpt lat="57.32673" lon="12.24696">
    <name>TP011</name>
  </trkpt>
  <trkpt lat="57.32679" lon="12.24728">
    <name>TP012</name>
  </trkpt>
  <trkpt lat="57.3269" lon="12.24791">
    <name>TP013</name>
  </trkpt>
  <trkpt lat="57.3269041" lon="12.2479086">
    <name>TP014</name>
  </trkpt>
  <trkpt lat="57.32691" lon="12.2479">
    <name>TP015</name>
  </trkpt>
  <trkpt lat="57.32695" lon="12.24784">
    <name>TP016</name>
  </trkpt>
  <trkpt lat="57.32698" lon="12.24784">
    <name>TP017</name>
  </trkpt>
  <trkpt lat="57.32703" lon="12.24783">
    <name>TP018</name>
  </trkpt>
  <trkpt lat="57.32723" lon="12.24776">
    <name>TP019</name>
  </trkpt>
  <trkpt lat="57.32725" lon="12.24775">
    <name>TP020</name>
  </trkpt>
  <trkpt lat="57.32733" lon="12.24769">
    <name>TP021</name>
  </trkpt>
  <trkpt lat="57.32733" lon="12.24768">
    <name>TP022</name>
  </trkpt>
  <trkpt lat="57.3275" lon="12.24755">
    <name>TP023</name>
  </trkpt>
  <trkpt lat="57.32758" lon="12.24748">
    <name>TP024</name>
  </trkpt>
  <trkpt lat="57.32766" lon="12.24741">
    <name>TP025</name>
  </trkpt>
  <trkpt lat="57.32767" lon="12.2474">
    <name>TP026</name>
  </trkpt>
  <trkpt lat="57.32774" lon="12.24736">
    <name>TP027</name>
  </trkpt>
  <trkpt lat="57.32779" lon="12.24733">
    <name>TP028</name>
  </trkpt>
  <trkpt lat="57.32783" lon="12.24731">
    <name>TP029</name>
  </trkpt>
  <trkpt lat="57.32791" lon="12.24726">
    <name>TP030</name>
  </trkpt>
  <trkpt lat="57.32792" lon="12.24726">
    <name>TP031</name>
  </trkpt>
  <trkpt lat="57.32819" lon="12.24713">
    <name>TP032</name>
  </trkpt>
  <trkpt lat="57.32834" lon="12.247">
    <name>TP033</name>
  </trkpt>
  <trkpt lat="57.32842" lon="12.24693">
    <name>TP034</name>
  </trkpt>
  <trkpt lat="57.32858" lon="12.2468">
    <name>TP035</name>
  </trkpt>
  <trkpt lat="57.32859" lon="12.2468">
    <name>TP036</name>
  </trkpt>
  <trkpt lat="57.32867" lon="12.24673">
    <name>TP037</name>
  </trkpt>
  <trkpt lat="57.32884" lon="12.24659">
    <name>TP038</name>
  </trkpt>
  <trkpt lat="57.32892" lon="12.24652">
    <name>TP039</name>
  </trkpt>
  <trkpt lat="57.32905" lon="12.24641">
    <name>TP040</name>
  </trkpt>
  <trkpt lat="57.32938" lon="12.24614">
    <name>TP041</name>
  </trkpt>
  <trkpt lat="57.32941" lon="12.24612">
    <name>TP042</name>
  </trkpt>
  <trkpt lat="57.32949" lon="12.24605">
    <name>TP043</name>
  </trkpt>
  <trkpt lat="57.32956" lon="12.246">
    <name>TP044</name>
  </trkpt>
  <trkpt lat="57.32963" lon="12.24591">
    <name>TP045</name>
  </trkpt>
  <trkpt lat="57.32967" lon="12.2458">
    <name>TP046</name>
  </trkpt>
  <trkpt lat="57.32972" lon="12.24561">
    <name>TP047</name>
  </trkpt>
  <trkpt lat="57.32977" lon="12.24536">
    <name>TP048</name>
  </trkpt>
  <trkpt lat="57.3298" lon="12.24527">
    <name>TP049</name>
  </trkpt>
  <trkpt lat="57.3298" lon="12.24526">
    <name>TP050</name>
  </trkpt>
  <trkpt lat="57.32984" lon="12.24518">
    <name>TP051</name>
  </trkpt>
  <trkpt lat="57.32986" lon="12.24516">
    <name>TP052</name>
  </trkpt>
  <trkpt lat="57.32987" lon="12.24514">
    <name>TP053</name>
  </trkpt>
  <trkpt lat="57.32994" lon="12.2451">
    <name>TP054</name>
  </trkpt>
  <trkpt lat="57.33001" lon="12.24506">
    <name>TP055</name>
  </trkpt>
  <trkpt lat="57.33003" lon="12.24505">
    <name>TP056</name>
  </trkpt>
  <trkpt lat="57.33012" lon="12.24503">
    <name>TP057</name>
  </trkpt>
  <trkpt lat="57.33015" lon="12.24503">
    <name>TP058</name>
  </trkpt>
  <trkpt lat="57.33028" lon="12.24505">
    <name>TP059</name>
  </trkpt>
  <trkpt lat="57.3303" lon="12.24506">
    <name>TP060</name>
  </trkpt>
  <trkpt lat="57.33038" lon="12.24506">
    <name>TP061</name>
  </trkpt>
  <trkpt lat="57.33039" lon="12.24506">
    <name>TP062</name>
  </trkpt>
  <trkpt lat="57.33049" lon="12.24504">
    <name>TP063</name>
  </trkpt>
  <trkpt lat="57.33056" lon="12.24502">
    <name>TP064</name>
  </trkpt>
  <trkpt lat="57.33064" lon="12.24496">
    <name>TP065</name>
  </trkpt>
  <trkpt lat="57.33073" lon="12.24488">
    <name>TP066</name>
  </trkpt>
  <trkpt lat="57.33082" lon="12.24478">
    <name>TP067</name>
  </trkpt>
  <trkpt lat="57.33091" lon="12.24464">
    <name>TP068</name>
  </trkpt>
  <trkpt lat="57.33094" lon="12.24458">
    <name>TP069</name>
  </trkpt>
  <trkpt lat="57.33108" lon="12.24436">
    <name>TP070</name>
  </trkpt>
  <trkpt lat="57.3311" lon="12.24432">
    <name>TP071</name>
  </trkpt>
  <trkpt lat="57.33114" lon="12.24425">
    <name>TP072</name>
  </trkpt>
  <trkpt lat="57.33121" lon="12.24413">
    <name>TP073</name>
  </trkpt>
  <trkpt lat="57.3313" lon="12.24397">
    <name>TP074</name>
  </trkpt>
  <trkpt lat="57.33142" lon="12.24381">
    <name>TP075</name>
  </trkpt>
  <trkpt lat="57.33165" lon="12.24355">
    <name>TP076</name>
  </trkpt>
  <trkpt lat="57.3316472" lon="12.2435502">
    <name>TP077</name>
  </trkpt>
  <trkpt lat="57.3316" lon="12.24312">
    <name>TP078</name>
  </trkpt>
  <trkpt lat="57.33159" lon="12.24303">
    <name>TP079</name>
  </trkpt>
  <trkpt lat="57.33154" lon="12.24262">
    <name>TP080</name>
  </trkpt>
  <trkpt lat="57.33153" lon="12.24257">
    <name>TP081</name>
  </trkpt>
  <trkpt lat="57.3315" lon="12.24239">
    <name>TP082</name>
  </trkpt>
  <trkpt lat="57.33147" lon="12.24225">
    <name>TP083</name>
  </trkpt>
  <trkpt lat="57.33142" lon="12.24209">
    <name>TP084</name>
  </trkpt>
  <trkpt lat="57.33133" lon="12.24185">
    <name>TP085</name>
  </trkpt>
  <trkpt lat="57.33129" lon="12.24173">
    <name>TP086</name>
  </trkpt>
  <trkpt lat="57.33119" lon="12.2414">
    <name>TP087</name>
  </trkpt>
  <trkpt lat="57.33118" lon="12.24136">
    <name>TP088</name>
  </trkpt>
  <trkpt lat="57.33111" lon="12.24114">
    <name>TP089</name>
  </trkpt>
  <trkpt lat="57.3311" lon="12.24111">
    <name>TP090</name>
  </trkpt>
  <trkpt lat="57.33092" lon="12.24051">
    <name>TP091</name>
  </trkpt>
  <trkpt lat="57.33067" lon="12.23968">
    <name>TP092</name>
  </trkpt>
  <trkpt lat="57.33053" lon="12.23916">
    <name>TP093</name>
  </trkpt>
  <trkpt lat="57.33043" lon="12.23879">
    <name>TP094</name>
  </trkpt>
  <trkpt lat="57.33035" lon="12.23849">
    <name>TP095</name>
  </trkpt>
  <trkpt lat="57.33033" lon="12.23841">
    <name>TP096</name>
  </trkpt>
  <trkpt lat="57.33012" lon="12.2377">
    <name>TP097</name>
  </trkpt>
  <trkpt lat="57.33004" lon="12.23742">
    <name>TP098</name>
  </trkpt>
  <trkpt lat="57.33001" lon="12.23731">
    <name>TP099</name>
  </trkpt>
  <trkpt lat="57.32994" lon="12.23703">
    <name>TP100</name>
  </trkpt>
  <trkpt lat="57.32993" lon="12.23701">
    <name>TP101</name>
  </trkpt>
  <trkpt lat="57.32986" lon="12.23668">
    <name>TP102</name>
  </trkpt>
  <trkpt lat="57.32981" lon="12.23639">
    <name>TP103</name>
  </trkpt>
  <trkpt lat="57.32972" lon="12.23591">
    <name>TP104</name>
  </trkpt>
  <trkpt lat="57.3297" lon="12.23579">
    <name>TP105</name>
  </trkpt>
  <trkpt lat="57.32961" lon="12.23523">
    <name>TP106</name>
  </trkpt>
  <trkpt lat="57.32952" lon="12.23486">
    <name>TP107</name>
  </trkpt>
  <trkpt lat="57.32951" lon="12.23481">
    <name>TP108</name>
  </trkpt>
  <trkpt lat="57.32948" lon="12.23468">
    <name>TP109</name>
  </trkpt>
  <trkpt lat="57.32943" lon="12.23452">
    <name>TP110</name>
  </trkpt>
  <trkpt lat="57.32937" lon="12.23434">
    <name>TP111</name>
  </trkpt>
  <trkpt lat="57.32933" lon="12.23424">
    <name>TP112</name>
  </trkpt>
  <trkpt lat="57.32923" lon="12.23397">
    <name>TP113</name>
  </trkpt>
  <trkpt lat="57.32905" lon="12.23354">
    <name>TP114</name>
  </trkpt>
  <trkpt lat="57.32901" lon="12.23344">
    <name>TP115</name>
  </trkpt>
  <trkpt lat="57.32894" lon="12.23329">
    <name>TP116</name>
  </trkpt>
  <trkpt lat="57.3289" lon="12.23318">
    <name>TP117</name>
  </trkpt>
  <trkpt lat="57.32878" lon="12.23292">
    <name>TP118</name>
  </trkpt>
  <trkpt lat="57.32875" lon="12.23284">
    <name>TP119</name>
  </trkpt>
  <trkpt lat="57.32863" lon="12.2326">
    <name>TP120</name>
  </trkpt>
  <trkpt lat="57.32855" lon="12.23242">
    <name>TP121</name>
  </trkpt>
  <trkpt lat="57.32844" lon="12.23218">
    <name>TP122</name>
  </trkpt>
  <trkpt lat="57.32834" lon="12.23193">
    <name>TP123</name>
  </trkpt>
  <trkpt lat="57.32823" lon="12.23161">
    <name>TP124</name>
  </trkpt>
  <trkpt lat="57.32823" lon="12.2316">
    <name>TP125</name>
  </trkpt>
  <trkpt lat="57.32816" lon="12.2314">
    <name>TP126</name>
  </trkpt>
  <trkpt lat="57.32814" lon="12.23133">
    <name>TP127</name>
  </trkpt>
  <trkpt lat="57.32802" lon="12.2309">
    <name>TP128</name>
  </trkpt>
  <trkpt lat="57.32779" lon="12.23005">
    <name>TP129</name>
  </trkpt>
  <trkpt lat="57.32759" lon="12.22938">
    <name>TP130</name>
  </trkpt>
  <trkpt lat="57.32756" lon="12.22925">
    <name>TP131</name>
  </trkpt>
  <trkpt lat="57.32741" lon="12.22866">
    <name>TP132</name>
  </trkpt>
  <trkpt lat="57.3274" lon="12.22865">
    <name>TP133</name>
  </trkpt>
  <trkpt lat="57.32732" lon="12.2283">
    <name>TP134</name>
  </trkpt>
  <trkpt lat="57.32724" lon="12.22791">
    <name>TP135</name>
  </trkpt>
  <trkpt lat="57.3272" lon="12.22773">
    <name>TP136</name>
  </trkpt>
  <trkpt lat="57.32715" lon="12.22749">
    <name>TP137</name>
  </trkpt>
  <trkpt lat="57.3271" lon="12.22732">
    <name>TP138</name>
  </trkpt>
  <trkpt lat="57.32707" lon="12.22719">
    <name>TP139</name>
  </trkpt>
  <trkpt lat="57.32705" lon="12.22711">
    <name>TP140</name>
  </trkpt>
  <trkpt lat="57.32697" lon="12.22686">
    <name>TP141</name>
  </trkpt>
  <trkpt lat="57.32689" lon="12.22667">
    <name>TP142</name>
  </trkpt>
  <trkpt lat="57.32679" lon="12.22646">
    <name>TP143</name>
  </trkpt>
  <trkpt lat="57.32676" lon="12.22638">
    <name>TP144</name>
  </trkpt>
  <trkpt lat="57.32662" lon="12.22611">
    <name>TP145</name>
  </trkpt>
  <trkpt lat="57.32653" lon="12.22587">
    <name>TP146</name>
  </trkpt>
  <trkpt lat="57.32643" lon="12.22564">
    <name>TP147</name>
  </trkpt>
  <trkpt lat="57.32642" lon="12.22561">
    <name>TP148</name>
  </trkpt>
  <trkpt lat="57.32631" lon="12.22533">
    <name>TP149</name>
  </trkpt>
  <trkpt lat="57.32623" lon="12.22511">
    <name>TP150</name>
  </trkpt>
  <trkpt lat="57.32621" lon="12.22506">
    <name>TP151</name>
  </trkpt>
  <trkpt lat="57.32609" lon="12.22469">
    <name>TP152</name>
  </trkpt>
  <trkpt lat="57.32597" lon="12.22431">
    <name>TP153</name>
  </trkpt>
  <trkpt lat="57.32594" lon="12.22419">
    <name>TP154</name>
  </trkpt>
  <trkpt lat="57.3259" lon="12.224">
    <name>TP155</name>
  </trkpt>
  <trkpt lat="57.32589" lon="12.22388">
    <name>TP156</name>
  </trkpt>
  <trkpt lat="57.32586" lon="12.22365">
    <name>TP157</name>
  </trkpt>
  <trkpt lat="57.32585" lon="12.22326">
    <name>TP158</name>
  </trkpt>
  <trkpt lat="57.32585" lon="12.22288">
    <name>TP159</name>
  </trkpt>
  <trkpt lat="57.32585" lon="12.22265">
    <name>TP160</name>
  </trkpt>
  <trkpt lat="57.32585" lon="12.22222">
    <name>TP161</name>
  </trkpt>
  <trkpt lat="57.32585" lon="12.22213">
    <name>TP162</name>
  </trkpt>
  <trkpt lat="57.32585" lon="12.22188">
    <name>TP163</name>
  </trkpt>
  <trkpt lat="57.32585" lon="12.22182">
    <name>TP164</name>
  </trkpt>
  <trkpt lat="57.32588" lon="12.22158">
    <name>TP165</name>
  </trkpt>
  <trkpt lat="57.32588" lon="12.22156">
    <name>TP166</name>
  </trkpt>
  <trkpt lat="57.32591" lon="12.22138">
    <name>TP167</name>
  </trkpt>
  <trkpt lat="57.32598" lon="12.2211">
    <name>TP168</name>
  </trkpt>
  <trkpt lat="57.32607" lon="12.22081">
    <name>TP169</name>
  </trkpt>
  <trkpt lat="57.32613" lon="12.22062">
    <name>TP170</name>
  </trkpt>
  <trkpt lat="57.32616" lon="12.22052">
    <name>TP171</name>
  </trkpt>
  <trkpt lat="57.3262" lon="12.22028">
    <name>TP172</name>
  </trkpt>
  <trkpt lat="57.32621" lon="12.22009">
    <name>TP173</name>
  </trkpt>
  <trkpt lat="57.32622" lon="12.21982">
    <name>TP174</name>
  </trkpt>
  <trkpt lat="57.32622" lon="12.21931">
    <name>TP175</name>
  </trkpt>
  <trkpt lat="57.32622" lon="12.21924">
    <name>TP176</name>
  </trkpt>
  <trkpt lat="57.32622" lon="12.2189">
    <name>TP177</name>
  </trkpt>
  <trkpt lat="57.32623" lon="12.21867">
    <name>TP178</name>
  </trkpt>
  <trkpt lat="57.32623" lon="12.21865">
    <name>TP179</name>
  </trkpt>
  <trkpt lat="57.32626" lon="12.21836">
    <name>TP180</name>
  </trkpt>
  <trkpt lat="57.32626" lon="12.21832">
    <name>TP181</name>
  </trkpt>
  <trkpt lat="57.32631" lon="12.21778">
    <name>TP182</name>
  </trkpt>
  <trkpt lat="57.32641" lon="12.21672">
    <name>TP183</name>
  </trkpt>
  <trkpt lat="57.32647" lon="12.21582">
    <name>TP184</name>
  </trkpt>
  <trkpt lat="57.32653" lon="12.21506">
    <name>TP185</name>
  </trkpt>
  <trkpt lat="57.32661" lon="12.21399">
    <name>TP186</name>
  </trkpt>
  <trkpt lat="57.3266071" lon="12.2139905">
    <name>TP187</name>
  </trkpt>
  <trkpt lat="57.32643" lon="12.21393">
    <name>TP188</name>
  </trkpt>
  <trkpt lat="57.3263" lon="12.21387">
    <name>TP189</name>
  </trkpt>
  <trkpt lat="57.32621" lon="12.21378">
    <name>TP190</name>
  </trkpt>
  <trkpt lat="57.32613" lon="12.21366">
    <name>TP191</name>
  </trkpt>
  <trkpt lat="57.32611" lon="12.21362">
    <name>TP192</name>
  </trkpt>
  <trkpt lat="57.32604" lon="12.21348">
    <name>TP193</name>
  </trkpt>
  <trkpt lat="57.32595" lon="12.2132">
    <name>TP194</name>
  </trkpt>
  <trkpt lat="57.32576" lon="12.21264">
    <name>TP195</name>
  </trkpt>
  <trkpt lat="57.32574" lon="12.21255">
    <name>TP196</name>
  </trkpt>
  <trkpt lat="57.32572" lon="12.21249">
    <name>TP197</name>
  </trkpt>
  <trkpt lat="57.32555" lon="12.21196">
    <name>TP198</name>
  </trkpt>
  <trkpt lat="57.32552" lon="12.21189">
    <name>TP199</name>
  </trkpt>
  <trkpt lat="57.32533" lon="12.21131">
    <name>TP200</name>
  </trkpt>
  <trkpt lat="57.32523" lon="12.21104">
    <name>TP201</name>
  </trkpt>
  <trkpt lat="57.32515" lon="12.21079">
    <name>TP202</name>
  </trkpt>
  <trkpt lat="57.32503" lon="12.2105">
    <name>TP203</name>
  </trkpt>
  <trkpt lat="57.32502" lon="12.21049">
    <name>TP204</name>
  </trkpt>
  <trkpt lat="57.32492" lon="12.21027">
    <name>TP205</name>
  </trkpt>
  <trkpt lat="57.32478" lon="12.21001">
    <name>TP206</name>
  </trkpt>
  <trkpt lat="57.32453" lon="12.20954">
    <name>TP207</name>
  </trkpt>
  <trkpt lat="57.32452" lon="12.20953">
    <name>TP208</name>
  </trkpt>
  <trkpt lat="57.32447" lon="12.20944">
    <name>TP209</name>
  </trkpt>
  <trkpt lat="57.3244" lon="12.20931">
    <name>TP210</name>
  </trkpt>
  <trkpt lat="57.32435" lon="12.20922">
    <name>TP211</name>
  </trkpt>
  <trkpt lat="57.32425" lon="12.20897">
    <name>TP212</name>
  </trkpt>
  <trkpt lat="57.32416" lon="12.20866">
    <name>TP213</name>
  </trkpt>
  <trkpt lat="57.32413" lon="12.20846">
    <name>TP214</name>
  </trkpt>
  <trkpt lat="57.32412" lon="12.20841">
    <name>TP215</name>
  </trkpt>
  <trkpt lat="57.32411" lon="12.20832">
    <name>TP216</name>
  </trkpt>
  <trkpt lat="57.32408" lon="12.20798">
    <name>TP217</name>
  </trkpt>
  <trkpt lat="57.32406" lon="12.20776">
    <name>TP218</name>
  </trkpt>
  <trkpt lat="57.32405" lon="12.20766">
    <name>TP219</name>
  </trkpt>
  <trkpt lat="57.32405" lon="12.20757">
    <name>TP220</name>
  </trkpt>
  <trkpt lat="57.32403" lon="12.20733">
    <name>TP221</name>
  </trkpt>
  <trkpt lat="57.32402" lon="12.20727">
    <name>TP222</name>
  </trkpt>
  <trkpt lat="57.324" lon="12.207">
    <name>TP223</name>
  </trkpt>
  <trkpt lat="57.324" lon="12.20694">
    <name>TP224</name>
  </trkpt>
  <trkpt lat="57.32398" lon="12.20667">
    <name>TP225</name>
  </trkpt>
  <trkpt lat="57.32398" lon="12.20665">
    <name>TP226</name>
  </trkpt>
  <trkpt lat="57.32397" lon="12.20661">
    <name>TP227</name>
  </trkpt>
  <trkpt lat="57.32396" lon="12.20636">
    <name>TP228</name>
  </trkpt>
  <trkpt lat="57.32395" lon="12.20628">
    <name>TP229</name>
  </trkpt>
  <trkpt lat="57.32393" lon="12.20612">
    <name>TP230</name>
  </trkpt>
  <trkpt lat="57.32391" lon="12.20595">
    <name>TP231</name>
  </trkpt>
  <trkpt lat="57.3239" lon="12.20587">
    <name>TP232</name>
  </trkpt>
  <trkpt lat="57.32385" lon="12.20563">
    <name>TP233</name>
  </trkpt>
  <trkpt lat="57.32379" lon="12.2054">
    <name>TP234</name>
  </trkpt>
  <trkpt lat="57.32379" lon="12.20539">
    <name>TP235</name>
  </trkpt>
  <trkpt lat="57.32377" lon="12.20534">
    <name>TP236</name>
  </trkpt>
  <trkpt lat="57.32372" lon="12.20518">
    <name>TP237</name>
  </trkpt>
  <trkpt lat="57.3237" lon="12.20514">
    <name>TP238</name>
  </trkpt>
  <trkpt lat="57.32369" lon="12.20511">
    <name>TP239</name>
  </trkpt>
  <trkpt lat="57.32367" lon="12.20506">
    <name>TP240</name>
  </trkpt>
  <trkpt lat="57.32363" lon="12.20496">
    <name>TP241</name>
  </trkpt>
  <trkpt lat="57.32358" lon="12.20485">
    <name>TP242</name>
  </trkpt>
  <trkpt lat="57.32355" lon="12.20478">
    <name>TP243</name>
  </trkpt>
  <trkpt lat="57.32349" lon="12.20466">
    <name>TP244</name>
  </trkpt>
  <trkpt lat="57.32345" lon="12.20461">
    <name>TP245</name>
  </trkpt>
  <trkpt lat="57.32343" lon="12.20457">
    <name>TP246</name>
  </trkpt>
  <trkpt lat="57.32334" lon="12.20444">
    <name>TP247</name>
  </trkpt>
  <trkpt lat="57.32331" lon="12.20441">
    <name>TP248</name>
  </trkpt>
  <trkpt lat="57.32314" lon="12.2042">
    <name>TP249</name>
  </trkpt>
  <trkpt lat="57.32285" lon="12.20388">
    <name>TP250</name>
  </trkpt>
  <trkpt lat="57.3226" lon="12.20357">
    <name>TP251</name>
  </trkpt>
  <trkpt lat="57.32247" lon="12.2034">
    <name>TP252</name>
  </trkpt>
  <trkpt lat="57.32233" lon="12.20317">
    <name>TP253</name>
  </trkpt>
  <trkpt lat="57.32221" lon="12.20295">
    <name>TP254</name>
  </trkpt>
  <trkpt lat="57.32221" lon="12.20294">
    <name>TP255</name>
  </trkpt>
  <trkpt lat="57.32212" lon="12.20276">
    <name>TP256</name>
  </trkpt>
  <trkpt lat="57.322" lon="12.20251">
    <name>TP257</name>
  </trkpt>
  <trkpt lat="57.32195" lon="12.20241">
    <name>TP258</name>
  </trkpt>
  <trkpt lat="57.32176" lon="12.20202">
    <name>TP259</name>
  </trkpt>
  <trkpt lat="57.32161" lon="12.20171">
    <name>TP260</name>
  </trkpt>
  <trkpt lat="57.32153" lon="12.2015">
    <name>TP261</name>
  </trkpt>
  <trkpt lat="57.32144" lon="12.20122">
    <name>TP262</name>
  </trkpt>
  <trkpt lat="57.32133" lon="12.20079">
    <name>TP263</name>
  </trkpt>
  <trkpt lat="57.32118" lon="12.20018">
    <name>TP264</name>
  </trkpt>
  <trkpt lat="57.32103" lon="12.1995">
    <name>TP265</name>
  </trkpt>
  <trkpt lat="57.32077" lon="12.19827">
    <name>TP266</name>
  </trkpt>
  <trkpt lat="57.32073" lon="12.19799">
    <name>TP267</name>
  </trkpt>
  <trkpt lat="57.32072" lon="12.19776">
    <name>TP268</name>
  </trkpt>
  <trkpt lat="57.32075" lon="12.19749">
    <name>TP269</name>
  </trkpt>
  <trkpt lat="57.3208" lon="12.19725">
    <name>TP270</name>
  </trkpt>
  <trkpt lat="57.32082" lon="12.1972">
    <name>TP271</name>
  </trkpt>
  <trkpt lat="57.32087" lon="12.197">
    <name>TP272</name>
  </trkpt>
  <trkpt lat="57.32092" lon="12.19678">
    <name>TP273</name>
  </trkpt>
  <trkpt lat="57.32095" lon="12.19658">
    <name>TP274</name>
  </trkpt>
  <trkpt lat="57.32097" lon="12.19634">
    <name>TP275</name>
  </trkpt>
  <trkpt lat="57.32097" lon="12.19599">
    <name>TP276</name>
  </trkpt>
  <trkpt lat="57.32097" lon="12.19593">
    <name>TP277</name>
  </trkpt>
  <trkpt lat="57.32097" lon="12.1957">
    <name>TP278</name>
  </trkpt>
  <trkpt lat="57.32098" lon="12.1956">
    <name>TP279</name>
  </trkpt>
  <trkpt lat="57.32098" lon="12.1954">
    <name>TP280</name>
  </trkpt>
  <trkpt lat="57.32098" lon="12.19493">
    <name>TP281</name>
  </trkpt>
  <trkpt lat="57.32098" lon="12.19491">
    <name>TP282</name>
  </trkpt>
  <trkpt lat="57.32098" lon="12.19466">
    <name>TP283</name>
  </trkpt>
  <trkpt lat="57.32099" lon="12.1944">
    <name>TP284</name>
  </trkpt>
  <trkpt lat="57.32099" lon="12.19418">
    <name>TP285</name>
  </trkpt>
  <trkpt lat="57.32102" lon="12.19369">
    <name>TP286</name>
  </trkpt>
  <trkpt lat="57.32103" lon="12.1936">
    <name>TP287</name>
  </trkpt>
  <trkpt lat="57.32105" lon="12.19323">
    <name>TP288</name>
  </trkpt>
  <trkpt lat="57.32105" lon="12.19294">
    <name>TP289</name>
  </trkpt>
  <trkpt lat="57.32105" lon="12.19275">
    <name>TP290</name>
  </trkpt>
  <trkpt lat="57.32104" lon="12.1926">
    <name>TP291</name>
  </trkpt>
  <trkpt lat="57.32103" lon="12.19245">
    <name>TP292</name>
  </trkpt>
  <trkpt lat="57.321" lon="12.19228">
    <name>TP293</name>
  </trkpt>
  <trkpt lat="57.32097" lon="12.19217">
    <name>TP294</name>
  </trkpt>
  <trkpt lat="57.32094" lon="12.19205">
    <name>TP295</name>
  </trkpt>
  <trkpt lat="57.32089" lon="12.19194">
    <name>TP296</name>
  </trkpt>
  <trkpt lat="57.32083" lon="12.19179">
    <name>TP297</name>
  </trkpt>
  <trkpt lat="57.32077" lon="12.19167">
    <name>TP298</name>
  </trkpt>
  <trkpt lat="57.32069" lon="12.19154">
    <name>TP299</name>
  </trkpt>
  <trkpt lat="57.32067" lon="12.1915">
    <name>TP300</name>
  </trkpt>
  <trkpt lat="57.32056" lon="12.19135">
    <name>TP301</name>
  </trkpt>
  <trkpt lat="57.32047" lon="12.19121">
    <name>TP302</name>
  </trkpt>
  <trkpt lat="57.32023" lon="12.19091">
    <name>TP303</name>
  </trkpt>
  <trkpt lat="57.32007" lon="12.19066">
    <name>TP304</name>
  </trkpt>
  <trkpt lat="57.31999" lon="12.19048">
    <name>TP305</name>
  </trkpt>
  <trkpt lat="57.31985" lon="12.19016">
    <name>TP306</name>
  </trkpt>
  <trkpt lat="57.31978" lon="12.18998">
    <name>TP307</name>
  </trkpt>
  <trkpt lat="57.31973" lon="12.18979">
    <name>TP308</name>
  </trkpt>
  <trkpt lat="57.31968" lon="12.18956">
    <name>TP309</name>
  </trkpt>
  <trkpt lat="57.31962" lon="12.18929">
    <name>TP310</name>
  </trkpt>
  <trkpt lat="57.31949" lon="12.18865">
    <name>TP311</name>
  </trkpt>
  <trkpt lat="57.31942" lon="12.18828">
    <name>TP312</name>
  </trkpt>
  <trkpt lat="57.31933" lon="12.18782">
    <name>TP313</name>
  </trkpt>
  <trkpt lat="57.31931" lon="12.18771">
    <name>TP314</name>
  </trkpt>
  <trkpt lat="57.31922" lon="12.18721">
    <name>TP315</name>
  </trkpt>
  <trkpt lat="57.31911" lon="12.18662">
    <name>TP316</name>
  </trkpt>
  <trkpt lat="57.31905" lon="12.18631">
    <name>TP317</name>
  </trkpt>
  <trkpt lat="57.31901" lon="12.1861">
    <name>TP318</name>
  </trkpt>
  <trkpt lat="57.31899" lon="12.18601">
    <name>TP319</name>
  </trkpt>
  <trkpt lat="57.31898" lon="12.18593">
    <name>TP320</name>
  </trkpt>
  <trkpt lat="57.31897" lon="12.18591">
    <name>TP321</name>
  </trkpt>
  <trkpt lat="57.31889" lon="12.18543">
    <name>TP322</name>
  </trkpt>
  <trkpt lat="57.31876" lon="12.18472">
    <name>TP323</name>
  </trkpt>
  <trkpt lat="57.31872" lon="12.18452">
    <name>TP324</name>
  </trkpt>
  <trkpt lat="57.31871" lon="12.18448">
    <name>TP325</name>
  </trkpt>
  <trkpt lat="57.31869" lon="12.18437">
    <name>TP326</name>
  </trkpt>
  <trkpt lat="57.31865" lon="12.18417">
    <name>TP327</name>
  </trkpt>
  <trkpt lat="57.31863" lon="12.1841">
    <name>TP328</name>
  </trkpt>
  <trkpt lat="57.31855" lon="12.18375">
    <name>TP329</name>
  </trkpt>
  <trkpt lat="57.31853" lon="12.18368">
    <name>TP330</name>
  </trkpt>
  <trkpt lat="57.31842" lon="12.18324">
    <name>TP331</name>
  </trkpt>
  <trkpt lat="57.31837" lon="12.18299">
    <name>TP332</name>
  </trkpt>
  <trkpt lat="57.31835" lon="12.18291">
    <name>TP333</name>
  </trkpt>
  <trkpt lat="57.31833" lon="12.18284">
    <name>TP334</name>
  </trkpt>
  <trkpt lat="57.31828" lon="12.18261">
    <name>TP335</name>
  </trkpt>
  <trkpt lat="57.31818" lon="12.18226">
    <name>TP336</name>
  </trkpt>
  <trkpt lat="57.31812" lon="12.18196">
    <name>TP337</name>
  </trkpt>
  <trkpt lat="57.31804" lon="12.18158">
    <name>TP338</name>
  </trkpt>
  <trkpt lat="57.31801" lon="12.18142">
    <name>TP339</name>
  </trkpt>
  <trkpt lat="57.318" lon="12.18141">
    <name>TP340</name>
  </trkpt>
  <trkpt lat="57.31781" lon="12.18047">
    <name>TP341</name>
  </trkpt>
  <trkpt lat="57.31778" lon="12.18033">
    <name>TP342</name>
  </trkpt>
  <trkpt lat="57.31767" lon="12.17985">
    <name>TP343</name>
  </trkpt>
  <trkpt lat="57.3176" lon="12.17953">
    <name>TP344</name>
  </trkpt>
  <trkpt lat="57.31753" lon="12.17919">
    <name>TP345</name>
  </trkpt>
  <trkpt lat="57.31742" lon="12.17878">
    <name>TP346</name>
  </trkpt>
  <trkpt lat="57.31738" lon="12.17863">
    <name>TP347</name>
  </trkpt>
  <trkpt lat="57.31727" lon="12.17818">
    <name>TP348</name>
  </trkpt>
  <trkpt lat="57.31718" lon="12.1778">
    <name>TP349</name>
  </trkpt>
  <trkpt lat="57.31713" lon="12.17747">
    <name>TP350</name>
  </trkpt>
  <trkpt lat="57.31708" lon="12.17707">
    <name>TP351</name>
  </trkpt>
  <trkpt lat="57.3171" lon="12.17669">
    <name>TP352</name>
  </trkpt>
  <trkpt lat="57.317097" lon="12.1766916">
    <name>TP353</name>
  </trkpt>
  <trkpt lat="57.31711" lon="12.17667">
    <name>TP354</name>
  </trkpt>
  <trkpt lat="57.31712" lon="12.17666">
    <name>TP355</name>
  </trkpt>
  <trkpt lat="57.31713" lon="12.17664">
    <name>TP356</name>
  </trkpt>
  <trkpt lat="57.31714" lon="12.17661">
    <name>TP357</name>
  </trkpt>
  <trkpt lat="57.31715" lon="12.17657">
    <name>TP358</name>
  </trkpt>
  <trkpt lat="57.31716" lon="12.17653">
    <name>TP359</name>
  </trkpt>
  <trkpt lat="57.31716" lon="12.17651">
    <name>TP360</name>
  </trkpt>
  <trkpt lat="57.31716" lon="12.17648">
    <name>TP361</name>
  </trkpt>
  <trkpt lat="57.31716" lon="12.17645">
    <name>TP362</name>
  </trkpt>
  <trkpt lat="57.31715" lon="12.17642">
    <name>TP363</name>
  </trkpt>
  <trkpt lat="57.31715" lon="12.1764">
    <name>TP364</name>
  </trkpt>
  <trkpt lat="57.31714" lon="12.17637">
    <name>TP365</name>
  </trkpt>
  <trkpt lat="57.31714" lon="12.17635">
    <name>TP366</name>
  </trkpt>
  <trkpt lat="57.31713" lon="12.17633">
    <name>TP367</name>
  </trkpt>
  <trkpt lat="57.31711" lon="12.1763">
    <name>TP368</name>
  </trkpt>
  <trkpt lat="57.31709" lon="12.17628">
    <name>TP369</name>
  </trkpt>
  <trkpt lat="57.31708" lon="12.17627">
    <name>TP370</name>
  </trkpt>
  <trkpt lat="57.31707" lon="12.17626">
    <name>TP371</name>
  </trkpt>
  <trkpt lat="57.31705" lon="12.17625">
    <name>TP372</name>
  </trkpt>
  <trkpt lat="57.31698" lon="12.17597">
    <name>TP373</name>
  </trkpt>
  <trkpt lat="57.31697" lon="12.17585">
    <name>TP374</name>
  </trkpt>
  <trkpt lat="57.31693" lon="12.17556">
    <name>TP375</name>
  </trkpt>
  <trkpt lat="57.31691" lon="12.17539">
    <name>TP376</name>
  </trkpt>
  <trkpt lat="57.3169" lon="12.17522">
    <name>TP377</name>
  </trkpt>
  <trkpt lat="57.31689" lon="12.17518">
    <name>TP378</name>
  </trkpt>
  <trkpt lat="57.31688" lon="12.17476">
    <name>TP379</name>
  </trkpt>
  <trkpt lat="57.31686" lon="12.17436">
    <name>TP380</name>
  </trkpt>
  <trkpt lat="57.31685" lon="12.17408">
    <name>TP381</name>
  </trkpt>
  <trkpt lat="57.31683" lon="12.17345">
    <name>TP382</name>
  </trkpt>
  <trkpt lat="57.31682" lon="12.17298">
    <name>TP383</name>
  </trkpt>
  <trkpt lat="57.31681" lon="12.17263">
    <name>TP384</name>
  </trkpt>
  <trkpt lat="57.3168" lon="12.17238">
    <name>TP385</name>
  </trkpt>
  <trkpt lat="57.31679" lon="12.17218">
    <name>TP386</name>
  </trkpt>
  <trkpt lat="57.31679" lon="12.17203">
    <name>TP387</name>
  </trkpt>
  <trkpt lat="57.31678" lon="12.17193">
    <name>TP388</name>
  </trkpt>
  <trkpt lat="57.31676" lon="12.17169">
    <name>TP389</name>
  </trkpt>
  <trkpt lat="57.31675" lon="12.1716">
    <name>TP390</name>
  </trkpt>
  <trkpt lat="57.31675" lon="12.17154">
    <name>TP391</name>
  </trkpt>
  <trkpt lat="57.31675" lon="12.17152">
    <name>TP392</name>
  </trkpt>
  <trkpt lat="57.31673" lon="12.17132">
    <name>TP393</name>
  </trkpt>
  <trkpt lat="57.3167" lon="12.17114">
    <name>TP394</name>
  </trkpt>
  <trkpt lat="57.31668" lon="12.17096">
    <name>TP395</name>
  </trkpt>
  <trkpt lat="57.31665" lon="12.17082">
    <name>TP396</name>
  </trkpt>
  <trkpt lat="57.31664" lon="12.17077">
    <name>TP397</name>
  </trkpt>
  <trkpt lat="57.3166" lon="12.17062">
    <name>TP398</name>
  </trkpt>
  <trkpt lat="57.31653" lon="12.17039">
    <name>TP399</name>
  </trkpt>
  <trkpt lat="57.31648" lon="12.17023">
    <name>TP400</name>
  </trkpt>
  <trkpt lat="57.31644" lon="12.17012">
    <name>TP401</name>
  </trkpt>
  <trkpt lat="57.31642" lon="12.17005">
    <name>TP402</name>
  </trkpt>
  <trkpt lat="57.31633" lon="12.16976">
    <name>TP403</name>
  </trkpt>
  <trkpt lat="57.31631" lon="12.16967">
    <name>TP404</name>
  </trkpt>
  <trkpt lat="57.31624" lon="12.16942">
    <name>TP405</name>
  </trkpt>
  <trkpt lat="57.3162" lon="12.16919">
    <name>TP406</name>
  </trkpt>
  <trkpt lat="57.31619" lon="12.16915">
    <name>TP407</name>
  </trkpt>
  <trkpt lat="57.31614" lon="12.16887">
    <name>TP408</name>
  </trkpt>
  <trkpt lat="57.31612" lon="12.16876">
    <name>TP409</name>
  </trkpt>
  <trkpt lat="57.31608" lon="12.16829">
    <name>TP410</name>
  </trkpt>
  <trkpt lat="57.31608" lon="12.16822">
    <name>TP411</name>
  </trkpt>
  <trkpt lat="57.31608" lon="12.16784">
    <name>TP412</name>
  </trkpt>
  <trkpt lat="57.31609" lon="12.1674">
    <name>TP413</name>
  </trkpt>
  <trkpt lat="57.31612" lon="12.16691">
    <name>TP414</name>
  </trkpt>
  <trkpt lat="57.31613" lon="12.16687">
    <name>TP415</name>
  </trkpt>
  <trkpt lat="57.31614" lon="12.16682">
    <name>TP416</name>
  </trkpt>
  <trkpt lat="57.31619" lon="12.16655">
    <name>TP417</name>
  </trkpt>
  <trkpt lat="57.31623" lon="12.1663">
    <name>TP418</name>
  </trkpt>
  <trkpt lat="57.31631" lon="12.16589">
    <name>TP419</name>
  </trkpt>
  <trkpt lat="57.31632" lon="12.16583">
    <name>TP420</name>
  </trkpt>
  <trkpt lat="57.31635" lon="12.1656">
    <name>TP421</name>
  </trkpt>
  <trkpt lat="57.31639" lon="12.16536">
    <name>TP422</name>
  </trkpt>
  <trkpt lat="57.3164" lon="12.16505">
    <name>TP423</name>
  </trkpt>
  <trkpt lat="57.3164" lon="12.165">
    <name>TP424</name>
  </trkpt>
  <trkpt lat="57.31639" lon="12.16492">
    <name>TP425</name>
  </trkpt>
  <trkpt lat="57.31638" lon="12.16481">
    <name>TP426</name>
  </trkpt>
  <trkpt lat="57.31637" lon="12.16472">
    <name>TP427</name>
  </trkpt>
  <trkpt lat="57.31636" lon="12.16463">
    <name>TP428</name>
  </trkpt>
  <trkpt lat="57.31623" lon="12.16398">
    <name>TP429</name>
  </trkpt>
  <trkpt lat="57.31612" lon="12.16355">
    <name>TP430</name>
  </trkpt>
  <trkpt lat="57.31603" lon="12.16315">
    <name>TP431</name>
  </trkpt>
  <trkpt lat="57.316" lon="12.16303">
    <name>TP432</name>
  </trkpt>
  <trkpt lat="57.31589" lon="12.16264">
    <name>TP433</name>
  </trkpt>
  <trkpt lat="57.31585" lon="12.16243">
    <name>TP434</name>
  </trkpt>
  <trkpt lat="57.31584" lon="12.16239">
    <name>TP435</name>
  </trkpt>
  <trkpt lat="57.31582" lon="12.16223">
    <name>TP436</name>
  </trkpt>
  <trkpt lat="57.31582" lon="12.16211">
    <name>TP437</name>
  </trkpt>
  <trkpt lat="57.31582" lon="12.16202">
    <name>TP438</name>
  </trkpt>
  <trkpt lat="57.31582" lon="12.16193">
    <name>TP439</name>
  </trkpt>
  <trkpt lat="57.31582" lon="12.16188">
    <name>TP440</name>
  </trkpt>
  <trkpt lat="57.31582" lon="12.1618">
    <name>TP441</name>
  </trkpt>
  <trkpt lat="57.31582" lon="12.16175">
    <name>TP442</name>
  </trkpt>
  <trkpt lat="57.31582" lon="12.16172">
    <name>TP443</name>
  </trkpt>
  <trkpt lat="57.31583" lon="12.16163">
    <name>TP444</name>
  </trkpt>
  <trkpt lat="57.31583" lon="12.16159">
    <name>TP445</name>
  </trkpt>
  <trkpt lat="57.31584" lon="12.16126">
    <name>TP446</name>
  </trkpt>
  <trkpt lat="57.31587" lon="12.15989">
    <name>TP447</name>
  </trkpt>
  <trkpt lat="57.31588" lon="12.15892">
    <name>TP448</name>
  </trkpt>
  <trkpt lat="57.31591" lon="12.15795">
    <name>TP449</name>
  </trkpt>
  <trkpt lat="57.31592" lon="12.15743">
    <name>TP450</name>
  </trkpt>
  <trkpt lat="57.31595" lon="12.15703">
    <name>TP451</name>
  </trkpt>
  <trkpt lat="57.31599" lon="12.15663">
    <name>TP452</name>
  </trkpt>
  <trkpt lat="57.31607" lon="12.15619">
    <name>TP453</name>
  </trkpt>
  <trkpt lat="57.31608" lon="12.15613">
    <name>TP454</name>
  </trkpt>
  <trkpt lat="57.31615" lon="12.15582">
    <name>TP455</name>
  </trkpt>
  <trkpt lat="57.31616" lon="12.15577">
    <name>TP456</name>
  </trkpt>
  <trkpt lat="57.31621" lon="12.15551">
    <name>TP457</name>
  </trkpt>
  <trkpt lat="57.31622" lon="12.15546">
    <name>TP458</name>
  </trkpt>
  <trkpt lat="57.31624" lon="12.15538">
    <name>TP459</name>
  </trkpt>
  <trkpt lat="57.31628" lon="12.15523">
    <name>TP460</name>
  </trkpt>
  <trkpt lat="57.31631" lon="12.15513">
    <name>TP461</name>
  </trkpt>
  <trkpt lat="57.31635" lon="12.15504">
    <name>TP462</name>
  </trkpt>
  <trkpt lat="57.3164" lon="12.15497">
    <name>TP463</name>
  </trkpt>
  <trkpt lat="57.31642" lon="12.15494">
    <name>TP464</name>
  </trkpt>
  <trkpt lat="57.31655" lon="12.15478">
    <name>TP465</name>
  </trkpt>
  <trkpt lat="57.31656" lon="12.15477">
    <name>TP466</name>
  </trkpt>
  <trkpt lat="57.31678" lon="12.15448">
    <name>TP467</name>
  </trkpt>
  <trkpt lat="57.31702" lon="12.15419">
    <name>TP468</name>
  </trkpt>
  <trkpt lat="57.31717" lon="12.15401">
    <name>TP469</name>
  </trkpt>
  <trkpt lat="57.3171698" lon="12.1540083">
    <name>TP470</name>
  </trkpt>
  <trkpt lat="57.31702" lon="12.15352">
    <name>TP471</name>
  </trkpt>
  <trkpt lat="57.31698" lon="12.15336">
    <name>TP472</name>
  </trkpt>
  <trkpt lat="57.3169811" lon="12.1533627">
    <name>TP473</name>
  </trkpt>
  <trkpt lat="57.3169811" lon="12.1533627">
    <name>TP474</name>
  </trkpt>
  <trkpt lat="57.31702" lon="12.15352">
    <name>TP475</name>
  </trkpt>
  <trkpt lat="57.31717" lon="12.15401">
    <name>TP476</name>
  </trkpt>
  <trkpt lat="57.3171698" lon="12.1540083">
    <name>TP477</name>
  </trkpt>
  <trkpt lat="57.31702" lon="12.15419">
    <name>TP478</name>
  </trkpt>
  <trkpt lat="57.31678" lon="12.15448">
    <name>TP479</name>
  </trkpt>
  <trkpt lat="57.31656" lon="12.15477">
    <name>TP480</name>
  </trkpt>
  <trkpt lat="57.31655" lon="12.15478">
    <name>TP481</name>
  </trkpt>
  <trkpt lat="57.31642" lon="12.15494">
    <name>TP482</name>
  </trkpt>
  <trkpt lat="57.3164" lon="12.15497">
    <name>TP483</name>
  </trkpt>
  <trkpt lat="57.31635" lon="12.15504">
    <name>TP484</name>
  </trkpt>
  <trkpt lat="57.31631" lon="12.15513">
    <name>TP485</name>
  </trkpt>
  <trkpt lat="57.31628" lon="12.15523">
    <name>TP486</name>
  </trkpt>
  <trkpt lat="57.31624" lon="12.15538">
    <name>TP487</name>
  </trkpt>
  <trkpt lat="57.31622" lon="12.15546">
    <name>TP488</name>
  </trkpt>
  <trkpt lat="57.31621" lon="12.15551">
    <name>TP489</name>
  </trkpt>
  <trkpt lat="57.31616" lon="12.15577">
    <name>TP490</name>
  </trkpt>
  <trkpt lat="57.31615" lon="12.15582">
    <name>TP491</name>
  </trkpt>
  <trkpt lat="57.31608" lon="12.15613">
    <name>TP492</name>
  </trkpt>
  <trkpt lat="57.31607" lon="12.15619">
    <name>TP493</name>
  </trkpt>
  <trkpt lat="57.31599" lon="12.15663">
    <name>TP494</name>
  </trkpt>
  <trkpt lat="57.31595" lon="12.15703">
    <name>TP495</name>
  </trkpt>
  <trkpt lat="57.31592" lon="12.15743">
    <name>TP496</name>
  </trkpt>
  <trkpt lat="57.31591" lon="12.15795">
    <name>TP497</name>
  </trkpt>
  <trkpt lat="57.31588" lon="12.15892">
    <name>TP498</name>
  </trkpt>
  <trkpt lat="57.31587" lon="12.15989">
    <name>TP499</name>
  </trkpt>
  <trkpt lat="57.31584" lon="12.16126">
    <name>TP500</name>
  </trkpt>
  <trkpt lat="57.31583" lon="12.16159">
    <name>TP501</name>
  </trkpt>
  <trkpt lat="57.31583" lon="12.16163">
    <name>TP502</name>
  </trkpt>
  <trkpt lat="57.31582" lon="12.16172">
    <name>TP503</name>
  </trkpt>
  <trkpt lat="57.31582" lon="12.16175">
    <name>TP504</name>
  </trkpt>
  <trkpt lat="57.31582" lon="12.1618">
    <name>TP505</name>
  </trkpt>
  <trkpt lat="57.31582" lon="12.16188">
    <name>TP506</name>
  </trkpt>
  <trkpt lat="57.31582" lon="12.16193">
    <name>TP507</name>
  </trkpt>
  <trkpt lat="57.31582" lon="12.16202">
    <name>TP508</name>
  </trkpt>
  <trkpt lat="57.31582" lon="12.16211">
    <name>TP509</name>
  </trkpt>
  <trkpt lat="57.31582" lon="12.16223">
    <name>TP510</name>
  </trkpt>
  <trkpt lat="57.31584" lon="12.16239">
    <name>TP511</name>
  </trkpt>
  <trkpt lat="57.31585" lon="12.16243">
    <name>TP512</name>
  </trkpt>
  <trkpt lat="57.31589" lon="12.16264">
    <name>TP513</name>
  </trkpt>
  <trkpt lat="57.316" lon="12.16303">
    <name>TP514</name>
  </trkpt>
  <trkpt lat="57.31603" lon="12.16315">
    <name>TP515</name>
  </trkpt>
  <trkpt lat="57.31612" lon="12.16355">
    <name>TP516</name>
  </trkpt>
  <trkpt lat="57.31623" lon="12.16398">
    <name>TP517</name>
  </trkpt>
  <trkpt lat="57.31636" lon="12.16463">
    <name>TP518</name>
  </trkpt>
  <trkpt lat="57.31637" lon="12.16472">
    <name>TP519</name>
  </trkpt>
  <trkpt lat="57.31638" lon="12.16481">
    <name>TP520</name>
  </trkpt>
  <trkpt lat="57.31639" lon="12.16492">
    <name>TP521</name>
  </trkpt>
  <trkpt lat="57.3164" lon="12.165">
    <name>TP522</name>
  </trkpt>
  <trkpt lat="57.3164" lon="12.16505">
    <name>TP523</name>
  </trkpt>
  <trkpt lat="57.31639" lon="12.16536">
    <name>TP524</name>
  </trkpt>
  <trkpt lat="57.31635" lon="12.1656">
    <name>TP525</name>
  </trkpt>
  <trkpt lat="57.31632" lon="12.16583">
    <name>TP526</name>
  </trkpt>
  <trkpt lat="57.31631" lon="12.16589">
    <name>TP527</name>
  </trkpt>
  <trkpt lat="57.31623" lon="12.1663">
    <name>TP528</name>
  </trkpt>
  <trkpt lat="57.31619" lon="12.16655">
    <name>TP529</name>
  </trkpt>
  <trkpt lat="57.31614" lon="12.16682">
    <name>TP530</name>
  </trkpt>
  <trkpt lat="57.31613" lon="12.16687">
    <name>TP531</name>
  </trkpt>
  <trkpt lat="57.31612" lon="12.16691">
    <name>TP532</name>
  </trkpt>
  <trkpt lat="57.31609" lon="12.1674">
    <name>TP533</name>
  </trkpt>
  <trkpt lat="57.31608" lon="12.16784">
    <name>TP534</name>
  </trkpt>
  <trkpt lat="57.31608" lon="12.16822">
    <name>TP535</name>
  </trkpt>
  <trkpt lat="57.31608" lon="12.16829">
    <name>TP536</name>
  </trkpt>
  <trkpt lat="57.31612" lon="12.16876">
    <name>TP537</name>
  </trkpt>
  <trkpt lat="57.31614" lon="12.16887">
    <name>TP538</name>
  </trkpt>
  <trkpt lat="57.31619" lon="12.16915">
    <name>TP539</name>
  </trkpt>
  <trkpt lat="57.3162" lon="12.16919">
    <name>TP540</name>
  </trkpt>
  <trkpt lat="57.31624" lon="12.16942">
    <name>TP541</name>
  </trkpt>
  <trkpt lat="57.31631" lon="12.16967">
    <name>TP542</name>
  </trkpt>
  <trkpt lat="57.31633" lon="12.16976">
    <name>TP543</name>
  </trkpt>
  <trkpt lat="57.31642" lon="12.17005">
    <name>TP544</name>
  </trkpt>
  <trkpt lat="57.31644" lon="12.17012">
    <name>TP545</name>
  </trkpt>
  <trkpt lat="57.31648" lon="12.17023">
    <name>TP546</name>
  </trkpt>
  <trkpt lat="57.31653" lon="12.17039">
    <name>TP547</name>
  </trkpt>
  <trkpt lat="57.3166" lon="12.17062">
    <name>TP548</name>
  </trkpt>
  <trkpt lat="57.31664" lon="12.17077">
    <name>TP549</name>
  </trkpt>
  <trkpt lat="57.31665" lon="12.17082">
    <name>TP550</name>
  </trkpt>
  <trkpt lat="57.31668" lon="12.17096">
    <name>TP551</name>
  </trkpt>
  <trkpt lat="57.3167" lon="12.17114">
    <name>TP552</name>
  </trkpt>
  <trkpt lat="57.31673" lon="12.17132">
    <name>TP553</name>
  </trkpt>
  <trkpt lat="57.31675" lon="12.17152">
    <name>TP554</name>
  </trkpt>
  <trkpt lat="57.31675" lon="12.17154">
    <name>TP555</name>
  </trkpt>
  <trkpt lat="57.31675" lon="12.1716">
    <name>TP556</name>
  </trkpt>
  <trkpt lat="57.31676" lon="12.17169">
    <name>TP557</name>
  </trkpt>
  <trkpt lat="57.31678" lon="12.17193">
    <name>TP558</name>
  </trkpt>
  <trkpt lat="57.31679" lon="12.17203">
    <name>TP559</name>
  </trkpt>
  <trkpt lat="57.31679" lon="12.17218">
    <name>TP560</name>
  </trkpt>
  <trkpt lat="57.3168" lon="12.17238">
    <name>TP561</name>
  </trkpt>
  <trkpt lat="57.31681" lon="12.17263">
    <name>TP562</name>
  </trkpt>
  <trkpt lat="57.31682" lon="12.17298">
    <name>TP563</name>
  </trkpt>
  <trkpt lat="57.31683" lon="12.17345">
    <name>TP564</name>
  </trkpt>
  <trkpt lat="57.31685" lon="12.17408">
    <name>TP565</name>
  </trkpt>
  <trkpt lat="57.31686" lon="12.17436">
    <name>TP566</name>
  </trkpt>
  <trkpt lat="57.31688" lon="12.17476">
    <name>TP567</name>
  </trkpt>
  <trkpt lat="57.31689" lon="12.17518">
    <name>TP568</name>
  </trkpt>
  <trkpt lat="57.3169" lon="12.17522">
    <name>TP569</name>
  </trkpt>
  <trkpt lat="57.31691" lon="12.17539">
    <name>TP570</name>
  </trkpt>
  <trkpt lat="57.31693" lon="12.17556">
    <name>TP571</name>
  </trkpt>
  <trkpt lat="57.3169318" lon="12.1755555">
    <name>TP572</name>
  </trkpt>
  <trkpt lat="57.31708" lon="12.17551">
    <name>TP573</name>
  </trkpt>
  <trkpt lat="57.3174" lon="12.17542">
    <name>TP574</name>
  </trkpt>
  <trkpt lat="57.3175" lon="12.17537">
    <name>TP575</name>
  </trkpt>
  <trkpt lat="57.31762" lon="12.17532">
    <name>TP576</name>
  </trkpt>
  <trkpt lat="57.31777" lon="12.17524">
    <name>TP577</name>
  </trkpt>
  <trkpt lat="57.31778" lon="12.17524">
    <name>TP578</name>
  </trkpt>
  <trkpt lat="57.3177802" lon="12.1752367">
    <name>TP579</name>
  </trkpt>
  <trkpt lat="57.31774" lon="12.17487">
    <name>TP580</name>
  </trkpt>
  <trkpt lat="57.3177382" lon="12.1748669">
    <name>TP581</name>
  </trkpt>
  <trkpt lat="57.3177382" lon="12.1748669">
    <name>TP582</name>
  </trkpt>
  <trkpt lat="57.31778" lon="12.17524">
    <name>TP583</name>
  </trkpt>
  <trkpt lat="57.3177802" lon="12.1752367">
    <name>TP584</name>
  </trkpt>
  <trkpt lat="57.31777" lon="12.17524">
    <name>TP585</name>
  </trkpt>
  <trkpt lat="57.31762" lon="12.17532">
    <name>TP586</name>
  </trkpt>
  <trkpt lat="57.3175" lon="12.17537">
    <name>TP587</name>
  </trkpt>
  <trkpt lat="57.3174" lon="12.17542">
    <name>TP588</name>
  </trkpt>
  <trkpt lat="57.31708" lon="12.17551">
    <name>TP589</name>
  </trkpt>
  <trkpt lat="57.31693" lon="12.17556">
    <name>TP590</name>
  </trkpt>
  <trkpt lat="57.3169318" lon="12.1755555">
    <name>TP591</name>
  </trkpt>
  <trkpt lat="57.31697" lon="12.17585">
    <name>TP592</name>
  </trkpt>
  <trkpt lat="57.31698" lon="12.17597">
    <name>TP593</name>
  </trkpt>
  <trkpt lat="57.31696" lon="12.17628">
    <name>TP594</name>
  </trkpt>
  <trkpt lat="57.316963" lon="12.1762785">
    <name>TP595</name>
  </trkpt>
  <trkpt lat="57.31695" lon="12.1763">
    <name>TP596</name>
  </trkpt>
  <trkpt lat="57.31694" lon="12.17632">
    <name>TP597</name>
  </trkpt>
  <trkpt lat="57.31693" lon="12.17634">
    <name>TP598</name>
  </trkpt>
  <trkpt lat="57.31692" lon="12.17636">
    <name>TP599</name>
  </trkpt>
  <trkpt lat="57.31691" lon="12.17638">
    <name>TP600</name>
  </trkpt>
  <trkpt lat="57.3169" lon="12.17643">
    <name>TP601</name>
  </trkpt>
  <trkpt lat="57.3169" lon="12.17646">
    <name>TP602</name>
  </trkpt>
  <trkpt lat="57.3169" lon="12.17649">
    <name>TP603</name>
  </trkpt>
  <trkpt lat="57.3169" lon="12.17652">
    <name>TP604</name>
  </trkpt>
  <trkpt lat="57.3169" lon="12.17654">
    <name>TP605</name>
  </trkpt>
  <trkpt lat="57.31691" lon="12.17657">
    <name>TP606</name>
  </trkpt>
  <trkpt lat="57.31692" lon="12.17659">
    <name>TP607</name>
  </trkpt>
  <trkpt lat="57.31692" lon="12.17662">
    <name>TP608</name>
  </trkpt>
  <trkpt lat="57.31693" lon="12.17664">
    <name>TP609</name>
  </trkpt>
  <trkpt lat="57.31694" lon="12.17666">
    <name>TP610</name>
  </trkpt>
  <trkpt lat="57.31695" lon="12.17668">
    <name>TP611</name>
  </trkpt>
  <trkpt lat="57.31696" lon="12.17669">
    <name>TP612</name>
  </trkpt>
  <trkpt lat="57.31698" lon="12.1767">
    <name>TP613</name>
  </trkpt>
  <trkpt lat="57.31699" lon="12.17671">
    <name>TP614</name>
  </trkpt>
  <trkpt lat="57.31701" lon="12.17673">
    <name>TP615</name>
  </trkpt>
  <trkpt lat="57.31708" lon="12.17707">
    <name>TP616</name>
  </trkpt>
  <trkpt lat="57.31713" lon="12.17747">
    <name>TP617</name>
  </trkpt>
  <trkpt lat="57.31718" lon="12.1778">
    <name>TP618</name>
  </trkpt>
  <trkpt lat="57.31727" lon="12.17818">
    <name>TP619</name>
  </trkpt>
  <trkpt lat="57.31738" lon="12.17863">
    <name>TP620</name>
  </trkpt>
  <trkpt lat="57.31742" lon="12.17878">
    <name>TP621</name>
  </trkpt>
  <trkpt lat="57.31753" lon="12.17919">
    <name>TP622</name>
  </trkpt>
  <trkpt lat="57.3176" lon="12.17953">
    <name>TP623</name>
  </trkpt>
  <trkpt lat="57.31767" lon="12.17985">
    <name>TP624</name>
  </trkpt>
  <trkpt lat="57.31778" lon="12.18033">
    <name>TP625</name>
  </trkpt>
  <trkpt lat="57.31781" lon="12.18047">
    <name>TP626</name>
  </trkpt>
  <trkpt lat="57.318" lon="12.18141">
    <name>TP627</name>
  </trkpt>
  <trkpt lat="57.31801" lon="12.18142">
    <name>TP628</name>
  </trkpt>
  <trkpt lat="57.31804" lon="12.18158">
    <name>TP629</name>
  </trkpt>
  <trkpt lat="57.31812" lon="12.18196">
    <name>TP630</name>
  </trkpt>
  <trkpt lat="57.31818" lon="12.18226">
    <name>TP631</name>
  </trkpt>
  <trkpt lat="57.31828" lon="12.18261">
    <name>TP632</name>
  </trkpt>
  <trkpt lat="57.31833" lon="12.18284">
    <name>TP633</name>
  </trkpt>
  <trkpt lat="57.31835" lon="12.18291">
    <name>TP634</name>
  </trkpt>
  <trkpt lat="57.31837" lon="12.18299">
    <name>TP635</name>
  </trkpt>
  <trkpt lat="57.31842" lon="12.18324">
    <name>TP636</name>
  </trkpt>
  <trkpt lat="57.31853" lon="12.18368">
    <name>TP637</name>
  </trkpt>
  <trkpt lat="57.31855" lon="12.18375">
    <name>TP638</name>
  </trkpt>
  <trkpt lat="57.31863" lon="12.1841">
    <name>TP639</name>
  </trkpt>
  <trkpt lat="57.31865" lon="12.18417">
    <name>TP640</name>
  </trkpt>
  <trkpt lat="57.31869" lon="12.18437">
    <name>TP641</name>
  </trkpt>
  <trkpt lat="57.31871" lon="12.18448">
    <name>TP642</name>
  </trkpt>
  <trkpt lat="57.31872" lon="12.18452">
    <name>TP643</name>
  </trkpt>
  <trkpt lat="57.31876" lon="12.18472">
    <name>TP644</name>
  </trkpt>
  <trkpt lat="57.31889" lon="12.18543">
    <name>TP645</name>
  </trkpt>
  <trkpt lat="57.31897" lon="12.18591">
    <name>TP646</name>
  </trkpt>
  <trkpt lat="57.31898" lon="12.18593">
    <name>TP647</name>
  </trkpt>
  <trkpt lat="57.31899" lon="12.18601">
    <name>TP648</name>
  </trkpt>
  <trkpt lat="57.31901" lon="12.1861">
    <name>TP649</name>
  </trkpt>
  <trkpt lat="57.31905" lon="12.18631">
    <name>TP650</name>
  </trkpt>
  <trkpt lat="57.31911" lon="12.18662">
    <name>TP651</name>
  </trkpt>
  <trkpt lat="57.31922" lon="12.18721">
    <name>TP652</name>
  </trkpt>
  <trkpt lat="57.31931" lon="12.18771">
    <name>TP653</name>
  </trkpt>
  <trkpt lat="57.31933" lon="12.18782">
    <name>TP654</name>
  </trkpt>
  <trkpt lat="57.31942" lon="12.18828">
    <name>TP655</name>
  </trkpt>
  <trkpt lat="57.31949" lon="12.18865">
    <name>TP656</name>
  </trkpt>
  <trkpt lat="57.31962" lon="12.18929">
    <name>TP657</name>
  </trkpt>
  <trkpt lat="57.31968" lon="12.18956">
    <name>TP658</name>
  </trkpt>
  <trkpt lat="57.31973" lon="12.18979">
    <name>TP659</name>
  </trkpt>
  <trkpt lat="57.31978" lon="12.18998">
    <name>TP660</name>
  </trkpt>
  <trkpt lat="57.31985" lon="12.19016">
    <name>TP661</name>
  </trkpt>
  <trkpt lat="57.31999" lon="12.19048">
    <name>TP662</name>
  </trkpt>
  <trkpt lat="57.32007" lon="12.19066">
    <name>TP663</name>
  </trkpt>
  <trkpt lat="57.32023" lon="12.19091">
    <name>TP664</name>
  </trkpt>
  <trkpt lat="57.32047" lon="12.19121">
    <name>TP665</name>
  </trkpt>
  <trkpt lat="57.32056" lon="12.19135">
    <name>TP666</name>
  </trkpt>
  <trkpt lat="57.32067" lon="12.1915">
    <name>TP667</name>
  </trkpt>
  <trkpt lat="57.32069" lon="12.19154">
    <name>TP668</name>
  </trkpt>
  <trkpt lat="57.32077" lon="12.19167">
    <name>TP669</name>
  </trkpt>
  <trkpt lat="57.32083" lon="12.19179">
    <name>TP670</name>
  </trkpt>
  <trkpt lat="57.32089" lon="12.19194">
    <name>TP671</name>
  </trkpt>
  <trkpt lat="57.32094" lon="12.19205">
    <name>TP672</name>
  </trkpt>
  <trkpt lat="57.32097" lon="12.19217">
    <name>TP673</name>
  </trkpt>
  <trkpt lat="57.321" lon="12.19228">
    <name>TP674</name>
  </trkpt>
  <trkpt lat="57.32103" lon="12.19245">
    <name>TP675</name>
  </trkpt>
  <trkpt lat="57.32104" lon="12.1926">
    <name>TP676</name>
  </trkpt>
  <trkpt lat="57.32105" lon="12.19275">
    <name>TP677</name>
  </trkpt>
  <trkpt lat="57.32105" lon="12.19294">
    <name>TP678</name>
  </trkpt>
  <trkpt lat="57.32105" lon="12.19323">
    <name>TP679</name>
  </trkpt>
  <trkpt lat="57.32103" lon="12.1936">
    <name>TP680</name>
  </trkpt>
  <trkpt lat="57.32102" lon="12.19369">
    <name>TP681</name>
  </trkpt>
  <trkpt lat="57.32099" lon="12.19418">
    <name>TP682</name>
  </trkpt>
  <trkpt lat="57.32099" lon="12.1944">
    <name>TP683</name>
  </trkpt>
  <trkpt lat="57.32098" lon="12.19466">
    <name>TP684</name>
  </trkpt>
  <trkpt lat="57.32098" lon="12.19491">
    <name>TP685</name>
  </trkpt>
  <trkpt lat="57.32098" lon="12.19493">
    <name>TP686</name>
  </trkpt>
  <trkpt lat="57.32098" lon="12.1954">
    <name>TP687</name>
  </trkpt>
  <trkpt lat="57.32098" lon="12.1956">
    <name>TP688</name>
  </trkpt>
  <trkpt lat="57.32097" lon="12.1957">
    <name>TP689</name>
  </trkpt>
  <trkpt lat="57.32097" lon="12.19593">
    <name>TP690</name>
  </trkpt>
  <trkpt lat="57.32097" lon="12.19599">
    <name>TP691</name>
  </trkpt>
  <trkpt lat="57.32097" lon="12.19634">
    <name>TP692</name>
  </trkpt>
  <trkpt lat="57.32095" lon="12.19658">
    <name>TP693</name>
  </trkpt>
  <trkpt lat="57.32092" lon="12.19678">
    <name>TP694</name>
  </trkpt>
  <trkpt lat="57.32087" lon="12.197">
    <name>TP695</name>
  </trkpt>
  <trkpt lat="57.32082" lon="12.1972">
    <name>TP696</name>
  </trkpt>
  <trkpt lat="57.3208" lon="12.19725">
    <name>TP697</name>
  </trkpt>
  <trkpt lat="57.32075" lon="12.19749">
    <name>TP698</name>
  </trkpt>
  <trkpt lat="57.32072" lon="12.19776">
    <name>TP699</name>
  </trkpt>
  <trkpt lat="57.32073" lon="12.19799">
    <name>TP700</name>
  </trkpt>
  <trkpt lat="57.32077" lon="12.19827">
    <name>TP701</name>
  </trkpt>
  <trkpt lat="57.32103" lon="12.1995">
    <name>TP702</name>
  </trkpt>
  <trkpt lat="57.32118" lon="12.20018">
    <name>TP703</name>
  </trkpt>
  <trkpt lat="57.32133" lon="12.20079">
    <name>TP704</name>
  </trkpt>
  <trkpt lat="57.32144" lon="12.20122">
    <name>TP705</name>
  </trkpt>
  <trkpt lat="57.32153" lon="12.2015">
    <name>TP706</name>
  </trkpt>
  <trkpt lat="57.32161" lon="12.20171">
    <name>TP707</name>
  </trkpt>
  <trkpt lat="57.32176" lon="12.20202">
    <name>TP708</name>
  </trkpt>
  <trkpt lat="57.32195" lon="12.20241">
    <name>TP709</name>
  </trkpt>
  <trkpt lat="57.322" lon="12.20251">
    <name>TP710</name>
  </trkpt>
  <trkpt lat="57.32212" lon="12.20276">
    <name>TP711</name>
  </trkpt>
  <trkpt lat="57.32221" lon="12.20294">
    <name>TP712</name>
  </trkpt>
  <trkpt lat="57.32221" lon="12.20295">
    <name>TP713</name>
  </trkpt>
  <trkpt lat="57.32233" lon="12.20317">
    <name>TP714</name>
  </trkpt>
  <trkpt lat="57.32247" lon="12.2034">
    <name>TP715</name>
  </trkpt>
  <trkpt lat="57.3226" lon="12.20357">
    <name>TP716</name>
  </trkpt>
  <trkpt lat="57.32285" lon="12.20388">
    <name>TP717</name>
  </trkpt>
  <trkpt lat="57.32314" lon="12.2042">
    <name>TP718</name>
  </trkpt>
  <trkpt lat="57.32331" lon="12.20441">
    <name>TP719</name>
  </trkpt>
  <trkpt lat="57.32334" lon="12.20444">
    <name>TP720</name>
  </trkpt>
  <trkpt lat="57.32343" lon="12.20457">
    <name>TP721</name>
  </trkpt>
  <trkpt lat="57.32345" lon="12.20461">
    <name>TP722</name>
  </trkpt>
  <trkpt lat="57.32349" lon="12.20466">
    <name>TP723</name>
  </trkpt>
  <trkpt lat="57.32355" lon="12.20478">
    <name>TP724</name>
  </trkpt>
  <trkpt lat="57.32358" lon="12.20485">
    <name>TP725</name>
  </trkpt>
  <trkpt lat="57.32363" lon="12.20496">
    <name>TP726</name>
  </trkpt>
  <trkpt lat="57.32367" lon="12.20506">
    <name>TP727</name>
  </trkpt>
  <trkpt lat="57.32369" lon="12.20511">
    <name>TP728</name>
  </trkpt>
  <trkpt lat="57.3237" lon="12.20514">
    <name>TP729</name>
  </trkpt>
  <trkpt lat="57.32372" lon="12.20518">
    <name>TP730</name>
  </trkpt>
  <trkpt lat="57.32377" lon="12.20534">
    <name>TP731</name>
  </trkpt>
  <trkpt lat="57.32379" lon="12.20539">
    <name>TP732</name>
  </trkpt>
  <trkpt lat="57.32379" lon="12.2054">
    <name>TP733</name>
  </trkpt>
  <trkpt lat="57.32385" lon="12.20563">
    <name>TP734</name>
  </trkpt>
  <trkpt lat="57.3239" lon="12.20587">
    <name>TP735</name>
  </trkpt>
  <trkpt lat="57.32391" lon="12.20595">
    <name>TP736</name>
  </trkpt>
  <trkpt lat="57.32393" lon="12.20612">
    <name>TP737</name>
  </trkpt>
  <trkpt lat="57.32395" lon="12.20628">
    <name>TP738</name>
  </trkpt>
  <trkpt lat="57.32396" lon="12.20636">
    <name>TP739</name>
  </trkpt>
  <trkpt lat="57.32397" lon="12.20661">
    <name>TP740</name>
  </trkpt>
  <trkpt lat="57.32398" lon="12.20665">
    <name>TP741</name>
  </trkpt>
  <trkpt lat="57.32398" lon="12.20667">
    <name>TP742</name>
  </trkpt>
  <trkpt lat="57.324" lon="12.20694">
    <name>TP743</name>
  </trkpt>
  <trkpt lat="57.324" lon="12.207">
    <name>TP744</name>
  </trkpt>
  <trkpt lat="57.32402" lon="12.20727">
    <name>TP745</name>
  </trkpt>
  <trkpt lat="57.32403" lon="12.20733">
    <name>TP746</name>
  </trkpt>
  <trkpt lat="57.32405" lon="12.20757">
    <name>TP747</name>
  </trkpt>
  <trkpt lat="57.32405" lon="12.20766">
    <name>TP748</name>
  </trkpt>
  <trkpt lat="57.32406" lon="12.20776">
    <name>TP749</name>
  </trkpt>
  <trkpt lat="57.32408" lon="12.20798">
    <name>TP750</name>
  </trkpt>
  <trkpt lat="57.32411" lon="12.20832">
    <name>TP751</name>
  </trkpt>
  <trkpt lat="57.32412" lon="12.20841">
    <name>TP752</name>
  </trkpt>
  <trkpt lat="57.32413" lon="12.20846">
    <name>TP753</name>
  </trkpt>
  <trkpt lat="57.32416" lon="12.20866">
    <name>TP754</name>
  </trkpt>
  <trkpt lat="57.32425" lon="12.20897">
    <name>TP755</name>
  </trkpt>
  <trkpt lat="57.32435" lon="12.20922">
    <name>TP756</name>
  </trkpt>
  <trkpt lat="57.3244" lon="12.20931">
    <name>TP757</name>
  </trkpt>
  <trkpt lat="57.32447" lon="12.20944">
    <name>TP758</name>
  </trkpt>
  <trkpt lat="57.32452" lon="12.20953">
    <name>TP759</name>
  </trkpt>
  <trkpt lat="57.32453" lon="12.20954">
    <name>TP760</name>
  </trkpt>
  <trkpt lat="57.32478" lon="12.21001">
    <name>TP761</name>
  </trkpt>
  <trkpt lat="57.32492" lon="12.21027">
    <name>TP762</name>
  </trkpt>
  <trkpt lat="57.32502" lon="12.21049">
    <name>TP763</name>
  </trkpt>
  <trkpt lat="57.32503" lon="12.2105">
    <name>TP764</name>
  </trkpt>
  <trkpt lat="57.32515" lon="12.21079">
    <name>TP765</name>
  </trkpt>
  <trkpt lat="57.32523" lon="12.21104">
    <name>TP766</name>
  </trkpt>
  <trkpt lat="57.32533" lon="12.21131">
    <name>TP767</name>
  </trkpt>
  <trkpt lat="57.32552" lon="12.21189">
    <name>TP768</name>
  </trkpt>
  <trkpt lat="57.32555" lon="12.21196">
    <name>TP769</name>
  </trkpt>
  <trkpt lat="57.32572" lon="12.21249">
    <name>TP770</name>
  </trkpt>
  <trkpt lat="57.32574" lon="12.21255">
    <name>TP771</name>
  </trkpt>
  <trkpt lat="57.32576" lon="12.21264">
    <name>TP772</name>
  </trkpt>
  <trkpt lat="57.32595" lon="12.2132">
    <name>TP773</name>
  </trkpt>
  <trkpt lat="57.32604" lon="12.21348">
    <name>TP774</name>
  </trkpt>
  <trkpt lat="57.32611" lon="12.21362">
    <name>TP775</name>
  </trkpt>
  <trkpt lat="57.32613" lon="12.21366">
    <name>TP776</name>
  </trkpt>
  <trkpt lat="57.32621" lon="12.21378">
    <name>TP777</name>
  </trkpt>
  <trkpt lat="57.3263" lon="12.21387">
    <name>TP778</name>
  </trkpt>
  <trkpt lat="57.32643" lon="12.21393">
    <name>TP779</name>
  </trkpt>
  <trkpt lat="57.32661" lon="12.21399">
    <name>TP780</name>
  </trkpt>
  <trkpt lat="57.3266071" lon="12.2139905">
    <name>TP781</name>
  </trkpt>
  <trkpt lat="57.32653" lon="12.21506">
    <name>TP782</name>
  </trkpt>
  <trkpt lat="57.32647" lon="12.21582">
    <name>TP783</name>
  </trkpt>
  <trkpt lat="57.32641" lon="12.21672">
    <name>TP784</name>
  </trkpt>
  <trkpt lat="57.32631" lon="12.21778">
    <name>TP785</name>
  </trkpt>
  <trkpt lat="57.32626" lon="12.21832">
    <name>TP786</name>
  </trkpt>
  <trkpt lat="57.32626" lon="12.21836">
    <name>TP787</name>
  </trkpt>
  <trkpt lat="57.32623" lon="12.21865">
    <name>TP788</name>
  </trkpt>
  <trkpt lat="57.32623" lon="12.21867">
    <name>TP789</name>
  </trkpt>
  <trkpt lat="57.32622" lon="12.2189">
    <name>TP790</name>
  </trkpt>
  <trkpt lat="57.32622" lon="12.21924">
    <name>TP791</name>
  </trkpt>
  <trkpt lat="57.32622" lon="12.21931">
    <name>TP792</name>
  </trkpt>
  <trkpt lat="57.32622" lon="12.21982">
    <name>TP793</name>
  </trkpt>
  <trkpt lat="57.32621" lon="12.22009">
    <name>TP794</name>
  </trkpt>
  <trkpt lat="57.3262" lon="12.22028">
    <name>TP795</name>
  </trkpt>
  <trkpt lat="57.32616" lon="12.22052">
    <name>TP796</name>
  </trkpt>
  <trkpt lat="57.32613" lon="12.22062">
    <name>TP797</name>
  </trkpt>
  <trkpt lat="57.32607" lon="12.22081">
    <name>TP798</name>
  </trkpt>
  <trkpt lat="57.32598" lon="12.2211">
    <name>TP799</name>
  </trkpt>
  <trkpt lat="57.32591" lon="12.22138">
    <name>TP800</name>
  </trkpt>
  <trkpt lat="57.32588" lon="12.22156">
    <name>TP801</name>
  </trkpt>
  <trkpt lat="57.32588" lon="12.22158">
    <name>TP802</name>
  </trkpt>
  <trkpt lat="57.32585" lon="12.22182">
    <name>TP803</name>
  </trkpt>
  <trkpt lat="57.32585" lon="12.22188">
    <name>TP804</name>
  </trkpt>
  <trkpt lat="57.32585" lon="12.22213">
    <name>TP805</name>
  </trkpt>
  <trkpt lat="57.32585" lon="12.22222">
    <name>TP806</name>
  </trkpt>
  <trkpt lat="57.32585" lon="12.22265">
    <name>TP807</name>
  </trkpt>
  <trkpt lat="57.32585" lon="12.22288">
    <name>TP808</name>
  </trkpt>
  <trkpt lat="57.32585" lon="12.22326">
    <name>TP809</name>
  </trkpt>
  <trkpt lat="57.32586" lon="12.22365">
    <name>TP810</name>
  </trkpt>
  <trkpt lat="57.32589" lon="12.22388">
    <name>TP811</name>
  </trkpt>
  <trkpt lat="57.3259" lon="12.224">
    <name>TP812</name>
  </trkpt>
  <trkpt lat="57.32594" lon="12.22419">
    <name>TP813</name>
  </trkpt>
  <trkpt lat="57.32597" lon="12.22431">
    <name>TP814</name>
  </trkpt>
  <trkpt lat="57.32609" lon="12.22469">
    <name>TP815</name>
  </trkpt>
  <trkpt lat="57.32621" lon="12.22506">
    <name>TP816</name>
  </trkpt>
  <trkpt lat="57.32623" lon="12.22511">
    <name>TP817</name>
  </trkpt>
  <trkpt lat="57.32631" lon="12.22533">
    <name>TP818</name>
  </trkpt>
  <trkpt lat="57.32642" lon="12.22561">
    <name>TP819</name>
  </trkpt>
  <trkpt lat="57.32643" lon="12.22564">
    <name>TP820</name>
  </trkpt>
  <trkpt lat="57.32653" lon="12.22587">
    <name>TP821</name>
  </trkpt>
  <trkpt lat="57.32662" lon="12.22611">
    <name>TP822</name>
  </trkpt>
  <trkpt lat="57.32676" lon="12.22638">
    <name>TP823</name>
  </trkpt>
  <trkpt lat="57.32679" lon="12.22646">
    <name>TP824</name>
  </trkpt>
  <trkpt lat="57.32689" lon="12.22667">
    <name>TP825</name>
  </trkpt>
  <trkpt lat="57.32697" lon="12.22686">
    <name>TP826</name>
  </trkpt>
  <trkpt lat="57.32705" lon="12.22711">
    <name>TP827</name>
  </trkpt>
  <trkpt lat="57.32707" lon="12.22719">
    <name>TP828</name>
  </trkpt>
  <trkpt lat="57.3271" lon="12.22732">
    <name>TP829</name>
  </trkpt>
  <trkpt lat="57.32715" lon="12.22749">
    <name>TP830</name>
  </trkpt>
  <trkpt lat="57.3272" lon="12.22773">
    <name>TP831</name>
  </trkpt>
  <trkpt lat="57.32724" lon="12.22791">
    <name>TP832</name>
  </trkpt>
  <trkpt lat="57.32732" lon="12.2283">
    <name>TP833</name>
  </trkpt>
  <trkpt lat="57.3274" lon="12.22865">
    <name>TP834</name>
  </trkpt>
  <trkpt lat="57.32741" lon="12.22866">
    <name>TP835</name>
  </trkpt>
  <trkpt lat="57.32756" lon="12.22925">
    <name>TP836</name>
  </trkpt>
  <trkpt lat="57.32759" lon="12.22938">
    <name>TP837</name>
  </trkpt>
  <trkpt lat="57.32779" lon="12.23005">
    <name>TP838</name>
  </trkpt>
  <trkpt lat="57.32802" lon="12.2309">
    <name>TP839</name>
  </trkpt>
  <trkpt lat="57.32814" lon="12.23133">
    <name>TP840</name>
  </trkpt>
  <trkpt lat="57.32816" lon="12.2314">
    <name>TP841</name>
  </trkpt>
  <trkpt lat="57.32823" lon="12.2316">
    <name>TP842</name>
  </trkpt>
  <trkpt lat="57.32823" lon="12.23161">
    <name>TP843</name>
  </trkpt>
  <trkpt lat="57.32834" lon="12.23193">
    <name>TP844</name>
  </trkpt>
  <trkpt lat="57.32844" lon="12.23218">
    <name>TP845</name>
  </trkpt>
  <trkpt lat="57.32855" lon="12.23242">
    <name>TP846</name>
  </trkpt>
  <trkpt lat="57.32863" lon="12.2326">
    <name>TP847</name>
  </trkpt>
  <trkpt lat="57.32875" lon="12.23284">
    <name>TP848</name>
  </trkpt>
  <trkpt lat="57.32878" lon="12.23292">
    <name>TP849</name>
  </trkpt>
  <trkpt lat="57.3289" lon="12.23318">
    <name>TP850</name>
  </trkpt>
  <trkpt lat="57.32894" lon="12.23329">
    <name>TP851</name>
  </trkpt>
  <trkpt lat="57.32901" lon="12.23344">
    <name>TP852</name>
  </trkpt>
  <trkpt lat="57.32905" lon="12.23354">
    <name>TP853</name>
  </trkpt>
  <trkpt lat="57.32923" lon="12.23397">
    <name>TP854</name>
  </trkpt>
  <trkpt lat="57.32933" lon="12.23424">
    <name>TP855</name>
  </trkpt>
  <trkpt lat="57.32937" lon="12.23434">
    <name>TP856</name>
  </trkpt>
  <trkpt lat="57.32943" lon="12.23452">
    <name>TP857</name>
  </trkpt>
  <trkpt lat="57.32948" lon="12.23468">
    <name>TP858</name>
  </trkpt>
  <trkpt lat="57.32951" lon="12.23481">
    <name>TP859</name>
  </trkpt>
  <trkpt lat="57.32952" lon="12.23486">
    <name>TP860</name>
  </trkpt>
  <trkpt lat="57.32961" lon="12.23523">
    <name>TP861</name>
  </trkpt>
  <trkpt lat="57.3297" lon="12.23579">
    <name>TP862</name>
  </trkpt>
  <trkpt lat="57.32972" lon="12.23591">
    <name>TP863</name>
  </trkpt>
  <trkpt lat="57.32981" lon="12.23639">
    <name>TP864</name>
  </trkpt>
  <trkpt lat="57.32986" lon="12.23668">
    <name>TP865</name>
  </trkpt>
  <trkpt lat="57.32993" lon="12.23701">
    <name>TP866</name>
  </trkpt>
  <trkpt lat="57.32994" lon="12.23703">
    <name>TP867</name>
  </trkpt>
  <trkpt lat="57.33001" lon="12.23731">
    <name>TP868</name>
  </trkpt>
  <trkpt lat="57.33004" lon="12.23742">
    <name>TP869</name>
  </trkpt>
  <trkpt lat="57.33012" lon="12.2377">
    <name>TP870</name>
  </trkpt>
  <trkpt lat="57.33033" lon="12.23841">
    <name>TP871</name>
  </trkpt>
  <trkpt lat="57.33035" lon="12.23849">
    <name>TP872</name>
  </trkpt>
  <trkpt lat="57.33043" lon="12.23879">
    <name>TP873</name>
  </trkpt>
  <trkpt lat="57.33053" lon="12.23916">
    <name>TP874</name>
  </trkpt>
  <trkpt lat="57.33067" lon="12.23968">
    <name>TP875</name>
  </trkpt>
  <trkpt lat="57.33092" lon="12.24051">
    <name>TP876</name>
  </trkpt>
  <trkpt lat="57.3311" lon="12.24111">
    <name>TP877</name>
  </trkpt>
  <trkpt lat="57.33111" lon="12.24114">
    <name>TP878</name>
  </trkpt>
  <trkpt lat="57.33118" lon="12.24136">
    <name>TP879</name>
  </trkpt>
  <trkpt lat="57.33119" lon="12.2414">
    <name>TP880</name>
  </trkpt>
  <trkpt lat="57.33129" lon="12.24173">
    <name>TP881</name>
  </trkpt>
  <trkpt lat="57.33133" lon="12.24185">
    <name>TP882</name>
  </trkpt>
  <trkpt lat="57.33142" lon="12.24209">
    <name>TP883</name>
  </trkpt>
  <trkpt lat="57.33147" lon="12.24225">
    <name>TP884</name>
  </trkpt>
  <trkpt lat="57.3315" lon="12.24239">
    <name>TP885</name>
  </trkpt>
  <trkpt lat="57.33153" lon="12.24257">
    <name>TP886</name>
  </trkpt>
  <trkpt lat="57.33154" lon="12.24262">
    <name>TP887</name>
  </trkpt>
  <trkpt lat="57.33159" lon="12.24303">
    <name>TP888</name>
  </trkpt>
  <trkpt lat="57.3316" lon="12.24312">
    <name>TP889</name>
  </trkpt>
  <trkpt lat="57.33165" lon="12.24355">
    <name>TP890</name>
  </trkpt>
  <trkpt lat="57.3316472" lon="12.2435502">
    <name>TP891</name>
  </trkpt>
  <trkpt lat="57.33142" lon="12.24381">
    <name>TP892</name>
  </trkpt>
  <trkpt lat="57.3313" lon="12.24397">
    <name>TP893</name>
  </trkpt>
  <trkpt lat="57.33121" lon="12.24413">
    <name>TP894</name>
  </trkpt>
  <trkpt lat="57.33114" lon="12.24425">
    <name>TP895</name>
  </trkpt>
  <trkpt lat="57.3311" lon="12.24432">
    <name>TP896</name>
  </trkpt>
  <trkpt lat="57.33108" lon="12.24436">
    <name>TP897</name>
  </trkpt>
  <trkpt lat="57.33094" lon="12.24458">
    <name>TP898</name>
  </trkpt>
  <trkpt lat="57.33091" lon="12.24464">
    <name>TP899</name>
  </trkpt>
  <trkpt lat="57.33082" lon="12.24478">
    <name>TP900</name>
  </trkpt>
  <trkpt lat="57.33073" lon="12.24488">
    <name>TP901</name>
  </trkpt>
  <trkpt lat="57.33064" lon="12.24496">
    <name>TP902</name>
  </trkpt>
  <trkpt lat="57.33056" lon="12.24502">
    <name>TP903</name>
  </trkpt>
  <trkpt lat="57.33049" lon="12.24504">
    <name>TP904</name>
  </trkpt>
  <trkpt lat="57.33039" lon="12.24506">
    <name>TP905</name>
  </trkpt>
  <trkpt lat="57.33038" lon="12.24506">
    <name>TP906</name>
  </trkpt>
  <trkpt lat="57.3303" lon="12.24506">
    <name>TP907</name>
  </trkpt>
  <trkpt lat="57.33028" lon="12.24505">
    <name>TP908</name>
  </trkpt>
  <trkpt lat="57.33015" lon="12.24503">
    <name>TP909</name>
  </trkpt>
  <trkpt lat="57.33012" lon="12.24503">
    <name>TP910</name>
  </trkpt>
  <trkpt lat="57.33003" lon="12.24505">
    <name>TP911</name>
  </trkpt>
  <trkpt lat="57.33001" lon="12.24506">
    <name>TP912</name>
  </trkpt>
  <trkpt lat="57.32994" lon="12.2451">
    <name>TP913</name>
  </trkpt>
  <trkpt lat="57.32987" lon="12.24514">
    <name>TP914</name>
  </trkpt>
  <trkpt lat="57.32986" lon="12.24516">
    <name>TP915</name>
  </trkpt>
  <trkpt lat="57.32984" lon="12.24518">
    <name>TP916</name>
  </trkpt>
  <trkpt lat="57.3298" lon="12.24526">
    <name>TP917</name>
  </trkpt>
  <trkpt lat="57.3298" lon="12.24527">
    <name>TP918</name>
  </trkpt>
  <trkpt lat="57.32977" lon="12.24536">
    <name>TP919</name>
  </trkpt>
  <trkpt lat="57.32972" lon="12.24561">
    <name>TP920</name>
  </trkpt>
  <trkpt lat="57.32967" lon="12.2458">
    <name>TP921</name>
  </trkpt>
  <trkpt lat="57.32963" lon="12.24591">
    <name>TP922</name>
  </trkpt>
  <trkpt lat="57.32956" lon="12.246">
    <name>TP923</name>
  </trkpt>
  <trkpt lat="57.32949" lon="12.24605">
    <name>TP924</name>
  </trkpt>
  <trkpt lat="57.32941" lon="12.24612">
    <name>TP925</name>
  </trkpt>
  <trkpt lat="57.32938" lon="12.24614">
    <name>TP926</name>
  </trkpt>
  <trkpt lat="57.32905" lon="12.24641">
    <name>TP927</name>
  </trkpt>
  <trkpt lat="57.32892" lon="12.24652">
    <name>TP928</name>
  </trkpt>
  <trkpt lat="57.32884" lon="12.24659">
    <name>TP929</name>
  </trkpt>
  <trkpt lat="57.32867" lon="12.24673">
    <name>TP930</name>
  </trkpt>
  <trkpt lat="57.32859" lon="12.2468">
    <name>TP931</name>
  </trkpt>
  <trkpt lat="57.32858" lon="12.2468">
    <name>TP932</name>
  </trkpt>
  <trkpt lat="57.32842" lon="12.24693">
    <name>TP933</name>
  </trkpt>
  <trkpt lat="57.32834" lon="12.247">
    <name>TP934</name>
  </trkpt>
  <trkpt lat="57.32819" lon="12.24713">
    <name>TP935</name>
  </trkpt>
  <trkpt lat="57.32792" lon="12.24726">
    <name>TP936</name>
  </trkpt>
  <trkpt lat="57.32791" lon="12.24726">
    <name>TP937</name>
  </trkpt>
  <trkpt lat="57.32783" lon="12.24731">
    <name>TP938</name>
  </trkpt>
  <trkpt lat="57.32779" lon="12.24733">
    <name>TP939</name>
  </trkpt>
  <trkpt lat="57.32774" lon="12.24736">
    <name>TP940</name>
  </trkpt>
  <trkpt lat="57.32767" lon="12.2474">
    <name>TP941</name>
  </trkpt>
  <trkpt lat="57.32766" lon="12.24741">
    <name>TP942</name>
  </trkpt>
  <trkpt lat="57.32758" lon="12.24748">
    <name>TP943</name>
  </trkpt>
  <trkpt lat="57.3275" lon="12.24755">
    <name>TP944</name>
  </trkpt>
  <trkpt lat="57.32733" lon="12.24768">
    <name>TP945</name>
  </trkpt>
  <trkpt lat="57.32733" lon="12.24769">
    <name>TP946</name>
  </trkpt>
  <trkpt lat="57.32725" lon="12.24775">
    <name>TP947</name>
  </trkpt>
  <trkpt lat="57.32723" lon="12.24776">
    <name>TP948</name>
  </trkpt>
  <trkpt lat="57.32703" lon="12.24783">
    <name>TP949</name>
  </trkpt>
  <trkpt lat="57.32698" lon="12.24784">
    <name>TP950</name>
  </trkpt>
  <trkpt lat="57.32695" lon="12.24784">
    <name>TP951</name>
  </trkpt>
  <trkpt lat="57.32691" lon="12.2479">
    <name>TP952</name>
  </trkpt>
  <trkpt lat="57.3269" lon="12.24791">
    <name>TP953</name>
  </trkpt>
  <trkpt lat="57.3269041" lon="12.2479086">
    <name>TP954</name>
  </trkpt>
  <trkpt lat="57.32679" lon="12.24728">
    <name>TP955</name>
  </trkpt>
  <trkpt lat="57.32673" lon="12.24696">
    <name>TP956</name>
  </trkpt>
  <trkpt lat="57.32668" lon="12.24664">
    <name>TP957</name>
  </trkpt>
  <trkpt lat="57.32661" lon="12.2463">
    <name>TP958</name>
  </trkpt>
  <trkpt lat="57.3265" lon="12.24615">
    <name>TP959</name>
  </trkpt>
  <trkpt lat="57.3263" lon="12.24616">
    <name>TP960</name>
  </trkpt>
  <trkpt lat="57.3263" lon="12.24617">
    <name>TP961</name>
  </trkpt>
  <trkpt lat="57.32623" lon="12.24621">
    <name>TP962</name>
  </trkpt>
  <trkpt lat="57.32606" lon="12.24633">
    <name>TP963</name>
  </trkpt>
  <trkpt lat="57.32595" lon="12.24641">
    <name>TP964</name>
  </trkpt>
  <trkpt lat="57.32589" lon="12.24639">
    <name>TP965</name>
  </trkpt>
  <trkpt lat="57.32572" lon="12.24634">
    <name>TP966</name>
  </trkpt>
  <trkpt lat="57.3257198" lon="12.2463445">
    <name>TP967</name>
  </trkpt>
  <trkpt lat="57.3257198" lon="12.2463445">
    <name>TP968</name>
  </trkpt>
  <trkpt lat="57.3257198" lon="12.2463445">
    <name>TP969</name>
  </trkpt>
  </trkseg>
</trk>
</gpx>