<?xml version="1.0" encoding="UTF-8" standalone="no" ?>
<gpx xmlns="http://www.topografix.com/GPX/1/1" xmlns:gpxx="http://www.garmin.com/xmlschemas/GpxExtensions/v3" xmlns:gpxtpx="http://www.garmin.com/xmlschemas/TrackPointExtension/v1" creator="mapstogpx.com" version="1.1" xmlns:xsi="http://www.w3.org/2001/XMLSchema-instance" xsi:schemaLocation="http://www.topografix.com/GPX/1/1 http://www.topografix.com/GPX/1/1/gpx.xsd http://www.garmin.com/xmlschemas/GpxExtensions/v3 http://www.garmin.com/xmlschemas/GpxExtensionsv3.xsd http://www.garmin.com/xmlschemas/TrackPointExtension/v1 http://www.garmin.com/xmlschemas/TrackPointExtensionv1.xsd">
  <metadata>
    <link href="http://www.mapstogpx.com">
      <text>Sverrir Sigmundarson</text>
    </link>
    <!--desc>Powered by Google, ©2025 Google</desc-->
    <!--copyright author="Google Inc">
    	<year>2025</year>
    	<license>https://developers.google.com/maps/terms</license>
    </copyright-->
    <!--url>https://www.google.com/maps/dir/51.6634307,5.3733205/51.6579623,5.32451/Jumbo,+Maaskantje+29,+5271+XD+Sint-Michielsgestel,+Netherlands/51.6635069,5.3727419/@51.6631663,5.3716963,249m/data=!3m1!1e3!4m11!4m10!1m0!1m0!1m5!1m1!1s0x47c6ef58b119b9e5:0xe555b336b5ce64ad!2m2!1d5.369455!2d51.66062!1m0!3e0?entry=tts&g_ep=EgoyMDI1MDkwNy4wKgBIAVAD&skid=f41f540f-9c84-42c8-a4e7-3dbdb85d3049&hl=en</url-->
    <time>2025-09-10T13:36:58Z</time>
  </metadata>
  <wpt lat="51.6634307" lon="5.3733205">
    <name>5275 JM Den Dungen</name>
    <desc>Grinsel 55, 5275 JM Den Dungen, Netherlands</desc>
  </wpt>
  <wpt lat="51.6579623" lon="5.32451">
    <name>Sint-Michielsgestel</name>
    <desc>Houwsestraat, Sint-Michielsgestel, Netherlands</desc>
  </wpt>
  <wpt lat="51.66062" lon="5.369455">
    <name>Jumbo</name>
    <desc>Jumbo, Maaskantje 29, 5271 XD Sint-Michielsgestel, Netherlands</desc>
  </wpt>
  <wpt lat="51.6635069" lon="5.3727419">
    <name>5275 JP Den Dungen</name>
    <desc>Grinsel 38-58, 5275 JP Den Dungen, Netherlands</desc>
  </wpt>
<trk>
  <name>July 27 2025 3 driving</name>
  <number>1</number>
  <trkseg>
  <trkpt lat="51.6632635" lon="5.3730663">
    <name>TP001</name>
  </trkpt>
  <trkpt lat="51.66347" lon="5.37272">
    <name>TP002</name>
  </trkpt>
  <trkpt lat="51.66349" lon="5.37267">
    <name>TP003</name>
  </trkpt>
  <trkpt lat="51.66353" lon="5.37252">
    <name>TP004</name>
  </trkpt>
  <trkpt lat="51.66354" lon="5.37162">
    <name>TP005</name>
  </trkpt>
  <trkpt lat="51.66354" lon="5.37152">
    <name>TP006</name>
  </trkpt>
  <trkpt lat="51.66353" lon="5.37145">
    <name>TP007</name>
  </trkpt>
  <trkpt lat="51.66346" lon="5.3712">
    <name>TP008</name>
  </trkpt>
  <trkpt lat="51.66346" lon="5.37105">
    <name>TP009</name>
  </trkpt>
  <trkpt lat="51.66346" lon="5.37089">
    <name>TP010</name>
  </trkpt>
  <trkpt lat="51.66347" lon="5.37077">
    <name>TP011</name>
  </trkpt>
  <trkpt lat="51.66348" lon="5.37076">
    <name>TP012</name>
  </trkpt>
  <trkpt lat="51.66349" lon="5.37062">
    <name>TP013</name>
  </trkpt>
  <trkpt lat="51.66351" lon="5.37045">
    <name>TP014</name>
  </trkpt>
  <trkpt lat="51.66353" lon="5.37024">
    <name>TP015</name>
  </trkpt>
  <trkpt lat="51.66354" lon="5.37016">
    <name>TP016</name>
  </trkpt>
  <trkpt lat="51.66355" lon="5.3701">
    <name>TP017</name>
  </trkpt>
  <trkpt lat="51.66356" lon="5.37">
    <name>TP018</name>
  </trkpt>
  <trkpt lat="51.66356" lon="5.36996">
    <name>TP019</name>
  </trkpt>
  <trkpt lat="51.66358" lon="5.36992">
    <name>TP020</name>
  </trkpt>
  <trkpt lat="51.66373" lon="5.3695">
    <name>TP021</name>
  </trkpt>
  <trkpt lat="51.66397" lon="5.36903">
    <name>TP022</name>
  </trkpt>
  <trkpt lat="51.664" lon="5.36895">
    <name>TP023</name>
  </trkpt>
  <trkpt lat="51.66403" lon="5.36887">
    <name>TP024</name>
  </trkpt>
  <trkpt lat="51.66406" lon="5.3688">
    <name>TP025</name>
  </trkpt>
  <trkpt lat="51.66408" lon="5.36872">
    <name>TP026</name>
  </trkpt>
  <trkpt lat="51.66411" lon="5.36859">
    <name>TP027</name>
  </trkpt>
  <trkpt lat="51.66411" lon="5.36852">
    <name>TP028</name>
  </trkpt>
  <trkpt lat="51.66411" lon="5.36845">
    <name>TP029</name>
  </trkpt>
  <trkpt lat="51.6641" lon="5.36834">
    <name>TP030</name>
  </trkpt>
  <trkpt lat="51.66409" lon="5.36828">
    <name>TP031</name>
  </trkpt>
  <trkpt lat="51.66405" lon="5.36814">
    <name>TP032</name>
  </trkpt>
  <trkpt lat="51.6640531" lon="5.3681382">
    <name>TP033</name>
  </trkpt>
  <trkpt lat="51.66378" lon="5.36833">
    <name>TP034</name>
  </trkpt>
  <trkpt lat="51.66364" lon="5.36843">
    <name>TP035</name>
  </trkpt>
  <trkpt lat="51.66323" lon="5.36875">
    <name>TP036</name>
  </trkpt>
  <trkpt lat="51.6632283" lon="5.368747">
    <name>TP037</name>
  </trkpt>
  <trkpt lat="51.66312" lon="5.36883">
    <name>TP038</name>
  </trkpt>
  <trkpt lat="51.66307" lon="5.36886">
    <name>TP039</name>
  </trkpt>
  <trkpt lat="51.66299" lon="5.36891">
    <name>TP040</name>
  </trkpt>
  <trkpt lat="51.66289" lon="5.36897">
    <name>TP041</name>
  </trkpt>
  <trkpt lat="51.66282" lon="5.369">
    <name>TP042</name>
  </trkpt>
  <trkpt lat="51.66276" lon="5.36903">
    <name>TP043</name>
  </trkpt>
  <trkpt lat="51.66249" lon="5.36903">
    <name>TP044</name>
  </trkpt>
  <trkpt lat="51.66221" lon="5.36904">
    <name>TP045</name>
  </trkpt>
  <trkpt lat="51.66208" lon="5.36905">
    <name>TP046</name>
  </trkpt>
  <trkpt lat="51.66197" lon="5.36906">
    <name>TP047</name>
  </trkpt>
  <trkpt lat="51.6619" lon="5.36907">
    <name>TP048</name>
  </trkpt>
  <trkpt lat="51.66171" lon="5.36912">
    <name>TP049</name>
  </trkpt>
  <trkpt lat="51.6615" lon="5.36921">
    <name>TP050</name>
  </trkpt>
  <trkpt lat="51.6612" lon="5.3694">
    <name>TP051</name>
  </trkpt>
  <trkpt lat="51.661" lon="5.36953">
    <name>TP052</name>
  </trkpt>
  <trkpt lat="51.6609" lon="5.36959">
    <name>TP053</name>
  </trkpt>
  <trkpt lat="51.66081" lon="5.36964">
    <name>TP054</name>
  </trkpt>
  <trkpt lat="51.66079" lon="5.36965">
    <name>TP055</name>
  </trkpt>
  <trkpt lat="51.6607" lon="5.36971">
    <name>TP056</name>
  </trkpt>
  <trkpt lat="51.66052" lon="5.36982">
    <name>TP057</name>
  </trkpt>
  <trkpt lat="51.66035" lon="5.36994">
    <name>TP058</name>
  </trkpt>
  <trkpt lat="51.66023" lon="5.37003">
    <name>TP059</name>
  </trkpt>
  <trkpt lat="51.66013" lon="5.37013">
    <name>TP060</name>
  </trkpt>
  <trkpt lat="51.65972" lon="5.37061">
    <name>TP061</name>
  </trkpt>
  <trkpt lat="51.65967" lon="5.37068">
    <name>TP062</name>
  </trkpt>
  <trkpt lat="51.65961" lon="5.37074">
    <name>TP063</name>
  </trkpt>
  <trkpt lat="51.65913" lon="5.37134">
    <name>TP064</name>
  </trkpt>
  <trkpt lat="51.659" lon="5.37148">
    <name>TP065</name>
  </trkpt>
  <trkpt lat="51.65887" lon="5.37161">
    <name>TP066</name>
  </trkpt>
  <trkpt lat="51.65885" lon="5.37162">
    <name>TP067</name>
  </trkpt>
  <trkpt lat="51.65881" lon="5.37161">
    <name>TP068</name>
  </trkpt>
  <trkpt lat="51.65874" lon="5.37159">
    <name>TP069</name>
  </trkpt>
  <trkpt lat="51.6587411" lon="5.3715935">
    <name>TP070</name>
  </trkpt>
  <trkpt lat="51.65797" lon="5.37032">
    <name>TP071</name>
  </trkpt>
  <trkpt lat="51.65779" lon="5.37001">
    <name>TP072</name>
  </trkpt>
  <trkpt lat="51.65767" lon="5.36982">
    <name>TP073</name>
  </trkpt>
  <trkpt lat="51.65753" lon="5.36959">
    <name>TP074</name>
  </trkpt>
  <trkpt lat="51.65743" lon="5.36942">
    <name>TP075</name>
  </trkpt>
  <trkpt lat="51.65738" lon="5.36931">
    <name>TP076</name>
  </trkpt>
  <trkpt lat="51.65736" lon="5.36927">
    <name>TP077</name>
  </trkpt>
  <trkpt lat="51.65724" lon="5.36901">
    <name>TP078</name>
  </trkpt>
  <trkpt lat="51.65718" lon="5.36886">
    <name>TP079</name>
  </trkpt>
  <trkpt lat="51.65712" lon="5.36874">
    <name>TP080</name>
  </trkpt>
  <trkpt lat="51.65705" lon="5.3686">
    <name>TP081</name>
  </trkpt>
  <trkpt lat="51.65636" lon="5.36709">
    <name>TP082</name>
  </trkpt>
  <trkpt lat="51.65622" lon="5.36674">
    <name>TP083</name>
  </trkpt>
  <trkpt lat="51.65608" lon="5.36638">
    <name>TP084</name>
  </trkpt>
  <trkpt lat="51.65597" lon="5.36615">
    <name>TP085</name>
  </trkpt>
  <trkpt lat="51.65589" lon="5.36594">
    <name>TP086</name>
  </trkpt>
  <trkpt lat="51.65582" lon="5.36575">
    <name>TP087</name>
  </trkpt>
  <trkpt lat="51.65576" lon="5.36551">
    <name>TP088</name>
  </trkpt>
  <trkpt lat="51.65569" lon="5.36526">
    <name>TP089</name>
  </trkpt>
  <trkpt lat="51.65566" lon="5.36516">
    <name>TP090</name>
  </trkpt>
  <trkpt lat="51.65558" lon="5.36491">
    <name>TP091</name>
  </trkpt>
  <trkpt lat="51.65546" lon="5.36454">
    <name>TP092</name>
  </trkpt>
  <trkpt lat="51.65526" lon="5.36399">
    <name>TP093</name>
  </trkpt>
  <trkpt lat="51.6551" lon="5.36354">
    <name>TP094</name>
  </trkpt>
  <trkpt lat="51.65493" lon="5.36309">
    <name>TP095</name>
  </trkpt>
  <trkpt lat="51.65485" lon="5.36285">
    <name>TP096</name>
  </trkpt>
  <trkpt lat="51.6547" lon="5.36244">
    <name>TP097</name>
  </trkpt>
  <trkpt lat="51.65459" lon="5.36215">
    <name>TP098</name>
  </trkpt>
  <trkpt lat="51.65457" lon="5.3621">
    <name>TP099</name>
  </trkpt>
  <trkpt lat="51.65453" lon="5.36201">
    <name>TP100</name>
  </trkpt>
  <trkpt lat="51.65448" lon="5.36192">
    <name>TP101</name>
  </trkpt>
  <trkpt lat="51.65443" lon="5.36185">
    <name>TP102</name>
  </trkpt>
  <trkpt lat="51.65406" lon="5.36149">
    <name>TP103</name>
  </trkpt>
  <trkpt lat="51.65359" lon="5.36106">
    <name>TP104</name>
  </trkpt>
  <trkpt lat="51.65345" lon="5.36092">
    <name>TP105</name>
  </trkpt>
  <trkpt lat="51.65333" lon="5.36082">
    <name>TP106</name>
  </trkpt>
  <trkpt lat="51.65325" lon="5.36073">
    <name>TP107</name>
  </trkpt>
  <trkpt lat="51.65315" lon="5.36052">
    <name>TP108</name>
  </trkpt>
  <trkpt lat="51.65309" lon="5.36044">
    <name>TP109</name>
  </trkpt>
  <trkpt lat="51.65306" lon="5.36039">
    <name>TP110</name>
  </trkpt>
  <trkpt lat="51.65286" lon="5.36008">
    <name>TP111</name>
  </trkpt>
  <trkpt lat="51.6528562" lon="5.360079">
    <name>TP112</name>
  </trkpt>
  <trkpt lat="51.65286" lon="5.36003">
    <name>TP113</name>
  </trkpt>
  <trkpt lat="51.65287" lon="5.35998">
    <name>TP114</name>
  </trkpt>
  <trkpt lat="51.65287" lon="5.35994">
    <name>TP115</name>
  </trkpt>
  <trkpt lat="51.65287" lon="5.35989">
    <name>TP116</name>
  </trkpt>
  <trkpt lat="51.65286" lon="5.35984">
    <name>TP117</name>
  </trkpt>
  <trkpt lat="51.65285" lon="5.35979">
    <name>TP118</name>
  </trkpt>
  <trkpt lat="51.65284" lon="5.35975">
    <name>TP119</name>
  </trkpt>
  <trkpt lat="51.65283" lon="5.35971">
    <name>TP120</name>
  </trkpt>
  <trkpt lat="51.65281" lon="5.35967">
    <name>TP121</name>
  </trkpt>
  <trkpt lat="51.6528" lon="5.35965">
    <name>TP122</name>
  </trkpt>
  <trkpt lat="51.65279" lon="5.35963">
    <name>TP123</name>
  </trkpt>
  <trkpt lat="51.65277" lon="5.35962">
    <name>TP124</name>
  </trkpt>
  <trkpt lat="51.65276" lon="5.3596">
    <name>TP125</name>
  </trkpt>
  <trkpt lat="51.65275" lon="5.35959">
    <name>TP126</name>
  </trkpt>
  <trkpt lat="51.65273" lon="5.35957">
    <name>TP127</name>
  </trkpt>
  <trkpt lat="51.65272" lon="5.35956">
    <name>TP128</name>
  </trkpt>
  <trkpt lat="51.65271" lon="5.35955">
    <name>TP129</name>
  </trkpt>
  <trkpt lat="51.65266" lon="5.35954">
    <name>TP130</name>
  </trkpt>
  <trkpt lat="51.65261" lon="5.35955">
    <name>TP131</name>
  </trkpt>
  <trkpt lat="51.65258" lon="5.35955">
    <name>TP132</name>
  </trkpt>
  <trkpt lat="51.65255" lon="5.35956">
    <name>TP133</name>
  </trkpt>
  <trkpt lat="51.65253" lon="5.35956">
    <name>TP134</name>
  </trkpt>
  <trkpt lat="51.65251" lon="5.35957">
    <name>TP135</name>
  </trkpt>
  <trkpt lat="51.65249" lon="5.35959">
    <name>TP136</name>
  </trkpt>
  <trkpt lat="51.65246" lon="5.35961">
    <name>TP137</name>
  </trkpt>
  <trkpt lat="51.65244" lon="5.35963">
    <name>TP138</name>
  </trkpt>
  <trkpt lat="51.65235" lon="5.35958">
    <name>TP139</name>
  </trkpt>
  <trkpt lat="51.65219" lon="5.35944">
    <name>TP140</name>
  </trkpt>
  <trkpt lat="51.65212" lon="5.35939">
    <name>TP141</name>
  </trkpt>
  <trkpt lat="51.65204" lon="5.35934">
    <name>TP142</name>
  </trkpt>
  <trkpt lat="51.65201" lon="5.35933">
    <name>TP143</name>
  </trkpt>
  <trkpt lat="51.65188" lon="5.35929">
    <name>TP144</name>
  </trkpt>
  <trkpt lat="51.65183" lon="5.35928">
    <name>TP145</name>
  </trkpt>
  <trkpt lat="51.65177" lon="5.3593">
    <name>TP146</name>
  </trkpt>
  <trkpt lat="51.65173" lon="5.35928">
    <name>TP147</name>
  </trkpt>
  <trkpt lat="51.65162" lon="5.35926">
    <name>TP148</name>
  </trkpt>
  <trkpt lat="51.65155" lon="5.35924">
    <name>TP149</name>
  </trkpt>
  <trkpt lat="51.65138" lon="5.35914">
    <name>TP150</name>
  </trkpt>
  <trkpt lat="51.65128" lon="5.35906">
    <name>TP151</name>
  </trkpt>
  <trkpt lat="51.65125" lon="5.35904">
    <name>TP152</name>
  </trkpt>
  <trkpt lat="51.65104" lon="5.35884">
    <name>TP153</name>
  </trkpt>
  <trkpt lat="51.65081" lon="5.35864">
    <name>TP154</name>
  </trkpt>
  <trkpt lat="51.65058" lon="5.35844">
    <name>TP155</name>
  </trkpt>
  <trkpt lat="51.65051" lon="5.35838">
    <name>TP156</name>
  </trkpt>
  <trkpt lat="51.65043" lon="5.35832">
    <name>TP157</name>
  </trkpt>
  <trkpt lat="51.65009" lon="5.35805">
    <name>TP158</name>
  </trkpt>
  <trkpt lat="51.64975" lon="5.35778">
    <name>TP159</name>
  </trkpt>
  <trkpt lat="51.64939" lon="5.35748">
    <name>TP160</name>
  </trkpt>
  <trkpt lat="51.64868" lon="5.35688">
    <name>TP161</name>
  </trkpt>
  <trkpt lat="51.64857" lon="5.35678">
    <name>TP162</name>
  </trkpt>
  <trkpt lat="51.64849" lon="5.35668">
    <name>TP163</name>
  </trkpt>
  <trkpt lat="51.64834" lon="5.35647">
    <name>TP164</name>
  </trkpt>
  <trkpt lat="51.64825" lon="5.35632">
    <name>TP165</name>
  </trkpt>
  <trkpt lat="51.64815" lon="5.35608">
    <name>TP166</name>
  </trkpt>
  <trkpt lat="51.6481484" lon="5.356081">
    <name>TP167</name>
  </trkpt>
  <trkpt lat="51.64822" lon="5.35599">
    <name>TP168</name>
  </trkpt>
  <trkpt lat="51.64842" lon="5.35574">
    <name>TP169</name>
  </trkpt>
  <trkpt lat="51.64869" lon="5.35541">
    <name>TP170</name>
  </trkpt>
  <trkpt lat="51.64888" lon="5.35514">
    <name>TP171</name>
  </trkpt>
  <trkpt lat="51.6489" lon="5.35511">
    <name>TP172</name>
  </trkpt>
  <trkpt lat="51.64893" lon="5.35505">
    <name>TP173</name>
  </trkpt>
  <trkpt lat="51.64895" lon="5.35498">
    <name>TP174</name>
  </trkpt>
  <trkpt lat="51.64898" lon="5.3549">
    <name>TP175</name>
  </trkpt>
  <trkpt lat="51.64912" lon="5.35428">
    <name>TP176</name>
  </trkpt>
  <trkpt lat="51.64915" lon="5.35417">
    <name>TP177</name>
  </trkpt>
  <trkpt lat="51.64924" lon="5.35391">
    <name>TP178</name>
  </trkpt>
  <trkpt lat="51.64952" lon="5.35317">
    <name>TP179</name>
  </trkpt>
  <trkpt lat="51.64954" lon="5.35313">
    <name>TP180</name>
  </trkpt>
  <trkpt lat="51.64955" lon="5.35308">
    <name>TP181</name>
  </trkpt>
  <trkpt lat="51.64955" lon="5.35303">
    <name>TP182</name>
  </trkpt>
  <trkpt lat="51.64955" lon="5.353">
    <name>TP183</name>
  </trkpt>
  <trkpt lat="51.64954" lon="5.35295">
    <name>TP184</name>
  </trkpt>
  <trkpt lat="51.64953" lon="5.35291">
    <name>TP185</name>
  </trkpt>
  <trkpt lat="51.64946" lon="5.35257">
    <name>TP186</name>
  </trkpt>
  <trkpt lat="51.6494" lon="5.35215">
    <name>TP187</name>
  </trkpt>
  <trkpt lat="51.6494" lon="5.35205">
    <name>TP188</name>
  </trkpt>
  <trkpt lat="51.6493978" lon="5.352047">
    <name>TP189</name>
  </trkpt>
  <trkpt lat="51.65006" lon="5.35214">
    <name>TP190</name>
  </trkpt>
  <trkpt lat="51.65012" lon="5.35217">
    <name>TP191</name>
  </trkpt>
  <trkpt lat="51.65014" lon="5.35218">
    <name>TP192</name>
  </trkpt>
  <trkpt lat="51.65016" lon="5.3522">
    <name>TP193</name>
  </trkpt>
  <trkpt lat="51.65017" lon="5.35222">
    <name>TP194</name>
  </trkpt>
  <trkpt lat="51.65019" lon="5.35221">
    <name>TP195</name>
  </trkpt>
  <trkpt lat="51.65021" lon="5.3522">
    <name>TP196</name>
  </trkpt>
  <trkpt lat="51.65024" lon="5.3522">
    <name>TP197</name>
  </trkpt>
  <trkpt lat="51.65084" lon="5.35228">
    <name>TP198</name>
  </trkpt>
  <trkpt lat="51.650835" lon="5.3522778">
    <name>TP199</name>
  </trkpt>
  <trkpt lat="51.65095" lon="5.35226">
    <name>TP200</name>
  </trkpt>
  <trkpt lat="51.65106" lon="5.35223">
    <name>TP201</name>
  </trkpt>
  <trkpt lat="51.65109" lon="5.35221">
    <name>TP202</name>
  </trkpt>
  <trkpt lat="51.65113" lon="5.35218">
    <name>TP203</name>
  </trkpt>
  <trkpt lat="51.65116" lon="5.35216">
    <name>TP204</name>
  </trkpt>
  <trkpt lat="51.65122" lon="5.35214">
    <name>TP205</name>
  </trkpt>
  <trkpt lat="51.65135" lon="5.35199">
    <name>TP206</name>
  </trkpt>
  <trkpt lat="51.65145" lon="5.35187">
    <name>TP207</name>
  </trkpt>
  <trkpt lat="51.6515" lon="5.35181">
    <name>TP208</name>
  </trkpt>
  <trkpt lat="51.6519" lon="5.3513">
    <name>TP209</name>
  </trkpt>
  <trkpt lat="51.65199" lon="5.35117">
    <name>TP210</name>
  </trkpt>
  <trkpt lat="51.65223" lon="5.35084">
    <name>TP211</name>
  </trkpt>
  <trkpt lat="51.65225" lon="5.35082">
    <name>TP212</name>
  </trkpt>
  <trkpt lat="51.65243" lon="5.35056">
    <name>TP213</name>
  </trkpt>
  <trkpt lat="51.65248" lon="5.3505">
    <name>TP214</name>
  </trkpt>
  <trkpt lat="51.65269" lon="5.35017">
    <name>TP215</name>
  </trkpt>
  <trkpt lat="51.65279" lon="5.35">
    <name>TP216</name>
  </trkpt>
  <trkpt lat="51.65348" lon="5.34884">
    <name>TP217</name>
  </trkpt>
  <trkpt lat="51.65366" lon="5.34859">
    <name>TP218</name>
  </trkpt>
  <trkpt lat="51.65376" lon="5.34848">
    <name>TP219</name>
  </trkpt>
  <trkpt lat="51.65382" lon="5.34842">
    <name>TP220</name>
  </trkpt>
  <trkpt lat="51.65383" lon="5.34841">
    <name>TP221</name>
  </trkpt>
  <trkpt lat="51.65407" lon="5.34819">
    <name>TP222</name>
  </trkpt>
  <trkpt lat="51.65418" lon="5.34809">
    <name>TP223</name>
  </trkpt>
  <trkpt lat="51.65454" lon="5.34774">
    <name>TP224</name>
  </trkpt>
  <trkpt lat="51.65459" lon="5.34768">
    <name>TP225</name>
  </trkpt>
  <trkpt lat="51.65496" lon="5.34727">
    <name>TP226</name>
  </trkpt>
  <trkpt lat="51.65508" lon="5.34709">
    <name>TP227</name>
  </trkpt>
  <trkpt lat="51.65519" lon="5.34698">
    <name>TP228</name>
  </trkpt>
  <trkpt lat="51.65532" lon="5.34691">
    <name>TP229</name>
  </trkpt>
  <trkpt lat="51.6553196" lon="5.3469123">
    <name>TP230</name>
  </trkpt>
  <trkpt lat="51.65511" lon="5.34608">
    <name>TP231</name>
  </trkpt>
  <trkpt lat="51.65509" lon="5.34598">
    <name>TP232</name>
  </trkpt>
  <trkpt lat="51.65499" lon="5.34526">
    <name>TP233</name>
  </trkpt>
  <trkpt lat="51.65492" lon="5.34469">
    <name>TP234</name>
  </trkpt>
  <trkpt lat="51.65491" lon="5.34464">
    <name>TP235</name>
  </trkpt>
  <trkpt lat="51.65485" lon="5.34412">
    <name>TP236</name>
  </trkpt>
  <trkpt lat="51.65478" lon="5.34356">
    <name>TP237</name>
  </trkpt>
  <trkpt lat="51.65475" lon="5.34335">
    <name>TP238</name>
  </trkpt>
  <trkpt lat="51.65475" lon="5.34327">
    <name>TP239</name>
  </trkpt>
  <trkpt lat="51.65473" lon="5.3431">
    <name>TP240</name>
  </trkpt>
  <trkpt lat="51.65473" lon="5.34298">
    <name>TP241</name>
  </trkpt>
  <trkpt lat="51.65472" lon="5.34281">
    <name>TP242</name>
  </trkpt>
  <trkpt lat="51.65472" lon="5.34269">
    <name>TP243</name>
  </trkpt>
  <trkpt lat="51.65472" lon="5.34265">
    <name>TP244</name>
  </trkpt>
  <trkpt lat="51.65473" lon="5.34247">
    <name>TP245</name>
  </trkpt>
  <trkpt lat="51.65473" lon="5.34238">
    <name>TP246</name>
  </trkpt>
  <trkpt lat="51.65476" lon="5.34183">
    <name>TP247</name>
  </trkpt>
  <trkpt lat="51.65477" lon="5.34154">
    <name>TP248</name>
  </trkpt>
  <trkpt lat="51.6548" lon="5.34096">
    <name>TP249</name>
  </trkpt>
  <trkpt lat="51.65483" lon="5.34038">
    <name>TP250</name>
  </trkpt>
  <trkpt lat="51.65484" lon="5.34009">
    <name>TP251</name>
  </trkpt>
  <trkpt lat="51.65485" lon="5.33994">
    <name>TP252</name>
  </trkpt>
  <trkpt lat="51.65489" lon="5.33923">
    <name>TP253</name>
  </trkpt>
  <trkpt lat="51.65491" lon="5.33894">
    <name>TP254</name>
  </trkpt>
  <trkpt lat="51.65491" lon="5.33883">
    <name>TP255</name>
  </trkpt>
  <trkpt lat="51.65491" lon="5.33865">
    <name>TP256</name>
  </trkpt>
  <trkpt lat="51.65492" lon="5.33844">
    <name>TP257</name>
  </trkpt>
  <trkpt lat="51.65491" lon="5.33811">
    <name>TP258</name>
  </trkpt>
  <trkpt lat="51.65491" lon="5.33807">
    <name>TP259</name>
  </trkpt>
  <trkpt lat="51.65488" lon="5.33764">
    <name>TP260</name>
  </trkpt>
  <trkpt lat="51.65488" lon="5.33749">
    <name>TP261</name>
  </trkpt>
  <trkpt lat="51.65487" lon="5.33704">
    <name>TP262</name>
  </trkpt>
  <trkpt lat="51.65485" lon="5.33662">
    <name>TP263</name>
  </trkpt>
  <trkpt lat="51.65484" lon="5.33633">
    <name>TP264</name>
  </trkpt>
  <trkpt lat="51.65483" lon="5.33617">
    <name>TP265</name>
  </trkpt>
  <trkpt lat="51.65483" lon="5.33604">
    <name>TP266</name>
  </trkpt>
  <trkpt lat="51.65482" lon="5.33575">
    <name>TP267</name>
  </trkpt>
  <trkpt lat="51.65481" lon="5.33555">
    <name>TP268</name>
  </trkpt>
  <trkpt lat="51.65481" lon="5.33542">
    <name>TP269</name>
  </trkpt>
  <trkpt lat="51.65482" lon="5.33532">
    <name>TP270</name>
  </trkpt>
  <trkpt lat="51.65486" lon="5.33512">
    <name>TP271</name>
  </trkpt>
  <trkpt lat="51.65491" lon="5.3349">
    <name>TP272</name>
  </trkpt>
  <trkpt lat="51.6553" lon="5.33361">
    <name>TP273</name>
  </trkpt>
  <trkpt lat="51.65548" lon="5.33291">
    <name>TP274</name>
  </trkpt>
  <trkpt lat="51.65552" lon="5.33276">
    <name>TP275</name>
  </trkpt>
  <trkpt lat="51.6556" lon="5.3325">
    <name>TP276</name>
  </trkpt>
  <trkpt lat="51.65573" lon="5.33207">
    <name>TP277</name>
  </trkpt>
  <trkpt lat="51.65576" lon="5.33198">
    <name>TP278</name>
  </trkpt>
  <trkpt lat="51.65583" lon="5.33176">
    <name>TP279</name>
  </trkpt>
  <trkpt lat="51.65584" lon="5.33172">
    <name>TP280</name>
  </trkpt>
  <trkpt lat="51.65592" lon="5.33154">
    <name>TP281</name>
  </trkpt>
  <trkpt lat="51.65594" lon="5.33148">
    <name>TP282</name>
  </trkpt>
  <trkpt lat="51.65661" lon="5.33015">
    <name>TP283</name>
  </trkpt>
  <trkpt lat="51.65695" lon="5.32943">
    <name>TP284</name>
  </trkpt>
  <trkpt lat="51.65707" lon="5.32917">
    <name>TP285</name>
  </trkpt>
  <trkpt lat="51.65716" lon="5.32892">
    <name>TP286</name>
  </trkpt>
  <trkpt lat="51.6573" lon="5.32843">
    <name>TP287</name>
  </trkpt>
  <trkpt lat="51.65731" lon="5.32842">
    <name>TP288</name>
  </trkpt>
  <trkpt lat="51.65738" lon="5.32817">
    <name>TP289</name>
  </trkpt>
  <trkpt lat="51.65742" lon="5.328">
    <name>TP290</name>
  </trkpt>
  <trkpt lat="51.65748" lon="5.32772">
    <name>TP291</name>
  </trkpt>
  <trkpt lat="51.6575" lon="5.32762">
    <name>TP292</name>
  </trkpt>
  <trkpt lat="51.65757" lon="5.32719">
    <name>TP293</name>
  </trkpt>
  <trkpt lat="51.65765" lon="5.32665">
    <name>TP294</name>
  </trkpt>
  <trkpt lat="51.65767" lon="5.3265">
    <name>TP295</name>
  </trkpt>
  <trkpt lat="51.65795" lon="5.32452">
    <name>TP296</name>
  </trkpt>
  <trkpt lat="51.6579548" lon="5.3245214">
    <name>TP297</name>
  </trkpt>
  <trkpt lat="51.6579548" lon="5.3245214">
    <name>TP298</name>
  </trkpt>
  <trkpt lat="51.65767" lon="5.3265">
    <name>TP299</name>
  </trkpt>
  <trkpt lat="51.65765" lon="5.32665">
    <name>TP300</name>
  </trkpt>
  <trkpt lat="51.65757" lon="5.32719">
    <name>TP301</name>
  </trkpt>
  <trkpt lat="51.6575" lon="5.32762">
    <name>TP302</name>
  </trkpt>
  <trkpt lat="51.65748" lon="5.32772">
    <name>TP303</name>
  </trkpt>
  <trkpt lat="51.65742" lon="5.328">
    <name>TP304</name>
  </trkpt>
  <trkpt lat="51.65738" lon="5.32817">
    <name>TP305</name>
  </trkpt>
  <trkpt lat="51.65731" lon="5.32842">
    <name>TP306</name>
  </trkpt>
  <trkpt lat="51.6573" lon="5.32843">
    <name>TP307</name>
  </trkpt>
  <trkpt lat="51.65716" lon="5.32892">
    <name>TP308</name>
  </trkpt>
  <trkpt lat="51.65707" lon="5.32917">
    <name>TP309</name>
  </trkpt>
  <trkpt lat="51.65695" lon="5.32943">
    <name>TP310</name>
  </trkpt>
  <trkpt lat="51.65661" lon="5.33015">
    <name>TP311</name>
  </trkpt>
  <trkpt lat="51.65594" lon="5.33148">
    <name>TP312</name>
  </trkpt>
  <trkpt lat="51.65592" lon="5.33154">
    <name>TP313</name>
  </trkpt>
  <trkpt lat="51.65584" lon="5.33172">
    <name>TP314</name>
  </trkpt>
  <trkpt lat="51.65583" lon="5.33176">
    <name>TP315</name>
  </trkpt>
  <trkpt lat="51.65576" lon="5.33198">
    <name>TP316</name>
  </trkpt>
  <trkpt lat="51.65573" lon="5.33207">
    <name>TP317</name>
  </trkpt>
  <trkpt lat="51.6556" lon="5.3325">
    <name>TP318</name>
  </trkpt>
  <trkpt lat="51.65552" lon="5.33276">
    <name>TP319</name>
  </trkpt>
  <trkpt lat="51.65548" lon="5.33291">
    <name>TP320</name>
  </trkpt>
  <trkpt lat="51.6553" lon="5.33361">
    <name>TP321</name>
  </trkpt>
  <trkpt lat="51.65491" lon="5.3349">
    <name>TP322</name>
  </trkpt>
  <trkpt lat="51.65486" lon="5.33512">
    <name>TP323</name>
  </trkpt>
  <trkpt lat="51.65482" lon="5.33532">
    <name>TP324</name>
  </trkpt>
  <trkpt lat="51.65481" lon="5.33542">
    <name>TP325</name>
  </trkpt>
  <trkpt lat="51.65481" lon="5.33555">
    <name>TP326</name>
  </trkpt>
  <trkpt lat="51.65482" lon="5.33575">
    <name>TP327</name>
  </trkpt>
  <trkpt lat="51.65483" lon="5.33604">
    <name>TP328</name>
  </trkpt>
  <trkpt lat="51.65483" lon="5.33617">
    <name>TP329</name>
  </trkpt>
  <trkpt lat="51.65484" lon="5.33633">
    <name>TP330</name>
  </trkpt>
  <trkpt lat="51.65485" lon="5.33662">
    <name>TP331</name>
  </trkpt>
  <trkpt lat="51.65487" lon="5.33704">
    <name>TP332</name>
  </trkpt>
  <trkpt lat="51.65488" lon="5.33749">
    <name>TP333</name>
  </trkpt>
  <trkpt lat="51.65488" lon="5.33764">
    <name>TP334</name>
  </trkpt>
  <trkpt lat="51.65491" lon="5.33807">
    <name>TP335</name>
  </trkpt>
  <trkpt lat="51.65491" lon="5.33811">
    <name>TP336</name>
  </trkpt>
  <trkpt lat="51.65492" lon="5.33844">
    <name>TP337</name>
  </trkpt>
  <trkpt lat="51.65491" lon="5.33865">
    <name>TP338</name>
  </trkpt>
  <trkpt lat="51.65491" lon="5.33883">
    <name>TP339</name>
  </trkpt>
  <trkpt lat="51.65491" lon="5.33894">
    <name>TP340</name>
  </trkpt>
  <trkpt lat="51.65489" lon="5.33923">
    <name>TP341</name>
  </trkpt>
  <trkpt lat="51.65485" lon="5.33994">
    <name>TP342</name>
  </trkpt>
  <trkpt lat="51.65484" lon="5.34009">
    <name>TP343</name>
  </trkpt>
  <trkpt lat="51.65483" lon="5.34038">
    <name>TP344</name>
  </trkpt>
  <trkpt lat="51.6548" lon="5.34096">
    <name>TP345</name>
  </trkpt>
  <trkpt lat="51.65477" lon="5.34154">
    <name>TP346</name>
  </trkpt>
  <trkpt lat="51.65476" lon="5.34183">
    <name>TP347</name>
  </trkpt>
  <trkpt lat="51.65473" lon="5.34238">
    <name>TP348</name>
  </trkpt>
  <trkpt lat="51.65473" lon="5.34247">
    <name>TP349</name>
  </trkpt>
  <trkpt lat="51.65472" lon="5.34265">
    <name>TP350</name>
  </trkpt>
  <trkpt lat="51.65472" lon="5.34269">
    <name>TP351</name>
  </trkpt>
  <trkpt lat="51.65472" lon="5.34281">
    <name>TP352</name>
  </trkpt>
  <trkpt lat="51.65473" lon="5.34298">
    <name>TP353</name>
  </trkpt>
  <trkpt lat="51.65473" lon="5.3431">
    <name>TP354</name>
  </trkpt>
  <trkpt lat="51.65475" lon="5.34327">
    <name>TP355</name>
  </trkpt>
  <trkpt lat="51.65475" lon="5.34335">
    <name>TP356</name>
  </trkpt>
  <trkpt lat="51.65478" lon="5.34356">
    <name>TP357</name>
  </trkpt>
  <trkpt lat="51.65485" lon="5.34412">
    <name>TP358</name>
  </trkpt>
  <trkpt lat="51.65491" lon="5.34464">
    <name>TP359</name>
  </trkpt>
  <trkpt lat="51.65492" lon="5.34469">
    <name>TP360</name>
  </trkpt>
  <trkpt lat="51.65499" lon="5.34526">
    <name>TP361</name>
  </trkpt>
  <trkpt lat="51.65509" lon="5.34598">
    <name>TP362</name>
  </trkpt>
  <trkpt lat="51.65511" lon="5.34608">
    <name>TP363</name>
  </trkpt>
  <trkpt lat="51.65532" lon="5.34691">
    <name>TP364</name>
  </trkpt>
  <trkpt lat="51.6553196" lon="5.3469123">
    <name>TP365</name>
  </trkpt>
  <trkpt lat="51.65519" lon="5.34698">
    <name>TP366</name>
  </trkpt>
  <trkpt lat="51.65508" lon="5.34709">
    <name>TP367</name>
  </trkpt>
  <trkpt lat="51.65496" lon="5.34727">
    <name>TP368</name>
  </trkpt>
  <trkpt lat="51.65459" lon="5.34768">
    <name>TP369</name>
  </trkpt>
  <trkpt lat="51.65454" lon="5.34774">
    <name>TP370</name>
  </trkpt>
  <trkpt lat="51.65418" lon="5.34809">
    <name>TP371</name>
  </trkpt>
  <trkpt lat="51.65407" lon="5.34819">
    <name>TP372</name>
  </trkpt>
  <trkpt lat="51.65383" lon="5.34841">
    <name>TP373</name>
  </trkpt>
  <trkpt lat="51.65382" lon="5.34842">
    <name>TP374</name>
  </trkpt>
  <trkpt lat="51.65376" lon="5.34848">
    <name>TP375</name>
  </trkpt>
  <trkpt lat="51.65366" lon="5.34859">
    <name>TP376</name>
  </trkpt>
  <trkpt lat="51.65348" lon="5.34884">
    <name>TP377</name>
  </trkpt>
  <trkpt lat="51.65279" lon="5.35">
    <name>TP378</name>
  </trkpt>
  <trkpt lat="51.65269" lon="5.35017">
    <name>TP379</name>
  </trkpt>
  <trkpt lat="51.65248" lon="5.3505">
    <name>TP380</name>
  </trkpt>
  <trkpt lat="51.65243" lon="5.35056">
    <name>TP381</name>
  </trkpt>
  <trkpt lat="51.65225" lon="5.35082">
    <name>TP382</name>
  </trkpt>
  <trkpt lat="51.65223" lon="5.35084">
    <name>TP383</name>
  </trkpt>
  <trkpt lat="51.65199" lon="5.35117">
    <name>TP384</name>
  </trkpt>
  <trkpt lat="51.6519" lon="5.3513">
    <name>TP385</name>
  </trkpt>
  <trkpt lat="51.6515" lon="5.35181">
    <name>TP386</name>
  </trkpt>
  <trkpt lat="51.65145" lon="5.35187">
    <name>TP387</name>
  </trkpt>
  <trkpt lat="51.65135" lon="5.35199">
    <name>TP388</name>
  </trkpt>
  <trkpt lat="51.65122" lon="5.35214">
    <name>TP389</name>
  </trkpt>
  <trkpt lat="51.65116" lon="5.35216">
    <name>TP390</name>
  </trkpt>
  <trkpt lat="51.65113" lon="5.35218">
    <name>TP391</name>
  </trkpt>
  <trkpt lat="51.65109" lon="5.35221">
    <name>TP392</name>
  </trkpt>
  <trkpt lat="51.65106" lon="5.35223">
    <name>TP393</name>
  </trkpt>
  <trkpt lat="51.65095" lon="5.35226">
    <name>TP394</name>
  </trkpt>
  <trkpt lat="51.65084" lon="5.35228">
    <name>TP395</name>
  </trkpt>
  <trkpt lat="51.650835" lon="5.3522778">
    <name>TP396</name>
  </trkpt>
  <trkpt lat="51.65024" lon="5.3522">
    <name>TP397</name>
  </trkpt>
  <trkpt lat="51.65021" lon="5.3522">
    <name>TP398</name>
  </trkpt>
  <trkpt lat="51.65019" lon="5.35221">
    <name>TP399</name>
  </trkpt>
  <trkpt lat="51.65017" lon="5.35222">
    <name>TP400</name>
  </trkpt>
  <trkpt lat="51.6501709" lon="5.3522198">
    <name>TP401</name>
  </trkpt>
  <trkpt lat="51.65016" lon="5.3522">
    <name>TP402</name>
  </trkpt>
  <trkpt lat="51.65014" lon="5.35218">
    <name>TP403</name>
  </trkpt>
  <trkpt lat="51.65012" lon="5.35217">
    <name>TP404</name>
  </trkpt>
  <trkpt lat="51.65006" lon="5.35214">
    <name>TP405</name>
  </trkpt>
  <trkpt lat="51.6494" lon="5.35205">
    <name>TP406</name>
  </trkpt>
  <trkpt lat="51.6493978" lon="5.352047">
    <name>TP407</name>
  </trkpt>
  <trkpt lat="51.6494" lon="5.35215">
    <name>TP408</name>
  </trkpt>
  <trkpt lat="51.64946" lon="5.35257">
    <name>TP409</name>
  </trkpt>
  <trkpt lat="51.64953" lon="5.35291">
    <name>TP410</name>
  </trkpt>
  <trkpt lat="51.64954" lon="5.35295">
    <name>TP411</name>
  </trkpt>
  <trkpt lat="51.64955" lon="5.353">
    <name>TP412</name>
  </trkpt>
  <trkpt lat="51.64955" lon="5.35303">
    <name>TP413</name>
  </trkpt>
  <trkpt lat="51.64955" lon="5.35308">
    <name>TP414</name>
  </trkpt>
  <trkpt lat="51.64954" lon="5.35313">
    <name>TP415</name>
  </trkpt>
  <trkpt lat="51.64952" lon="5.35317">
    <name>TP416</name>
  </trkpt>
  <trkpt lat="51.64924" lon="5.35391">
    <name>TP417</name>
  </trkpt>
  <trkpt lat="51.64915" lon="5.35417">
    <name>TP418</name>
  </trkpt>
  <trkpt lat="51.64912" lon="5.35428">
    <name>TP419</name>
  </trkpt>
  <trkpt lat="51.64898" lon="5.3549">
    <name>TP420</name>
  </trkpt>
  <trkpt lat="51.64895" lon="5.35498">
    <name>TP421</name>
  </trkpt>
  <trkpt lat="51.64893" lon="5.35505">
    <name>TP422</name>
  </trkpt>
  <trkpt lat="51.6489" lon="5.35511">
    <name>TP423</name>
  </trkpt>
  <trkpt lat="51.64888" lon="5.35514">
    <name>TP424</name>
  </trkpt>
  <trkpt lat="51.64869" lon="5.35541">
    <name>TP425</name>
  </trkpt>
  <trkpt lat="51.64842" lon="5.35574">
    <name>TP426</name>
  </trkpt>
  <trkpt lat="51.64822" lon="5.35599">
    <name>TP427</name>
  </trkpt>
  <trkpt lat="51.64815" lon="5.35608">
    <name>TP428</name>
  </trkpt>
  <trkpt lat="51.6481484" lon="5.356081">
    <name>TP429</name>
  </trkpt>
  <trkpt lat="51.64825" lon="5.35632">
    <name>TP430</name>
  </trkpt>
  <trkpt lat="51.64834" lon="5.35647">
    <name>TP431</name>
  </trkpt>
  <trkpt lat="51.64849" lon="5.35668">
    <name>TP432</name>
  </trkpt>
  <trkpt lat="51.64857" lon="5.35678">
    <name>TP433</name>
  </trkpt>
  <trkpt lat="51.64868" lon="5.35688">
    <name>TP434</name>
  </trkpt>
  <trkpt lat="51.64939" lon="5.35748">
    <name>TP435</name>
  </trkpt>
  <trkpt lat="51.64975" lon="5.35778">
    <name>TP436</name>
  </trkpt>
  <trkpt lat="51.65009" lon="5.35805">
    <name>TP437</name>
  </trkpt>
  <trkpt lat="51.65043" lon="5.35832">
    <name>TP438</name>
  </trkpt>
  <trkpt lat="51.65051" lon="5.35838">
    <name>TP439</name>
  </trkpt>
  <trkpt lat="51.65058" lon="5.35844">
    <name>TP440</name>
  </trkpt>
  <trkpt lat="51.65081" lon="5.35864">
    <name>TP441</name>
  </trkpt>
  <trkpt lat="51.65104" lon="5.35884">
    <name>TP442</name>
  </trkpt>
  <trkpt lat="51.65125" lon="5.35904">
    <name>TP443</name>
  </trkpt>
  <trkpt lat="51.65128" lon="5.35906">
    <name>TP444</name>
  </trkpt>
  <trkpt lat="51.65138" lon="5.35914">
    <name>TP445</name>
  </trkpt>
  <trkpt lat="51.65155" lon="5.35924">
    <name>TP446</name>
  </trkpt>
  <trkpt lat="51.65162" lon="5.35926">
    <name>TP447</name>
  </trkpt>
  <trkpt lat="51.65173" lon="5.35928">
    <name>TP448</name>
  </trkpt>
  <trkpt lat="51.65177" lon="5.3593">
    <name>TP449</name>
  </trkpt>
  <trkpt lat="51.65196" lon="5.35942">
    <name>TP450</name>
  </trkpt>
  <trkpt lat="51.65197" lon="5.35943">
    <name>TP451</name>
  </trkpt>
  <trkpt lat="51.65213" lon="5.35956">
    <name>TP452</name>
  </trkpt>
  <trkpt lat="51.65224" lon="5.35966">
    <name>TP453</name>
  </trkpt>
  <trkpt lat="51.65237" lon="5.35979">
    <name>TP454</name>
  </trkpt>
  <trkpt lat="51.6523661" lon="5.3597906">
    <name>TP455</name>
  </trkpt>
  <trkpt lat="51.65236" lon="5.35985">
    <name>TP456</name>
  </trkpt>
  <trkpt lat="51.65235" lon="5.35989">
    <name>TP457</name>
  </trkpt>
  <trkpt lat="51.65235" lon="5.35994">
    <name>TP458</name>
  </trkpt>
  <trkpt lat="51.65235" lon="5.35999">
    <name>TP459</name>
  </trkpt>
  <trkpt lat="51.65236" lon="5.36004">
    <name>TP460</name>
  </trkpt>
  <trkpt lat="51.65237" lon="5.36008">
    <name>TP461</name>
  </trkpt>
  <trkpt lat="51.65238" lon="5.36013">
    <name>TP462</name>
  </trkpt>
  <trkpt lat="51.65239" lon="5.36017">
    <name>TP463</name>
  </trkpt>
  <trkpt lat="51.6524" lon="5.36019">
    <name>TP464</name>
  </trkpt>
  <trkpt lat="51.65241" lon="5.36021">
    <name>TP465</name>
  </trkpt>
  <trkpt lat="51.65243" lon="5.36024">
    <name>TP466</name>
  </trkpt>
  <trkpt lat="51.65244" lon="5.36026">
    <name>TP467</name>
  </trkpt>
  <trkpt lat="51.65245" lon="5.36027">
    <name>TP468</name>
  </trkpt>
  <trkpt lat="51.65247" lon="5.36029">
    <name>TP469</name>
  </trkpt>
  <trkpt lat="51.65248" lon="5.36031">
    <name>TP470</name>
  </trkpt>
  <trkpt lat="51.6525" lon="5.36031">
    <name>TP471</name>
  </trkpt>
  <trkpt lat="51.65254" lon="5.36034">
    <name>TP472</name>
  </trkpt>
  <trkpt lat="51.65257" lon="5.36035">
    <name>TP473</name>
  </trkpt>
  <trkpt lat="51.6526" lon="5.36036">
    <name>TP474</name>
  </trkpt>
  <trkpt lat="51.65263" lon="5.36036">
    <name>TP475</name>
  </trkpt>
  <trkpt lat="51.65266" lon="5.36035">
    <name>TP476</name>
  </trkpt>
  <trkpt lat="51.65269" lon="5.36034">
    <name>TP477</name>
  </trkpt>
  <trkpt lat="51.65271" lon="5.36032">
    <name>TP478</name>
  </trkpt>
  <trkpt lat="51.65274" lon="5.3603">
    <name>TP479</name>
  </trkpt>
  <trkpt lat="51.65277" lon="5.36027">
    <name>TP480</name>
  </trkpt>
  <trkpt lat="51.65279" lon="5.36024">
    <name>TP481</name>
  </trkpt>
  <trkpt lat="51.65287" lon="5.36032">
    <name>TP482</name>
  </trkpt>
  <trkpt lat="51.65304" lon="5.36052">
    <name>TP483</name>
  </trkpt>
  <trkpt lat="51.65305" lon="5.36053">
    <name>TP484</name>
  </trkpt>
  <trkpt lat="51.65306" lon="5.36054">
    <name>TP485</name>
  </trkpt>
  <trkpt lat="51.65309" lon="5.36059">
    <name>TP486</name>
  </trkpt>
  <trkpt lat="51.65317" lon="5.36069">
    <name>TP487</name>
  </trkpt>
  <trkpt lat="51.65325" lon="5.36073">
    <name>TP488</name>
  </trkpt>
  <trkpt lat="51.65333" lon="5.36082">
    <name>TP489</name>
  </trkpt>
  <trkpt lat="51.65345" lon="5.36092">
    <name>TP490</name>
  </trkpt>
  <trkpt lat="51.65359" lon="5.36106">
    <name>TP491</name>
  </trkpt>
  <trkpt lat="51.65406" lon="5.36149">
    <name>TP492</name>
  </trkpt>
  <trkpt lat="51.65443" lon="5.36185">
    <name>TP493</name>
  </trkpt>
  <trkpt lat="51.65448" lon="5.36192">
    <name>TP494</name>
  </trkpt>
  <trkpt lat="51.65453" lon="5.36201">
    <name>TP495</name>
  </trkpt>
  <trkpt lat="51.65457" lon="5.3621">
    <name>TP496</name>
  </trkpt>
  <trkpt lat="51.65459" lon="5.36215">
    <name>TP497</name>
  </trkpt>
  <trkpt lat="51.6547" lon="5.36244">
    <name>TP498</name>
  </trkpt>
  <trkpt lat="51.65485" lon="5.36285">
    <name>TP499</name>
  </trkpt>
  <trkpt lat="51.65493" lon="5.36309">
    <name>TP500</name>
  </trkpt>
  <trkpt lat="51.6551" lon="5.36354">
    <name>TP501</name>
  </trkpt>
  <trkpt lat="51.65526" lon="5.36399">
    <name>TP502</name>
  </trkpt>
  <trkpt lat="51.65546" lon="5.36454">
    <name>TP503</name>
  </trkpt>
  <trkpt lat="51.65558" lon="5.36491">
    <name>TP504</name>
  </trkpt>
  <trkpt lat="51.65566" lon="5.36516">
    <name>TP505</name>
  </trkpt>
  <trkpt lat="51.65569" lon="5.36526">
    <name>TP506</name>
  </trkpt>
  <trkpt lat="51.65576" lon="5.36551">
    <name>TP507</name>
  </trkpt>
  <trkpt lat="51.65582" lon="5.36575">
    <name>TP508</name>
  </trkpt>
  <trkpt lat="51.65589" lon="5.36594">
    <name>TP509</name>
  </trkpt>
  <trkpt lat="51.65597" lon="5.36615">
    <name>TP510</name>
  </trkpt>
  <trkpt lat="51.65608" lon="5.36638">
    <name>TP511</name>
  </trkpt>
  <trkpt lat="51.65622" lon="5.36674">
    <name>TP512</name>
  </trkpt>
  <trkpt lat="51.65636" lon="5.36709">
    <name>TP513</name>
  </trkpt>
  <trkpt lat="51.65705" lon="5.3686">
    <name>TP514</name>
  </trkpt>
  <trkpt lat="51.65712" lon="5.36874">
    <name>TP515</name>
  </trkpt>
  <trkpt lat="51.65718" lon="5.36886">
    <name>TP516</name>
  </trkpt>
  <trkpt lat="51.65724" lon="5.36901">
    <name>TP517</name>
  </trkpt>
  <trkpt lat="51.65736" lon="5.36927">
    <name>TP518</name>
  </trkpt>
  <trkpt lat="51.65738" lon="5.36931">
    <name>TP519</name>
  </trkpt>
  <trkpt lat="51.65743" lon="5.36942">
    <name>TP520</name>
  </trkpt>
  <trkpt lat="51.65753" lon="5.36959">
    <name>TP521</name>
  </trkpt>
  <trkpt lat="51.65767" lon="5.36982">
    <name>TP522</name>
  </trkpt>
  <trkpt lat="51.65779" lon="5.37001">
    <name>TP523</name>
  </trkpt>
  <trkpt lat="51.65797" lon="5.37032">
    <name>TP524</name>
  </trkpt>
  <trkpt lat="51.65874" lon="5.37159">
    <name>TP525</name>
  </trkpt>
  <trkpt lat="51.6587411" lon="5.3715935">
    <name>TP526</name>
  </trkpt>
  <trkpt lat="51.65881" lon="5.37161">
    <name>TP527</name>
  </trkpt>
  <trkpt lat="51.65885" lon="5.37162">
    <name>TP528</name>
  </trkpt>
  <trkpt lat="51.65887" lon="5.37161">
    <name>TP529</name>
  </trkpt>
  <trkpt lat="51.659" lon="5.37148">
    <name>TP530</name>
  </trkpt>
  <trkpt lat="51.65913" lon="5.37134">
    <name>TP531</name>
  </trkpt>
  <trkpt lat="51.65961" lon="5.37074">
    <name>TP532</name>
  </trkpt>
  <trkpt lat="51.65967" lon="5.37068">
    <name>TP533</name>
  </trkpt>
  <trkpt lat="51.65972" lon="5.37061">
    <name>TP534</name>
  </trkpt>
  <trkpt lat="51.66013" lon="5.37013">
    <name>TP535</name>
  </trkpt>
  <trkpt lat="51.66023" lon="5.37003">
    <name>TP536</name>
  </trkpt>
  <trkpt lat="51.66035" lon="5.36994">
    <name>TP537</name>
  </trkpt>
  <trkpt lat="51.66052" lon="5.36982">
    <name>TP538</name>
  </trkpt>
  <trkpt lat="51.66068" lon="5.36972">
    <name>TP539</name>
  </trkpt>
  <trkpt lat="51.6606819" lon="5.3697185">
    <name>TP540</name>
  </trkpt>
  <trkpt lat="51.6606819" lon="5.3697185">
    <name>TP541</name>
  </trkpt>
  <trkpt lat="51.6607" lon="5.36971">
    <name>TP542</name>
  </trkpt>
  <trkpt lat="51.66079" lon="5.36965">
    <name>TP543</name>
  </trkpt>
  <trkpt lat="51.66081" lon="5.36964">
    <name>TP544</name>
  </trkpt>
  <trkpt lat="51.6609" lon="5.36959">
    <name>TP545</name>
  </trkpt>
  <trkpt lat="51.661" lon="5.36953">
    <name>TP546</name>
  </trkpt>
  <trkpt lat="51.6612" lon="5.3694">
    <name>TP547</name>
  </trkpt>
  <trkpt lat="51.6615" lon="5.36921">
    <name>TP548</name>
  </trkpt>
  <trkpt lat="51.66171" lon="5.36912">
    <name>TP549</name>
  </trkpt>
  <trkpt lat="51.6619" lon="5.36907">
    <name>TP550</name>
  </trkpt>
  <trkpt lat="51.66197" lon="5.36906">
    <name>TP551</name>
  </trkpt>
  <trkpt lat="51.66208" lon="5.36905">
    <name>TP552</name>
  </trkpt>
  <trkpt lat="51.66221" lon="5.36904">
    <name>TP553</name>
  </trkpt>
  <trkpt lat="51.66249" lon="5.36903">
    <name>TP554</name>
  </trkpt>
  <trkpt lat="51.66276" lon="5.36903">
    <name>TP555</name>
  </trkpt>
  <trkpt lat="51.6627623" lon="5.3690263">
    <name>TP556</name>
  </trkpt>
  <trkpt lat="51.66291" lon="5.36919">
    <name>TP557</name>
  </trkpt>
  <trkpt lat="51.66304" lon="5.36934">
    <name>TP558</name>
  </trkpt>
  <trkpt lat="51.66332" lon="5.36965">
    <name>TP559</name>
  </trkpt>
  <trkpt lat="51.66338" lon="5.36971">
    <name>TP560</name>
  </trkpt>
  <trkpt lat="51.66358" lon="5.36992">
    <name>TP561</name>
  </trkpt>
  <trkpt lat="51.6635767" lon="5.3699152">
    <name>TP562</name>
  </trkpt>
  <trkpt lat="51.66356" lon="5.36996">
    <name>TP563</name>
  </trkpt>
  <trkpt lat="51.66356" lon="5.37">
    <name>TP564</name>
  </trkpt>
  <trkpt lat="51.66355" lon="5.3701">
    <name>TP565</name>
  </trkpt>
  <trkpt lat="51.66354" lon="5.37016">
    <name>TP566</name>
  </trkpt>
  <trkpt lat="51.66353" lon="5.37024">
    <name>TP567</name>
  </trkpt>
  <trkpt lat="51.66351" lon="5.37045">
    <name>TP568</name>
  </trkpt>
  <trkpt lat="51.66349" lon="5.37062">
    <name>TP569</name>
  </trkpt>
  <trkpt lat="51.66348" lon="5.37076">
    <name>TP570</name>
  </trkpt>
  <trkpt lat="51.66347" lon="5.37077">
    <name>TP571</name>
  </trkpt>
  <trkpt lat="51.66346" lon="5.37089">
    <name>TP572</name>
  </trkpt>
  <trkpt lat="51.66346" lon="5.37105">
    <name>TP573</name>
  </trkpt>
  <trkpt lat="51.66346" lon="5.3712">
    <name>TP574</name>
  </trkpt>
  <trkpt lat="51.66353" lon="5.37145">
    <name>TP575</name>
  </trkpt>
  <trkpt lat="51.66354" lon="5.37152">
    <name>TP576</name>
  </trkpt>
  <trkpt lat="51.66354" lon="5.37162">
    <name>TP577</name>
  </trkpt>
  <trkpt lat="51.66353" lon="5.37252">
    <name>TP578</name>
  </trkpt>
  <trkpt lat="51.66349" lon="5.37267">
    <name>TP579</name>
  </trkpt>
  <trkpt lat="51.66348" lon="5.3727">
    <name>TP580</name>
  </trkpt>
  <trkpt lat="51.6634764" lon="5.3727004">
    <name>TP581</name>
  </trkpt>
  <trkpt lat="51.6634764" lon="5.3727004">
    <name>TP582</name>
  </trkpt>
  <trkpt lat="51.6634764" lon="5.3727004">
    <name>TP583</name>
  </trkpt>
  </trkseg>
</trk>
</gpx>