<?xml version="1.0" encoding="UTF-8" standalone="no" ?>
<gpx xmlns="http://www.topografix.com/GPX/1/1" xmlns:gpxx="http://www.garmin.com/xmlschemas/GpxExtensions/v3" xmlns:gpxtpx="http://www.garmin.com/xmlschemas/TrackPointExtension/v1" creator="mapstogpx.com" version="1.1" xmlns:xsi="http://www.w3.org/2001/XMLSchema-instance" xsi:schemaLocation="http://www.topografix.com/GPX/1/1 http://www.topografix.com/GPX/1/1/gpx.xsd http://www.garmin.com/xmlschemas/GpxExtensions/v3 http://www.garmin.com/xmlschemas/GpxExtensionsv3.xsd http://www.garmin.com/xmlschemas/TrackPointExtension/v1 http://www.garmin.com/xmlschemas/TrackPointExtensionv1.xsd">
  <metadata>
    <link href="http://www.mapstogpx.com">
      <text>Sverrir Sigmundarson</text>
    </link>
    <!--desc>Map data ©2024 Google</desc-->
    <!--copyright author="Google Inc">
    	<year>2024</year>
    	<license>https://developers.google.com/maps/terms</license>
    </copyright-->
    <!--url>https://www.google.com/maps/dir/Twin+Peaks+Campground,+Twin+Lakes,+CO,+USA/(39.1001048,+-106.3590704)/@39.0818558,-106.4038124,6097m/data=!3m2!1e3!4b1!4m12!4m11!1m5!1m1!1s0x876aa3ec4a7d8451:0x2aa48aec97358edd!2m2!1d-106.421188!2d39.0669819!1m3!2m2!1d-106.3590704!2d39.1001048!3e0?entry=tts&g_ep=EgoyMDI0MTEwNi4wKgBIAVAD&hl=en</url-->
    <time>2024-11-09T18:38:22Z</time>
  </metadata>
  <wpt lat="39.0669819" lon="-106.421188">
    <name>Twin Peaks Campground</name>
    <desc>Twin Peaks Campground, Twin Lakes, CO 81251</desc>
  </wpt>
  <wpt lat="39.1001063" lon="-106.359443">
    <name>Twin Lakes</name>
    <desc>Twin Lakes, Colorado 81251</desc>
  </wpt>
<trk>
  <name>Twin Peaks Campground to Twin Lakes</name>
  <number>1</number>
  <trkseg>
  <trkpt lat="39.0669935" lon="-106.4211632">
    <name>TP001</name>
  </trkpt>
  <trkpt lat="39.06701" lon="-106.42117">
    <name>TP002</name>
  </trkpt>
  <trkpt lat="39.06715" lon="-106.42128">
    <name>TP003</name>
  </trkpt>
  <trkpt lat="39.0675" lon="-106.42136">
    <name>TP004</name>
  </trkpt>
  <trkpt lat="39.06759" lon="-106.42137">
    <name>TP005</name>
  </trkpt>
  <trkpt lat="39.0675884" lon="-106.4213732">
    <name>TP006</name>
  </trkpt>
  <trkpt lat="39.06752" lon="-106.42044">
    <name>TP007</name>
  </trkpt>
  <trkpt lat="39.06748" lon="-106.41974">
    <name>TP008</name>
  </trkpt>
  <trkpt lat="39.06746" lon="-106.41951">
    <name>TP009</name>
  </trkpt>
  <trkpt lat="39.06735" lon="-106.4179">
    <name>TP010</name>
  </trkpt>
  <trkpt lat="39.06734" lon="-106.41782">
    <name>TP011</name>
  </trkpt>
  <trkpt lat="39.06733" lon="-106.41767">
    <name>TP012</name>
  </trkpt>
  <trkpt lat="39.06731" lon="-106.41738">
    <name>TP013</name>
  </trkpt>
  <trkpt lat="39.06731" lon="-106.41732">
    <name>TP014</name>
  </trkpt>
  <trkpt lat="39.06722" lon="-106.41605">
    <name>TP015</name>
  </trkpt>
  <trkpt lat="39.06721" lon="-106.41596">
    <name>TP016</name>
  </trkpt>
  <trkpt lat="39.0672" lon="-106.41582">
    <name>TP017</name>
  </trkpt>
  <trkpt lat="39.06717" lon="-106.41539">
    <name>TP018</name>
  </trkpt>
  <trkpt lat="39.06716" lon="-106.41514">
    <name>TP019</name>
  </trkpt>
  <trkpt lat="39.06716" lon="-106.41497">
    <name>TP020</name>
  </trkpt>
  <trkpt lat="39.06718" lon="-106.41481">
    <name>TP021</name>
  </trkpt>
  <trkpt lat="39.06721" lon="-106.41471">
    <name>TP022</name>
  </trkpt>
  <trkpt lat="39.06722" lon="-106.41468">
    <name>TP023</name>
  </trkpt>
  <trkpt lat="39.06726" lon="-106.41453">
    <name>TP024</name>
  </trkpt>
  <trkpt lat="39.0673" lon="-106.41442">
    <name>TP025</name>
  </trkpt>
  <trkpt lat="39.06733" lon="-106.41435">
    <name>TP026</name>
  </trkpt>
  <trkpt lat="39.06738" lon="-106.41425">
    <name>TP027</name>
  </trkpt>
  <trkpt lat="39.06743" lon="-106.41416">
    <name>TP028</name>
  </trkpt>
  <trkpt lat="39.06753" lon="-106.41399">
    <name>TP029</name>
  </trkpt>
  <trkpt lat="39.06763" lon="-106.41384">
    <name>TP030</name>
  </trkpt>
  <trkpt lat="39.06772" lon="-106.41373">
    <name>TP031</name>
  </trkpt>
  <trkpt lat="39.06784" lon="-106.41356">
    <name>TP032</name>
  </trkpt>
  <trkpt lat="39.06796" lon="-106.41339">
    <name>TP033</name>
  </trkpt>
  <trkpt lat="39.06797" lon="-106.41337">
    <name>TP034</name>
  </trkpt>
  <trkpt lat="39.06817" lon="-106.4131">
    <name>TP035</name>
  </trkpt>
  <trkpt lat="39.06825" lon="-106.41298">
    <name>TP036</name>
  </trkpt>
  <trkpt lat="39.06832" lon="-106.41287">
    <name>TP037</name>
  </trkpt>
  <trkpt lat="39.06837" lon="-106.41277">
    <name>TP038</name>
  </trkpt>
  <trkpt lat="39.06844" lon="-106.41263">
    <name>TP039</name>
  </trkpt>
  <trkpt lat="39.06849" lon="-106.41251">
    <name>TP040</name>
  </trkpt>
  <trkpt lat="39.06852" lon="-106.41246">
    <name>TP041</name>
  </trkpt>
  <trkpt lat="39.06857" lon="-106.4123">
    <name>TP042</name>
  </trkpt>
  <trkpt lat="39.06863" lon="-106.41211">
    <name>TP043</name>
  </trkpt>
  <trkpt lat="39.06871" lon="-106.4118">
    <name>TP044</name>
  </trkpt>
  <trkpt lat="39.06897" lon="-106.41076">
    <name>TP045</name>
  </trkpt>
  <trkpt lat="39.06902" lon="-106.41054">
    <name>TP046</name>
  </trkpt>
  <trkpt lat="39.06905" lon="-106.41037">
    <name>TP047</name>
  </trkpt>
  <trkpt lat="39.06906" lon="-106.41024">
    <name>TP048</name>
  </trkpt>
  <trkpt lat="39.06907" lon="-106.41012">
    <name>TP049</name>
  </trkpt>
  <trkpt lat="39.06907" lon="-106.41009">
    <name>TP050</name>
  </trkpt>
  <trkpt lat="39.06907" lon="-106.40998">
    <name>TP051</name>
  </trkpt>
  <trkpt lat="39.06907" lon="-106.40986">
    <name>TP052</name>
  </trkpt>
  <trkpt lat="39.06905" lon="-106.40969">
    <name>TP053</name>
  </trkpt>
  <trkpt lat="39.06904" lon="-106.40963">
    <name>TP054</name>
  </trkpt>
  <trkpt lat="39.06903" lon="-106.40958">
    <name>TP055</name>
  </trkpt>
  <trkpt lat="39.069" lon="-106.40947">
    <name>TP056</name>
  </trkpt>
  <trkpt lat="39.06896" lon="-106.40933">
    <name>TP057</name>
  </trkpt>
  <trkpt lat="39.06891" lon="-106.4092">
    <name>TP058</name>
  </trkpt>
  <trkpt lat="39.0689" lon="-106.40917">
    <name>TP059</name>
  </trkpt>
  <trkpt lat="39.06883" lon="-106.40904">
    <name>TP060</name>
  </trkpt>
  <trkpt lat="39.06881" lon="-106.409">
    <name>TP061</name>
  </trkpt>
  <trkpt lat="39.06877" lon="-106.40894">
    <name>TP062</name>
  </trkpt>
  <trkpt lat="39.06869" lon="-106.40883">
    <name>TP063</name>
  </trkpt>
  <trkpt lat="39.06859" lon="-106.40872">
    <name>TP064</name>
  </trkpt>
  <trkpt lat="39.06851" lon="-106.40865">
    <name>TP065</name>
  </trkpt>
  <trkpt lat="39.06841" lon="-106.40858">
    <name>TP066</name>
  </trkpt>
  <trkpt lat="39.06831" lon="-106.40855">
    <name>TP067</name>
  </trkpt>
  <trkpt lat="39.06821" lon="-106.40853">
    <name>TP068</name>
  </trkpt>
  <trkpt lat="39.0681" lon="-106.40852">
    <name>TP069</name>
  </trkpt>
  <trkpt lat="39.06804" lon="-106.40853">
    <name>TP070</name>
  </trkpt>
  <trkpt lat="39.068" lon="-106.40854">
    <name>TP071</name>
  </trkpt>
  <trkpt lat="39.06794" lon="-106.40856">
    <name>TP072</name>
  </trkpt>
  <trkpt lat="39.06786" lon="-106.40859">
    <name>TP073</name>
  </trkpt>
  <trkpt lat="39.06777" lon="-106.40865">
    <name>TP074</name>
  </trkpt>
  <trkpt lat="39.06771" lon="-106.4087">
    <name>TP075</name>
  </trkpt>
  <trkpt lat="39.06766" lon="-106.40874">
    <name>TP076</name>
  </trkpt>
  <trkpt lat="39.06757" lon="-106.40885">
    <name>TP077</name>
  </trkpt>
  <trkpt lat="39.06755" lon="-106.40888">
    <name>TP078</name>
  </trkpt>
  <trkpt lat="39.06744" lon="-106.40901">
    <name>TP079</name>
  </trkpt>
  <trkpt lat="39.0674" lon="-106.40907">
    <name>TP080</name>
  </trkpt>
  <trkpt lat="39.06732" lon="-106.40917">
    <name>TP081</name>
  </trkpt>
  <trkpt lat="39.06723" lon="-106.40927">
    <name>TP082</name>
  </trkpt>
  <trkpt lat="39.06715" lon="-106.40936">
    <name>TP083</name>
  </trkpt>
  <trkpt lat="39.06703" lon="-106.40946">
    <name>TP084</name>
  </trkpt>
  <trkpt lat="39.06689" lon="-106.40956">
    <name>TP085</name>
  </trkpt>
  <trkpt lat="39.06679" lon="-106.40961">
    <name>TP086</name>
  </trkpt>
  <trkpt lat="39.06667" lon="-106.40965">
    <name>TP087</name>
  </trkpt>
  <trkpt lat="39.06658" lon="-106.40968">
    <name>TP088</name>
  </trkpt>
  <trkpt lat="39.0664" lon="-106.40971">
    <name>TP089</name>
  </trkpt>
  <trkpt lat="39.06612" lon="-106.40974">
    <name>TP090</name>
  </trkpt>
  <trkpt lat="39.0659" lon="-106.40977">
    <name>TP091</name>
  </trkpt>
  <trkpt lat="39.06581" lon="-106.40978">
    <name>TP092</name>
  </trkpt>
  <trkpt lat="39.06573" lon="-106.40978">
    <name>TP093</name>
  </trkpt>
  <trkpt lat="39.06556" lon="-106.4098">
    <name>TP094</name>
  </trkpt>
  <trkpt lat="39.06542" lon="-106.40981">
    <name>TP095</name>
  </trkpt>
  <trkpt lat="39.06531" lon="-106.40981">
    <name>TP096</name>
  </trkpt>
  <trkpt lat="39.06522" lon="-106.4098">
    <name>TP097</name>
  </trkpt>
  <trkpt lat="39.0651" lon="-106.40978">
    <name>TP098</name>
  </trkpt>
  <trkpt lat="39.06509" lon="-106.40977">
    <name>TP099</name>
  </trkpt>
  <trkpt lat="39.06501" lon="-106.40974">
    <name>TP100</name>
  </trkpt>
  <trkpt lat="39.06493" lon="-106.40971">
    <name>TP101</name>
  </trkpt>
  <trkpt lat="39.06492" lon="-106.4097">
    <name>TP102</name>
  </trkpt>
  <trkpt lat="39.06486" lon="-106.40967">
    <name>TP103</name>
  </trkpt>
  <trkpt lat="39.06476" lon="-106.40959">
    <name>TP104</name>
  </trkpt>
  <trkpt lat="39.06468" lon="-106.40951">
    <name>TP105</name>
  </trkpt>
  <trkpt lat="39.06461" lon="-106.40943">
    <name>TP106</name>
  </trkpt>
  <trkpt lat="39.06454" lon="-106.40934">
    <name>TP107</name>
  </trkpt>
  <trkpt lat="39.06447" lon="-106.40922">
    <name>TP108</name>
  </trkpt>
  <trkpt lat="39.06439" lon="-106.40909">
    <name>TP109</name>
  </trkpt>
  <trkpt lat="39.06435" lon="-106.40901">
    <name>TP110</name>
  </trkpt>
  <trkpt lat="39.06429" lon="-106.4089">
    <name>TP111</name>
  </trkpt>
  <trkpt lat="39.06425" lon="-106.40882">
    <name>TP112</name>
  </trkpt>
  <trkpt lat="39.0641" lon="-106.40854">
    <name>TP113</name>
  </trkpt>
  <trkpt lat="39.06392" lon="-106.40824">
    <name>TP114</name>
  </trkpt>
  <trkpt lat="39.06386" lon="-106.40816">
    <name>TP115</name>
  </trkpt>
  <trkpt lat="39.06372" lon="-106.40796">
    <name>TP116</name>
  </trkpt>
  <trkpt lat="39.06366" lon="-106.40788">
    <name>TP117</name>
  </trkpt>
  <trkpt lat="39.06354" lon="-106.40774">
    <name>TP118</name>
  </trkpt>
  <trkpt lat="39.0634" lon="-106.4076">
    <name>TP119</name>
  </trkpt>
  <trkpt lat="39.06331" lon="-106.40752">
    <name>TP120</name>
  </trkpt>
  <trkpt lat="39.06319" lon="-106.40742">
    <name>TP121</name>
  </trkpt>
  <trkpt lat="39.06318" lon="-106.40741">
    <name>TP122</name>
  </trkpt>
  <trkpt lat="39.06309" lon="-106.40733">
    <name>TP123</name>
  </trkpt>
  <trkpt lat="39.06304" lon="-106.40728">
    <name>TP124</name>
  </trkpt>
  <trkpt lat="39.06295" lon="-106.40718">
    <name>TP125</name>
  </trkpt>
  <trkpt lat="39.06288" lon="-106.40704">
    <name>TP126</name>
  </trkpt>
  <trkpt lat="39.06284" lon="-106.40698">
    <name>TP127</name>
  </trkpt>
  <trkpt lat="39.06282" lon="-106.40691">
    <name>TP128</name>
  </trkpt>
  <trkpt lat="39.06279" lon="-106.40685">
    <name>TP129</name>
  </trkpt>
  <trkpt lat="39.06274" lon="-106.40672">
    <name>TP130</name>
  </trkpt>
  <trkpt lat="39.0627" lon="-106.40659">
    <name>TP131</name>
  </trkpt>
  <trkpt lat="39.06267" lon="-106.40649">
    <name>TP132</name>
  </trkpt>
  <trkpt lat="39.06265" lon="-106.40637">
    <name>TP133</name>
  </trkpt>
  <trkpt lat="39.06265" lon="-106.40628">
    <name>TP134</name>
  </trkpt>
  <trkpt lat="39.06265" lon="-106.40626">
    <name>TP135</name>
  </trkpt>
  <trkpt lat="39.06265" lon="-106.40618">
    <name>TP136</name>
  </trkpt>
  <trkpt lat="39.06266" lon="-106.40612">
    <name>TP137</name>
  </trkpt>
  <trkpt lat="39.06268" lon="-106.40603">
    <name>TP138</name>
  </trkpt>
  <trkpt lat="39.06269" lon="-106.406">
    <name>TP139</name>
  </trkpt>
  <trkpt lat="39.06273" lon="-106.40589">
    <name>TP140</name>
  </trkpt>
  <trkpt lat="39.06275" lon="-106.40583">
    <name>TP141</name>
  </trkpt>
  <trkpt lat="39.06283" lon="-106.40566">
    <name>TP142</name>
  </trkpt>
  <trkpt lat="39.06295" lon="-106.40547">
    <name>TP143</name>
  </trkpt>
  <trkpt lat="39.06305" lon="-106.40531">
    <name>TP144</name>
  </trkpt>
  <trkpt lat="39.06308" lon="-106.40527">
    <name>TP145</name>
  </trkpt>
  <trkpt lat="39.0632" lon="-106.4051">
    <name>TP146</name>
  </trkpt>
  <trkpt lat="39.06324" lon="-106.40503">
    <name>TP147</name>
  </trkpt>
  <trkpt lat="39.06373" lon="-106.40435">
    <name>TP148</name>
  </trkpt>
  <trkpt lat="39.0638" lon="-106.40424">
    <name>TP149</name>
  </trkpt>
  <trkpt lat="39.06392" lon="-106.40406">
    <name>TP150</name>
  </trkpt>
  <trkpt lat="39.06394" lon="-106.40404">
    <name>TP151</name>
  </trkpt>
  <trkpt lat="39.06402" lon="-106.40387">
    <name>TP152</name>
  </trkpt>
  <trkpt lat="39.0641" lon="-106.40374">
    <name>TP153</name>
  </trkpt>
  <trkpt lat="39.06412" lon="-106.40368">
    <name>TP154</name>
  </trkpt>
  <trkpt lat="39.06419" lon="-106.40353">
    <name>TP155</name>
  </trkpt>
  <trkpt lat="39.0642" lon="-106.40347">
    <name>TP156</name>
  </trkpt>
  <trkpt lat="39.06427" lon="-106.40326">
    <name>TP157</name>
  </trkpt>
  <trkpt lat="39.06432" lon="-106.40314">
    <name>TP158</name>
  </trkpt>
  <trkpt lat="39.06439" lon="-106.4028">
    <name>TP159</name>
  </trkpt>
  <trkpt lat="39.06441" lon="-106.40267">
    <name>TP160</name>
  </trkpt>
  <trkpt lat="39.06445" lon="-106.4023">
    <name>TP161</name>
  </trkpt>
  <trkpt lat="39.06447" lon="-106.40214">
    <name>TP162</name>
  </trkpt>
  <trkpt lat="39.06448" lon="-106.40196">
    <name>TP163</name>
  </trkpt>
  <trkpt lat="39.0645" lon="-106.40158">
    <name>TP164</name>
  </trkpt>
  <trkpt lat="39.06453" lon="-106.40133">
    <name>TP165</name>
  </trkpt>
  <trkpt lat="39.06455" lon="-106.40115">
    <name>TP166</name>
  </trkpt>
  <trkpt lat="39.06457" lon="-106.401">
    <name>TP167</name>
  </trkpt>
  <trkpt lat="39.06458" lon="-106.40099">
    <name>TP168</name>
  </trkpt>
  <trkpt lat="39.06459" lon="-106.40091">
    <name>TP169</name>
  </trkpt>
  <trkpt lat="39.06466" lon="-106.40073">
    <name>TP170</name>
  </trkpt>
  <trkpt lat="39.06474" lon="-106.40058">
    <name>TP171</name>
  </trkpt>
  <trkpt lat="39.06482" lon="-106.40045">
    <name>TP172</name>
  </trkpt>
  <trkpt lat="39.06491" lon="-106.40033">
    <name>TP173</name>
  </trkpt>
  <trkpt lat="39.065" lon="-106.40023">
    <name>TP174</name>
  </trkpt>
  <trkpt lat="39.06511" lon="-106.40015">
    <name>TP175</name>
  </trkpt>
  <trkpt lat="39.06516" lon="-106.40012">
    <name>TP176</name>
  </trkpt>
  <trkpt lat="39.06526" lon="-106.40006">
    <name>TP177</name>
  </trkpt>
  <trkpt lat="39.06533" lon="-106.40003">
    <name>TP178</name>
  </trkpt>
  <trkpt lat="39.06543" lon="-106.4">
    <name>TP179</name>
  </trkpt>
  <trkpt lat="39.06548" lon="-106.39998">
    <name>TP180</name>
  </trkpt>
  <trkpt lat="39.06556" lon="-106.39997">
    <name>TP181</name>
  </trkpt>
  <trkpt lat="39.06566" lon="-106.39996">
    <name>TP182</name>
  </trkpt>
  <trkpt lat="39.06578" lon="-106.39998">
    <name>TP183</name>
  </trkpt>
  <trkpt lat="39.06588" lon="-106.4">
    <name>TP184</name>
  </trkpt>
  <trkpt lat="39.06594" lon="-106.40002">
    <name>TP185</name>
  </trkpt>
  <trkpt lat="39.06604" lon="-106.40007">
    <name>TP186</name>
  </trkpt>
  <trkpt lat="39.06617" lon="-106.40014">
    <name>TP187</name>
  </trkpt>
  <trkpt lat="39.0663" lon="-106.40023">
    <name>TP188</name>
  </trkpt>
  <trkpt lat="39.06633" lon="-106.40026">
    <name>TP189</name>
  </trkpt>
  <trkpt lat="39.06639" lon="-106.40031">
    <name>TP190</name>
  </trkpt>
  <trkpt lat="39.06649" lon="-106.40038">
    <name>TP191</name>
  </trkpt>
  <trkpt lat="39.06652" lon="-106.40041">
    <name>TP192</name>
  </trkpt>
  <trkpt lat="39.06669" lon="-106.40055">
    <name>TP193</name>
  </trkpt>
  <trkpt lat="39.06693" lon="-106.40074">
    <name>TP194</name>
  </trkpt>
  <trkpt lat="39.06694" lon="-106.40075">
    <name>TP195</name>
  </trkpt>
  <trkpt lat="39.0671" lon="-106.40086">
    <name>TP196</name>
  </trkpt>
  <trkpt lat="39.06712" lon="-106.40088">
    <name>TP197</name>
  </trkpt>
  <trkpt lat="39.06726" lon="-106.40097">
    <name>TP198</name>
  </trkpt>
  <trkpt lat="39.0673" lon="-106.40099">
    <name>TP199</name>
  </trkpt>
  <trkpt lat="39.06743" lon="-106.40106">
    <name>TP200</name>
  </trkpt>
  <trkpt lat="39.0675" lon="-106.4011">
    <name>TP201</name>
  </trkpt>
  <trkpt lat="39.06759" lon="-106.40115">
    <name>TP202</name>
  </trkpt>
  <trkpt lat="39.06792" lon="-106.4013">
    <name>TP203</name>
  </trkpt>
  <trkpt lat="39.06793" lon="-106.4013">
    <name>TP204</name>
  </trkpt>
  <trkpt lat="39.06811" lon="-106.40136">
    <name>TP205</name>
  </trkpt>
  <trkpt lat="39.06834" lon="-106.40145">
    <name>TP206</name>
  </trkpt>
  <trkpt lat="39.06854" lon="-106.40151">
    <name>TP207</name>
  </trkpt>
  <trkpt lat="39.06866" lon="-106.40154">
    <name>TP208</name>
  </trkpt>
  <trkpt lat="39.06887" lon="-106.40158">
    <name>TP209</name>
  </trkpt>
  <trkpt lat="39.06916" lon="-106.40163">
    <name>TP210</name>
  </trkpt>
  <trkpt lat="39.06921" lon="-106.40163">
    <name>TP211</name>
  </trkpt>
  <trkpt lat="39.06934" lon="-106.40165">
    <name>TP212</name>
  </trkpt>
  <trkpt lat="39.06952" lon="-106.40167">
    <name>TP213</name>
  </trkpt>
  <trkpt lat="39.06953" lon="-106.40167">
    <name>TP214</name>
  </trkpt>
  <trkpt lat="39.0697" lon="-106.40168">
    <name>TP215</name>
  </trkpt>
  <trkpt lat="39.06972" lon="-106.40168">
    <name>TP216</name>
  </trkpt>
  <trkpt lat="39.06984" lon="-106.40168">
    <name>TP217</name>
  </trkpt>
  <trkpt lat="39.07001" lon="-106.40167">
    <name>TP218</name>
  </trkpt>
  <trkpt lat="39.07016" lon="-106.40164">
    <name>TP219</name>
  </trkpt>
  <trkpt lat="39.07027" lon="-106.4016">
    <name>TP220</name>
  </trkpt>
  <trkpt lat="39.07041" lon="-106.40154">
    <name>TP221</name>
  </trkpt>
  <trkpt lat="39.07053" lon="-106.40149">
    <name>TP222</name>
  </trkpt>
  <trkpt lat="39.07067" lon="-106.4014">
    <name>TP223</name>
  </trkpt>
  <trkpt lat="39.07074" lon="-106.40135">
    <name>TP224</name>
  </trkpt>
  <trkpt lat="39.0708" lon="-106.4013">
    <name>TP225</name>
  </trkpt>
  <trkpt lat="39.07092" lon="-106.4012">
    <name>TP226</name>
  </trkpt>
  <trkpt lat="39.07106" lon="-106.40107">
    <name>TP227</name>
  </trkpt>
  <trkpt lat="39.07115" lon="-106.40097">
    <name>TP228</name>
  </trkpt>
  <trkpt lat="39.07129" lon="-106.40079">
    <name>TP229</name>
  </trkpt>
  <trkpt lat="39.07142" lon="-106.40061">
    <name>TP230</name>
  </trkpt>
  <trkpt lat="39.07148" lon="-106.40051">
    <name>TP231</name>
  </trkpt>
  <trkpt lat="39.07177" lon="-106.40011">
    <name>TP232</name>
  </trkpt>
  <trkpt lat="39.07178" lon="-106.4001">
    <name>TP233</name>
  </trkpt>
  <trkpt lat="39.07203" lon="-106.39976">
    <name>TP234</name>
  </trkpt>
  <trkpt lat="39.07215" lon="-106.3996">
    <name>TP235</name>
  </trkpt>
  <trkpt lat="39.07215" lon="-106.39959">
    <name>TP236</name>
  </trkpt>
  <trkpt lat="39.07228" lon="-106.39942">
    <name>TP237</name>
  </trkpt>
  <trkpt lat="39.07233" lon="-106.39935">
    <name>TP238</name>
  </trkpt>
  <trkpt lat="39.07247" lon="-106.39919">
    <name>TP239</name>
  </trkpt>
  <trkpt lat="39.07259" lon="-106.39906">
    <name>TP240</name>
  </trkpt>
  <trkpt lat="39.07272" lon="-106.39895">
    <name>TP241</name>
  </trkpt>
  <trkpt lat="39.07279" lon="-106.39889">
    <name>TP242</name>
  </trkpt>
  <trkpt lat="39.07288" lon="-106.39883">
    <name>TP243</name>
  </trkpt>
  <trkpt lat="39.07307" lon="-106.39872">
    <name>TP244</name>
  </trkpt>
  <trkpt lat="39.07317" lon="-106.39868">
    <name>TP245</name>
  </trkpt>
  <trkpt lat="39.07326" lon="-106.39864">
    <name>TP246</name>
  </trkpt>
  <trkpt lat="39.07342" lon="-106.39859">
    <name>TP247</name>
  </trkpt>
  <trkpt lat="39.0737" lon="-106.39851">
    <name>TP248</name>
  </trkpt>
  <trkpt lat="39.07419" lon="-106.39839">
    <name>TP249</name>
  </trkpt>
  <trkpt lat="39.07438" lon="-106.39836">
    <name>TP250</name>
  </trkpt>
  <trkpt lat="39.07441" lon="-106.39835">
    <name>TP251</name>
  </trkpt>
  <trkpt lat="39.07456" lon="-106.39831">
    <name>TP252</name>
  </trkpt>
  <trkpt lat="39.07458" lon="-106.3983">
    <name>TP253</name>
  </trkpt>
  <trkpt lat="39.07465" lon="-106.39828">
    <name>TP254</name>
  </trkpt>
  <trkpt lat="39.07475" lon="-106.39823">
    <name>TP255</name>
  </trkpt>
  <trkpt lat="39.07477" lon="-106.39822">
    <name>TP256</name>
  </trkpt>
  <trkpt lat="39.07485" lon="-106.39819">
    <name>TP257</name>
  </trkpt>
  <trkpt lat="39.07493" lon="-106.39812">
    <name>TP258</name>
  </trkpt>
  <trkpt lat="39.07504" lon="-106.39805">
    <name>TP259</name>
  </trkpt>
  <trkpt lat="39.07507" lon="-106.39801">
    <name>TP260</name>
  </trkpt>
  <trkpt lat="39.07512" lon="-106.39796">
    <name>TP261</name>
  </trkpt>
  <trkpt lat="39.07519" lon="-106.39789">
    <name>TP262</name>
  </trkpt>
  <trkpt lat="39.07521" lon="-106.39787">
    <name>TP263</name>
  </trkpt>
  <trkpt lat="39.07528" lon="-106.39778">
    <name>TP264</name>
  </trkpt>
  <trkpt lat="39.07542" lon="-106.39759">
    <name>TP265</name>
  </trkpt>
  <trkpt lat="39.07556" lon="-106.39737">
    <name>TP266</name>
  </trkpt>
  <trkpt lat="39.07577" lon="-106.39704">
    <name>TP267</name>
  </trkpt>
  <trkpt lat="39.0758" lon="-106.397">
    <name>TP268</name>
  </trkpt>
  <trkpt lat="39.07592" lon="-106.39682">
    <name>TP269</name>
  </trkpt>
  <trkpt lat="39.07614" lon="-106.39646">
    <name>TP270</name>
  </trkpt>
  <trkpt lat="39.07626" lon="-106.39628">
    <name>TP271</name>
  </trkpt>
  <trkpt lat="39.07649" lon="-106.39593">
    <name>TP272</name>
  </trkpt>
  <trkpt lat="39.07649" lon="-106.39592">
    <name>TP273</name>
  </trkpt>
  <trkpt lat="39.07667" lon="-106.39564">
    <name>TP274</name>
  </trkpt>
  <trkpt lat="39.07671" lon="-106.39556">
    <name>TP275</name>
  </trkpt>
  <trkpt lat="39.07676" lon="-106.39547">
    <name>TP276</name>
  </trkpt>
  <trkpt lat="39.07681" lon="-106.39537">
    <name>TP277</name>
  </trkpt>
  <trkpt lat="39.07682" lon="-106.39534">
    <name>TP278</name>
  </trkpt>
  <trkpt lat="39.07688" lon="-106.39521">
    <name>TP279</name>
  </trkpt>
  <trkpt lat="39.0769" lon="-106.39517">
    <name>TP280</name>
  </trkpt>
  <trkpt lat="39.07694" lon="-106.39507">
    <name>TP281</name>
  </trkpt>
  <trkpt lat="39.07703" lon="-106.39483">
    <name>TP282</name>
  </trkpt>
  <trkpt lat="39.07705" lon="-106.39479">
    <name>TP283</name>
  </trkpt>
  <trkpt lat="39.07716" lon="-106.39453">
    <name>TP284</name>
  </trkpt>
  <trkpt lat="39.07724" lon="-106.39436">
    <name>TP285</name>
  </trkpt>
  <trkpt lat="39.07725" lon="-106.39436">
    <name>TP286</name>
  </trkpt>
  <trkpt lat="39.07729" lon="-106.39428">
    <name>TP287</name>
  </trkpt>
  <trkpt lat="39.07738" lon="-106.39416">
    <name>TP288</name>
  </trkpt>
  <trkpt lat="39.07744" lon="-106.39407">
    <name>TP289</name>
  </trkpt>
  <trkpt lat="39.07751" lon="-106.39399">
    <name>TP290</name>
  </trkpt>
  <trkpt lat="39.07767" lon="-106.39384">
    <name>TP291</name>
  </trkpt>
  <trkpt lat="39.07788" lon="-106.39365">
    <name>TP292</name>
  </trkpt>
  <trkpt lat="39.07796" lon="-106.39358">
    <name>TP293</name>
  </trkpt>
  <trkpt lat="39.07803" lon="-106.39352">
    <name>TP294</name>
  </trkpt>
  <trkpt lat="39.07806" lon="-106.39349">
    <name>TP295</name>
  </trkpt>
  <trkpt lat="39.07824" lon="-106.39334">
    <name>TP296</name>
  </trkpt>
  <trkpt lat="39.07847" lon="-106.39314">
    <name>TP297</name>
  </trkpt>
  <trkpt lat="39.07855" lon="-106.39308">
    <name>TP298</name>
  </trkpt>
  <trkpt lat="39.07875" lon="-106.39291">
    <name>TP299</name>
  </trkpt>
  <trkpt lat="39.07876" lon="-106.3929">
    <name>TP300</name>
  </trkpt>
  <trkpt lat="39.0788" lon="-106.39287">
    <name>TP301</name>
  </trkpt>
  <trkpt lat="39.07885" lon="-106.39283">
    <name>TP302</name>
  </trkpt>
  <trkpt lat="39.07892" lon="-106.39277">
    <name>TP303</name>
  </trkpt>
  <trkpt lat="39.07895" lon="-106.39274">
    <name>TP304</name>
  </trkpt>
  <trkpt lat="39.07901" lon="-106.39269">
    <name>TP305</name>
  </trkpt>
  <trkpt lat="39.07906" lon="-106.39264">
    <name>TP306</name>
  </trkpt>
  <trkpt lat="39.07908" lon="-106.39262">
    <name>TP307</name>
  </trkpt>
  <trkpt lat="39.07917" lon="-106.39251">
    <name>TP308</name>
  </trkpt>
  <trkpt lat="39.07922" lon="-106.39245">
    <name>TP309</name>
  </trkpt>
  <trkpt lat="39.07926" lon="-106.39238">
    <name>TP310</name>
  </trkpt>
  <trkpt lat="39.0793" lon="-106.39231">
    <name>TP311</name>
  </trkpt>
  <trkpt lat="39.07932" lon="-106.39225">
    <name>TP312</name>
  </trkpt>
  <trkpt lat="39.07933" lon="-106.39224">
    <name>TP313</name>
  </trkpt>
  <trkpt lat="39.07935" lon="-106.39219">
    <name>TP314</name>
  </trkpt>
  <trkpt lat="39.07936" lon="-106.39214">
    <name>TP315</name>
  </trkpt>
  <trkpt lat="39.07938" lon="-106.39209">
    <name>TP316</name>
  </trkpt>
  <trkpt lat="39.07939" lon="-106.39203">
    <name>TP317</name>
  </trkpt>
  <trkpt lat="39.0794" lon="-106.39195">
    <name>TP318</name>
  </trkpt>
  <trkpt lat="39.07941" lon="-106.39187">
    <name>TP319</name>
  </trkpt>
  <trkpt lat="39.07942" lon="-106.39179">
    <name>TP320</name>
  </trkpt>
  <trkpt lat="39.07942" lon="-106.39174">
    <name>TP321</name>
  </trkpt>
  <trkpt lat="39.07942" lon="-106.39169">
    <name>TP322</name>
  </trkpt>
  <trkpt lat="39.07941" lon="-106.39162">
    <name>TP323</name>
  </trkpt>
  <trkpt lat="39.07941" lon="-106.39158">
    <name>TP324</name>
  </trkpt>
  <trkpt lat="39.07941" lon="-106.39154">
    <name>TP325</name>
  </trkpt>
  <trkpt lat="39.07937" lon="-106.39118">
    <name>TP326</name>
  </trkpt>
  <trkpt lat="39.07936" lon="-106.39115">
    <name>TP327</name>
  </trkpt>
  <trkpt lat="39.07936" lon="-106.39112">
    <name>TP328</name>
  </trkpt>
  <trkpt lat="39.07935" lon="-106.39105">
    <name>TP329</name>
  </trkpt>
  <trkpt lat="39.07935" lon="-106.39102">
    <name>TP330</name>
  </trkpt>
  <trkpt lat="39.07932" lon="-106.39078">
    <name>TP331</name>
  </trkpt>
  <trkpt lat="39.07931" lon="-106.39065">
    <name>TP332</name>
  </trkpt>
  <trkpt lat="39.07931" lon="-106.39059">
    <name>TP333</name>
  </trkpt>
  <trkpt lat="39.07931" lon="-106.39055">
    <name>TP334</name>
  </trkpt>
  <trkpt lat="39.07931" lon="-106.39044">
    <name>TP335</name>
  </trkpt>
  <trkpt lat="39.07931" lon="-106.39043">
    <name>TP336</name>
  </trkpt>
  <trkpt lat="39.07932" lon="-106.39029">
    <name>TP337</name>
  </trkpt>
  <trkpt lat="39.07933" lon="-106.39026">
    <name>TP338</name>
  </trkpt>
  <trkpt lat="39.07934" lon="-106.3902">
    <name>TP339</name>
  </trkpt>
  <trkpt lat="39.07934" lon="-106.39017">
    <name>TP340</name>
  </trkpt>
  <trkpt lat="39.07938" lon="-106.39004">
    <name>TP341</name>
  </trkpt>
  <trkpt lat="39.07941" lon="-106.38991">
    <name>TP342</name>
  </trkpt>
  <trkpt lat="39.07949" lon="-106.38976">
    <name>TP343</name>
  </trkpt>
  <trkpt lat="39.07951" lon="-106.38972">
    <name>TP344</name>
  </trkpt>
  <trkpt lat="39.07956" lon="-106.38964">
    <name>TP345</name>
  </trkpt>
  <trkpt lat="39.07959" lon="-106.38959">
    <name>TP346</name>
  </trkpt>
  <trkpt lat="39.07964" lon="-106.38952">
    <name>TP347</name>
  </trkpt>
  <trkpt lat="39.07973" lon="-106.38942">
    <name>TP348</name>
  </trkpt>
  <trkpt lat="39.07982" lon="-106.38933">
    <name>TP349</name>
  </trkpt>
  <trkpt lat="39.07986" lon="-106.38929">
    <name>TP350</name>
  </trkpt>
  <trkpt lat="39.0799" lon="-106.38924">
    <name>TP351</name>
  </trkpt>
  <trkpt lat="39.07997" lon="-106.38916">
    <name>TP352</name>
  </trkpt>
  <trkpt lat="39.08" lon="-106.38914">
    <name>TP353</name>
  </trkpt>
  <trkpt lat="39.08015" lon="-106.38899">
    <name>TP354</name>
  </trkpt>
  <trkpt lat="39.08038" lon="-106.38877">
    <name>TP355</name>
  </trkpt>
  <trkpt lat="39.08046" lon="-106.38868">
    <name>TP356</name>
  </trkpt>
  <trkpt lat="39.08063" lon="-106.38851">
    <name>TP357</name>
  </trkpt>
  <trkpt lat="39.08067" lon="-106.38846">
    <name>TP358</name>
  </trkpt>
  <trkpt lat="39.08075" lon="-106.38837">
    <name>TP359</name>
  </trkpt>
  <trkpt lat="39.08078" lon="-106.38832">
    <name>TP360</name>
  </trkpt>
  <trkpt lat="39.08087" lon="-106.3882">
    <name>TP361</name>
  </trkpt>
  <trkpt lat="39.08092" lon="-106.38812">
    <name>TP362</name>
  </trkpt>
  <trkpt lat="39.08095" lon="-106.38808">
    <name>TP363</name>
  </trkpt>
  <trkpt lat="39.08103" lon="-106.38794">
    <name>TP364</name>
  </trkpt>
  <trkpt lat="39.08104" lon="-106.38794">
    <name>TP365</name>
  </trkpt>
  <trkpt lat="39.0811" lon="-106.38783">
    <name>TP366</name>
  </trkpt>
  <trkpt lat="39.08118" lon="-106.38769">
    <name>TP367</name>
  </trkpt>
  <trkpt lat="39.08124" lon="-106.38756">
    <name>TP368</name>
  </trkpt>
  <trkpt lat="39.08127" lon="-106.38751">
    <name>TP369</name>
  </trkpt>
  <trkpt lat="39.08128" lon="-106.38747">
    <name>TP370</name>
  </trkpt>
  <trkpt lat="39.08139" lon="-106.38725">
    <name>TP371</name>
  </trkpt>
  <trkpt lat="39.08148" lon="-106.38703">
    <name>TP372</name>
  </trkpt>
  <trkpt lat="39.08155" lon="-106.38687">
    <name>TP373</name>
  </trkpt>
  <trkpt lat="39.08161" lon="-106.38669">
    <name>TP374</name>
  </trkpt>
  <trkpt lat="39.08162" lon="-106.38668">
    <name>TP375</name>
  </trkpt>
  <trkpt lat="39.08166" lon="-106.38654">
    <name>TP376</name>
  </trkpt>
  <trkpt lat="39.0817" lon="-106.3864">
    <name>TP377</name>
  </trkpt>
  <trkpt lat="39.08177" lon="-106.3861">
    <name>TP378</name>
  </trkpt>
  <trkpt lat="39.08183" lon="-106.3857">
    <name>TP379</name>
  </trkpt>
  <trkpt lat="39.08183" lon="-106.38564">
    <name>TP380</name>
  </trkpt>
  <trkpt lat="39.08185" lon="-106.38541">
    <name>TP381</name>
  </trkpt>
  <trkpt lat="39.08186" lon="-106.38524">
    <name>TP382</name>
  </trkpt>
  <trkpt lat="39.08186" lon="-106.38513">
    <name>TP383</name>
  </trkpt>
  <trkpt lat="39.08186" lon="-106.38495">
    <name>TP384</name>
  </trkpt>
  <trkpt lat="39.08186" lon="-106.38493">
    <name>TP385</name>
  </trkpt>
  <trkpt lat="39.08186" lon="-106.38472">
    <name>TP386</name>
  </trkpt>
  <trkpt lat="39.08186" lon="-106.38421">
    <name>TP387</name>
  </trkpt>
  <trkpt lat="39.08186" lon="-106.38391">
    <name>TP388</name>
  </trkpt>
  <trkpt lat="39.08185" lon="-106.38373">
    <name>TP389</name>
  </trkpt>
  <trkpt lat="39.08185" lon="-106.38332">
    <name>TP390</name>
  </trkpt>
  <trkpt lat="39.08185" lon="-106.38314">
    <name>TP391</name>
  </trkpt>
  <trkpt lat="39.08184" lon="-106.3826">
    <name>TP392</name>
  </trkpt>
  <trkpt lat="39.08184" lon="-106.38242">
    <name>TP393</name>
  </trkpt>
  <trkpt lat="39.08184" lon="-106.38205">
    <name>TP394</name>
  </trkpt>
  <trkpt lat="39.08183" lon="-106.38143">
    <name>TP395</name>
  </trkpt>
  <trkpt lat="39.08183" lon="-106.38116">
    <name>TP396</name>
  </trkpt>
  <trkpt lat="39.08183" lon="-106.38101">
    <name>TP397</name>
  </trkpt>
  <trkpt lat="39.08183" lon="-106.38093">
    <name>TP398</name>
  </trkpt>
  <trkpt lat="39.08183" lon="-106.38069">
    <name>TP399</name>
  </trkpt>
  <trkpt lat="39.08185" lon="-106.38053">
    <name>TP400</name>
  </trkpt>
  <trkpt lat="39.08185" lon="-106.38046">
    <name>TP401</name>
  </trkpt>
  <trkpt lat="39.08186" lon="-106.38044">
    <name>TP402</name>
  </trkpt>
  <trkpt lat="39.08189" lon="-106.38024">
    <name>TP403</name>
  </trkpt>
  <trkpt lat="39.0819" lon="-106.38015">
    <name>TP404</name>
  </trkpt>
  <trkpt lat="39.0819" lon="-106.38014">
    <name>TP405</name>
  </trkpt>
  <trkpt lat="39.08191" lon="-106.38009">
    <name>TP406</name>
  </trkpt>
  <trkpt lat="39.08196" lon="-106.37989">
    <name>TP407</name>
  </trkpt>
  <trkpt lat="39.08203" lon="-106.37969">
    <name>TP408</name>
  </trkpt>
  <trkpt lat="39.08208" lon="-106.37956">
    <name>TP409</name>
  </trkpt>
  <trkpt lat="39.08212" lon="-106.37944">
    <name>TP410</name>
  </trkpt>
  <trkpt lat="39.08221" lon="-106.37926">
    <name>TP411</name>
  </trkpt>
  <trkpt lat="39.08226" lon="-106.37917">
    <name>TP412</name>
  </trkpt>
  <trkpt lat="39.08229" lon="-106.37912">
    <name>TP413</name>
  </trkpt>
  <trkpt lat="39.08236" lon="-106.379">
    <name>TP414</name>
  </trkpt>
  <trkpt lat="39.08241" lon="-106.37893">
    <name>TP415</name>
  </trkpt>
  <trkpt lat="39.08257" lon="-106.37873">
    <name>TP416</name>
  </trkpt>
  <trkpt lat="39.08277" lon="-106.37851">
    <name>TP417</name>
  </trkpt>
  <trkpt lat="39.08294" lon="-106.37834">
    <name>TP418</name>
  </trkpt>
  <trkpt lat="39.08307" lon="-106.3782">
    <name>TP419</name>
  </trkpt>
  <trkpt lat="39.08311" lon="-106.37816">
    <name>TP420</name>
  </trkpt>
  <trkpt lat="39.08321" lon="-106.37806">
    <name>TP421</name>
  </trkpt>
  <trkpt lat="39.08364" lon="-106.37762">
    <name>TP422</name>
  </trkpt>
  <trkpt lat="39.0837" lon="-106.37756">
    <name>TP423</name>
  </trkpt>
  <trkpt lat="39.08378" lon="-106.37748">
    <name>TP424</name>
  </trkpt>
  <trkpt lat="39.08406" lon="-106.37719">
    <name>TP425</name>
  </trkpt>
  <trkpt lat="39.08409" lon="-106.37715">
    <name>TP426</name>
  </trkpt>
  <trkpt lat="39.08433" lon="-106.37691">
    <name>TP427</name>
  </trkpt>
  <trkpt lat="39.08437" lon="-106.37687">
    <name>TP428</name>
  </trkpt>
  <trkpt lat="39.0848" lon="-106.37642">
    <name>TP429</name>
  </trkpt>
  <trkpt lat="39.0851" lon="-106.37611">
    <name>TP430</name>
  </trkpt>
  <trkpt lat="39.08534" lon="-106.37588">
    <name>TP431</name>
  </trkpt>
  <trkpt lat="39.08547" lon="-106.37574">
    <name>TP432</name>
  </trkpt>
  <trkpt lat="39.08576" lon="-106.37543">
    <name>TP433</name>
  </trkpt>
  <trkpt lat="39.08627" lon="-106.37491">
    <name>TP434</name>
  </trkpt>
  <trkpt lat="39.0864" lon="-106.37477">
    <name>TP435</name>
  </trkpt>
  <trkpt lat="39.08661" lon="-106.37454">
    <name>TP436</name>
  </trkpt>
  <trkpt lat="39.08678" lon="-106.37435">
    <name>TP437</name>
  </trkpt>
  <trkpt lat="39.0868" lon="-106.37432">
    <name>TP438</name>
  </trkpt>
  <trkpt lat="39.08707" lon="-106.37404">
    <name>TP439</name>
  </trkpt>
  <trkpt lat="39.08737" lon="-106.37372">
    <name>TP440</name>
  </trkpt>
  <trkpt lat="39.08743" lon="-106.37367">
    <name>TP441</name>
  </trkpt>
  <trkpt lat="39.08766" lon="-106.37344">
    <name>TP442</name>
  </trkpt>
  <trkpt lat="39.0878" lon="-106.3733">
    <name>TP443</name>
  </trkpt>
  <trkpt lat="39.08794" lon="-106.37315">
    <name>TP444</name>
  </trkpt>
  <trkpt lat="39.08795" lon="-106.37314">
    <name>TP445</name>
  </trkpt>
  <trkpt lat="39.08808" lon="-106.37301">
    <name>TP446</name>
  </trkpt>
  <trkpt lat="39.08851" lon="-106.37258">
    <name>TP447</name>
  </trkpt>
  <trkpt lat="39.08865" lon="-106.37243">
    <name>TP448</name>
  </trkpt>
  <trkpt lat="39.08878" lon="-106.37229">
    <name>TP449</name>
  </trkpt>
  <trkpt lat="39.08892" lon="-106.37215">
    <name>TP450</name>
  </trkpt>
  <trkpt lat="39.08965" lon="-106.37137">
    <name>TP451</name>
  </trkpt>
  <trkpt lat="39.08966" lon="-106.37135">
    <name>TP452</name>
  </trkpt>
  <trkpt lat="39.09011" lon="-106.37091">
    <name>TP453</name>
  </trkpt>
  <trkpt lat="39.09054" lon="-106.37047">
    <name>TP454</name>
  </trkpt>
  <trkpt lat="39.09108" lon="-106.3699">
    <name>TP455</name>
  </trkpt>
  <trkpt lat="39.09134" lon="-106.36965">
    <name>TP456</name>
  </trkpt>
  <trkpt lat="39.09157" lon="-106.3694">
    <name>TP457</name>
  </trkpt>
  <trkpt lat="39.09168" lon="-106.36928">
    <name>TP458</name>
  </trkpt>
  <trkpt lat="39.09227" lon="-106.36867">
    <name>TP459</name>
  </trkpt>
  <trkpt lat="39.09246" lon="-106.36846">
    <name>TP460</name>
  </trkpt>
  <trkpt lat="39.09266" lon="-106.36825">
    <name>TP461</name>
  </trkpt>
  <trkpt lat="39.09276" lon="-106.36813">
    <name>TP462</name>
  </trkpt>
  <trkpt lat="39.09281" lon="-106.36806">
    <name>TP463</name>
  </trkpt>
  <trkpt lat="39.09289" lon="-106.36796">
    <name>TP464</name>
  </trkpt>
  <trkpt lat="39.09293" lon="-106.36789">
    <name>TP465</name>
  </trkpt>
  <trkpt lat="39.09295" lon="-106.36786">
    <name>TP466</name>
  </trkpt>
  <trkpt lat="39.09305" lon="-106.36772">
    <name>TP467</name>
  </trkpt>
  <trkpt lat="39.09314" lon="-106.36755">
    <name>TP468</name>
  </trkpt>
  <trkpt lat="39.09316" lon="-106.36753">
    <name>TP469</name>
  </trkpt>
  <trkpt lat="39.09323" lon="-106.36739">
    <name>TP470</name>
  </trkpt>
  <trkpt lat="39.0933" lon="-106.36723">
    <name>TP471</name>
  </trkpt>
  <trkpt lat="39.09335" lon="-106.3671">
    <name>TP472</name>
  </trkpt>
  <trkpt lat="39.09341" lon="-106.36693">
    <name>TP473</name>
  </trkpt>
  <trkpt lat="39.09341" lon="-106.36692">
    <name>TP474</name>
  </trkpt>
  <trkpt lat="39.09347" lon="-106.3667">
    <name>TP475</name>
  </trkpt>
  <trkpt lat="39.09349" lon="-106.36662">
    <name>TP476</name>
  </trkpt>
  <trkpt lat="39.09355" lon="-106.36637">
    <name>TP477</name>
  </trkpt>
  <trkpt lat="39.09358" lon="-106.36619">
    <name>TP478</name>
  </trkpt>
  <trkpt lat="39.0936" lon="-106.36603">
    <name>TP479</name>
  </trkpt>
  <trkpt lat="39.09363" lon="-106.3658">
    <name>TP480</name>
  </trkpt>
  <trkpt lat="39.09366" lon="-106.36558">
    <name>TP481</name>
  </trkpt>
  <trkpt lat="39.09376" lon="-106.36484">
    <name>TP482</name>
  </trkpt>
  <trkpt lat="39.09378" lon="-106.36461">
    <name>TP483</name>
  </trkpt>
  <trkpt lat="39.09379" lon="-106.3646">
    <name>TP484</name>
  </trkpt>
  <trkpt lat="39.09381" lon="-106.36443">
    <name>TP485</name>
  </trkpt>
  <trkpt lat="39.09381" lon="-106.36437">
    <name>TP486</name>
  </trkpt>
  <trkpt lat="39.09384" lon="-106.3642">
    <name>TP487</name>
  </trkpt>
  <trkpt lat="39.09386" lon="-106.36397">
    <name>TP488</name>
  </trkpt>
  <trkpt lat="39.09392" lon="-106.36351">
    <name>TP489</name>
  </trkpt>
  <trkpt lat="39.09399" lon="-106.36296">
    <name>TP490</name>
  </trkpt>
  <trkpt lat="39.09406" lon="-106.36241">
    <name>TP491</name>
  </trkpt>
  <trkpt lat="39.09479" lon="-106.35659">
    <name>TP492</name>
  </trkpt>
  <trkpt lat="39.0949" lon="-106.35576">
    <name>TP493</name>
  </trkpt>
  <trkpt lat="39.09502" lon="-106.35489">
    <name>TP494</name>
  </trkpt>
  <trkpt lat="39.09515" lon="-106.35382">
    <name>TP495</name>
  </trkpt>
  <trkpt lat="39.09529" lon="-106.35269">
    <name>TP496</name>
  </trkpt>
  <trkpt lat="39.09543" lon="-106.35155">
    <name>TP497</name>
  </trkpt>
  <trkpt lat="39.09545" lon="-106.35138">
    <name>TP498</name>
  </trkpt>
  <trkpt lat="39.0955" lon="-106.35097">
    <name>TP499</name>
  </trkpt>
  <trkpt lat="39.09585" lon="-106.34801">
    <name>TP500</name>
  </trkpt>
  <trkpt lat="39.09594" lon="-106.34729">
    <name>TP501</name>
  </trkpt>
  <trkpt lat="39.0961" lon="-106.34608">
    <name>TP502</name>
  </trkpt>
  <trkpt lat="39.09622" lon="-106.34505">
    <name>TP503</name>
  </trkpt>
  <trkpt lat="39.0962233" lon="-106.3450524">
    <name>TP504</name>
  </trkpt>
  <trkpt lat="39.09637" lon="-106.34514">
    <name>TP505</name>
  </trkpt>
  <trkpt lat="39.09644" lon="-106.34525">
    <name>TP506</name>
  </trkpt>
  <trkpt lat="39.09645" lon="-106.34527">
    <name>TP507</name>
  </trkpt>
  <trkpt lat="39.09647" lon="-106.34533">
    <name>TP508</name>
  </trkpt>
  <trkpt lat="39.09652" lon="-106.34546">
    <name>TP509</name>
  </trkpt>
  <trkpt lat="39.09658" lon="-106.34566">
    <name>TP510</name>
  </trkpt>
  <trkpt lat="39.09659" lon="-106.34567">
    <name>TP511</name>
  </trkpt>
  <trkpt lat="39.09666" lon="-106.34589">
    <name>TP512</name>
  </trkpt>
  <trkpt lat="39.09672" lon="-106.34609">
    <name>TP513</name>
  </trkpt>
  <trkpt lat="39.09678" lon="-106.34632">
    <name>TP514</name>
  </trkpt>
  <trkpt lat="39.0968" lon="-106.3464">
    <name>TP515</name>
  </trkpt>
  <trkpt lat="39.09682" lon="-106.34647">
    <name>TP516</name>
  </trkpt>
  <trkpt lat="39.09693" lon="-106.34728">
    <name>TP517</name>
  </trkpt>
  <trkpt lat="39.09698" lon="-106.34754">
    <name>TP518</name>
  </trkpt>
  <trkpt lat="39.09701" lon="-106.34768">
    <name>TP519</name>
  </trkpt>
  <trkpt lat="39.09707" lon="-106.34799">
    <name>TP520</name>
  </trkpt>
  <trkpt lat="39.0971" lon="-106.34813">
    <name>TP521</name>
  </trkpt>
  <trkpt lat="39.09716" lon="-106.34843">
    <name>TP522</name>
  </trkpt>
  <trkpt lat="39.09739" lon="-106.34943">
    <name>TP523</name>
  </trkpt>
  <trkpt lat="39.09751" lon="-106.34993">
    <name>TP524</name>
  </trkpt>
  <trkpt lat="39.09758" lon="-106.35002">
    <name>TP525</name>
  </trkpt>
  <trkpt lat="39.09764" lon="-106.35003">
    <name>TP526</name>
  </trkpt>
  <trkpt lat="39.09767" lon="-106.35003">
    <name>TP527</name>
  </trkpt>
  <trkpt lat="39.09781" lon="-106.35003">
    <name>TP528</name>
  </trkpt>
  <trkpt lat="39.09782" lon="-106.35003">
    <name>TP529</name>
  </trkpt>
  <trkpt lat="39.09789" lon="-106.35005">
    <name>TP530</name>
  </trkpt>
  <trkpt lat="39.09793" lon="-106.35006">
    <name>TP531</name>
  </trkpt>
  <trkpt lat="39.09814" lon="-106.35028">
    <name>TP532</name>
  </trkpt>
  <trkpt lat="39.09831" lon="-106.35047">
    <name>TP533</name>
  </trkpt>
  <trkpt lat="39.09837" lon="-106.35055">
    <name>TP534</name>
  </trkpt>
  <trkpt lat="39.09839" lon="-106.35058">
    <name>TP535</name>
  </trkpt>
  <trkpt lat="39.09849" lon="-106.35077">
    <name>TP536</name>
  </trkpt>
  <trkpt lat="39.09861" lon="-106.35099">
    <name>TP537</name>
  </trkpt>
  <trkpt lat="39.09863" lon="-106.35103">
    <name>TP538</name>
  </trkpt>
  <trkpt lat="39.09867" lon="-106.35116">
    <name>TP539</name>
  </trkpt>
  <trkpt lat="39.09874" lon="-106.35135">
    <name>TP540</name>
  </trkpt>
  <trkpt lat="39.09877" lon="-106.35165">
    <name>TP541</name>
  </trkpt>
  <trkpt lat="39.09876" lon="-106.35235">
    <name>TP542</name>
  </trkpt>
  <trkpt lat="39.09873" lon="-106.35258">
    <name>TP543</name>
  </trkpt>
  <trkpt lat="39.09867" lon="-106.35276">
    <name>TP544</name>
  </trkpt>
  <trkpt lat="39.09853" lon="-106.35289">
    <name>TP545</name>
  </trkpt>
  <trkpt lat="39.09849" lon="-106.35293">
    <name>TP546</name>
  </trkpt>
  <trkpt lat="39.09848" lon="-106.35294">
    <name>TP547</name>
  </trkpt>
  <trkpt lat="39.09825" lon="-106.35317">
    <name>TP548</name>
  </trkpt>
  <trkpt lat="39.09819" lon="-106.35338">
    <name>TP549</name>
  </trkpt>
  <trkpt lat="39.09808" lon="-106.35356">
    <name>TP550</name>
  </trkpt>
  <trkpt lat="39.09798" lon="-106.35377">
    <name>TP551</name>
  </trkpt>
  <trkpt lat="39.09795" lon="-106.35385">
    <name>TP552</name>
  </trkpt>
  <trkpt lat="39.09779" lon="-106.3542">
    <name>TP553</name>
  </trkpt>
  <trkpt lat="39.09777" lon="-106.3544">
    <name>TP554</name>
  </trkpt>
  <trkpt lat="39.09776" lon="-106.35448">
    <name>TP555</name>
  </trkpt>
  <trkpt lat="39.09774" lon="-106.35484">
    <name>TP556</name>
  </trkpt>
  <trkpt lat="39.09774" lon="-106.3552">
    <name>TP557</name>
  </trkpt>
  <trkpt lat="39.09777" lon="-106.35556">
    <name>TP558</name>
  </trkpt>
  <trkpt lat="39.09777" lon="-106.35564">
    <name>TP559</name>
  </trkpt>
  <trkpt lat="39.09778" lon="-106.35582">
    <name>TP560</name>
  </trkpt>
  <trkpt lat="39.09784" lon="-106.35652">
    <name>TP561</name>
  </trkpt>
  <trkpt lat="39.09785" lon="-106.35698">
    <name>TP562</name>
  </trkpt>
  <trkpt lat="39.09783" lon="-106.35717">
    <name>TP563</name>
  </trkpt>
  <trkpt lat="39.09782" lon="-106.35726">
    <name>TP564</name>
  </trkpt>
  <trkpt lat="39.0978" lon="-106.35738">
    <name>TP565</name>
  </trkpt>
  <trkpt lat="39.09788" lon="-106.3579">
    <name>TP566</name>
  </trkpt>
  <trkpt lat="39.09794" lon="-106.35846">
    <name>TP567</name>
  </trkpt>
  <trkpt lat="39.09794" lon="-106.35854">
    <name>TP568</name>
  </trkpt>
  <trkpt lat="39.09798" lon="-106.35909">
    <name>TP569</name>
  </trkpt>
  <trkpt lat="39.09799" lon="-106.35923">
    <name>TP570</name>
  </trkpt>
  <trkpt lat="39.09803" lon="-106.3597">
    <name>TP571</name>
  </trkpt>
  <trkpt lat="39.09805" lon="-106.35997">
    <name>TP572</name>
  </trkpt>
  <trkpt lat="39.09808" lon="-106.36023">
    <name>TP573</name>
  </trkpt>
  <trkpt lat="39.09815" lon="-106.36033">
    <name>TP574</name>
  </trkpt>
  <trkpt lat="39.09816" lon="-106.36035">
    <name>TP575</name>
  </trkpt>
  <trkpt lat="39.09821" lon="-106.36041">
    <name>TP576</name>
  </trkpt>
  <trkpt lat="39.09827" lon="-106.36047">
    <name>TP577</name>
  </trkpt>
  <trkpt lat="39.09846" lon="-106.36061">
    <name>TP578</name>
  </trkpt>
  <trkpt lat="39.09864" lon="-106.3609">
    <name>TP579</name>
  </trkpt>
  <trkpt lat="39.09869" lon="-106.36122">
    <name>TP580</name>
  </trkpt>
  <trkpt lat="39.09872" lon="-106.3613">
    <name>TP581</name>
  </trkpt>
  <trkpt lat="39.09877" lon="-106.36144">
    <name>TP582</name>
  </trkpt>
  <trkpt lat="39.09888" lon="-106.36161">
    <name>TP583</name>
  </trkpt>
  <trkpt lat="39.09899" lon="-106.36179">
    <name>TP584</name>
  </trkpt>
  <trkpt lat="39.09907" lon="-106.36197">
    <name>TP585</name>
  </trkpt>
  <trkpt lat="39.09913" lon="-106.36219">
    <name>TP586</name>
  </trkpt>
  <trkpt lat="39.09914" lon="-106.36221">
    <name>TP587</name>
  </trkpt>
  <trkpt lat="39.09919" lon="-106.36246">
    <name>TP588</name>
  </trkpt>
  <trkpt lat="39.09926" lon="-106.36274">
    <name>TP589</name>
  </trkpt>
  <trkpt lat="39.09931" lon="-106.36305">
    <name>TP590</name>
  </trkpt>
  <trkpt lat="39.09932" lon="-106.36332">
    <name>TP591</name>
  </trkpt>
  <trkpt lat="39.09929" lon="-106.36361">
    <name>TP592</name>
  </trkpt>
  <trkpt lat="39.09924" lon="-106.36387">
    <name>TP593</name>
  </trkpt>
  <trkpt lat="39.0992" lon="-106.3641">
    <name>TP594</name>
  </trkpt>
  <trkpt lat="39.09915" lon="-106.36424">
    <name>TP595</name>
  </trkpt>
  <trkpt lat="39.09911" lon="-106.36433">
    <name>TP596</name>
  </trkpt>
  <trkpt lat="39.09906" lon="-106.36453">
    <name>TP597</name>
  </trkpt>
  <trkpt lat="39.09905" lon="-106.36467">
    <name>TP598</name>
  </trkpt>
  <trkpt lat="39.09904" lon="-106.36476">
    <name>TP599</name>
  </trkpt>
  <trkpt lat="39.09907" lon="-106.36499">
    <name>TP600</name>
  </trkpt>
  <trkpt lat="39.09912" lon="-106.36519">
    <name>TP601</name>
  </trkpt>
  <trkpt lat="39.09918" lon="-106.36543">
    <name>TP602</name>
  </trkpt>
  <trkpt lat="39.09918" lon="-106.36558">
    <name>TP603</name>
  </trkpt>
  <trkpt lat="39.09919" lon="-106.36564">
    <name>TP604</name>
  </trkpt>
  <trkpt lat="39.09916" lon="-106.36588">
    <name>TP605</name>
  </trkpt>
  <trkpt lat="39.09909" lon="-106.36613">
    <name>TP606</name>
  </trkpt>
  <trkpt lat="39.09901" lon="-106.36639">
    <name>TP607</name>
  </trkpt>
  <trkpt lat="39.09897" lon="-106.36658">
    <name>TP608</name>
  </trkpt>
  <trkpt lat="39.09897" lon="-106.36672">
    <name>TP609</name>
  </trkpt>
  <trkpt lat="39.09906" lon="-106.36682">
    <name>TP610</name>
  </trkpt>
  <trkpt lat="39.09918" lon="-106.36693">
    <name>TP611</name>
  </trkpt>
  <trkpt lat="39.0993" lon="-106.36703">
    <name>TP612</name>
  </trkpt>
  <trkpt lat="39.0994" lon="-106.36711">
    <name>TP613</name>
  </trkpt>
  <trkpt lat="39.09945" lon="-106.36713">
    <name>TP614</name>
  </trkpt>
  <trkpt lat="39.09949" lon="-106.36716">
    <name>TP615</name>
  </trkpt>
  <trkpt lat="39.09963" lon="-106.36727">
    <name>TP616</name>
  </trkpt>
  <trkpt lat="39.09964" lon="-106.36727">
    <name>TP617</name>
  </trkpt>
  <trkpt lat="39.09979" lon="-106.36738">
    <name>TP618</name>
  </trkpt>
  <trkpt lat="39.09988" lon="-106.36743">
    <name>TP619</name>
  </trkpt>
  <trkpt lat="39.10005" lon="-106.3675">
    <name>TP620</name>
  </trkpt>
  <trkpt lat="39.10013" lon="-106.3675">
    <name>TP621</name>
  </trkpt>
  <trkpt lat="39.10031" lon="-106.36752">
    <name>TP622</name>
  </trkpt>
  <trkpt lat="39.1003137" lon="-106.3675182">
    <name>TP623</name>
  </trkpt>
  <trkpt lat="39.10045" lon="-106.36736">
    <name>TP624</name>
  </trkpt>
  <trkpt lat="39.10048" lon="-106.36732">
    <name>TP625</name>
  </trkpt>
  <trkpt lat="39.10069" lon="-106.36706">
    <name>TP626</name>
  </trkpt>
  <trkpt lat="39.10085" lon="-106.3668">
    <name>TP627</name>
  </trkpt>
  <trkpt lat="39.10091" lon="-106.36666">
    <name>TP628</name>
  </trkpt>
  <trkpt lat="39.10093" lon="-106.36662">
    <name>TP629</name>
  </trkpt>
  <trkpt lat="39.10096" lon="-106.36655">
    <name>TP630</name>
  </trkpt>
  <trkpt lat="39.101" lon="-106.36634">
    <name>TP631</name>
  </trkpt>
  <trkpt lat="39.1010015" lon="-106.36634">
    <name>TP632</name>
  </trkpt>
  <trkpt lat="39.10082" lon="-106.36594">
    <name>TP633</name>
  </trkpt>
  <trkpt lat="39.10063" lon="-106.36555">
    <name>TP634</name>
  </trkpt>
  <trkpt lat="39.10044" lon="-106.36514">
    <name>TP635</name>
  </trkpt>
  <trkpt lat="39.10031" lon="-106.36484">
    <name>TP636</name>
  </trkpt>
  <trkpt lat="39.10026" lon="-106.36471">
    <name>TP637</name>
  </trkpt>
  <trkpt lat="39.1002" lon="-106.36449">
    <name>TP638</name>
  </trkpt>
  <trkpt lat="39.10018" lon="-106.36431">
    <name>TP639</name>
  </trkpt>
  <trkpt lat="39.10019" lon="-106.36407">
    <name>TP640</name>
  </trkpt>
  <trkpt lat="39.10019" lon="-106.36404">
    <name>TP641</name>
  </trkpt>
  <trkpt lat="39.10023" lon="-106.36376">
    <name>TP642</name>
  </trkpt>
  <trkpt lat="39.10028" lon="-106.36362">
    <name>TP643</name>
  </trkpt>
  <trkpt lat="39.10032" lon="-106.36348">
    <name>TP644</name>
  </trkpt>
  <trkpt lat="39.10052" lon="-106.36302">
    <name>TP645</name>
  </trkpt>
  <trkpt lat="39.10053" lon="-106.363">
    <name>TP646</name>
  </trkpt>
  <trkpt lat="39.10072" lon="-106.36261">
    <name>TP647</name>
  </trkpt>
  <trkpt lat="39.10081" lon="-106.36241">
    <name>TP648</name>
  </trkpt>
  <trkpt lat="39.10086" lon="-106.36229">
    <name>TP649</name>
  </trkpt>
  <trkpt lat="39.10094" lon="-106.36204">
    <name>TP650</name>
  </trkpt>
  <trkpt lat="39.10097" lon="-106.36169">
    <name>TP651</name>
  </trkpt>
  <trkpt lat="39.1009688" lon="-106.3616914">
    <name>TP652</name>
  </trkpt>
  <trkpt lat="39.10095" lon="-106.3617">
    <name>TP653</name>
  </trkpt>
  <trkpt lat="39.10092" lon="-106.36168">
    <name>TP654</name>
  </trkpt>
  <trkpt lat="39.10089" lon="-106.36165">
    <name>TP655</name>
  </trkpt>
  <trkpt lat="39.10084" lon="-106.36154">
    <name>TP656</name>
  </trkpt>
  <trkpt lat="39.10073" lon="-106.3614">
    <name>TP657</name>
  </trkpt>
  <trkpt lat="39.10067" lon="-106.36132">
    <name>TP658</name>
  </trkpt>
  <trkpt lat="39.10065" lon="-106.36123">
    <name>TP659</name>
  </trkpt>
  <trkpt lat="39.10065" lon="-106.36121">
    <name>TP660</name>
  </trkpt>
  <trkpt lat="39.10063" lon="-106.36107">
    <name>TP661</name>
  </trkpt>
  <trkpt lat="39.10058" lon="-106.36094">
    <name>TP662</name>
  </trkpt>
  <trkpt lat="39.1005" lon="-106.36081">
    <name>TP663</name>
  </trkpt>
  <trkpt lat="39.10039" lon="-106.36071">
    <name>TP664</name>
  </trkpt>
  <trkpt lat="39.10035" lon="-106.36066">
    <name>TP665</name>
  </trkpt>
  <trkpt lat="39.10033" lon="-106.36064">
    <name>TP666</name>
  </trkpt>
  <trkpt lat="39.10029" lon="-106.36051">
    <name>TP667</name>
  </trkpt>
  <trkpt lat="39.1003" lon="-106.36045">
    <name>TP668</name>
  </trkpt>
  <trkpt lat="39.10031" lon="-106.36031">
    <name>TP669</name>
  </trkpt>
  <trkpt lat="39.1003" lon="-106.36013">
    <name>TP670</name>
  </trkpt>
  <trkpt lat="39.10029" lon="-106.36004">
    <name>TP671</name>
  </trkpt>
  <trkpt lat="39.10027" lon="-106.35999">
    <name>TP672</name>
  </trkpt>
  <trkpt lat="39.1002" lon="-106.35981">
    <name>TP673</name>
  </trkpt>
  <trkpt lat="39.10011" lon="-106.35952">
    <name>TP674</name>
  </trkpt>
  <trkpt lat="39.10011" lon="-106.35944">
    <name>TP675</name>
  </trkpt>
  <trkpt lat="39.1001063" lon="-106.359443">
    <name>TP676</name>
  </trkpt>
  <trkpt lat="39.1001063" lon="-106.359443">
    <name>TP677</name>
  </trkpt>
  <trkpt lat="39.1001063" lon="-106.359443">
    <name>TP678</name>
  </trkpt>
  </trkseg>
</trk>
</gpx>