<?xml version="1.0" encoding="UTF-8" standalone="no" ?>
<gpx xmlns="http://www.topografix.com/GPX/1/1" xmlns:gpxx="http://www.garmin.com/xmlschemas/GpxExtensions/v3" xmlns:gpxtpx="http://www.garmin.com/xmlschemas/TrackPointExtension/v1" creator="mapstogpx.com" version="1.1" xmlns:xsi="http://www.w3.org/2001/XMLSchema-instance" xsi:schemaLocation="http://www.topografix.com/GPX/1/1 http://www.topografix.com/GPX/1/1/gpx.xsd http://www.garmin.com/xmlschemas/GpxExtensions/v3 http://www.garmin.com/xmlschemas/GpxExtensionsv3.xsd http://www.garmin.com/xmlschemas/TrackPointExtension/v1 http://www.garmin.com/xmlschemas/TrackPointExtensionv1.xsd">
  <metadata>
    <link href="http://www.mapstogpx.com">
      <text>Sverrir Sigmundarson</text>
    </link>
    <!--desc>Powered by Google, ©2025 Google</desc-->
    <!--copyright author="Google Inc">
    	<year>2025</year>
    	<license>https://developers.google.com/maps/terms</license>
    </copyright-->
    <!--url>https://www.google.com/maps/dir/60.4907058,6.6537/Parkplatz/@60.3019889,6.6039903,17.62z/data=!4m9!4m8!1m0!1m5!1m1!1s0x463e83dfe31a71ff:0x3b11974dfcc832bc!2m2!1d6.6062409!2d60.3022026!3e0?entry=tts&g_ep=EgoyMDI1MDcyMy4wKgBIAVAD&skid=b1125d60-81f6-4c25-b20a-9b1bbd123059&hl=en</url-->
    <time>2025-07-25T14:36:58Z</time>
  </metadata>
  <wpt lat="60.4907058" lon="6.6537">
    <name>5736 Granvin</name>
    <desc>Fylkesvei 79 3170, 5736 Granvin, Norway</desc>
  </wpt>
  <wpt lat="60.3022026" lon="6.6062409">
    <name>Parkplatz</name>
    <desc>Parkplatz, Unnamed Road, 5776, Ullensvang, Norway</desc>
  </wpt>
<trk>
  <name>5736 Granvin to Parkplatz</name>
  <number>1</number>
  <trkseg>
  <trkpt lat="60.4907067" lon="6.6536977">
    <name>TP001</name>
  </trkpt>
  <trkpt lat="60.49067" lon="6.65365">
    <name>TP002</name>
  </trkpt>
  <trkpt lat="60.49051" lon="6.65335">
    <name>TP003</name>
  </trkpt>
  <trkpt lat="60.49043" lon="6.6532">
    <name>TP004</name>
  </trkpt>
  <trkpt lat="60.49038" lon="6.65306">
    <name>TP005</name>
  </trkpt>
  <trkpt lat="60.49026" lon="6.65276">
    <name>TP006</name>
  </trkpt>
  <trkpt lat="60.49023" lon="6.65268">
    <name>TP007</name>
  </trkpt>
  <trkpt lat="60.49022" lon="6.65263">
    <name>TP008</name>
  </trkpt>
  <trkpt lat="60.49015" lon="6.65245">
    <name>TP009</name>
  </trkpt>
  <trkpt lat="60.49001" lon="6.65207">
    <name>TP010</name>
  </trkpt>
  <trkpt lat="60.48996" lon="6.65192">
    <name>TP011</name>
  </trkpt>
  <trkpt lat="60.4899" lon="6.65176">
    <name>TP012</name>
  </trkpt>
  <trkpt lat="60.48984" lon="6.6516">
    <name>TP013</name>
  </trkpt>
  <trkpt lat="60.48978" lon="6.65145">
    <name>TP014</name>
  </trkpt>
  <trkpt lat="60.48971" lon="6.6513">
    <name>TP015</name>
  </trkpt>
  <trkpt lat="60.48968" lon="6.65122">
    <name>TP016</name>
  </trkpt>
  <trkpt lat="60.48967" lon="6.65121">
    <name>TP017</name>
  </trkpt>
  <trkpt lat="60.48965" lon="6.65116">
    <name>TP018</name>
  </trkpt>
  <trkpt lat="60.48964" lon="6.65115">
    <name>TP019</name>
  </trkpt>
  <trkpt lat="60.48962" lon="6.65112">
    <name>TP020</name>
  </trkpt>
  <trkpt lat="60.48951" lon="6.65091">
    <name>TP021</name>
  </trkpt>
  <trkpt lat="60.48949" lon="6.65087">
    <name>TP022</name>
  </trkpt>
  <trkpt lat="60.48938" lon="6.65067">
    <name>TP023</name>
  </trkpt>
  <trkpt lat="60.48937" lon="6.65066">
    <name>TP024</name>
  </trkpt>
  <trkpt lat="60.48924" lon="6.65043">
    <name>TP025</name>
  </trkpt>
  <trkpt lat="60.48923" lon="6.65041">
    <name>TP026</name>
  </trkpt>
  <trkpt lat="60.48918" lon="6.65032">
    <name>TP027</name>
  </trkpt>
  <trkpt lat="60.48909" lon="6.65018">
    <name>TP028</name>
  </trkpt>
  <trkpt lat="60.48895" lon="6.64995">
    <name>TP029</name>
  </trkpt>
  <trkpt lat="60.48894" lon="6.64993">
    <name>TP030</name>
  </trkpt>
  <trkpt lat="60.48881" lon="6.64973">
    <name>TP031</name>
  </trkpt>
  <trkpt lat="60.4888" lon="6.6497">
    <name>TP032</name>
  </trkpt>
  <trkpt lat="60.48875" lon="6.64962">
    <name>TP033</name>
  </trkpt>
  <trkpt lat="60.48868" lon="6.64951">
    <name>TP034</name>
  </trkpt>
  <trkpt lat="60.48862" lon="6.64941">
    <name>TP035</name>
  </trkpt>
  <trkpt lat="60.48861" lon="6.6494">
    <name>TP036</name>
  </trkpt>
  <trkpt lat="60.48854" lon="6.64928">
    <name>TP037</name>
  </trkpt>
  <trkpt lat="60.48849" lon="6.64919">
    <name>TP038</name>
  </trkpt>
  <trkpt lat="60.48836" lon="6.64897">
    <name>TP039</name>
  </trkpt>
  <trkpt lat="60.48834" lon="6.64894">
    <name>TP040</name>
  </trkpt>
  <trkpt lat="60.48827" lon="6.64882">
    <name>TP041</name>
  </trkpt>
  <trkpt lat="60.48814" lon="6.6486">
    <name>TP042</name>
  </trkpt>
  <trkpt lat="60.48797" lon="6.64837">
    <name>TP043</name>
  </trkpt>
  <trkpt lat="60.48789" lon="6.64826">
    <name>TP044</name>
  </trkpt>
  <trkpt lat="60.48784" lon="6.6482">
    <name>TP045</name>
  </trkpt>
  <trkpt lat="60.48781" lon="6.64816">
    <name>TP046</name>
  </trkpt>
  <trkpt lat="60.48773" lon="6.64807">
    <name>TP047</name>
  </trkpt>
  <trkpt lat="60.48764" lon="6.64798">
    <name>TP048</name>
  </trkpt>
  <trkpt lat="60.48756" lon="6.64791">
    <name>TP049</name>
  </trkpt>
  <trkpt lat="60.48738" lon="6.64777">
    <name>TP050</name>
  </trkpt>
  <trkpt lat="60.48717" lon="6.64765">
    <name>TP051</name>
  </trkpt>
  <trkpt lat="60.48711" lon="6.64762">
    <name>TP052</name>
  </trkpt>
  <trkpt lat="60.48684" lon="6.64748">
    <name>TP053</name>
  </trkpt>
  <trkpt lat="60.48669" lon="6.6474">
    <name>TP054</name>
  </trkpt>
  <trkpt lat="60.48659" lon="6.64734">
    <name>TP055</name>
  </trkpt>
  <trkpt lat="60.48624" lon="6.64714">
    <name>TP056</name>
  </trkpt>
  <trkpt lat="60.48607" lon="6.64704">
    <name>TP057</name>
  </trkpt>
  <trkpt lat="60.48589" lon="6.64694">
    <name>TP058</name>
  </trkpt>
  <trkpt lat="60.48572" lon="6.64685">
    <name>TP059</name>
  </trkpt>
  <trkpt lat="60.4855" lon="6.64672">
    <name>TP060</name>
  </trkpt>
  <trkpt lat="60.48498" lon="6.64642">
    <name>TP061</name>
  </trkpt>
  <trkpt lat="60.48481" lon="6.64633">
    <name>TP062</name>
  </trkpt>
  <trkpt lat="60.48464" lon="6.64623">
    <name>TP063</name>
  </trkpt>
  <trkpt lat="60.48463" lon="6.64622">
    <name>TP064</name>
  </trkpt>
  <trkpt lat="60.48454" lon="6.64617">
    <name>TP065</name>
  </trkpt>
  <trkpt lat="60.48446" lon="6.64614">
    <name>TP066</name>
  </trkpt>
  <trkpt lat="60.48411" lon="6.64596">
    <name>TP067</name>
  </trkpt>
  <trkpt lat="60.48406" lon="6.64594">
    <name>TP068</name>
  </trkpt>
  <trkpt lat="60.48394" lon="6.64588">
    <name>TP069</name>
  </trkpt>
  <trkpt lat="60.4837" lon="6.64584">
    <name>TP070</name>
  </trkpt>
  <trkpt lat="60.48361" lon="6.64583">
    <name>TP071</name>
  </trkpt>
  <trkpt lat="60.48358" lon="6.64584">
    <name>TP072</name>
  </trkpt>
  <trkpt lat="60.4834" lon="6.64591">
    <name>TP073</name>
  </trkpt>
  <trkpt lat="60.48335" lon="6.64593">
    <name>TP074</name>
  </trkpt>
  <trkpt lat="60.48334" lon="6.64593">
    <name>TP075</name>
  </trkpt>
  <trkpt lat="60.48301" lon="6.64613">
    <name>TP076</name>
  </trkpt>
  <trkpt lat="60.48282" lon="6.64618">
    <name>TP077</name>
  </trkpt>
  <trkpt lat="60.48265" lon="6.64622">
    <name>TP078</name>
  </trkpt>
  <trkpt lat="60.48264" lon="6.64623">
    <name>TP079</name>
  </trkpt>
  <trkpt lat="60.48252" lon="6.64625">
    <name>TP080</name>
  </trkpt>
  <trkpt lat="60.48247" lon="6.64626">
    <name>TP081</name>
  </trkpt>
  <trkpt lat="60.48242" lon="6.64626">
    <name>TP082</name>
  </trkpt>
  <trkpt lat="60.48229" lon="6.64625">
    <name>TP083</name>
  </trkpt>
  <trkpt lat="60.48216" lon="6.64624">
    <name>TP084</name>
  </trkpt>
  <trkpt lat="60.48199" lon="6.64613">
    <name>TP085</name>
  </trkpt>
  <trkpt lat="60.48194" lon="6.6461">
    <name>TP086</name>
  </trkpt>
  <trkpt lat="60.48186" lon="6.64605">
    <name>TP087</name>
  </trkpt>
  <trkpt lat="60.48177" lon="6.64598">
    <name>TP088</name>
  </trkpt>
  <trkpt lat="60.48165" lon="6.64589">
    <name>TP089</name>
  </trkpt>
  <trkpt lat="60.4816" lon="6.64585">
    <name>TP090</name>
  </trkpt>
  <trkpt lat="60.48143" lon="6.64572">
    <name>TP091</name>
  </trkpt>
  <trkpt lat="60.48127" lon="6.64558">
    <name>TP092</name>
  </trkpt>
  <trkpt lat="60.48115" lon="6.64549">
    <name>TP093</name>
  </trkpt>
  <trkpt lat="60.48113" lon="6.64547">
    <name>TP094</name>
  </trkpt>
  <trkpt lat="60.4811" lon="6.64545">
    <name>TP095</name>
  </trkpt>
  <trkpt lat="60.48082" lon="6.64519">
    <name>TP096</name>
  </trkpt>
  <trkpt lat="60.48077" lon="6.64514">
    <name>TP097</name>
  </trkpt>
  <trkpt lat="60.48053" lon="6.64492">
    <name>TP098</name>
  </trkpt>
  <trkpt lat="60.48028" lon="6.64471">
    <name>TP099</name>
  </trkpt>
  <trkpt lat="60.48016" lon="6.64461">
    <name>TP100</name>
  </trkpt>
  <trkpt lat="60.48011" lon="6.64457">
    <name>TP101</name>
  </trkpt>
  <trkpt lat="60.47994" lon="6.64444">
    <name>TP102</name>
  </trkpt>
  <trkpt lat="60.47983" lon="6.64434">
    <name>TP103</name>
  </trkpt>
  <trkpt lat="60.47978" lon="6.6443">
    <name>TP104</name>
  </trkpt>
  <trkpt lat="60.47971" lon="6.64424">
    <name>TP105</name>
  </trkpt>
  <trkpt lat="60.47966" lon="6.64419">
    <name>TP106</name>
  </trkpt>
  <trkpt lat="60.47962" lon="6.64413">
    <name>TP107</name>
  </trkpt>
  <trkpt lat="60.47951" lon="6.64399">
    <name>TP108</name>
  </trkpt>
  <trkpt lat="60.47947" lon="6.64394">
    <name>TP109</name>
  </trkpt>
  <trkpt lat="60.47924" lon="6.64365">
    <name>TP110</name>
  </trkpt>
  <trkpt lat="60.47921" lon="6.6436">
    <name>TP111</name>
  </trkpt>
  <trkpt lat="60.47887" lon="6.64313">
    <name>TP112</name>
  </trkpt>
  <trkpt lat="60.47876" lon="6.64298">
    <name>TP113</name>
  </trkpt>
  <trkpt lat="60.47872" lon="6.64292">
    <name>TP114</name>
  </trkpt>
  <trkpt lat="60.47863" lon="6.6428">
    <name>TP115</name>
  </trkpt>
  <trkpt lat="60.47862" lon="6.64278">
    <name>TP116</name>
  </trkpt>
  <trkpt lat="60.47857" lon="6.6427">
    <name>TP117</name>
  </trkpt>
  <trkpt lat="60.47843" lon="6.64247">
    <name>TP118</name>
  </trkpt>
  <trkpt lat="60.4783" lon="6.64224">
    <name>TP119</name>
  </trkpt>
  <trkpt lat="60.47829" lon="6.64223">
    <name>TP120</name>
  </trkpt>
  <trkpt lat="60.4782" lon="6.64208">
    <name>TP121</name>
  </trkpt>
  <trkpt lat="60.47815" lon="6.64201">
    <name>TP122</name>
  </trkpt>
  <trkpt lat="60.47806" lon="6.64186">
    <name>TP123</name>
  </trkpt>
  <trkpt lat="60.47801" lon="6.64179">
    <name>TP124</name>
  </trkpt>
  <trkpt lat="60.4779" lon="6.6416">
    <name>TP125</name>
  </trkpt>
  <trkpt lat="60.47787" lon="6.64156">
    <name>TP126</name>
  </trkpt>
  <trkpt lat="60.47773" lon="6.64134">
    <name>TP127</name>
  </trkpt>
  <trkpt lat="60.47761" lon="6.64115">
    <name>TP128</name>
  </trkpt>
  <trkpt lat="60.47748" lon="6.64098">
    <name>TP129</name>
  </trkpt>
  <trkpt lat="60.47733" lon="6.64079">
    <name>TP130</name>
  </trkpt>
  <trkpt lat="60.47728" lon="6.64072">
    <name>TP131</name>
  </trkpt>
  <trkpt lat="60.47704" lon="6.64036">
    <name>TP132</name>
  </trkpt>
  <trkpt lat="60.47699" lon="6.64029">
    <name>TP133</name>
  </trkpt>
  <trkpt lat="60.47691" lon="6.6401">
    <name>TP134</name>
  </trkpt>
  <trkpt lat="60.47676" lon="6.63973">
    <name>TP135</name>
  </trkpt>
  <trkpt lat="60.47671" lon="6.63961">
    <name>TP136</name>
  </trkpt>
  <trkpt lat="60.47669" lon="6.63953">
    <name>TP137</name>
  </trkpt>
  <trkpt lat="60.47665" lon="6.63944">
    <name>TP138</name>
  </trkpt>
  <trkpt lat="60.47658" lon="6.63923">
    <name>TP139</name>
  </trkpt>
  <trkpt lat="60.47655" lon="6.63914">
    <name>TP140</name>
  </trkpt>
  <trkpt lat="60.47648" lon="6.63893">
    <name>TP141</name>
  </trkpt>
  <trkpt lat="60.47646" lon="6.63883">
    <name>TP142</name>
  </trkpt>
  <trkpt lat="60.47638" lon="6.63851">
    <name>TP143</name>
  </trkpt>
  <trkpt lat="60.47629" lon="6.63818">
    <name>TP144</name>
  </trkpt>
  <trkpt lat="60.47621" lon="6.63785">
    <name>TP145</name>
  </trkpt>
  <trkpt lat="60.47616" lon="6.63763">
    <name>TP146</name>
  </trkpt>
  <trkpt lat="60.47613" lon="6.63753">
    <name>TP147</name>
  </trkpt>
  <trkpt lat="60.4761" lon="6.63741">
    <name>TP148</name>
  </trkpt>
  <trkpt lat="60.47607" lon="6.63718">
    <name>TP149</name>
  </trkpt>
  <trkpt lat="60.476" lon="6.63659">
    <name>TP150</name>
  </trkpt>
  <trkpt lat="60.47588" lon="6.6357">
    <name>TP151</name>
  </trkpt>
  <trkpt lat="60.47586" lon="6.63542">
    <name>TP152</name>
  </trkpt>
  <trkpt lat="60.47584" lon="6.63517">
    <name>TP153</name>
  </trkpt>
  <trkpt lat="60.47583" lon="6.63506">
    <name>TP154</name>
  </trkpt>
  <trkpt lat="60.47581" lon="6.63481">
    <name>TP155</name>
  </trkpt>
  <trkpt lat="60.47576" lon="6.63425">
    <name>TP156</name>
  </trkpt>
  <trkpt lat="60.47573" lon="6.63387">
    <name>TP157</name>
  </trkpt>
  <trkpt lat="60.4757" lon="6.63353">
    <name>TP158</name>
  </trkpt>
  <trkpt lat="60.4757" lon="6.63351">
    <name>TP159</name>
  </trkpt>
  <trkpt lat="60.47567" lon="6.63317">
    <name>TP160</name>
  </trkpt>
  <trkpt lat="60.47558" lon="6.63207">
    <name>TP161</name>
  </trkpt>
  <trkpt lat="60.47555" lon="6.63172">
    <name>TP162</name>
  </trkpt>
  <trkpt lat="60.47553" lon="6.63144">
    <name>TP163</name>
  </trkpt>
  <trkpt lat="60.47552" lon="6.63137">
    <name>TP164</name>
  </trkpt>
  <trkpt lat="60.47552" lon="6.63136">
    <name>TP165</name>
  </trkpt>
  <trkpt lat="60.47552" lon="6.63133">
    <name>TP166</name>
  </trkpt>
  <trkpt lat="60.47551" lon="6.63099">
    <name>TP167</name>
  </trkpt>
  <trkpt lat="60.4755" lon="6.63064">
    <name>TP168</name>
  </trkpt>
  <trkpt lat="60.4755" lon="6.63063">
    <name>TP169</name>
  </trkpt>
  <trkpt lat="60.47549" lon="6.63027">
    <name>TP170</name>
  </trkpt>
  <trkpt lat="60.47546" lon="6.62955">
    <name>TP171</name>
  </trkpt>
  <trkpt lat="60.47546" lon="6.62954">
    <name>TP172</name>
  </trkpt>
  <trkpt lat="60.47546" lon="6.62935">
    <name>TP173</name>
  </trkpt>
  <trkpt lat="60.47545" lon="6.62926">
    <name>TP174</name>
  </trkpt>
  <trkpt lat="60.47545" lon="6.62919">
    <name>TP175</name>
  </trkpt>
  <trkpt lat="60.47545" lon="6.62918">
    <name>TP176</name>
  </trkpt>
  <trkpt lat="60.47541" lon="6.628">
    <name>TP177</name>
  </trkpt>
  <trkpt lat="60.47537" lon="6.62707">
    <name>TP178</name>
  </trkpt>
  <trkpt lat="60.47537" lon="6.62701">
    <name>TP179</name>
  </trkpt>
  <trkpt lat="60.47537" lon="6.627">
    <name>TP180</name>
  </trkpt>
  <trkpt lat="60.47536" lon="6.62677">
    <name>TP181</name>
  </trkpt>
  <trkpt lat="60.47535" lon="6.62664">
    <name>TP182</name>
  </trkpt>
  <trkpt lat="60.47535" lon="6.62655">
    <name>TP183</name>
  </trkpt>
  <trkpt lat="60.47533" lon="6.62635">
    <name>TP184</name>
  </trkpt>
  <trkpt lat="60.47532" lon="6.62628">
    <name>TP185</name>
  </trkpt>
  <trkpt lat="60.4753" lon="6.62615">
    <name>TP186</name>
  </trkpt>
  <trkpt lat="60.47526" lon="6.62594">
    <name>TP187</name>
  </trkpt>
  <trkpt lat="60.47519" lon="6.62556">
    <name>TP188</name>
  </trkpt>
  <trkpt lat="60.47513" lon="6.62527">
    <name>TP189</name>
  </trkpt>
  <trkpt lat="60.47507" lon="6.62493">
    <name>TP190</name>
  </trkpt>
  <trkpt lat="60.47504" lon="6.62478">
    <name>TP191</name>
  </trkpt>
  <trkpt lat="60.47501" lon="6.62459">
    <name>TP192</name>
  </trkpt>
  <trkpt lat="60.47491" lon="6.62389">
    <name>TP193</name>
  </trkpt>
  <trkpt lat="60.47491" lon="6.62387">
    <name>TP194</name>
  </trkpt>
  <trkpt lat="60.47487" lon="6.62359">
    <name>TP195</name>
  </trkpt>
  <trkpt lat="60.47486" lon="6.62354">
    <name>TP196</name>
  </trkpt>
  <trkpt lat="60.47486" lon="6.62352">
    <name>TP197</name>
  </trkpt>
  <trkpt lat="60.47482" lon="6.62321">
    <name>TP198</name>
  </trkpt>
  <trkpt lat="60.47481" lon="6.62317">
    <name>TP199</name>
  </trkpt>
  <trkpt lat="60.4747" lon="6.6221">
    <name>TP200</name>
  </trkpt>
  <trkpt lat="60.47466" lon="6.62177">
    <name>TP201</name>
  </trkpt>
  <trkpt lat="60.47466" lon="6.62174">
    <name>TP202</name>
  </trkpt>
  <trkpt lat="60.47462" lon="6.62138">
    <name>TP203</name>
  </trkpt>
  <trkpt lat="60.47455" lon="6.62075">
    <name>TP204</name>
  </trkpt>
  <trkpt lat="60.47454" lon="6.62068">
    <name>TP205</name>
  </trkpt>
  <trkpt lat="60.47454" lon="6.62067">
    <name>TP206</name>
  </trkpt>
  <trkpt lat="60.47451" lon="6.62039">
    <name>TP207</name>
  </trkpt>
  <trkpt lat="60.4745" lon="6.62035">
    <name>TP208</name>
  </trkpt>
  <trkpt lat="60.4745" lon="6.62032">
    <name>TP209</name>
  </trkpt>
  <trkpt lat="60.47449" lon="6.62025">
    <name>TP210</name>
  </trkpt>
  <trkpt lat="60.47447" lon="6.62">
    <name>TP211</name>
  </trkpt>
  <trkpt lat="60.47443" lon="6.61964">
    <name>TP212</name>
  </trkpt>
  <trkpt lat="60.47442" lon="6.61961">
    <name>TP213</name>
  </trkpt>
  <trkpt lat="60.4744" lon="6.61938">
    <name>TP214</name>
  </trkpt>
  <trkpt lat="60.47439" lon="6.61929">
    <name>TP215</name>
  </trkpt>
  <trkpt lat="60.47434" lon="6.61894">
    <name>TP216</name>
  </trkpt>
  <trkpt lat="60.4743" lon="6.61862">
    <name>TP217</name>
  </trkpt>
  <trkpt lat="60.47429" lon="6.61859">
    <name>TP218</name>
  </trkpt>
  <trkpt lat="60.47429" lon="6.61855">
    <name>TP219</name>
  </trkpt>
  <trkpt lat="60.47429" lon="6.61854">
    <name>TP220</name>
  </trkpt>
  <trkpt lat="60.47425" lon="6.61827">
    <name>TP221</name>
  </trkpt>
  <trkpt lat="60.47424" lon="6.6182">
    <name>TP222</name>
  </trkpt>
  <trkpt lat="60.47424" lon="6.61819">
    <name>TP223</name>
  </trkpt>
  <trkpt lat="60.47421" lon="6.61797">
    <name>TP224</name>
  </trkpt>
  <trkpt lat="60.47419" lon="6.61784">
    <name>TP225</name>
  </trkpt>
  <trkpt lat="60.47414" lon="6.61755">
    <name>TP226</name>
  </trkpt>
  <trkpt lat="60.47413" lon="6.6175">
    <name>TP227</name>
  </trkpt>
  <trkpt lat="60.47408" lon="6.6172">
    <name>TP228</name>
  </trkpt>
  <trkpt lat="60.47402" lon="6.61686">
    <name>TP229</name>
  </trkpt>
  <trkpt lat="60.47401" lon="6.61681">
    <name>TP230</name>
  </trkpt>
  <trkpt lat="60.47399" lon="6.61668">
    <name>TP231</name>
  </trkpt>
  <trkpt lat="60.47395" lon="6.61647">
    <name>TP232</name>
  </trkpt>
  <trkpt lat="60.47395" lon="6.61646">
    <name>TP233</name>
  </trkpt>
  <trkpt lat="60.4739" lon="6.6162">
    <name>TP234</name>
  </trkpt>
  <trkpt lat="60.4739" lon="6.61618">
    <name>TP235</name>
  </trkpt>
  <trkpt lat="60.47389" lon="6.61613">
    <name>TP236</name>
  </trkpt>
  <trkpt lat="60.47389" lon="6.61612">
    <name>TP237</name>
  </trkpt>
  <trkpt lat="60.47383" lon="6.61584">
    <name>TP238</name>
  </trkpt>
  <trkpt lat="60.47382" lon="6.61578">
    <name>TP239</name>
  </trkpt>
  <trkpt lat="60.47377" lon="6.61551">
    <name>TP240</name>
  </trkpt>
  <trkpt lat="60.47377" lon="6.6155">
    <name>TP241</name>
  </trkpt>
  <trkpt lat="60.47375" lon="6.61544">
    <name>TP242</name>
  </trkpt>
  <trkpt lat="60.47359" lon="6.61464">
    <name>TP243</name>
  </trkpt>
  <trkpt lat="60.47357" lon="6.6145">
    <name>TP244</name>
  </trkpt>
  <trkpt lat="60.47357" lon="6.61449">
    <name>TP245</name>
  </trkpt>
  <trkpt lat="60.4735" lon="6.61416">
    <name>TP246</name>
  </trkpt>
  <trkpt lat="60.47345" lon="6.61396">
    <name>TP247</name>
  </trkpt>
  <trkpt lat="60.47342" lon="6.61383">
    <name>TP248</name>
  </trkpt>
  <trkpt lat="60.47338" lon="6.61371">
    <name>TP249</name>
  </trkpt>
  <trkpt lat="60.47333" lon="6.61352">
    <name>TP250</name>
  </trkpt>
  <trkpt lat="60.47331" lon="6.61347">
    <name>TP251</name>
  </trkpt>
  <trkpt lat="60.47324" lon="6.61324">
    <name>TP252</name>
  </trkpt>
  <trkpt lat="60.47316" lon="6.61306">
    <name>TP253</name>
  </trkpt>
  <trkpt lat="60.47312" lon="6.61297">
    <name>TP254</name>
  </trkpt>
  <trkpt lat="60.47311" lon="6.61296">
    <name>TP255</name>
  </trkpt>
  <trkpt lat="60.47311" lon="6.61295">
    <name>TP256</name>
  </trkpt>
  <trkpt lat="60.47308" lon="6.61287">
    <name>TP257</name>
  </trkpt>
  <trkpt lat="60.47306" lon="6.61283">
    <name>TP258</name>
  </trkpt>
  <trkpt lat="60.47299" lon="6.61263">
    <name>TP259</name>
  </trkpt>
  <trkpt lat="60.47284" lon="6.61239">
    <name>TP260</name>
  </trkpt>
  <trkpt lat="60.47266" lon="6.61211">
    <name>TP261</name>
  </trkpt>
  <trkpt lat="60.47248" lon="6.61182">
    <name>TP262</name>
  </trkpt>
  <trkpt lat="60.47242" lon="6.6117">
    <name>TP263</name>
  </trkpt>
  <trkpt lat="60.47231" lon="6.6115">
    <name>TP264</name>
  </trkpt>
  <trkpt lat="60.4721" lon="6.61111">
    <name>TP265</name>
  </trkpt>
  <trkpt lat="60.47194" lon="6.61083">
    <name>TP266</name>
  </trkpt>
  <trkpt lat="60.47194" lon="6.61081">
    <name>TP267</name>
  </trkpt>
  <trkpt lat="60.47185" lon="6.61065">
    <name>TP268</name>
  </trkpt>
  <trkpt lat="60.47169" lon="6.6103">
    <name>TP269</name>
  </trkpt>
  <trkpt lat="60.47157" lon="6.6101">
    <name>TP270</name>
  </trkpt>
  <trkpt lat="60.47143" lon="6.60987">
    <name>TP271</name>
  </trkpt>
  <trkpt lat="60.4713" lon="6.60964">
    <name>TP272</name>
  </trkpt>
  <trkpt lat="60.4712967" lon="6.6096352">
    <name>TP273</name>
  </trkpt>
  <trkpt lat="60.47119" lon="6.6099">
    <name>TP274</name>
  </trkpt>
  <trkpt lat="60.4711895" lon="6.6099033">
    <name>TP275</name>
  </trkpt>
  <trkpt lat="60.47137" lon="6.61012">
    <name>TP276</name>
  </trkpt>
  <trkpt lat="60.47139" lon="6.61014">
    <name>TP277</name>
  </trkpt>
  <trkpt lat="60.4714" lon="6.61016">
    <name>TP278</name>
  </trkpt>
  <trkpt lat="60.47141" lon="6.61019">
    <name>TP279</name>
  </trkpt>
  <trkpt lat="60.47141" lon="6.61022">
    <name>TP280</name>
  </trkpt>
  <trkpt lat="60.47142" lon="6.61039">
    <name>TP281</name>
  </trkpt>
  <trkpt lat="60.47143" lon="6.61049">
    <name>TP282</name>
  </trkpt>
  <trkpt lat="60.4714" lon="6.61071">
    <name>TP283</name>
  </trkpt>
  <trkpt lat="60.47133" lon="6.61124">
    <name>TP284</name>
  </trkpt>
  <trkpt lat="60.47132" lon="6.61132">
    <name>TP285</name>
  </trkpt>
  <trkpt lat="60.47132" lon="6.61138">
    <name>TP286</name>
  </trkpt>
  <trkpt lat="60.47132" lon="6.61144">
    <name>TP287</name>
  </trkpt>
  <trkpt lat="60.47134" lon="6.6115">
    <name>TP288</name>
  </trkpt>
  <trkpt lat="60.47135" lon="6.61154">
    <name>TP289</name>
  </trkpt>
  <trkpt lat="60.47171" lon="6.61208">
    <name>TP290</name>
  </trkpt>
  <trkpt lat="60.47183" lon="6.61238">
    <name>TP291</name>
  </trkpt>
  <trkpt lat="60.4718301" lon="6.6123779">
    <name>TP292</name>
  </trkpt>
  <trkpt lat="60.47194" lon="6.61273">
    <name>TP293</name>
  </trkpt>
  <trkpt lat="60.47199" lon="6.613">
    <name>TP294</name>
  </trkpt>
  <trkpt lat="60.47204" lon="6.61366">
    <name>TP295</name>
  </trkpt>
  <trkpt lat="60.47204" lon="6.61386">
    <name>TP296</name>
  </trkpt>
  <trkpt lat="60.47204" lon="6.61391">
    <name>TP297</name>
  </trkpt>
  <trkpt lat="60.47203" lon="6.61397">
    <name>TP298</name>
  </trkpt>
  <trkpt lat="60.4719" lon="6.61471">
    <name>TP299</name>
  </trkpt>
  <trkpt lat="60.47187" lon="6.61487">
    <name>TP300</name>
  </trkpt>
  <trkpt lat="60.47186" lon="6.61492">
    <name>TP301</name>
  </trkpt>
  <trkpt lat="60.47184" lon="6.61497">
    <name>TP302</name>
  </trkpt>
  <trkpt lat="60.47182" lon="6.61499">
    <name>TP303</name>
  </trkpt>
  <trkpt lat="60.4718" lon="6.615">
    <name>TP304</name>
  </trkpt>
  <trkpt lat="60.47163" lon="6.61504">
    <name>TP305</name>
  </trkpt>
  <trkpt lat="60.47001" lon="6.61554">
    <name>TP306</name>
  </trkpt>
  <trkpt lat="60.46895" lon="6.61579">
    <name>TP307</name>
  </trkpt>
  <trkpt lat="60.4686" lon="6.61588">
    <name>TP308</name>
  </trkpt>
  <trkpt lat="60.46824" lon="6.61596">
    <name>TP309</name>
  </trkpt>
  <trkpt lat="60.46727" lon="6.61619">
    <name>TP310</name>
  </trkpt>
  <trkpt lat="60.46267" lon="6.61663">
    <name>TP311</name>
  </trkpt>
  <trkpt lat="60.45935" lon="6.61694">
    <name>TP312</name>
  </trkpt>
  <trkpt lat="60.44167" lon="6.61911">
    <name>TP313</name>
  </trkpt>
  <trkpt lat="60.43592" lon="6.61981">
    <name>TP314</name>
  </trkpt>
  <trkpt lat="60.43273" lon="6.6202">
    <name>TP315</name>
  </trkpt>
  <trkpt lat="60.43072" lon="6.6206">
    <name>TP316</name>
  </trkpt>
  <trkpt lat="60.43036" lon="6.62067">
    <name>TP317</name>
  </trkpt>
  <trkpt lat="60.42982" lon="6.62077">
    <name>TP318</name>
  </trkpt>
  <trkpt lat="60.42953" lon="6.62083">
    <name>TP319</name>
  </trkpt>
  <trkpt lat="60.42543" lon="6.62155">
    <name>TP320</name>
  </trkpt>
  <trkpt lat="60.42517" lon="6.62159">
    <name>TP321</name>
  </trkpt>
  <trkpt lat="60.42409" lon="6.62175">
    <name>TP322</name>
  </trkpt>
  <trkpt lat="60.4240897" lon="6.6217518">
    <name>TP323</name>
  </trkpt>
  <trkpt lat="60.42379" lon="6.62188">
    <name>TP324</name>
  </trkpt>
  <trkpt lat="60.42377" lon="6.62192">
    <name>TP325</name>
  </trkpt>
  <trkpt lat="60.42376" lon="6.62194">
    <name>TP326</name>
  </trkpt>
  <trkpt lat="60.42375" lon="6.62196">
    <name>TP327</name>
  </trkpt>
  <trkpt lat="60.42369" lon="6.62204">
    <name>TP328</name>
  </trkpt>
  <trkpt lat="60.42358" lon="6.62207">
    <name>TP329</name>
  </trkpt>
  <trkpt lat="60.42356" lon="6.62207">
    <name>TP330</name>
  </trkpt>
  <trkpt lat="60.42351" lon="6.62209">
    <name>TP331</name>
  </trkpt>
  <trkpt lat="60.42346" lon="6.62214">
    <name>TP332</name>
  </trkpt>
  <trkpt lat="60.42341" lon="6.62221">
    <name>TP333</name>
  </trkpt>
  <trkpt lat="60.42328" lon="6.62245">
    <name>TP334</name>
  </trkpt>
  <trkpt lat="60.42315" lon="6.6227">
    <name>TP335</name>
  </trkpt>
  <trkpt lat="60.42302" lon="6.62295">
    <name>TP336</name>
  </trkpt>
  <trkpt lat="60.42289" lon="6.62319">
    <name>TP337</name>
  </trkpt>
  <trkpt lat="60.42289" lon="6.6232">
    <name>TP338</name>
  </trkpt>
  <trkpt lat="60.42276" lon="6.62344">
    <name>TP339</name>
  </trkpt>
  <trkpt lat="60.42267" lon="6.62361">
    <name>TP340</name>
  </trkpt>
  <trkpt lat="60.42264" lon="6.6237">
    <name>TP341</name>
  </trkpt>
  <trkpt lat="60.42264" lon="6.62371">
    <name>TP342</name>
  </trkpt>
  <trkpt lat="60.42262" lon="6.6238">
    <name>TP343</name>
  </trkpt>
  <trkpt lat="60.42261" lon="6.62388">
    <name>TP344</name>
  </trkpt>
  <trkpt lat="60.42259" lon="6.62406">
    <name>TP345</name>
  </trkpt>
  <trkpt lat="60.42256" lon="6.62442">
    <name>TP346</name>
  </trkpt>
  <trkpt lat="60.422558" lon="6.6244207">
    <name>TP347</name>
  </trkpt>
  <trkpt lat="60.42247" lon="6.62474">
    <name>TP348</name>
  </trkpt>
  <trkpt lat="60.42239" lon="6.62507">
    <name>TP349</name>
  </trkpt>
  <trkpt lat="60.42227" lon="6.62554">
    <name>TP350</name>
  </trkpt>
  <trkpt lat="60.42198" lon="6.62623">
    <name>TP351</name>
  </trkpt>
  <trkpt lat="60.42193" lon="6.62639">
    <name>TP352</name>
  </trkpt>
  <trkpt lat="60.42183" lon="6.6267">
    <name>TP353</name>
  </trkpt>
  <trkpt lat="60.42182" lon="6.62675">
    <name>TP354</name>
  </trkpt>
  <trkpt lat="60.42174" lon="6.62701">
    <name>TP355</name>
  </trkpt>
  <trkpt lat="60.42172" lon="6.62706">
    <name>TP356</name>
  </trkpt>
  <trkpt lat="60.42164" lon="6.62731">
    <name>TP357</name>
  </trkpt>
  <trkpt lat="60.42155" lon="6.62762">
    <name>TP358</name>
  </trkpt>
  <trkpt lat="60.42153" lon="6.62768">
    <name>TP359</name>
  </trkpt>
  <trkpt lat="60.42151" lon="6.62775">
    <name>TP360</name>
  </trkpt>
  <trkpt lat="60.4215" lon="6.62776">
    <name>TP361</name>
  </trkpt>
  <trkpt lat="60.42148" lon="6.62784">
    <name>TP362</name>
  </trkpt>
  <trkpt lat="60.42136" lon="6.62824">
    <name>TP363</name>
  </trkpt>
  <trkpt lat="60.42133" lon="6.62831">
    <name>TP364</name>
  </trkpt>
  <trkpt lat="60.42127" lon="6.62856">
    <name>TP365</name>
  </trkpt>
  <trkpt lat="60.42125" lon="6.6286">
    <name>TP366</name>
  </trkpt>
  <trkpt lat="60.42109" lon="6.62919">
    <name>TP367</name>
  </trkpt>
  <trkpt lat="60.42101" lon="6.62951">
    <name>TP368</name>
  </trkpt>
  <trkpt lat="60.42092" lon="6.62983">
    <name>TP369</name>
  </trkpt>
  <trkpt lat="60.42088" lon="6.62996">
    <name>TP370</name>
  </trkpt>
  <trkpt lat="60.42086" lon="6.63004">
    <name>TP371</name>
  </trkpt>
  <trkpt lat="60.42083" lon="6.63015">
    <name>TP372</name>
  </trkpt>
  <trkpt lat="60.42066" lon="6.63079">
    <name>TP373</name>
  </trkpt>
  <trkpt lat="60.42057" lon="6.63111">
    <name>TP374</name>
  </trkpt>
  <trkpt lat="60.42048" lon="6.63143">
    <name>TP375</name>
  </trkpt>
  <trkpt lat="60.4204" lon="6.63174">
    <name>TP376</name>
  </trkpt>
  <trkpt lat="60.4204" lon="6.63175">
    <name>TP377</name>
  </trkpt>
  <trkpt lat="60.42034" lon="6.63196">
    <name>TP378</name>
  </trkpt>
  <trkpt lat="60.42032" lon="6.63207">
    <name>TP379</name>
  </trkpt>
  <trkpt lat="60.42032" lon="6.63208">
    <name>TP380</name>
  </trkpt>
  <trkpt lat="60.42027" lon="6.63242">
    <name>TP381</name>
  </trkpt>
  <trkpt lat="60.42024" lon="6.63265">
    <name>TP382</name>
  </trkpt>
  <trkpt lat="60.42021" lon="6.63277">
    <name>TP383</name>
  </trkpt>
  <trkpt lat="60.42013" lon="6.63309">
    <name>TP384</name>
  </trkpt>
  <trkpt lat="60.42005" lon="6.63342">
    <name>TP385</name>
  </trkpt>
  <trkpt lat="60.41997" lon="6.63374">
    <name>TP386</name>
  </trkpt>
  <trkpt lat="60.41996" lon="6.63378">
    <name>TP387</name>
  </trkpt>
  <trkpt lat="60.41988" lon="6.63406">
    <name>TP388</name>
  </trkpt>
  <trkpt lat="60.41979" lon="6.63437">
    <name>TP389</name>
  </trkpt>
  <trkpt lat="60.4197" lon="6.63469">
    <name>TP390</name>
  </trkpt>
  <trkpt lat="60.41961" lon="6.635">
    <name>TP391</name>
  </trkpt>
  <trkpt lat="60.41946" lon="6.6355">
    <name>TP392</name>
  </trkpt>
  <trkpt lat="60.41944" lon="6.63565">
    <name>TP393</name>
  </trkpt>
  <trkpt lat="60.41942" lon="6.63581">
    <name>TP394</name>
  </trkpt>
  <trkpt lat="60.41937" lon="6.63628">
    <name>TP395</name>
  </trkpt>
  <trkpt lat="60.41937" lon="6.63636">
    <name>TP396</name>
  </trkpt>
  <trkpt lat="60.41935" lon="6.63672">
    <name>TP397</name>
  </trkpt>
  <trkpt lat="60.41934" lon="6.63685">
    <name>TP398</name>
  </trkpt>
  <trkpt lat="60.41931" lon="6.63707">
    <name>TP399</name>
  </trkpt>
  <trkpt lat="60.41931" lon="6.63708">
    <name>TP400</name>
  </trkpt>
  <trkpt lat="60.41927" lon="6.63743">
    <name>TP401</name>
  </trkpt>
  <trkpt lat="60.41927" lon="6.63746">
    <name>TP402</name>
  </trkpt>
  <trkpt lat="60.41921" lon="6.63777">
    <name>TP403</name>
  </trkpt>
  <trkpt lat="60.41915" lon="6.63806">
    <name>TP404</name>
  </trkpt>
  <trkpt lat="60.41914" lon="6.63811">
    <name>TP405</name>
  </trkpt>
  <trkpt lat="60.41909" lon="6.63846">
    <name>TP406</name>
  </trkpt>
  <trkpt lat="60.41905" lon="6.63868">
    <name>TP407</name>
  </trkpt>
  <trkpt lat="60.41903" lon="6.6388">
    <name>TP408</name>
  </trkpt>
  <trkpt lat="60.41898" lon="6.63915">
    <name>TP409</name>
  </trkpt>
  <trkpt lat="60.41892" lon="6.6395">
    <name>TP410</name>
  </trkpt>
  <trkpt lat="60.4189" lon="6.63958">
    <name>TP411</name>
  </trkpt>
  <trkpt lat="60.41866" lon="6.64051">
    <name>TP412</name>
  </trkpt>
  <trkpt lat="60.41858" lon="6.64077">
    <name>TP413</name>
  </trkpt>
  <trkpt lat="60.41848" lon="6.64108">
    <name>TP414</name>
  </trkpt>
  <trkpt lat="60.41838" lon="6.64139">
    <name>TP415</name>
  </trkpt>
  <trkpt lat="60.41833" lon="6.64156">
    <name>TP416</name>
  </trkpt>
  <trkpt lat="60.41827" lon="6.64168">
    <name>TP417</name>
  </trkpt>
  <trkpt lat="60.41815" lon="6.64194">
    <name>TP418</name>
  </trkpt>
  <trkpt lat="60.4179" lon="6.64247">
    <name>TP419</name>
  </trkpt>
  <trkpt lat="60.41784" lon="6.6426">
    <name>TP420</name>
  </trkpt>
  <trkpt lat="60.41744" lon="6.64348">
    <name>TP421</name>
  </trkpt>
  <trkpt lat="60.41741" lon="6.64354">
    <name>TP422</name>
  </trkpt>
  <trkpt lat="60.41729" lon="6.6438">
    <name>TP423</name>
  </trkpt>
  <trkpt lat="60.41723" lon="6.64393">
    <name>TP424</name>
  </trkpt>
  <trkpt lat="60.41718" lon="6.64409">
    <name>TP425</name>
  </trkpt>
  <trkpt lat="60.41718" lon="6.6441">
    <name>TP426</name>
  </trkpt>
  <trkpt lat="60.41709" lon="6.64441">
    <name>TP427</name>
  </trkpt>
  <trkpt lat="60.41695" lon="6.64487">
    <name>TP428</name>
  </trkpt>
  <trkpt lat="60.41658" lon="6.64575">
    <name>TP429</name>
  </trkpt>
  <trkpt lat="60.41655" lon="6.64585">
    <name>TP430</name>
  </trkpt>
  <trkpt lat="60.41644" lon="6.64615">
    <name>TP431</name>
  </trkpt>
  <trkpt lat="60.41634" lon="6.64644">
    <name>TP432</name>
  </trkpt>
  <trkpt lat="60.41627" lon="6.64662">
    <name>TP433</name>
  </trkpt>
  <trkpt lat="60.41596" lon="6.64723">
    <name>TP434</name>
  </trkpt>
  <trkpt lat="60.41593" lon="6.6473">
    <name>TP435</name>
  </trkpt>
  <trkpt lat="60.41559" lon="6.64801">
    <name>TP436</name>
  </trkpt>
  <trkpt lat="60.41559" lon="6.64802">
    <name>TP437</name>
  </trkpt>
  <trkpt lat="60.41546" lon="6.64828">
    <name>TP438</name>
  </trkpt>
  <trkpt lat="60.41534" lon="6.64854">
    <name>TP439</name>
  </trkpt>
  <trkpt lat="60.41522" lon="6.64881">
    <name>TP440</name>
  </trkpt>
  <trkpt lat="60.41505" lon="6.64915">
    <name>TP441</name>
  </trkpt>
  <trkpt lat="60.41497" lon="6.64935">
    <name>TP442</name>
  </trkpt>
  <trkpt lat="60.41486" lon="6.64962">
    <name>TP443</name>
  </trkpt>
  <trkpt lat="60.41485" lon="6.64965">
    <name>TP444</name>
  </trkpt>
  <trkpt lat="60.41467" lon="6.65014">
    <name>TP445</name>
  </trkpt>
  <trkpt lat="60.41465" lon="6.65022">
    <name>TP446</name>
  </trkpt>
  <trkpt lat="60.41457" lon="6.6505">
    <name>TP447</name>
  </trkpt>
  <trkpt lat="60.41456" lon="6.65053">
    <name>TP448</name>
  </trkpt>
  <trkpt lat="60.41444" lon="6.65081">
    <name>TP449</name>
  </trkpt>
  <trkpt lat="60.41441" lon="6.65089">
    <name>TP450</name>
  </trkpt>
  <trkpt lat="60.41424" lon="6.65117">
    <name>TP451</name>
  </trkpt>
  <trkpt lat="60.41418" lon="6.6513">
    <name>TP452</name>
  </trkpt>
  <trkpt lat="60.41405" lon="6.65156">
    <name>TP453</name>
  </trkpt>
  <trkpt lat="60.41393" lon="6.6518">
    <name>TP454</name>
  </trkpt>
  <trkpt lat="60.41378" lon="6.65202">
    <name>TP455</name>
  </trkpt>
  <trkpt lat="60.41378" lon="6.65203">
    <name>TP456</name>
  </trkpt>
  <trkpt lat="60.41356" lon="6.65234">
    <name>TP457</name>
  </trkpt>
  <trkpt lat="60.41353" lon="6.65241">
    <name>TP458</name>
  </trkpt>
  <trkpt lat="60.4135" lon="6.65246">
    <name>TP459</name>
  </trkpt>
  <trkpt lat="60.41349" lon="6.65247">
    <name>TP460</name>
  </trkpt>
  <trkpt lat="60.41343" lon="6.65255">
    <name>TP461</name>
  </trkpt>
  <trkpt lat="60.41339" lon="6.65264">
    <name>TP462</name>
  </trkpt>
  <trkpt lat="60.41336" lon="6.65271">
    <name>TP463</name>
  </trkpt>
  <trkpt lat="60.41331" lon="6.65282">
    <name>TP464</name>
  </trkpt>
  <trkpt lat="60.41325" lon="6.65299">
    <name>TP465</name>
  </trkpt>
  <trkpt lat="60.41325" lon="6.653">
    <name>TP466</name>
  </trkpt>
  <trkpt lat="60.41305" lon="6.65359">
    <name>TP467</name>
  </trkpt>
  <trkpt lat="60.41305" lon="6.6536">
    <name>TP468</name>
  </trkpt>
  <trkpt lat="60.4127" lon="6.65444">
    <name>TP469</name>
  </trkpt>
  <trkpt lat="60.41247" lon="6.655">
    <name>TP470</name>
  </trkpt>
  <trkpt lat="60.41236" lon="6.65528">
    <name>TP471</name>
  </trkpt>
  <trkpt lat="60.41224" lon="6.65558">
    <name>TP472</name>
  </trkpt>
  <trkpt lat="60.41202" lon="6.65613">
    <name>TP473</name>
  </trkpt>
  <trkpt lat="60.41191" lon="6.65641">
    <name>TP474</name>
  </trkpt>
  <trkpt lat="60.41191" lon="6.65642">
    <name>TP475</name>
  </trkpt>
  <trkpt lat="60.41183" lon="6.65661">
    <name>TP476</name>
  </trkpt>
  <trkpt lat="60.41179" lon="6.6567">
    <name>TP477</name>
  </trkpt>
  <trkpt lat="60.41165" lon="6.65706">
    <name>TP478</name>
  </trkpt>
  <trkpt lat="60.41098" lon="6.6591">
    <name>TP479</name>
  </trkpt>
  <trkpt lat="60.41088" lon="6.6594">
    <name>TP480</name>
  </trkpt>
  <trkpt lat="60.41058" lon="6.6603">
    <name>TP481</name>
  </trkpt>
  <trkpt lat="60.41058" lon="6.66031">
    <name>TP482</name>
  </trkpt>
  <trkpt lat="60.41048" lon="6.66061">
    <name>TP483</name>
  </trkpt>
  <trkpt lat="60.41018" lon="6.66151">
    <name>TP484</name>
  </trkpt>
  <trkpt lat="60.41017" lon="6.66152">
    <name>TP485</name>
  </trkpt>
  <trkpt lat="60.41008" lon="6.66182">
    <name>TP486</name>
  </trkpt>
  <trkpt lat="60.41007" lon="6.66182">
    <name>TP487</name>
  </trkpt>
  <trkpt lat="60.41007" lon="6.66184">
    <name>TP488</name>
  </trkpt>
  <trkpt lat="60.41" lon="6.66202">
    <name>TP489</name>
  </trkpt>
  <trkpt lat="60.40997" lon="6.66211">
    <name>TP490</name>
  </trkpt>
  <trkpt lat="60.40986" lon="6.66241">
    <name>TP491</name>
  </trkpt>
  <trkpt lat="60.40976" lon="6.6627">
    <name>TP492</name>
  </trkpt>
  <trkpt lat="60.40972" lon="6.66281">
    <name>TP493</name>
  </trkpt>
  <trkpt lat="60.40964" lon="6.66298">
    <name>TP494</name>
  </trkpt>
  <trkpt lat="60.40941" lon="6.66353">
    <name>TP495</name>
  </trkpt>
  <trkpt lat="60.40934" lon="6.66368">
    <name>TP496</name>
  </trkpt>
  <trkpt lat="60.4089" lon="6.66486">
    <name>TP497</name>
  </trkpt>
  <trkpt lat="60.40886" lon="6.66497">
    <name>TP498</name>
  </trkpt>
  <trkpt lat="60.40874" lon="6.66525">
    <name>TP499</name>
  </trkpt>
  <trkpt lat="60.40862" lon="6.66553">
    <name>TP500</name>
  </trkpt>
  <trkpt lat="60.40855" lon="6.66571">
    <name>TP501</name>
  </trkpt>
  <trkpt lat="60.40851" lon="6.6658">
    <name>TP502</name>
  </trkpt>
  <trkpt lat="60.4085" lon="6.6658">
    <name>TP503</name>
  </trkpt>
  <trkpt lat="60.40838" lon="6.66606">
    <name>TP504</name>
  </trkpt>
  <trkpt lat="60.40829" lon="6.66623">
    <name>TP505</name>
  </trkpt>
  <trkpt lat="60.40825" lon="6.66631">
    <name>TP506</name>
  </trkpt>
  <trkpt lat="60.40825" lon="6.66632">
    <name>TP507</name>
  </trkpt>
  <trkpt lat="60.40815" lon="6.66652">
    <name>TP508</name>
  </trkpt>
  <trkpt lat="60.40812" lon="6.66657">
    <name>TP509</name>
  </trkpt>
  <trkpt lat="60.40782" lon="6.66708">
    <name>TP510</name>
  </trkpt>
  <trkpt lat="60.4077" lon="6.66725">
    <name>TP511</name>
  </trkpt>
  <trkpt lat="60.40755" lon="6.66745">
    <name>TP512</name>
  </trkpt>
  <trkpt lat="60.40745" lon="6.66758">
    <name>TP513</name>
  </trkpt>
  <trkpt lat="60.4074" lon="6.66765">
    <name>TP514</name>
  </trkpt>
  <trkpt lat="60.40725" lon="6.66786">
    <name>TP515</name>
  </trkpt>
  <trkpt lat="60.4071" lon="6.66807">
    <name>TP516</name>
  </trkpt>
  <trkpt lat="60.40689" lon="6.66841">
    <name>TP517</name>
  </trkpt>
  <trkpt lat="60.40682" lon="6.6685">
    <name>TP518</name>
  </trkpt>
  <trkpt lat="60.40669" lon="6.66865">
    <name>TP519</name>
  </trkpt>
  <trkpt lat="60.40666" lon="6.66869">
    <name>TP520</name>
  </trkpt>
  <trkpt lat="60.40657" lon="6.6688">
    <name>TP521</name>
  </trkpt>
  <trkpt lat="60.4065" lon="6.66887">
    <name>TP522</name>
  </trkpt>
  <trkpt lat="60.40649" lon="6.66888">
    <name>TP523</name>
  </trkpt>
  <trkpt lat="60.40638" lon="6.66897">
    <name>TP524</name>
  </trkpt>
  <trkpt lat="60.40625" lon="6.66901">
    <name>TP525</name>
  </trkpt>
  <trkpt lat="60.40607" lon="6.66902">
    <name>TP526</name>
  </trkpt>
  <trkpt lat="60.40598" lon="6.66901">
    <name>TP527</name>
  </trkpt>
  <trkpt lat="60.4058" lon="6.66898">
    <name>TP528</name>
  </trkpt>
  <trkpt lat="60.40577" lon="6.66898">
    <name>TP529</name>
  </trkpt>
  <trkpt lat="60.40568" lon="6.66894">
    <name>TP530</name>
  </trkpt>
  <trkpt lat="60.40562" lon="6.66891">
    <name>TP531</name>
  </trkpt>
  <trkpt lat="60.40545" lon="6.66883">
    <name>TP532</name>
  </trkpt>
  <trkpt lat="60.40541" lon="6.66881">
    <name>TP533</name>
  </trkpt>
  <trkpt lat="60.40505" lon="6.66855">
    <name>TP534</name>
  </trkpt>
  <trkpt lat="60.40499" lon="6.66851">
    <name>TP535</name>
  </trkpt>
  <trkpt lat="60.40495" lon="6.66847">
    <name>TP536</name>
  </trkpt>
  <trkpt lat="60.40491" lon="6.66844">
    <name>TP537</name>
  </trkpt>
  <trkpt lat="60.40486" lon="6.66841">
    <name>TP538</name>
  </trkpt>
  <trkpt lat="60.40478" lon="6.66835">
    <name>TP539</name>
  </trkpt>
  <trkpt lat="60.4046" lon="6.66819">
    <name>TP540</name>
  </trkpt>
  <trkpt lat="60.40447" lon="6.66807">
    <name>TP541</name>
  </trkpt>
  <trkpt lat="60.40429" lon="6.66785">
    <name>TP542</name>
  </trkpt>
  <trkpt lat="60.40427" lon="6.66783">
    <name>TP543</name>
  </trkpt>
  <trkpt lat="60.40419" lon="6.66772">
    <name>TP544</name>
  </trkpt>
  <trkpt lat="60.40414" lon="6.66765">
    <name>TP545</name>
  </trkpt>
  <trkpt lat="60.40413" lon="6.66764">
    <name>TP546</name>
  </trkpt>
  <trkpt lat="60.40406" lon="6.66754">
    <name>TP547</name>
  </trkpt>
  <trkpt lat="60.40404" lon="6.66751">
    <name>TP548</name>
  </trkpt>
  <trkpt lat="60.40399" lon="6.66744">
    <name>TP549</name>
  </trkpt>
  <trkpt lat="60.40398" lon="6.66744">
    <name>TP550</name>
  </trkpt>
  <trkpt lat="60.40384" lon="6.66724">
    <name>TP551</name>
  </trkpt>
  <trkpt lat="60.40354" lon="6.66682">
    <name>TP552</name>
  </trkpt>
  <trkpt lat="60.4034" lon="6.66662">
    <name>TP553</name>
  </trkpt>
  <trkpt lat="60.40337" lon="6.66659">
    <name>TP554</name>
  </trkpt>
  <trkpt lat="60.40325" lon="6.6664">
    <name>TP555</name>
  </trkpt>
  <trkpt lat="60.40282" lon="6.66574">
    <name>TP556</name>
  </trkpt>
  <trkpt lat="60.40268" lon="6.66552">
    <name>TP557</name>
  </trkpt>
  <trkpt lat="60.40267" lon="6.66551">
    <name>TP558</name>
  </trkpt>
  <trkpt lat="60.40258" lon="6.66538">
    <name>TP559</name>
  </trkpt>
  <trkpt lat="60.40253" lon="6.66531">
    <name>TP560</name>
  </trkpt>
  <trkpt lat="60.40253" lon="6.6653">
    <name>TP561</name>
  </trkpt>
  <trkpt lat="60.40246" lon="6.66519">
    <name>TP562</name>
  </trkpt>
  <trkpt lat="60.40243" lon="6.66516">
    <name>TP563</name>
  </trkpt>
  <trkpt lat="60.40239" lon="6.6651">
    <name>TP564</name>
  </trkpt>
  <trkpt lat="60.40239" lon="6.66509">
    <name>TP565</name>
  </trkpt>
  <trkpt lat="60.40238" lon="6.66509">
    <name>TP566</name>
  </trkpt>
  <trkpt lat="60.40229" lon="6.66495">
    <name>TP567</name>
  </trkpt>
  <trkpt lat="60.40224" lon="6.66488">
    <name>TP568</name>
  </trkpt>
  <trkpt lat="60.40198" lon="6.6645">
    <name>TP569</name>
  </trkpt>
  <trkpt lat="60.4018" lon="6.66424">
    <name>TP570</name>
  </trkpt>
  <trkpt lat="60.40166" lon="6.66403">
    <name>TP571</name>
  </trkpt>
  <trkpt lat="60.40136" lon="6.6636">
    <name>TP572</name>
  </trkpt>
  <trkpt lat="60.40107" lon="6.66318">
    <name>TP573</name>
  </trkpt>
  <trkpt lat="60.40099" lon="6.66305">
    <name>TP574</name>
  </trkpt>
  <trkpt lat="60.40093" lon="6.66295">
    <name>TP575</name>
  </trkpt>
  <trkpt lat="60.40093" lon="6.66294">
    <name>TP576</name>
  </trkpt>
  <trkpt lat="60.4009" lon="6.66288">
    <name>TP577</name>
  </trkpt>
  <trkpt lat="60.40086" lon="6.66282">
    <name>TP578</name>
  </trkpt>
  <trkpt lat="60.40084" lon="6.66278">
    <name>TP579</name>
  </trkpt>
  <trkpt lat="60.40081" lon="6.66272">
    <name>TP580</name>
  </trkpt>
  <trkpt lat="60.4008" lon="6.66271">
    <name>TP581</name>
  </trkpt>
  <trkpt lat="60.40054" lon="6.6622">
    <name>TP582</name>
  </trkpt>
  <trkpt lat="60.40049" lon="6.66211">
    <name>TP583</name>
  </trkpt>
  <trkpt lat="60.39986" lon="6.66088">
    <name>TP584</name>
  </trkpt>
  <trkpt lat="60.39979" lon="6.66079">
    <name>TP585</name>
  </trkpt>
  <trkpt lat="60.39976" lon="6.66074">
    <name>TP586</name>
  </trkpt>
  <trkpt lat="60.39975" lon="6.66073">
    <name>TP587</name>
  </trkpt>
  <trkpt lat="60.39964" lon="6.66059">
    <name>TP588</name>
  </trkpt>
  <trkpt lat="60.3996" lon="6.66053">
    <name>TP589</name>
  </trkpt>
  <trkpt lat="60.39928" lon="6.66009">
    <name>TP590</name>
  </trkpt>
  <trkpt lat="60.39904" lon="6.65977">
    <name>TP591</name>
  </trkpt>
  <trkpt lat="60.39873" lon="6.65947">
    <name>TP592</name>
  </trkpt>
  <trkpt lat="60.39841" lon="6.6591">
    <name>TP593</name>
  </trkpt>
  <trkpt lat="60.3976" lon="6.65839">
    <name>TP594</name>
  </trkpt>
  <trkpt lat="60.39741" lon="6.65818">
    <name>TP595</name>
  </trkpt>
  <trkpt lat="60.39739" lon="6.65816">
    <name>TP596</name>
  </trkpt>
  <trkpt lat="60.39728" lon="6.65804">
    <name>TP597</name>
  </trkpt>
  <trkpt lat="60.39713" lon="6.65776">
    <name>TP598</name>
  </trkpt>
  <trkpt lat="60.39703" lon="6.65757">
    <name>TP599</name>
  </trkpt>
  <trkpt lat="60.397" lon="6.65751">
    <name>TP600</name>
  </trkpt>
  <trkpt lat="60.39673" lon="6.65699">
    <name>TP601</name>
  </trkpt>
  <trkpt lat="60.39667" lon="6.65687">
    <name>TP602</name>
  </trkpt>
  <trkpt lat="60.3966" lon="6.65675">
    <name>TP603</name>
  </trkpt>
  <trkpt lat="60.3963" lon="6.65622">
    <name>TP604</name>
  </trkpt>
  <trkpt lat="60.39617" lon="6.65608">
    <name>TP605</name>
  </trkpt>
  <trkpt lat="60.39599" lon="6.65586">
    <name>TP606</name>
  </trkpt>
  <trkpt lat="60.39519" lon="6.65484">
    <name>TP607</name>
  </trkpt>
  <trkpt lat="60.39511" lon="6.65472">
    <name>TP608</name>
  </trkpt>
  <trkpt lat="60.39453" lon="6.65385">
    <name>TP609</name>
  </trkpt>
  <trkpt lat="60.39407" lon="6.65305">
    <name>TP610</name>
  </trkpt>
  <trkpt lat="60.39391" lon="6.65277">
    <name>TP611</name>
  </trkpt>
  <trkpt lat="60.39339" lon="6.65198">
    <name>TP612</name>
  </trkpt>
  <trkpt lat="60.39336" lon="6.65193">
    <name>TP613</name>
  </trkpt>
  <trkpt lat="60.39321" lon="6.65173">
    <name>TP614</name>
  </trkpt>
  <trkpt lat="60.39283" lon="6.65124">
    <name>TP615</name>
  </trkpt>
  <trkpt lat="60.39275" lon="6.65116">
    <name>TP616</name>
  </trkpt>
  <trkpt lat="60.39226" lon="6.65071">
    <name>TP617</name>
  </trkpt>
  <trkpt lat="60.39215" lon="6.65063">
    <name>TP618</name>
  </trkpt>
  <trkpt lat="60.39198" lon="6.65051">
    <name>TP619</name>
  </trkpt>
  <trkpt lat="60.39182" lon="6.65035">
    <name>TP620</name>
  </trkpt>
  <trkpt lat="60.39151" lon="6.65005">
    <name>TP621</name>
  </trkpt>
  <trkpt lat="60.3912" lon="6.64974">
    <name>TP622</name>
  </trkpt>
  <trkpt lat="60.39117" lon="6.64971">
    <name>TP623</name>
  </trkpt>
  <trkpt lat="60.39114" lon="6.64968">
    <name>TP624</name>
  </trkpt>
  <trkpt lat="60.39103" lon="6.64958">
    <name>TP625</name>
  </trkpt>
  <trkpt lat="60.39101" lon="6.64955">
    <name>TP626</name>
  </trkpt>
  <trkpt lat="60.39085" lon="6.6494">
    <name>TP627</name>
  </trkpt>
  <trkpt lat="60.39085" lon="6.64939">
    <name>TP628</name>
  </trkpt>
  <trkpt lat="60.39052" lon="6.64896">
    <name>TP629</name>
  </trkpt>
  <trkpt lat="60.39042" lon="6.64884">
    <name>TP630</name>
  </trkpt>
  <trkpt lat="60.3901" lon="6.64849">
    <name>TP631</name>
  </trkpt>
  <trkpt lat="60.39008" lon="6.64846">
    <name>TP632</name>
  </trkpt>
  <trkpt lat="60.38994" lon="6.64831">
    <name>TP633</name>
  </trkpt>
  <trkpt lat="60.38962" lon="6.64795">
    <name>TP634</name>
  </trkpt>
  <trkpt lat="60.38959" lon="6.64792">
    <name>TP635</name>
  </trkpt>
  <trkpt lat="60.38943" lon="6.64774">
    <name>TP636</name>
  </trkpt>
  <trkpt lat="60.3894" lon="6.6477">
    <name>TP637</name>
  </trkpt>
  <trkpt lat="60.38939" lon="6.6477">
    <name>TP638</name>
  </trkpt>
  <trkpt lat="60.38937" lon="6.64766">
    <name>TP639</name>
  </trkpt>
  <trkpt lat="60.38933" lon="6.64762">
    <name>TP640</name>
  </trkpt>
  <trkpt lat="60.38918" lon="6.64744">
    <name>TP641</name>
  </trkpt>
  <trkpt lat="60.38914" lon="6.64739">
    <name>TP642</name>
  </trkpt>
  <trkpt lat="60.38898" lon="6.64721">
    <name>TP643</name>
  </trkpt>
  <trkpt lat="60.38854" lon="6.64671">
    <name>TP644</name>
  </trkpt>
  <trkpt lat="60.38795" lon="6.64619">
    <name>TP645</name>
  </trkpt>
  <trkpt lat="60.38767" lon="6.64602">
    <name>TP646</name>
  </trkpt>
  <trkpt lat="60.38754" lon="6.64594">
    <name>TP647</name>
  </trkpt>
  <trkpt lat="60.3875" lon="6.64592">
    <name>TP648</name>
  </trkpt>
  <trkpt lat="60.38741" lon="6.64586">
    <name>TP649</name>
  </trkpt>
  <trkpt lat="60.38733" lon="6.64581">
    <name>TP650</name>
  </trkpt>
  <trkpt lat="60.38681" lon="6.64549">
    <name>TP651</name>
  </trkpt>
  <trkpt lat="60.38663" lon="6.64537">
    <name>TP652</name>
  </trkpt>
  <trkpt lat="60.38656" lon="6.64533">
    <name>TP653</name>
  </trkpt>
  <trkpt lat="60.38651" lon="6.64531">
    <name>TP654</name>
  </trkpt>
  <trkpt lat="60.38647" lon="6.64528">
    <name>TP655</name>
  </trkpt>
  <trkpt lat="60.38595" lon="6.64498">
    <name>TP656</name>
  </trkpt>
  <trkpt lat="60.38556" lon="6.64478">
    <name>TP657</name>
  </trkpt>
  <trkpt lat="60.38553" lon="6.64476">
    <name>TP658</name>
  </trkpt>
  <trkpt lat="60.38531" lon="6.64465">
    <name>TP659</name>
  </trkpt>
  <trkpt lat="60.38526" lon="6.64462">
    <name>TP660</name>
  </trkpt>
  <trkpt lat="60.38521" lon="6.64459">
    <name>TP661</name>
  </trkpt>
  <trkpt lat="60.38516" lon="6.64457">
    <name>TP662</name>
  </trkpt>
  <trkpt lat="60.38503" lon="6.64454">
    <name>TP663</name>
  </trkpt>
  <trkpt lat="60.3845" lon="6.6444">
    <name>TP664</name>
  </trkpt>
  <trkpt lat="60.38438" lon="6.64437">
    <name>TP665</name>
  </trkpt>
  <trkpt lat="60.38432" lon="6.64436">
    <name>TP666</name>
  </trkpt>
  <trkpt lat="60.38352" lon="6.64416">
    <name>TP667</name>
  </trkpt>
  <trkpt lat="60.38343" lon="6.64412">
    <name>TP668</name>
  </trkpt>
  <trkpt lat="60.3829" lon="6.64389">
    <name>TP669</name>
  </trkpt>
  <trkpt lat="60.38277" lon="6.64383">
    <name>TP670</name>
  </trkpt>
  <trkpt lat="60.38236" lon="6.64377">
    <name>TP671</name>
  </trkpt>
  <trkpt lat="60.38201" lon="6.64372">
    <name>TP672</name>
  </trkpt>
  <trkpt lat="60.38188" lon="6.64371">
    <name>TP673</name>
  </trkpt>
  <trkpt lat="60.38183" lon="6.6437">
    <name>TP674</name>
  </trkpt>
  <trkpt lat="60.38178" lon="6.64369">
    <name>TP675</name>
  </trkpt>
  <trkpt lat="60.38111" lon="6.64378">
    <name>TP676</name>
  </trkpt>
  <trkpt lat="60.38105" lon="6.64379">
    <name>TP677</name>
  </trkpt>
  <trkpt lat="60.3802" lon="6.64382">
    <name>TP678</name>
  </trkpt>
  <trkpt lat="60.38016" lon="6.64382">
    <name>TP679</name>
  </trkpt>
  <trkpt lat="60.38014" lon="6.64382">
    <name>TP680</name>
  </trkpt>
  <trkpt lat="60.38006" lon="6.64383">
    <name>TP681</name>
  </trkpt>
  <trkpt lat="60.37938" lon="6.64391">
    <name>TP682</name>
  </trkpt>
  <trkpt lat="60.37889" lon="6.64409">
    <name>TP683</name>
  </trkpt>
  <trkpt lat="60.37885" lon="6.6441">
    <name>TP684</name>
  </trkpt>
  <trkpt lat="60.3788" lon="6.64412">
    <name>TP685</name>
  </trkpt>
  <trkpt lat="60.37878" lon="6.64412">
    <name>TP686</name>
  </trkpt>
  <trkpt lat="60.37861" lon="6.64421">
    <name>TP687</name>
  </trkpt>
  <trkpt lat="60.37808" lon="6.64447">
    <name>TP688</name>
  </trkpt>
  <trkpt lat="60.37791" lon="6.64455">
    <name>TP689</name>
  </trkpt>
  <trkpt lat="60.37773" lon="6.64464">
    <name>TP690</name>
  </trkpt>
  <trkpt lat="60.37735" lon="6.64483">
    <name>TP691</name>
  </trkpt>
  <trkpt lat="60.37678" lon="6.6451">
    <name>TP692</name>
  </trkpt>
  <trkpt lat="60.37668" lon="6.64514">
    <name>TP693</name>
  </trkpt>
  <trkpt lat="60.37652" lon="6.6452">
    <name>TP694</name>
  </trkpt>
  <trkpt lat="60.3765" lon="6.6452">
    <name>TP695</name>
  </trkpt>
  <trkpt lat="60.37647" lon="6.64521">
    <name>TP696</name>
  </trkpt>
  <trkpt lat="60.37643" lon="6.64523">
    <name>TP697</name>
  </trkpt>
  <trkpt lat="60.37638" lon="6.64524">
    <name>TP698</name>
  </trkpt>
  <trkpt lat="60.37628" lon="6.64528">
    <name>TP699</name>
  </trkpt>
  <trkpt lat="60.37621" lon="6.6453">
    <name>TP700</name>
  </trkpt>
  <trkpt lat="60.37597" lon="6.64536">
    <name>TP701</name>
  </trkpt>
  <trkpt lat="60.37591" lon="6.64538">
    <name>TP702</name>
  </trkpt>
  <trkpt lat="60.37561" lon="6.64538">
    <name>TP703</name>
  </trkpt>
  <trkpt lat="60.37543" lon="6.64539">
    <name>TP704</name>
  </trkpt>
  <trkpt lat="60.37538" lon="6.64539">
    <name>TP705</name>
  </trkpt>
  <trkpt lat="60.37525" lon="6.64539">
    <name>TP706</name>
  </trkpt>
  <trkpt lat="60.3752" lon="6.64539">
    <name>TP707</name>
  </trkpt>
  <trkpt lat="60.37489" lon="6.64539">
    <name>TP708</name>
  </trkpt>
  <trkpt lat="60.37452" lon="6.64539">
    <name>TP709</name>
  </trkpt>
  <trkpt lat="60.37444" lon="6.64538">
    <name>TP710</name>
  </trkpt>
  <trkpt lat="60.37426" lon="6.64536">
    <name>TP711</name>
  </trkpt>
  <trkpt lat="60.37413" lon="6.64534">
    <name>TP712</name>
  </trkpt>
  <trkpt lat="60.37408" lon="6.64532">
    <name>TP713</name>
  </trkpt>
  <trkpt lat="60.37396" lon="6.64527">
    <name>TP714</name>
  </trkpt>
  <trkpt lat="60.37395" lon="6.64527">
    <name>TP715</name>
  </trkpt>
  <trkpt lat="60.37373" lon="6.64517">
    <name>TP716</name>
  </trkpt>
  <trkpt lat="60.37372" lon="6.64516">
    <name>TP717</name>
  </trkpt>
  <trkpt lat="60.3735" lon="6.645">
    <name>TP718</name>
  </trkpt>
  <trkpt lat="60.37324" lon="6.64477">
    <name>TP719</name>
  </trkpt>
  <trkpt lat="60.37277" lon="6.64418">
    <name>TP720</name>
  </trkpt>
  <trkpt lat="60.37238" lon="6.64369">
    <name>TP721</name>
  </trkpt>
  <trkpt lat="60.37182" lon="6.64315">
    <name>TP722</name>
  </trkpt>
  <trkpt lat="60.37144" lon="6.64279">
    <name>TP723</name>
  </trkpt>
  <trkpt lat="60.37135" lon="6.64263">
    <name>TP724</name>
  </trkpt>
  <trkpt lat="60.3708" lon="6.6417">
    <name>TP725</name>
  </trkpt>
  <trkpt lat="60.37071" lon="6.64153">
    <name>TP726</name>
  </trkpt>
  <trkpt lat="60.37046" lon="6.64101">
    <name>TP727</name>
  </trkpt>
  <trkpt lat="60.37034" lon="6.64075">
    <name>TP728</name>
  </trkpt>
  <trkpt lat="60.37026" lon="6.64059">
    <name>TP729</name>
  </trkpt>
  <trkpt lat="60.3702" lon="6.64051">
    <name>TP730</name>
  </trkpt>
  <trkpt lat="60.37012" lon="6.64039">
    <name>TP731</name>
  </trkpt>
  <trkpt lat="60.37006" lon="6.6403">
    <name>TP732</name>
  </trkpt>
  <trkpt lat="60.36996" lon="6.64017">
    <name>TP733</name>
  </trkpt>
  <trkpt lat="60.36948" lon="6.63942">
    <name>TP734</name>
  </trkpt>
  <trkpt lat="60.36934" lon="6.63919">
    <name>TP735</name>
  </trkpt>
  <trkpt lat="60.36931" lon="6.63915">
    <name>TP736</name>
  </trkpt>
  <trkpt lat="60.36919" lon="6.63899">
    <name>TP737</name>
  </trkpt>
  <trkpt lat="60.36844" lon="6.638">
    <name>TP738</name>
  </trkpt>
  <trkpt lat="60.36814" lon="6.6376">
    <name>TP739</name>
  </trkpt>
  <trkpt lat="60.36769" lon="6.637">
    <name>TP740</name>
  </trkpt>
  <trkpt lat="60.36744" lon="6.63667">
    <name>TP741</name>
  </trkpt>
  <trkpt lat="60.36708" lon="6.63622">
    <name>TP742</name>
  </trkpt>
  <trkpt lat="60.36693" lon="6.63603">
    <name>TP743</name>
  </trkpt>
  <trkpt lat="60.36683" lon="6.6359">
    <name>TP744</name>
  </trkpt>
  <trkpt lat="60.36645" lon="6.63551">
    <name>TP745</name>
  </trkpt>
  <trkpt lat="60.36629" lon="6.63534">
    <name>TP746</name>
  </trkpt>
  <trkpt lat="60.36614" lon="6.63517">
    <name>TP747</name>
  </trkpt>
  <trkpt lat="60.36592" lon="6.63494">
    <name>TP748</name>
  </trkpt>
  <trkpt lat="60.36582" lon="6.63484">
    <name>TP749</name>
  </trkpt>
  <trkpt lat="60.36565" lon="6.63467">
    <name>TP750</name>
  </trkpt>
  <trkpt lat="60.36549" lon="6.63451">
    <name>TP751</name>
  </trkpt>
  <trkpt lat="60.36544" lon="6.63446">
    <name>TP752</name>
  </trkpt>
  <trkpt lat="60.36533" lon="6.63438">
    <name>TP753</name>
  </trkpt>
  <trkpt lat="60.36516" lon="6.63426">
    <name>TP754</name>
  </trkpt>
  <trkpt lat="60.36499" lon="6.63414">
    <name>TP755</name>
  </trkpt>
  <trkpt lat="60.36482" lon="6.63402">
    <name>TP756</name>
  </trkpt>
  <trkpt lat="60.36431" lon="6.63366">
    <name>TP757</name>
  </trkpt>
  <trkpt lat="60.36414" lon="6.63354">
    <name>TP758</name>
  </trkpt>
  <trkpt lat="60.36402" lon="6.63346">
    <name>TP759</name>
  </trkpt>
  <trkpt lat="60.36397" lon="6.63341">
    <name>TP760</name>
  </trkpt>
  <trkpt lat="60.36381" lon="6.63324">
    <name>TP761</name>
  </trkpt>
  <trkpt lat="60.36347" lon="6.63288">
    <name>TP762</name>
  </trkpt>
  <trkpt lat="60.36302" lon="6.63236">
    <name>TP763</name>
  </trkpt>
  <trkpt lat="60.36256" lon="6.63182">
    <name>TP764</name>
  </trkpt>
  <trkpt lat="60.36206" lon="6.63139">
    <name>TP765</name>
  </trkpt>
  <trkpt lat="60.36173" lon="6.6311">
    <name>TP766</name>
  </trkpt>
  <trkpt lat="60.36156" lon="6.63096">
    <name>TP767</name>
  </trkpt>
  <trkpt lat="60.36151" lon="6.63091">
    <name>TP768</name>
  </trkpt>
  <trkpt lat="60.3614" lon="6.63082">
    <name>TP769</name>
  </trkpt>
  <trkpt lat="60.36068" lon="6.63027">
    <name>TP770</name>
  </trkpt>
  <trkpt lat="60.36055" lon="6.63019">
    <name>TP771</name>
  </trkpt>
  <trkpt lat="60.36022" lon="6.62995">
    <name>TP772</name>
  </trkpt>
  <trkpt lat="60.35988" lon="6.62971">
    <name>TP773</name>
  </trkpt>
  <trkpt lat="60.35953" lon="6.62946">
    <name>TP774</name>
  </trkpt>
  <trkpt lat="60.35943" lon="6.62939">
    <name>TP775</name>
  </trkpt>
  <trkpt lat="60.3591" lon="6.62911">
    <name>TP776</name>
  </trkpt>
  <trkpt lat="60.35908" lon="6.62909">
    <name>TP777</name>
  </trkpt>
  <trkpt lat="60.35896" lon="6.62898">
    <name>TP778</name>
  </trkpt>
  <trkpt lat="60.35876" lon="6.62876">
    <name>TP779</name>
  </trkpt>
  <trkpt lat="60.35845" lon="6.62842">
    <name>TP780</name>
  </trkpt>
  <trkpt lat="60.35814" lon="6.62804">
    <name>TP781</name>
  </trkpt>
  <trkpt lat="60.35782" lon="6.62764">
    <name>TP782</name>
  </trkpt>
  <trkpt lat="60.35721" lon="6.62693">
    <name>TP783</name>
  </trkpt>
  <trkpt lat="60.35713" lon="6.62684">
    <name>TP784</name>
  </trkpt>
  <trkpt lat="60.35692" lon="6.62662">
    <name>TP785</name>
  </trkpt>
  <trkpt lat="60.35681" lon="6.62652">
    <name>TP786</name>
  </trkpt>
  <trkpt lat="60.35659" lon="6.62632">
    <name>TP787</name>
  </trkpt>
  <trkpt lat="60.35642" lon="6.62622">
    <name>TP788</name>
  </trkpt>
  <trkpt lat="60.3563" lon="6.62615">
    <name>TP789</name>
  </trkpt>
  <trkpt lat="60.35627" lon="6.62613">
    <name>TP790</name>
  </trkpt>
  <trkpt lat="60.35604" lon="6.62601">
    <name>TP791</name>
  </trkpt>
  <trkpt lat="60.35595" lon="6.62596">
    <name>TP792</name>
  </trkpt>
  <trkpt lat="60.35576" lon="6.62586">
    <name>TP793</name>
  </trkpt>
  <trkpt lat="60.35526" lon="6.62567">
    <name>TP794</name>
  </trkpt>
  <trkpt lat="60.3549" lon="6.6255">
    <name>TP795</name>
  </trkpt>
  <trkpt lat="60.35472" lon="6.62543">
    <name>TP796</name>
  </trkpt>
  <trkpt lat="60.35456" lon="6.62535">
    <name>TP797</name>
  </trkpt>
  <trkpt lat="60.35437" lon="6.62527">
    <name>TP798</name>
  </trkpt>
  <trkpt lat="60.35402" lon="6.62512">
    <name>TP799</name>
  </trkpt>
  <trkpt lat="60.35367" lon="6.62496">
    <name>TP800</name>
  </trkpt>
  <trkpt lat="60.35366" lon="6.62496">
    <name>TP801</name>
  </trkpt>
  <trkpt lat="60.35349" lon="6.62489">
    <name>TP802</name>
  </trkpt>
  <trkpt lat="60.35316" lon="6.62475">
    <name>TP803</name>
  </trkpt>
  <trkpt lat="60.35314" lon="6.62475">
    <name>TP804</name>
  </trkpt>
  <trkpt lat="60.35299" lon="6.62471">
    <name>TP805</name>
  </trkpt>
  <trkpt lat="60.35282" lon="6.62471">
    <name>TP806</name>
  </trkpt>
  <trkpt lat="60.3526" lon="6.62474">
    <name>TP807</name>
  </trkpt>
  <trkpt lat="60.35242" lon="6.62479">
    <name>TP808</name>
  </trkpt>
  <trkpt lat="60.35241" lon="6.62479">
    <name>TP809</name>
  </trkpt>
  <trkpt lat="60.3523" lon="6.62483">
    <name>TP810</name>
  </trkpt>
  <trkpt lat="60.35225" lon="6.62485">
    <name>TP811</name>
  </trkpt>
  <trkpt lat="60.35217" lon="6.62489">
    <name>TP812</name>
  </trkpt>
  <trkpt lat="60.35207" lon="6.62495">
    <name>TP813</name>
  </trkpt>
  <trkpt lat="60.35206" lon="6.62495">
    <name>TP814</name>
  </trkpt>
  <trkpt lat="60.35192" lon="6.62505">
    <name>TP815</name>
  </trkpt>
  <trkpt lat="60.3519" lon="6.62507">
    <name>TP816</name>
  </trkpt>
  <trkpt lat="60.35139" lon="6.62544">
    <name>TP817</name>
  </trkpt>
  <trkpt lat="60.35123" lon="6.62556">
    <name>TP818</name>
  </trkpt>
  <trkpt lat="60.351" lon="6.62568">
    <name>TP819</name>
  </trkpt>
  <trkpt lat="60.35058" lon="6.62585">
    <name>TP820</name>
  </trkpt>
  <trkpt lat="60.35038" lon="6.62592">
    <name>TP821</name>
  </trkpt>
  <trkpt lat="60.35029" lon="6.62593">
    <name>TP822</name>
  </trkpt>
  <trkpt lat="60.35011" lon="6.62595">
    <name>TP823</name>
  </trkpt>
  <trkpt lat="60.34996" lon="6.62596">
    <name>TP824</name>
  </trkpt>
  <trkpt lat="60.34993" lon="6.62596">
    <name>TP825</name>
  </trkpt>
  <trkpt lat="60.34975" lon="6.62595">
    <name>TP826</name>
  </trkpt>
  <trkpt lat="60.34952" lon="6.62594">
    <name>TP827</name>
  </trkpt>
  <trkpt lat="60.34939" lon="6.62592">
    <name>TP828</name>
  </trkpt>
  <trkpt lat="60.34921" lon="6.62589">
    <name>TP829</name>
  </trkpt>
  <trkpt lat="60.34918" lon="6.62588">
    <name>TP830</name>
  </trkpt>
  <trkpt lat="60.34903" lon="6.62588">
    <name>TP831</name>
  </trkpt>
  <trkpt lat="60.34897" lon="6.62587">
    <name>TP832</name>
  </trkpt>
  <trkpt lat="60.34885" lon="6.62587">
    <name>TP833</name>
  </trkpt>
  <trkpt lat="60.34878" lon="6.62587">
    <name>TP834</name>
  </trkpt>
  <trkpt lat="60.34867" lon="6.62591">
    <name>TP835</name>
  </trkpt>
  <trkpt lat="60.34858" lon="6.62594">
    <name>TP836</name>
  </trkpt>
  <trkpt lat="60.34825" lon="6.62617">
    <name>TP837</name>
  </trkpt>
  <trkpt lat="60.34751" lon="6.62687">
    <name>TP838</name>
  </trkpt>
  <trkpt lat="60.34745" lon="6.62693">
    <name>TP839</name>
  </trkpt>
  <trkpt lat="60.34734" lon="6.62699">
    <name>TP840</name>
  </trkpt>
  <trkpt lat="60.34693" lon="6.62735">
    <name>TP841</name>
  </trkpt>
  <trkpt lat="60.34661" lon="6.62754">
    <name>TP842</name>
  </trkpt>
  <trkpt lat="60.34638" lon="6.62764">
    <name>TP843</name>
  </trkpt>
  <trkpt lat="60.34629" lon="6.62768">
    <name>TP844</name>
  </trkpt>
  <trkpt lat="60.34594" lon="6.62779">
    <name>TP845</name>
  </trkpt>
  <trkpt lat="60.34561" lon="6.62781">
    <name>TP846</name>
  </trkpt>
  <trkpt lat="60.34549" lon="6.62781">
    <name>TP847</name>
  </trkpt>
  <trkpt lat="60.34526" lon="6.6278">
    <name>TP848</name>
  </trkpt>
  <trkpt lat="60.34496" lon="6.62775">
    <name>TP849</name>
  </trkpt>
  <trkpt lat="60.34477" lon="6.6277">
    <name>TP850</name>
  </trkpt>
  <trkpt lat="60.34464" lon="6.62767">
    <name>TP851</name>
  </trkpt>
  <trkpt lat="60.3446" lon="6.62764">
    <name>TP852</name>
  </trkpt>
  <trkpt lat="60.34442" lon="6.62755">
    <name>TP853</name>
  </trkpt>
  <trkpt lat="60.34436" lon="6.62752">
    <name>TP854</name>
  </trkpt>
  <trkpt lat="60.34397" lon="6.6273">
    <name>TP855</name>
  </trkpt>
  <trkpt lat="60.34342" lon="6.62698">
    <name>TP856</name>
  </trkpt>
  <trkpt lat="60.34338" lon="6.62696">
    <name>TP857</name>
  </trkpt>
  <trkpt lat="60.34321" lon="6.62688">
    <name>TP858</name>
  </trkpt>
  <trkpt lat="60.34286" lon="6.6267">
    <name>TP859</name>
  </trkpt>
  <trkpt lat="60.34282" lon="6.62668">
    <name>TP860</name>
  </trkpt>
  <trkpt lat="60.34251" lon="6.6265">
    <name>TP861</name>
  </trkpt>
  <trkpt lat="60.34234" lon="6.6264">
    <name>TP862</name>
  </trkpt>
  <trkpt lat="60.34226" lon="6.62636">
    <name>TP863</name>
  </trkpt>
  <trkpt lat="60.34199" lon="6.62622">
    <name>TP864</name>
  </trkpt>
  <trkpt lat="60.34162" lon="6.62602">
    <name>TP865</name>
  </trkpt>
  <trkpt lat="60.34119" lon="6.62577">
    <name>TP866</name>
  </trkpt>
  <trkpt lat="60.34112" lon="6.62574">
    <name>TP867</name>
  </trkpt>
  <trkpt lat="60.34095" lon="6.62565">
    <name>TP868</name>
  </trkpt>
  <trkpt lat="60.34087" lon="6.62561">
    <name>TP869</name>
  </trkpt>
  <trkpt lat="60.34043" lon="6.62546">
    <name>TP870</name>
  </trkpt>
  <trkpt lat="60.34006" lon="6.62542">
    <name>TP871</name>
  </trkpt>
  <trkpt lat="60.33992" lon="6.6254">
    <name>TP872</name>
  </trkpt>
  <trkpt lat="60.33988" lon="6.6254">
    <name>TP873</name>
  </trkpt>
  <trkpt lat="60.33956" lon="6.62538">
    <name>TP874</name>
  </trkpt>
  <trkpt lat="60.33952" lon="6.62539">
    <name>TP875</name>
  </trkpt>
  <trkpt lat="60.33935" lon="6.6254">
    <name>TP876</name>
  </trkpt>
  <trkpt lat="60.33934" lon="6.6254">
    <name>TP877</name>
  </trkpt>
  <trkpt lat="60.33872" lon="6.62546">
    <name>TP878</name>
  </trkpt>
  <trkpt lat="60.33837" lon="6.62546">
    <name>TP879</name>
  </trkpt>
  <trkpt lat="60.33799" lon="6.62539">
    <name>TP880</name>
  </trkpt>
  <trkpt lat="60.33791" lon="6.62534">
    <name>TP881</name>
  </trkpt>
  <trkpt lat="60.33773" lon="6.62525">
    <name>TP882</name>
  </trkpt>
  <trkpt lat="60.33768" lon="6.62522">
    <name>TP883</name>
  </trkpt>
  <trkpt lat="60.33756" lon="6.62514">
    <name>TP884</name>
  </trkpt>
  <trkpt lat="60.33739" lon="6.62501">
    <name>TP885</name>
  </trkpt>
  <trkpt lat="60.33737" lon="6.62499">
    <name>TP886</name>
  </trkpt>
  <trkpt lat="60.33724" lon="6.62483">
    <name>TP887</name>
  </trkpt>
  <trkpt lat="60.33708" lon="6.62464">
    <name>TP888</name>
  </trkpt>
  <trkpt lat="60.33704" lon="6.6246">
    <name>TP889</name>
  </trkpt>
  <trkpt lat="60.3368" lon="6.6242">
    <name>TP890</name>
  </trkpt>
  <trkpt lat="60.33671" lon="6.62405">
    <name>TP891</name>
  </trkpt>
  <trkpt lat="60.33667" lon="6.62396">
    <name>TP892</name>
  </trkpt>
  <trkpt lat="60.33647" lon="6.62354">
    <name>TP893</name>
  </trkpt>
  <trkpt lat="60.33643" lon="6.62341">
    <name>TP894</name>
  </trkpt>
  <trkpt lat="60.33626" lon="6.62291">
    <name>TP895</name>
  </trkpt>
  <trkpt lat="60.33609" lon="6.62225">
    <name>TP896</name>
  </trkpt>
  <trkpt lat="60.33592" lon="6.6216">
    <name>TP897</name>
  </trkpt>
  <trkpt lat="60.33576" lon="6.62108">
    <name>TP898</name>
  </trkpt>
  <trkpt lat="60.33571" lon="6.6209">
    <name>TP899</name>
  </trkpt>
  <trkpt lat="60.33557" lon="6.62042">
    <name>TP900</name>
  </trkpt>
  <trkpt lat="60.33542" lon="6.61997">
    <name>TP901</name>
  </trkpt>
  <trkpt lat="60.33534" lon="6.61973">
    <name>TP902</name>
  </trkpt>
  <trkpt lat="60.33506" lon="6.61897">
    <name>TP903</name>
  </trkpt>
  <trkpt lat="60.3348" lon="6.6183">
    <name>TP904</name>
  </trkpt>
  <trkpt lat="60.33466" lon="6.61795">
    <name>TP905</name>
  </trkpt>
  <trkpt lat="60.33393" lon="6.61656">
    <name>TP906</name>
  </trkpt>
  <trkpt lat="60.3338" lon="6.6163">
    <name>TP907</name>
  </trkpt>
  <trkpt lat="60.33362" lon="6.61586">
    <name>TP908</name>
  </trkpt>
  <trkpt lat="60.3335" lon="6.61558">
    <name>TP909</name>
  </trkpt>
  <trkpt lat="60.33341" lon="6.61526">
    <name>TP910</name>
  </trkpt>
  <trkpt lat="60.33328" lon="6.61473">
    <name>TP911</name>
  </trkpt>
  <trkpt lat="60.33315" lon="6.61411">
    <name>TP912</name>
  </trkpt>
  <trkpt lat="60.333" lon="6.61312">
    <name>TP913</name>
  </trkpt>
  <trkpt lat="60.33293" lon="6.6126">
    <name>TP914</name>
  </trkpt>
  <trkpt lat="60.33288" lon="6.61224">
    <name>TP915</name>
  </trkpt>
  <trkpt lat="60.33285" lon="6.61206">
    <name>TP916</name>
  </trkpt>
  <trkpt lat="60.33283" lon="6.61197">
    <name>TP917</name>
  </trkpt>
  <trkpt lat="60.33277" lon="6.61173">
    <name>TP918</name>
  </trkpt>
  <trkpt lat="60.33274" lon="6.61159">
    <name>TP919</name>
  </trkpt>
  <trkpt lat="60.33272" lon="6.61151">
    <name>TP920</name>
  </trkpt>
  <trkpt lat="60.33272" lon="6.61148">
    <name>TP921</name>
  </trkpt>
  <trkpt lat="60.33268" lon="6.61132">
    <name>TP922</name>
  </trkpt>
  <trkpt lat="60.33263" lon="6.61118">
    <name>TP923</name>
  </trkpt>
  <trkpt lat="60.33255" lon="6.61098">
    <name>TP924</name>
  </trkpt>
  <trkpt lat="60.33245" lon="6.61073">
    <name>TP925</name>
  </trkpt>
  <trkpt lat="60.33235" lon="6.6105">
    <name>TP926</name>
  </trkpt>
  <trkpt lat="60.33223" lon="6.61027">
    <name>TP927</name>
  </trkpt>
  <trkpt lat="60.33211" lon="6.61007">
    <name>TP928</name>
  </trkpt>
  <trkpt lat="60.33201" lon="6.6099">
    <name>TP929</name>
  </trkpt>
  <trkpt lat="60.33192" lon="6.60977">
    <name>TP930</name>
  </trkpt>
  <trkpt lat="60.3319" lon="6.60975">
    <name>TP931</name>
  </trkpt>
  <trkpt lat="60.33181" lon="6.60967">
    <name>TP932</name>
  </trkpt>
  <trkpt lat="60.33156" lon="6.60944">
    <name>TP933</name>
  </trkpt>
  <trkpt lat="60.33141" lon="6.60931">
    <name>TP934</name>
  </trkpt>
  <trkpt lat="60.33124" lon="6.60917">
    <name>TP935</name>
  </trkpt>
  <trkpt lat="60.33117" lon="6.60911">
    <name>TP936</name>
  </trkpt>
  <trkpt lat="60.33107" lon="6.60904">
    <name>TP937</name>
  </trkpt>
  <trkpt lat="60.33101" lon="6.60901">
    <name>TP938</name>
  </trkpt>
  <trkpt lat="60.3309" lon="6.6089">
    <name>TP939</name>
  </trkpt>
  <trkpt lat="60.3309" lon="6.60889">
    <name>TP940</name>
  </trkpt>
  <trkpt lat="60.33078" lon="6.60879">
    <name>TP941</name>
  </trkpt>
  <trkpt lat="60.3307" lon="6.6087">
    <name>TP942</name>
  </trkpt>
  <trkpt lat="60.3306" lon="6.60858">
    <name>TP943</name>
  </trkpt>
  <trkpt lat="60.33051" lon="6.60846">
    <name>TP944</name>
  </trkpt>
  <trkpt lat="60.33044" lon="6.60837">
    <name>TP945</name>
  </trkpt>
  <trkpt lat="60.33044" lon="6.60836">
    <name>TP946</name>
  </trkpt>
  <trkpt lat="60.33036" lon="6.60824">
    <name>TP947</name>
  </trkpt>
  <trkpt lat="60.3303" lon="6.60812">
    <name>TP948</name>
  </trkpt>
  <trkpt lat="60.33024" lon="6.60802">
    <name>TP949</name>
  </trkpt>
  <trkpt lat="60.33013" lon="6.6078">
    <name>TP950</name>
  </trkpt>
  <trkpt lat="60.33008" lon="6.60768">
    <name>TP951</name>
  </trkpt>
  <trkpt lat="60.32998" lon="6.60744">
    <name>TP952</name>
  </trkpt>
  <trkpt lat="60.32988" lon="6.60719">
    <name>TP953</name>
  </trkpt>
  <trkpt lat="60.32978" lon="6.60695">
    <name>TP954</name>
  </trkpt>
  <trkpt lat="60.32947" lon="6.60623">
    <name>TP955</name>
  </trkpt>
  <trkpt lat="60.32938" lon="6.60606">
    <name>TP956</name>
  </trkpt>
  <trkpt lat="60.32928" lon="6.6059">
    <name>TP957</name>
  </trkpt>
  <trkpt lat="60.32918" lon="6.60577">
    <name>TP958</name>
  </trkpt>
  <trkpt lat="60.32908" lon="6.60564">
    <name>TP959</name>
  </trkpt>
  <trkpt lat="60.32892" lon="6.60548">
    <name>TP960</name>
  </trkpt>
  <trkpt lat="60.32881" lon="6.6054">
    <name>TP961</name>
  </trkpt>
  <trkpt lat="60.32869" lon="6.60535">
    <name>TP962</name>
  </trkpt>
  <trkpt lat="60.32862" lon="6.60537">
    <name>TP963</name>
  </trkpt>
  <trkpt lat="60.32835" lon="6.60534">
    <name>TP964</name>
  </trkpt>
  <trkpt lat="60.32805" lon="6.60539">
    <name>TP965</name>
  </trkpt>
  <trkpt lat="60.32799" lon="6.60541">
    <name>TP966</name>
  </trkpt>
  <trkpt lat="60.32793" lon="6.60543">
    <name>TP967</name>
  </trkpt>
  <trkpt lat="60.32787" lon="6.60545">
    <name>TP968</name>
  </trkpt>
  <trkpt lat="60.32782" lon="6.60547">
    <name>TP969</name>
  </trkpt>
  <trkpt lat="60.32776" lon="6.6055">
    <name>TP970</name>
  </trkpt>
  <trkpt lat="60.3277" lon="6.60551">
    <name>TP971</name>
  </trkpt>
  <trkpt lat="60.32764" lon="6.60552">
    <name>TP972</name>
  </trkpt>
  <trkpt lat="60.32758" lon="6.60555">
    <name>TP973</name>
  </trkpt>
  <trkpt lat="60.32752" lon="6.60558">
    <name>TP974</name>
  </trkpt>
  <trkpt lat="60.32746" lon="6.60559">
    <name>TP975</name>
  </trkpt>
  <trkpt lat="60.32741" lon="6.6056">
    <name>TP976</name>
  </trkpt>
  <trkpt lat="60.32733" lon="6.60563">
    <name>TP977</name>
  </trkpt>
  <trkpt lat="60.32723" lon="6.60565">
    <name>TP978</name>
  </trkpt>
  <trkpt lat="60.32717" lon="6.60565">
    <name>TP979</name>
  </trkpt>
  <trkpt lat="60.3271" lon="6.60565">
    <name>TP980</name>
  </trkpt>
  <trkpt lat="60.32705" lon="6.60564">
    <name>TP981</name>
  </trkpt>
  <trkpt lat="60.32704" lon="6.60564">
    <name>TP982</name>
  </trkpt>
  <trkpt lat="60.32697" lon="6.60565">
    <name>TP983</name>
  </trkpt>
  <trkpt lat="60.32686" lon="6.60566">
    <name>TP984</name>
  </trkpt>
  <trkpt lat="60.32671" lon="6.60567">
    <name>TP985</name>
  </trkpt>
  <trkpt lat="60.3265" lon="6.60561">
    <name>TP986</name>
  </trkpt>
  <trkpt lat="60.32632" lon="6.60557">
    <name>TP987</name>
  </trkpt>
  <trkpt lat="60.32605" lon="6.60547">
    <name>TP988</name>
  </trkpt>
  <trkpt lat="60.32602" lon="6.60547">
    <name>TP989</name>
  </trkpt>
  <trkpt lat="60.32584" lon="6.60546">
    <name>TP990</name>
  </trkpt>
  <trkpt lat="60.32565" lon="6.60548">
    <name>TP991</name>
  </trkpt>
  <trkpt lat="60.32547" lon="6.60557">
    <name>TP992</name>
  </trkpt>
  <trkpt lat="60.32537" lon="6.60562">
    <name>TP993</name>
  </trkpt>
  <trkpt lat="60.3252" lon="6.60575">
    <name>TP994</name>
  </trkpt>
  <trkpt lat="60.32511" lon="6.60582">
    <name>TP995</name>
  </trkpt>
  <trkpt lat="60.32494" lon="6.606">
    <name>TP996</name>
  </trkpt>
  <trkpt lat="60.32491" lon="6.60604">
    <name>TP997</name>
  </trkpt>
  <trkpt lat="60.32486" lon="6.60609">
    <name>TP998</name>
  </trkpt>
  <trkpt lat="60.32477" lon="6.60619">
    <name>TP999</name>
  </trkpt>
  <trkpt lat="60.32469" lon="6.60629">
    <name>TP1000</name>
  </trkpt>
  <trkpt lat="60.32461" lon="6.60639">
    <name>TP1001</name>
  </trkpt>
  <trkpt lat="60.32451" lon="6.60648">
    <name>TP1002</name>
  </trkpt>
  <trkpt lat="60.32434" lon="6.60662">
    <name>TP1003</name>
  </trkpt>
  <trkpt lat="60.32424" lon="6.6067">
    <name>TP1004</name>
  </trkpt>
  <trkpt lat="60.32409" lon="6.60679">
    <name>TP1005</name>
  </trkpt>
  <trkpt lat="60.32406" lon="6.6068">
    <name>TP1006</name>
  </trkpt>
  <trkpt lat="60.32396" lon="6.60686">
    <name>TP1007</name>
  </trkpt>
  <trkpt lat="60.32391" lon="6.60687">
    <name>TP1008</name>
  </trkpt>
  <trkpt lat="60.32386" lon="6.60689">
    <name>TP1009</name>
  </trkpt>
  <trkpt lat="60.32376" lon="6.60692">
    <name>TP1010</name>
  </trkpt>
  <trkpt lat="60.32374" lon="6.60693">
    <name>TP1011</name>
  </trkpt>
  <trkpt lat="60.32366" lon="6.60695">
    <name>TP1012</name>
  </trkpt>
  <trkpt lat="60.32356" lon="6.60696">
    <name>TP1013</name>
  </trkpt>
  <trkpt lat="60.32346" lon="6.60697">
    <name>TP1014</name>
  </trkpt>
  <trkpt lat="60.32344" lon="6.60697">
    <name>TP1015</name>
  </trkpt>
  <trkpt lat="60.32338" lon="6.60696">
    <name>TP1016</name>
  </trkpt>
  <trkpt lat="60.32336" lon="6.60696">
    <name>TP1017</name>
  </trkpt>
  <trkpt lat="60.32325" lon="6.60694">
    <name>TP1018</name>
  </trkpt>
  <trkpt lat="60.3232" lon="6.60694">
    <name>TP1019</name>
  </trkpt>
  <trkpt lat="60.32315" lon="6.60693">
    <name>TP1020</name>
  </trkpt>
  <trkpt lat="60.32305" lon="6.60691">
    <name>TP1021</name>
  </trkpt>
  <trkpt lat="60.32285" lon="6.60686">
    <name>TP1022</name>
  </trkpt>
  <trkpt lat="60.32272" lon="6.60686">
    <name>TP1023</name>
  </trkpt>
  <trkpt lat="60.32262" lon="6.60685">
    <name>TP1024</name>
  </trkpt>
  <trkpt lat="60.32255" lon="6.60685">
    <name>TP1025</name>
  </trkpt>
  <trkpt lat="60.32247" lon="6.60686">
    <name>TP1026</name>
  </trkpt>
  <trkpt lat="60.32239" lon="6.60688">
    <name>TP1027</name>
  </trkpt>
  <trkpt lat="60.3223" lon="6.60691">
    <name>TP1028</name>
  </trkpt>
  <trkpt lat="60.32219" lon="6.60696">
    <name>TP1029</name>
  </trkpt>
  <trkpt lat="60.32213" lon="6.60701">
    <name>TP1030</name>
  </trkpt>
  <trkpt lat="60.3221" lon="6.60703">
    <name>TP1031</name>
  </trkpt>
  <trkpt lat="60.32205" lon="6.60706">
    <name>TP1032</name>
  </trkpt>
  <trkpt lat="60.32196" lon="6.60713">
    <name>TP1033</name>
  </trkpt>
  <trkpt lat="60.32186" lon="6.60723">
    <name>TP1034</name>
  </trkpt>
  <trkpt lat="60.32184" lon="6.60724">
    <name>TP1035</name>
  </trkpt>
  <trkpt lat="60.32153" lon="6.60759">
    <name>TP1036</name>
  </trkpt>
  <trkpt lat="60.32135" lon="6.60781">
    <name>TP1037</name>
  </trkpt>
  <trkpt lat="60.32119" lon="6.60796">
    <name>TP1038</name>
  </trkpt>
  <trkpt lat="60.32103" lon="6.60808">
    <name>TP1039</name>
  </trkpt>
  <trkpt lat="60.32087" lon="6.60816">
    <name>TP1040</name>
  </trkpt>
  <trkpt lat="60.32071" lon="6.60821">
    <name>TP1041</name>
  </trkpt>
  <trkpt lat="60.32065" lon="6.60822">
    <name>TP1042</name>
  </trkpt>
  <trkpt lat="60.32063" lon="6.60823">
    <name>TP1043</name>
  </trkpt>
  <trkpt lat="60.32047" lon="6.60827">
    <name>TP1044</name>
  </trkpt>
  <trkpt lat="60.3203" lon="6.60832">
    <name>TP1045</name>
  </trkpt>
  <trkpt lat="60.32029" lon="6.60832">
    <name>TP1046</name>
  </trkpt>
  <trkpt lat="60.32014" lon="6.60835">
    <name>TP1047</name>
  </trkpt>
  <trkpt lat="60.32011" lon="6.60836">
    <name>TP1048</name>
  </trkpt>
  <trkpt lat="60.31998" lon="6.6084">
    <name>TP1049</name>
  </trkpt>
  <trkpt lat="60.31982" lon="6.60845">
    <name>TP1050</name>
  </trkpt>
  <trkpt lat="60.31976" lon="6.60848">
    <name>TP1051</name>
  </trkpt>
  <trkpt lat="60.31965" lon="6.60851">
    <name>TP1052</name>
  </trkpt>
  <trkpt lat="60.3195" lon="6.60854">
    <name>TP1053</name>
  </trkpt>
  <trkpt lat="60.31936" lon="6.6086">
    <name>TP1054</name>
  </trkpt>
  <trkpt lat="60.31922" lon="6.60864">
    <name>TP1055</name>
  </trkpt>
  <trkpt lat="60.3191" lon="6.60868">
    <name>TP1056</name>
  </trkpt>
  <trkpt lat="60.31905" lon="6.6087">
    <name>TP1057</name>
  </trkpt>
  <trkpt lat="60.31887" lon="6.60876">
    <name>TP1058</name>
  </trkpt>
  <trkpt lat="60.31862" lon="6.60885">
    <name>TP1059</name>
  </trkpt>
  <trkpt lat="60.31851" lon="6.60889">
    <name>TP1060</name>
  </trkpt>
  <trkpt lat="60.31832" lon="6.60896">
    <name>TP1061</name>
  </trkpt>
  <trkpt lat="60.31816" lon="6.60904">
    <name>TP1062</name>
  </trkpt>
  <trkpt lat="60.31815" lon="6.60905">
    <name>TP1063</name>
  </trkpt>
  <trkpt lat="60.31798" lon="6.60916">
    <name>TP1064</name>
  </trkpt>
  <trkpt lat="60.3177" lon="6.60936">
    <name>TP1065</name>
  </trkpt>
  <trkpt lat="60.31765" lon="6.6094">
    <name>TP1066</name>
  </trkpt>
  <trkpt lat="60.31747" lon="6.60953">
    <name>TP1067</name>
  </trkpt>
  <trkpt lat="60.31731" lon="6.60963">
    <name>TP1068</name>
  </trkpt>
  <trkpt lat="60.3172" lon="6.60969">
    <name>TP1069</name>
  </trkpt>
  <trkpt lat="60.317" lon="6.60981">
    <name>TP1070</name>
  </trkpt>
  <trkpt lat="60.31697" lon="6.60982">
    <name>TP1071</name>
  </trkpt>
  <trkpt lat="60.31681" lon="6.60989">
    <name>TP1072</name>
  </trkpt>
  <trkpt lat="60.31679" lon="6.6099">
    <name>TP1073</name>
  </trkpt>
  <trkpt lat="60.31661" lon="6.60996">
    <name>TP1074</name>
  </trkpt>
  <trkpt lat="60.31654" lon="6.60999">
    <name>TP1075</name>
  </trkpt>
  <trkpt lat="60.31643" lon="6.61002">
    <name>TP1076</name>
  </trkpt>
  <trkpt lat="60.31629" lon="6.61005">
    <name>TP1077</name>
  </trkpt>
  <trkpt lat="60.31626" lon="6.61006">
    <name>TP1078</name>
  </trkpt>
  <trkpt lat="60.31593" lon="6.61014">
    <name>TP1079</name>
  </trkpt>
  <trkpt lat="60.31559" lon="6.61021">
    <name>TP1080</name>
  </trkpt>
  <trkpt lat="60.31536" lon="6.61027">
    <name>TP1081</name>
  </trkpt>
  <trkpt lat="60.31528" lon="6.61029">
    <name>TP1082</name>
  </trkpt>
  <trkpt lat="60.31483" lon="6.61036">
    <name>TP1083</name>
  </trkpt>
  <trkpt lat="60.31441" lon="6.61047">
    <name>TP1084</name>
  </trkpt>
  <trkpt lat="60.31429" lon="6.61049">
    <name>TP1085</name>
  </trkpt>
  <trkpt lat="60.31418" lon="6.61052">
    <name>TP1086</name>
  </trkpt>
  <trkpt lat="60.31387" lon="6.61055">
    <name>TP1087</name>
  </trkpt>
  <trkpt lat="60.31375" lon="6.61056">
    <name>TP1088</name>
  </trkpt>
  <trkpt lat="60.31357" lon="6.61058">
    <name>TP1089</name>
  </trkpt>
  <trkpt lat="60.3133" lon="6.61061">
    <name>TP1090</name>
  </trkpt>
  <trkpt lat="60.31307" lon="6.61063">
    <name>TP1091</name>
  </trkpt>
  <trkpt lat="60.31285" lon="6.61066">
    <name>TP1092</name>
  </trkpt>
  <trkpt lat="60.31283" lon="6.61066">
    <name>TP1093</name>
  </trkpt>
  <trkpt lat="60.31262" lon="6.61068">
    <name>TP1094</name>
  </trkpt>
  <trkpt lat="60.31239" lon="6.61071">
    <name>TP1095</name>
  </trkpt>
  <trkpt lat="60.31231" lon="6.61071">
    <name>TP1096</name>
  </trkpt>
  <trkpt lat="60.31218" lon="6.61073">
    <name>TP1097</name>
  </trkpt>
  <trkpt lat="60.31196" lon="6.61079">
    <name>TP1098</name>
  </trkpt>
  <trkpt lat="60.31183" lon="6.61083">
    <name>TP1099</name>
  </trkpt>
  <trkpt lat="60.31178" lon="6.61085">
    <name>TP1100</name>
  </trkpt>
  <trkpt lat="60.31167" lon="6.61089">
    <name>TP1101</name>
  </trkpt>
  <trkpt lat="60.3116" lon="6.61092">
    <name>TP1102</name>
  </trkpt>
  <trkpt lat="60.31152" lon="6.61097">
    <name>TP1103</name>
  </trkpt>
  <trkpt lat="60.31143" lon="6.61102">
    <name>TP1104</name>
  </trkpt>
  <trkpt lat="60.3113" lon="6.6111">
    <name>TP1105</name>
  </trkpt>
  <trkpt lat="60.31102" lon="6.61128">
    <name>TP1106</name>
  </trkpt>
  <trkpt lat="60.31092" lon="6.61135">
    <name>TP1107</name>
  </trkpt>
  <trkpt lat="60.31076" lon="6.61146">
    <name>TP1108</name>
  </trkpt>
  <trkpt lat="60.31063" lon="6.61154">
    <name>TP1109</name>
  </trkpt>
  <trkpt lat="60.31049" lon="6.61161">
    <name>TP1110</name>
  </trkpt>
  <trkpt lat="60.31032" lon="6.61168">
    <name>TP1111</name>
  </trkpt>
  <trkpt lat="60.31016" lon="6.61173">
    <name>TP1112</name>
  </trkpt>
  <trkpt lat="60.31004" lon="6.61175">
    <name>TP1113</name>
  </trkpt>
  <trkpt lat="60.30999" lon="6.61176">
    <name>TP1114</name>
  </trkpt>
  <trkpt lat="60.30986" lon="6.61176">
    <name>TP1115</name>
  </trkpt>
  <trkpt lat="60.30979" lon="6.61175">
    <name>TP1116</name>
  </trkpt>
  <trkpt lat="60.30968" lon="6.61174">
    <name>TP1117</name>
  </trkpt>
  <trkpt lat="60.30952" lon="6.61172">
    <name>TP1118</name>
  </trkpt>
  <trkpt lat="60.3095" lon="6.61171">
    <name>TP1119</name>
  </trkpt>
  <trkpt lat="60.30923" lon="6.61162">
    <name>TP1120</name>
  </trkpt>
  <trkpt lat="60.3088" lon="6.61145">
    <name>TP1121</name>
  </trkpt>
  <trkpt lat="60.30877" lon="6.61144">
    <name>TP1122</name>
  </trkpt>
  <trkpt lat="60.30862" lon="6.61138">
    <name>TP1123</name>
  </trkpt>
  <trkpt lat="60.30844" lon="6.61131">
    <name>TP1124</name>
  </trkpt>
  <trkpt lat="60.30827" lon="6.61125">
    <name>TP1125</name>
  </trkpt>
  <trkpt lat="60.30809" lon="6.61117">
    <name>TP1126</name>
  </trkpt>
  <trkpt lat="60.30791" lon="6.6111">
    <name>TP1127</name>
  </trkpt>
  <trkpt lat="60.30782" lon="6.61107">
    <name>TP1128</name>
  </trkpt>
  <trkpt lat="60.30774" lon="6.61103">
    <name>TP1129</name>
  </trkpt>
  <trkpt lat="60.30756" lon="6.61096">
    <name>TP1130</name>
  </trkpt>
  <trkpt lat="60.30723" lon="6.61082">
    <name>TP1131</name>
  </trkpt>
  <trkpt lat="60.30693" lon="6.61065">
    <name>TP1132</name>
  </trkpt>
  <trkpt lat="60.30664" lon="6.61048">
    <name>TP1133</name>
  </trkpt>
  <trkpt lat="60.30649" lon="6.61035">
    <name>TP1134</name>
  </trkpt>
  <trkpt lat="60.30636" lon="6.61023">
    <name>TP1135</name>
  </trkpt>
  <trkpt lat="60.30631" lon="6.61018">
    <name>TP1136</name>
  </trkpt>
  <trkpt lat="60.30566" lon="6.60952">
    <name>TP1137</name>
  </trkpt>
  <trkpt lat="60.30541" lon="6.60926">
    <name>TP1138</name>
  </trkpt>
  <trkpt lat="60.3051" lon="6.60894">
    <name>TP1139</name>
  </trkpt>
  <trkpt lat="60.30506" lon="6.6089">
    <name>TP1140</name>
  </trkpt>
  <trkpt lat="60.30491" lon="6.60873">
    <name>TP1141</name>
  </trkpt>
  <trkpt lat="60.30484" lon="6.60864">
    <name>TP1142</name>
  </trkpt>
  <trkpt lat="60.30476" lon="6.60854">
    <name>TP1143</name>
  </trkpt>
  <trkpt lat="60.30465" lon="6.60841">
    <name>TP1144</name>
  </trkpt>
  <trkpt lat="60.30464" lon="6.60839">
    <name>TP1145</name>
  </trkpt>
  <trkpt lat="60.3046" lon="6.60834">
    <name>TP1146</name>
  </trkpt>
  <trkpt lat="60.30448" lon="6.60816">
    <name>TP1147</name>
  </trkpt>
  <trkpt lat="60.30446" lon="6.60813">
    <name>TP1148</name>
  </trkpt>
  <trkpt lat="60.30432" lon="6.60791">
    <name>TP1149</name>
  </trkpt>
  <trkpt lat="60.3043" lon="6.60789">
    <name>TP1150</name>
  </trkpt>
  <trkpt lat="60.3042" lon="6.60772">
    <name>TP1151</name>
  </trkpt>
  <trkpt lat="60.30414" lon="6.60761">
    <name>TP1152</name>
  </trkpt>
  <trkpt lat="60.30402" lon="6.60736">
    <name>TP1153</name>
  </trkpt>
  <trkpt lat="60.30399" lon="6.6073">
    <name>TP1154</name>
  </trkpt>
  <trkpt lat="60.30392" lon="6.60717">
    <name>TP1155</name>
  </trkpt>
  <trkpt lat="60.30384" lon="6.60699">
    <name>TP1156</name>
  </trkpt>
  <trkpt lat="60.3038" lon="6.6069">
    <name>TP1157</name>
  </trkpt>
  <trkpt lat="60.3037" lon="6.60667">
    <name>TP1158</name>
  </trkpt>
  <trkpt lat="60.30369" lon="6.60662">
    <name>TP1159</name>
  </trkpt>
  <trkpt lat="60.30358" lon="6.60633">
    <name>TP1160</name>
  </trkpt>
  <trkpt lat="60.3035779" lon="6.6063295">
    <name>TP1161</name>
  </trkpt>
  <trkpt lat="60.30352" lon="6.60638">
    <name>TP1162</name>
  </trkpt>
  <trkpt lat="60.30348" lon="6.6064">
    <name>TP1163</name>
  </trkpt>
  <trkpt lat="60.30341" lon="6.60642">
    <name>TP1164</name>
  </trkpt>
  <trkpt lat="60.30335" lon="6.60641">
    <name>TP1165</name>
  </trkpt>
  <trkpt lat="60.30328" lon="6.60639">
    <name>TP1166</name>
  </trkpt>
  <trkpt lat="60.30322" lon="6.60637">
    <name>TP1167</name>
  </trkpt>
  <trkpt lat="60.30318" lon="6.60633">
    <name>TP1168</name>
  </trkpt>
  <trkpt lat="60.30313" lon="6.6063">
    <name>TP1169</name>
  </trkpt>
  <trkpt lat="60.30312" lon="6.60629">
    <name>TP1170</name>
  </trkpt>
  <trkpt lat="60.30307" lon="6.60623">
    <name>TP1171</name>
  </trkpt>
  <trkpt lat="60.30297" lon="6.60611">
    <name>TP1172</name>
  </trkpt>
  <trkpt lat="60.30281" lon="6.60593">
    <name>TP1173</name>
  </trkpt>
  <trkpt lat="60.30265" lon="6.60575">
    <name>TP1174</name>
  </trkpt>
  <trkpt lat="60.30241" lon="6.60548">
    <name>TP1175</name>
  </trkpt>
  <trkpt lat="60.3024123" lon="6.605482">
    <name>TP1176</name>
  </trkpt>
  <trkpt lat="60.3024123" lon="6.605482">
    <name>TP1177</name>
  </trkpt>
  <trkpt lat="60.3024123" lon="6.605482">
    <name>TP1178</name>
  </trkpt>
  </trkseg>
</trk>
</gpx>