<?xml version="1.0" encoding="UTF-8" standalone="no" ?>
<gpx xmlns="http://www.topografix.com/GPX/1/1" xmlns:gpxx="http://www.garmin.com/xmlschemas/GpxExtensions/v3" xmlns:gpxtpx="http://www.garmin.com/xmlschemas/TrackPointExtension/v1" creator="mapstogpx.com" version="1.1" xmlns:xsi="http://www.w3.org/2001/XMLSchema-instance" xsi:schemaLocation="http://www.topografix.com/GPX/1/1 http://www.topografix.com/GPX/1/1/gpx.xsd http://www.garmin.com/xmlschemas/GpxExtensions/v3 http://www.garmin.com/xmlschemas/GpxExtensionsv3.xsd http://www.garmin.com/xmlschemas/TrackPointExtension/v1 http://www.garmin.com/xmlschemas/TrackPointExtensionv1.xsd">
  <metadata>
    <link href="http://www.mapstogpx.com">
      <text>Sverrir Sigmundarson</text>
    </link>
    <!--desc>Powered by Google, ©2025 Google</desc-->
    <!--copyright author="Google Inc">
    	<year>2025</year>
    	<license>https://developers.google.com/maps/terms</license>
    </copyright-->
    <!--url>https://www.google.com/maps/dir/Alghero,+07041+Province+of+Sassari/Sixt+Rent+a+Car/Le+Bombarde+Parcheggio+Libero/Piazzale+della+Pace,+07041+Alghero+SS/@40.6732662,8.1961976,3724m/data=!3m1!1e3!4m26!4m25!1m5!1m1!1s0x12dc94b45538cce9:0xd0087cf24caa6b31!2m2!1d8.202214!2d40.6698818!1m5!1m1!1s0x12dced70340ba417:0xec6958d62de4319!2m2!1d8.2954564!2d40.6293052!1m5!1m1!1s0x12dced34283e5daf:0xec0f676582073727!2m2!1d8.2599344!2d40.5849674!1m5!1m1!1s0x12dcf1e6f4bdb3df:0xab2c41a5914b717b!2m2!1d8.3167718!2d40.5618731!3e0?authuser=1&skid=30c2f7df-01e9-43b7-b04b-a20b85ddb837&entry=tts&g_ep=EgoyMDI1MDkxMC4wKgBIAVAD&hl=en</url-->
    <time>2025-09-14T20:15:04Z</time>
  </metadata>
  <wpt lat="40.6698818" lon="8.202214">
    <name>Alghero</name>
    <desc>Alghero, 07041 Province of Sassari, Italy</desc>
  </wpt>
  <wpt lat="40.6293052" lon="8.2954564">
    <name>Sixt Rent a Car</name>
    <desc>Sixt Noleggio Auto Alghero Aeroporto, Regione Nuraghe Biancu, Aeroporto di Alghero, 07041 Alghero SS, Italy</desc>
  </wpt>
  <wpt lat="40.5849674" lon="8.2599344">
    <name>Le Bombarde Parcheggio Libero</name>
    <desc>Le Bombarde Parcheggio Libero, Piazzale Le Bombarde, 19, 07041 Alghero SS, Italy</desc>
  </wpt>
  <wpt lat="40.5618731" lon="8.3167718">
    <name>Piazzale della Pace</name>
    <desc>Piazzale della Pace, 07041 Alghero SS, Italy</desc>
  </wpt>
<trk>
  <name>Alghero to Piazzale della Pace</name>
  <number>1</number>
  <trkseg>
  <trkpt lat="40.6714005" lon="8.2030967">
    <name>TP001</name>
  </trkpt>
  <trkpt lat="40.67143" lon="8.20312">
    <name>TP002</name>
  </trkpt>
  <trkpt lat="40.67148" lon="8.20315">
    <name>TP003</name>
  </trkpt>
  <trkpt lat="40.67157" lon="8.20316">
    <name>TP004</name>
  </trkpt>
  <trkpt lat="40.67164" lon="8.20316">
    <name>TP005</name>
  </trkpt>
  <trkpt lat="40.67171" lon="8.20316">
    <name>TP006</name>
  </trkpt>
  <trkpt lat="40.67176" lon="8.20315">
    <name>TP007</name>
  </trkpt>
  <trkpt lat="40.67182" lon="8.20313">
    <name>TP008</name>
  </trkpt>
  <trkpt lat="40.67188" lon="8.2031">
    <name>TP009</name>
  </trkpt>
  <trkpt lat="40.67197" lon="8.20307">
    <name>TP010</name>
  </trkpt>
  <trkpt lat="40.67205" lon="8.20302">
    <name>TP011</name>
  </trkpt>
  <trkpt lat="40.67216" lon="8.20296">
    <name>TP012</name>
  </trkpt>
  <trkpt lat="40.67233" lon="8.20289">
    <name>TP013</name>
  </trkpt>
  <trkpt lat="40.67239" lon="8.20288">
    <name>TP014</name>
  </trkpt>
  <trkpt lat="40.67243" lon="8.20287">
    <name>TP015</name>
  </trkpt>
  <trkpt lat="40.67257" lon="8.20286">
    <name>TP016</name>
  </trkpt>
  <trkpt lat="40.67275" lon="8.20286">
    <name>TP017</name>
  </trkpt>
  <trkpt lat="40.67283" lon="8.20286">
    <name>TP018</name>
  </trkpt>
  <trkpt lat="40.67293" lon="8.20286">
    <name>TP019</name>
  </trkpt>
  <trkpt lat="40.67311" lon="8.20285">
    <name>TP020</name>
  </trkpt>
  <trkpt lat="40.67325" lon="8.20284">
    <name>TP021</name>
  </trkpt>
  <trkpt lat="40.67346" lon="8.20282">
    <name>TP022</name>
  </trkpt>
  <trkpt lat="40.674" lon="8.20278">
    <name>TP023</name>
  </trkpt>
  <trkpt lat="40.67417" lon="8.20277">
    <name>TP024</name>
  </trkpt>
  <trkpt lat="40.67436" lon="8.20276">
    <name>TP025</name>
  </trkpt>
  <trkpt lat="40.67442" lon="8.20276">
    <name>TP026</name>
  </trkpt>
  <trkpt lat="40.67463" lon="8.20277">
    <name>TP027</name>
  </trkpt>
  <trkpt lat="40.67473" lon="8.20279">
    <name>TP028</name>
  </trkpt>
  <trkpt lat="40.67477" lon="8.2028">
    <name>TP029</name>
  </trkpt>
  <trkpt lat="40.67485" lon="8.20285">
    <name>TP030</name>
  </trkpt>
  <trkpt lat="40.67495" lon="8.20299">
    <name>TP031</name>
  </trkpt>
  <trkpt lat="40.675" lon="8.20308">
    <name>TP032</name>
  </trkpt>
  <trkpt lat="40.67504" lon="8.20317">
    <name>TP033</name>
  </trkpt>
  <trkpt lat="40.67509" lon="8.20328">
    <name>TP034</name>
  </trkpt>
  <trkpt lat="40.6751" lon="8.2033">
    <name>TP035</name>
  </trkpt>
  <trkpt lat="40.67516" lon="8.2035">
    <name>TP036</name>
  </trkpt>
  <trkpt lat="40.6751619" lon="8.2034993">
    <name>TP037</name>
  </trkpt>
  <trkpt lat="40.67513" lon="8.20356">
    <name>TP038</name>
  </trkpt>
  <trkpt lat="40.67493" lon="8.20382">
    <name>TP039</name>
  </trkpt>
  <trkpt lat="40.67473" lon="8.20408">
    <name>TP040</name>
  </trkpt>
  <trkpt lat="40.67452" lon="8.20433">
    <name>TP041</name>
  </trkpt>
  <trkpt lat="40.67434" lon="8.20454">
    <name>TP042</name>
  </trkpt>
  <trkpt lat="40.67425" lon="8.20465">
    <name>TP043</name>
  </trkpt>
  <trkpt lat="40.67372" lon="8.20528">
    <name>TP044</name>
  </trkpt>
  <trkpt lat="40.67333" lon="8.20575">
    <name>TP045</name>
  </trkpt>
  <trkpt lat="40.67266" lon="8.20657">
    <name>TP046</name>
  </trkpt>
  <trkpt lat="40.67253" lon="8.20673">
    <name>TP047</name>
  </trkpt>
  <trkpt lat="40.67252" lon="8.20674">
    <name>TP048</name>
  </trkpt>
  <trkpt lat="40.67226" lon="8.20705">
    <name>TP049</name>
  </trkpt>
  <trkpt lat="40.67213" lon="8.20721">
    <name>TP050</name>
  </trkpt>
  <trkpt lat="40.67149" lon="8.208">
    <name>TP051</name>
  </trkpt>
  <trkpt lat="40.67081" lon="8.20883">
    <name>TP052</name>
  </trkpt>
  <trkpt lat="40.67068" lon="8.20899">
    <name>TP053</name>
  </trkpt>
  <trkpt lat="40.67054" lon="8.20915">
    <name>TP054</name>
  </trkpt>
  <trkpt lat="40.67022" lon="8.20954">
    <name>TP055</name>
  </trkpt>
  <trkpt lat="40.6699" lon="8.20993">
    <name>TP056</name>
  </trkpt>
  <trkpt lat="40.66975" lon="8.21008">
    <name>TP057</name>
  </trkpt>
  <trkpt lat="40.66959" lon="8.21021">
    <name>TP058</name>
  </trkpt>
  <trkpt lat="40.66947" lon="8.21029">
    <name>TP059</name>
  </trkpt>
  <trkpt lat="40.66932" lon="8.21036">
    <name>TP060</name>
  </trkpt>
  <trkpt lat="40.66924" lon="8.2104">
    <name>TP061</name>
  </trkpt>
  <trkpt lat="40.66914" lon="8.21044">
    <name>TP062</name>
  </trkpt>
  <trkpt lat="40.66907" lon="8.21045">
    <name>TP063</name>
  </trkpt>
  <trkpt lat="40.66902" lon="8.21047">
    <name>TP064</name>
  </trkpt>
  <trkpt lat="40.66879" lon="8.21051">
    <name>TP065</name>
  </trkpt>
  <trkpt lat="40.66764" lon="8.21061">
    <name>TP066</name>
  </trkpt>
  <trkpt lat="40.6668" lon="8.21069">
    <name>TP067</name>
  </trkpt>
  <trkpt lat="40.66662" lon="8.21071">
    <name>TP068</name>
  </trkpt>
  <trkpt lat="40.66572" lon="8.2108">
    <name>TP069</name>
  </trkpt>
  <trkpt lat="40.66554" lon="8.21081">
    <name>TP070</name>
  </trkpt>
  <trkpt lat="40.66464" lon="8.2109">
    <name>TP071</name>
  </trkpt>
  <trkpt lat="40.66446" lon="8.21092">
    <name>TP072</name>
  </trkpt>
  <trkpt lat="40.66124" lon="8.21123">
    <name>TP073</name>
  </trkpt>
  <trkpt lat="40.65944" lon="8.21142">
    <name>TP074</name>
  </trkpt>
  <trkpt lat="40.65926" lon="8.21144">
    <name>TP075</name>
  </trkpt>
  <trkpt lat="40.65908" lon="8.21146">
    <name>TP076</name>
  </trkpt>
  <trkpt lat="40.6589" lon="8.21148">
    <name>TP077</name>
  </trkpt>
  <trkpt lat="40.65783" lon="8.21159">
    <name>TP078</name>
  </trkpt>
  <trkpt lat="40.65693" lon="8.21169">
    <name>TP079</name>
  </trkpt>
  <trkpt lat="40.65657" lon="8.21172">
    <name>TP080</name>
  </trkpt>
  <trkpt lat="40.65639" lon="8.21174">
    <name>TP081</name>
  </trkpt>
  <trkpt lat="40.65586" lon="8.2118">
    <name>TP082</name>
  </trkpt>
  <trkpt lat="40.65505" lon="8.21189">
    <name>TP083</name>
  </trkpt>
  <trkpt lat="40.65499" lon="8.21189">
    <name>TP084</name>
  </trkpt>
  <trkpt lat="40.6548" lon="8.21191">
    <name>TP085</name>
  </trkpt>
  <trkpt lat="40.6547953" lon="8.2119125">
    <name>TP086</name>
  </trkpt>
  <trkpt lat="40.65481" lon="8.21222">
    <name>TP087</name>
  </trkpt>
  <trkpt lat="40.65484" lon="8.21274">
    <name>TP088</name>
  </trkpt>
  <trkpt lat="40.65489" lon="8.21359">
    <name>TP089</name>
  </trkpt>
  <trkpt lat="40.65504" lon="8.21614">
    <name>TP090</name>
  </trkpt>
  <trkpt lat="40.65507" lon="8.21661">
    <name>TP091</name>
  </trkpt>
  <trkpt lat="40.65516" lon="8.21835">
    <name>TP092</name>
  </trkpt>
  <trkpt lat="40.65532" lon="8.22127">
    <name>TP093</name>
  </trkpt>
  <trkpt lat="40.65534" lon="8.22153">
    <name>TP094</name>
  </trkpt>
  <trkpt lat="40.65539" lon="8.22246">
    <name>TP095</name>
  </trkpt>
  <trkpt lat="40.6554" lon="8.22256">
    <name>TP096</name>
  </trkpt>
  <trkpt lat="40.65545" lon="8.22353">
    <name>TP097</name>
  </trkpt>
  <trkpt lat="40.65549" lon="8.22418">
    <name>TP098</name>
  </trkpt>
  <trkpt lat="40.65551" lon="8.22445">
    <name>TP099</name>
  </trkpt>
  <trkpt lat="40.65557" lon="8.22556">
    <name>TP100</name>
  </trkpt>
  <trkpt lat="40.65562" lon="8.22632">
    <name>TP101</name>
  </trkpt>
  <trkpt lat="40.65571" lon="8.22781">
    <name>TP102</name>
  </trkpt>
  <trkpt lat="40.65574" lon="8.22838">
    <name>TP103</name>
  </trkpt>
  <trkpt lat="40.65576" lon="8.22864">
    <name>TP104</name>
  </trkpt>
  <trkpt lat="40.6558" lon="8.22932">
    <name>TP105</name>
  </trkpt>
  <trkpt lat="40.65584" lon="8.22999">
    <name>TP106</name>
  </trkpt>
  <trkpt lat="40.65595" lon="8.23193">
    <name>TP107</name>
  </trkpt>
  <trkpt lat="40.65598" lon="8.23246">
    <name>TP108</name>
  </trkpt>
  <trkpt lat="40.65601" lon="8.23296">
    <name>TP109</name>
  </trkpt>
  <trkpt lat="40.65603" lon="8.23339">
    <name>TP110</name>
  </trkpt>
  <trkpt lat="40.65605" lon="8.2335">
    <name>TP111</name>
  </trkpt>
  <trkpt lat="40.65609" lon="8.23437">
    <name>TP112</name>
  </trkpt>
  <trkpt lat="40.65612" lon="8.23481">
    <name>TP113</name>
  </trkpt>
  <trkpt lat="40.65613" lon="8.23508">
    <name>TP114</name>
  </trkpt>
  <trkpt lat="40.65614" lon="8.23528">
    <name>TP115</name>
  </trkpt>
  <trkpt lat="40.6562" lon="8.23623">
    <name>TP116</name>
  </trkpt>
  <trkpt lat="40.65622" lon="8.23665">
    <name>TP117</name>
  </trkpt>
  <trkpt lat="40.65624" lon="8.23702">
    <name>TP118</name>
  </trkpt>
  <trkpt lat="40.65625" lon="8.23715">
    <name>TP119</name>
  </trkpt>
  <trkpt lat="40.6563" lon="8.23806">
    <name>TP120</name>
  </trkpt>
  <trkpt lat="40.65634" lon="8.23873">
    <name>TP121</name>
  </trkpt>
  <trkpt lat="40.65637" lon="8.23924">
    <name>TP122</name>
  </trkpt>
  <trkpt lat="40.65642" lon="8.24004">
    <name>TP123</name>
  </trkpt>
  <trkpt lat="40.65646" lon="8.24065">
    <name>TP124</name>
  </trkpt>
  <trkpt lat="40.65654" lon="8.24205">
    <name>TP125</name>
  </trkpt>
  <trkpt lat="40.65658" lon="8.2427">
    <name>TP126</name>
  </trkpt>
  <trkpt lat="40.65661" lon="8.24319">
    <name>TP127</name>
  </trkpt>
  <trkpt lat="40.65673" lon="8.24518">
    <name>TP128</name>
  </trkpt>
  <trkpt lat="40.65674" lon="8.24546">
    <name>TP129</name>
  </trkpt>
  <trkpt lat="40.65675" lon="8.2456">
    <name>TP130</name>
  </trkpt>
  <trkpt lat="40.65677" lon="8.24584">
    <name>TP131</name>
  </trkpt>
  <trkpt lat="40.65678" lon="8.24608">
    <name>TP132</name>
  </trkpt>
  <trkpt lat="40.65702" lon="8.25042">
    <name>TP133</name>
  </trkpt>
  <trkpt lat="40.65708" lon="8.25137">
    <name>TP134</name>
  </trkpt>
  <trkpt lat="40.65712" lon="8.25224">
    <name>TP135</name>
  </trkpt>
  <trkpt lat="40.65725" lon="8.25452">
    <name>TP136</name>
  </trkpt>
  <trkpt lat="40.65728" lon="8.25505">
    <name>TP137</name>
  </trkpt>
  <trkpt lat="40.65736" lon="8.25648">
    <name>TP138</name>
  </trkpt>
  <trkpt lat="40.65746" lon="8.25802">
    <name>TP139</name>
  </trkpt>
  <trkpt lat="40.65754" lon="8.25941">
    <name>TP140</name>
  </trkpt>
  <trkpt lat="40.65758" lon="8.26009">
    <name>TP141</name>
  </trkpt>
  <trkpt lat="40.65771" lon="8.26221">
    <name>TP142</name>
  </trkpt>
  <trkpt lat="40.65772" lon="8.26245">
    <name>TP143</name>
  </trkpt>
  <trkpt lat="40.65774" lon="8.26269">
    <name>TP144</name>
  </trkpt>
  <trkpt lat="40.65785" lon="8.26458">
    <name>TP145</name>
  </trkpt>
  <trkpt lat="40.65789" lon="8.26536">
    <name>TP146</name>
  </trkpt>
  <trkpt lat="40.6579" lon="8.26545">
    <name>TP147</name>
  </trkpt>
  <trkpt lat="40.65799" lon="8.2671">
    <name>TP148</name>
  </trkpt>
  <trkpt lat="40.65801" lon="8.26732">
    <name>TP149</name>
  </trkpt>
  <trkpt lat="40.65806" lon="8.26828">
    <name>TP150</name>
  </trkpt>
  <trkpt lat="40.65808" lon="8.26852">
    <name>TP151</name>
  </trkpt>
  <trkpt lat="40.65809" lon="8.26885">
    <name>TP152</name>
  </trkpt>
  <trkpt lat="40.65831" lon="8.27014">
    <name>TP153</name>
  </trkpt>
  <trkpt lat="40.65835" lon="8.27038">
    <name>TP154</name>
  </trkpt>
  <trkpt lat="40.65836" lon="8.27046">
    <name>TP155</name>
  </trkpt>
  <trkpt lat="40.6584" lon="8.27069">
    <name>TP156</name>
  </trkpt>
  <trkpt lat="40.65844" lon="8.27092">
    <name>TP157</name>
  </trkpt>
  <trkpt lat="40.65848" lon="8.27115">
    <name>TP158</name>
  </trkpt>
  <trkpt lat="40.65852" lon="8.27138">
    <name>TP159</name>
  </trkpt>
  <trkpt lat="40.65855" lon="8.27164">
    <name>TP160</name>
  </trkpt>
  <trkpt lat="40.65857" lon="8.27186">
    <name>TP161</name>
  </trkpt>
  <trkpt lat="40.6585737" lon="8.2718562">
    <name>TP162</name>
  </trkpt>
  <trkpt lat="40.6587" lon="8.27259">
    <name>TP163</name>
  </trkpt>
  <trkpt lat="40.6587" lon="8.2726">
    <name>TP164</name>
  </trkpt>
  <trkpt lat="40.65871" lon="8.27265">
    <name>TP165</name>
  </trkpt>
  <trkpt lat="40.65872" lon="8.27271">
    <name>TP166</name>
  </trkpt>
  <trkpt lat="40.65898" lon="8.27419">
    <name>TP167</name>
  </trkpt>
  <trkpt lat="40.65921" lon="8.27546">
    <name>TP168</name>
  </trkpt>
  <trkpt lat="40.65996" lon="8.27993">
    <name>TP169</name>
  </trkpt>
  <trkpt lat="40.66" lon="8.28014">
    <name>TP170</name>
  </trkpt>
  <trkpt lat="40.66026" lon="8.28166">
    <name>TP171</name>
  </trkpt>
  <trkpt lat="40.66029" lon="8.28189">
    <name>TP172</name>
  </trkpt>
  <trkpt lat="40.66045" lon="8.28282">
    <name>TP173</name>
  </trkpt>
  <trkpt lat="40.66051" lon="8.28322">
    <name>TP174</name>
  </trkpt>
  <trkpt lat="40.66054" lon="8.2834">
    <name>TP175</name>
  </trkpt>
  <trkpt lat="40.66141" lon="8.28847">
    <name>TP176</name>
  </trkpt>
  <trkpt lat="40.66206" lon="8.29232">
    <name>TP177</name>
  </trkpt>
  <trkpt lat="40.66207" lon="8.29238">
    <name>TP178</name>
  </trkpt>
  <trkpt lat="40.66208" lon="8.29244">
    <name>TP179</name>
  </trkpt>
  <trkpt lat="40.66219" lon="8.29307">
    <name>TP180</name>
  </trkpt>
  <trkpt lat="40.66258" lon="8.29544">
    <name>TP181</name>
  </trkpt>
  <trkpt lat="40.66271" lon="8.29621">
    <name>TP182</name>
  </trkpt>
  <trkpt lat="40.66274" lon="8.2964">
    <name>TP183</name>
  </trkpt>
  <trkpt lat="40.66282" lon="8.29687">
    <name>TP184</name>
  </trkpt>
  <trkpt lat="40.66286" lon="8.29708">
    <name>TP185</name>
  </trkpt>
  <trkpt lat="40.6628584" lon="8.2970849">
    <name>TP186</name>
  </trkpt>
  <trkpt lat="40.66272" lon="8.29708">
    <name>TP187</name>
  </trkpt>
  <trkpt lat="40.66267" lon="8.29708">
    <name>TP188</name>
  </trkpt>
  <trkpt lat="40.66002" lon="8.29705">
    <name>TP189</name>
  </trkpt>
  <trkpt lat="40.6593" lon="8.29704">
    <name>TP190</name>
  </trkpt>
  <trkpt lat="40.65912" lon="8.29704">
    <name>TP191</name>
  </trkpt>
  <trkpt lat="40.65869" lon="8.29703">
    <name>TP192</name>
  </trkpt>
  <trkpt lat="40.65733" lon="8.29703">
    <name>TP193</name>
  </trkpt>
  <trkpt lat="40.65732" lon="8.29703">
    <name>TP194</name>
  </trkpt>
  <trkpt lat="40.65604" lon="8.29703">
    <name>TP195</name>
  </trkpt>
  <trkpt lat="40.65386" lon="8.29702">
    <name>TP196</name>
  </trkpt>
  <trkpt lat="40.65332" lon="8.29701">
    <name>TP197</name>
  </trkpt>
  <trkpt lat="40.65314" lon="8.29701">
    <name>TP198</name>
  </trkpt>
  <trkpt lat="40.65225" lon="8.297">
    <name>TP199</name>
  </trkpt>
  <trkpt lat="40.65223" lon="8.297">
    <name>TP200</name>
  </trkpt>
  <trkpt lat="40.65197" lon="8.297">
    <name>TP201</name>
  </trkpt>
  <trkpt lat="40.65122" lon="8.29701">
    <name>TP202</name>
  </trkpt>
  <trkpt lat="40.64977" lon="8.29701">
    <name>TP203</name>
  </trkpt>
  <trkpt lat="40.64941" lon="8.29701">
    <name>TP204</name>
  </trkpt>
  <trkpt lat="40.64939" lon="8.29701">
    <name>TP205</name>
  </trkpt>
  <trkpt lat="40.64938" lon="8.29701">
    <name>TP206</name>
  </trkpt>
  <trkpt lat="40.64937" lon="8.29702">
    <name>TP207</name>
  </trkpt>
  <trkpt lat="40.64933" lon="8.29704">
    <name>TP208</name>
  </trkpt>
  <trkpt lat="40.64925" lon="8.29708">
    <name>TP209</name>
  </trkpt>
  <trkpt lat="40.64912" lon="8.29717">
    <name>TP210</name>
  </trkpt>
  <trkpt lat="40.64899" lon="8.29731">
    <name>TP211</name>
  </trkpt>
  <trkpt lat="40.64888" lon="8.2975">
    <name>TP212</name>
  </trkpt>
  <trkpt lat="40.64869" lon="8.29792">
    <name>TP213</name>
  </trkpt>
  <trkpt lat="40.64853" lon="8.2984">
    <name>TP214</name>
  </trkpt>
  <trkpt lat="40.64825" lon="8.29922">
    <name>TP215</name>
  </trkpt>
  <trkpt lat="40.64803" lon="8.29987">
    <name>TP216</name>
  </trkpt>
  <trkpt lat="40.64776" lon="8.30065">
    <name>TP217</name>
  </trkpt>
  <trkpt lat="40.64754" lon="8.30104">
    <name>TP218</name>
  </trkpt>
  <trkpt lat="40.64736" lon="8.30126">
    <name>TP219</name>
  </trkpt>
  <trkpt lat="40.64723" lon="8.30141">
    <name>TP220</name>
  </trkpt>
  <trkpt lat="40.64708" lon="8.30155">
    <name>TP221</name>
  </trkpt>
  <trkpt lat="40.64698" lon="8.30167">
    <name>TP222</name>
  </trkpt>
  <trkpt lat="40.64667" lon="8.30192">
    <name>TP223</name>
  </trkpt>
  <trkpt lat="40.64642" lon="8.30212">
    <name>TP224</name>
  </trkpt>
  <trkpt lat="40.64624" lon="8.3022">
    <name>TP225</name>
  </trkpt>
  <trkpt lat="40.64596" lon="8.30228">
    <name>TP226</name>
  </trkpt>
  <trkpt lat="40.64566" lon="8.30224">
    <name>TP227</name>
  </trkpt>
  <trkpt lat="40.64541" lon="8.30212">
    <name>TP228</name>
  </trkpt>
  <trkpt lat="40.64528" lon="8.30204">
    <name>TP229</name>
  </trkpt>
  <trkpt lat="40.6451" lon="8.30193">
    <name>TP230</name>
  </trkpt>
  <trkpt lat="40.6441" lon="8.30131">
    <name>TP231</name>
  </trkpt>
  <trkpt lat="40.64364" lon="8.30107">
    <name>TP232</name>
  </trkpt>
  <trkpt lat="40.64327" lon="8.30097">
    <name>TP233</name>
  </trkpt>
  <trkpt lat="40.64313" lon="8.30096">
    <name>TP234</name>
  </trkpt>
  <trkpt lat="40.64288" lon="8.30098">
    <name>TP235</name>
  </trkpt>
  <trkpt lat="40.64273" lon="8.30099">
    <name>TP236</name>
  </trkpt>
  <trkpt lat="40.64258" lon="8.301">
    <name>TP237</name>
  </trkpt>
  <trkpt lat="40.64255" lon="8.301">
    <name>TP238</name>
  </trkpt>
  <trkpt lat="40.64237" lon="8.30101">
    <name>TP239</name>
  </trkpt>
  <trkpt lat="40.64222" lon="8.30098">
    <name>TP240</name>
  </trkpt>
  <trkpt lat="40.64209" lon="8.30091">
    <name>TP241</name>
  </trkpt>
  <trkpt lat="40.64194" lon="8.30082">
    <name>TP242</name>
  </trkpt>
  <trkpt lat="40.64177" lon="8.30063">
    <name>TP243</name>
  </trkpt>
  <trkpt lat="40.64164" lon="8.3005">
    <name>TP244</name>
  </trkpt>
  <trkpt lat="40.6414" lon="8.3002">
    <name>TP245</name>
  </trkpt>
  <trkpt lat="40.64108" lon="8.29979">
    <name>TP246</name>
  </trkpt>
  <trkpt lat="40.64101" lon="8.2997">
    <name>TP247</name>
  </trkpt>
  <trkpt lat="40.64094" lon="8.29964">
    <name>TP248</name>
  </trkpt>
  <trkpt lat="40.64058" lon="8.29927">
    <name>TP249</name>
  </trkpt>
  <trkpt lat="40.64033" lon="8.29906">
    <name>TP250</name>
  </trkpt>
  <trkpt lat="40.64004" lon="8.29888">
    <name>TP251</name>
  </trkpt>
  <trkpt lat="40.63918" lon="8.29835">
    <name>TP252</name>
  </trkpt>
  <trkpt lat="40.63881" lon="8.29812">
    <name>TP253</name>
  </trkpt>
  <trkpt lat="40.63779" lon="8.29755">
    <name>TP254</name>
  </trkpt>
  <trkpt lat="40.63738" lon="8.29731">
    <name>TP255</name>
  </trkpt>
  <trkpt lat="40.63698" lon="8.29708">
    <name>TP256</name>
  </trkpt>
  <trkpt lat="40.63673" lon="8.29699">
    <name>TP257</name>
  </trkpt>
  <trkpt lat="40.63647" lon="8.29696">
    <name>TP258</name>
  </trkpt>
  <trkpt lat="40.63644" lon="8.29695">
    <name>TP259</name>
  </trkpt>
  <trkpt lat="40.6364" lon="8.29695">
    <name>TP260</name>
  </trkpt>
  <trkpt lat="40.63639" lon="8.29695">
    <name>TP261</name>
  </trkpt>
  <trkpt lat="40.63636" lon="8.29694">
    <name>TP262</name>
  </trkpt>
  <trkpt lat="40.63566" lon="8.29694">
    <name>TP263</name>
  </trkpt>
  <trkpt lat="40.63561" lon="8.29694">
    <name>TP264</name>
  </trkpt>
  <trkpt lat="40.63557" lon="8.29694">
    <name>TP265</name>
  </trkpt>
  <trkpt lat="40.63532" lon="8.29694">
    <name>TP266</name>
  </trkpt>
  <trkpt lat="40.63524" lon="8.29693">
    <name>TP267</name>
  </trkpt>
  <trkpt lat="40.63497" lon="8.29693">
    <name>TP268</name>
  </trkpt>
  <trkpt lat="40.63455" lon="8.29693">
    <name>TP269</name>
  </trkpt>
  <trkpt lat="40.63432" lon="8.29693">
    <name>TP270</name>
  </trkpt>
  <trkpt lat="40.63253" lon="8.29693">
    <name>TP271</name>
  </trkpt>
  <trkpt lat="40.6325277" lon="8.2969253">
    <name>TP272</name>
  </trkpt>
  <trkpt lat="40.63232" lon="8.29678">
    <name>TP273</name>
  </trkpt>
  <trkpt lat="40.63225" lon="8.29673">
    <name>TP274</name>
  </trkpt>
  <trkpt lat="40.63206" lon="8.29664">
    <name>TP275</name>
  </trkpt>
  <trkpt lat="40.63193" lon="8.29657">
    <name>TP276</name>
  </trkpt>
  <trkpt lat="40.63148" lon="8.29633">
    <name>TP277</name>
  </trkpt>
  <trkpt lat="40.63144" lon="8.29634">
    <name>TP278</name>
  </trkpt>
  <trkpt lat="40.6314" lon="8.29634">
    <name>TP279</name>
  </trkpt>
  <trkpt lat="40.63139" lon="8.29635">
    <name>TP280</name>
  </trkpt>
  <trkpt lat="40.63122" lon="8.2964">
    <name>TP281</name>
  </trkpt>
  <trkpt lat="40.63119" lon="8.2964">
    <name>TP282</name>
  </trkpt>
  <trkpt lat="40.63118" lon="8.2964">
    <name>TP283</name>
  </trkpt>
  <trkpt lat="40.63114" lon="8.29638">
    <name>TP284</name>
  </trkpt>
  <trkpt lat="40.631" lon="8.29628">
    <name>TP285</name>
  </trkpt>
  <trkpt lat="40.63079" lon="8.29615">
    <name>TP286</name>
  </trkpt>
  <trkpt lat="40.6303" lon="8.29585">
    <name>TP287</name>
  </trkpt>
  <trkpt lat="40.63029" lon="8.29584">
    <name>TP288</name>
  </trkpt>
  <trkpt lat="40.6302863" lon="8.2958403">
    <name>TP289</name>
  </trkpt>
  <trkpt lat="40.63029" lon="8.29579">
    <name>TP290</name>
  </trkpt>
  <trkpt lat="40.6303" lon="8.29569">
    <name>TP291</name>
  </trkpt>
  <trkpt lat="40.63031" lon="8.29567">
    <name>TP292</name>
  </trkpt>
  <trkpt lat="40.6303054" lon="8.2956683">
    <name>TP293</name>
  </trkpt>
  <trkpt lat="40.62993" lon="8.29544">
    <name>TP294</name>
  </trkpt>
  <trkpt lat="40.6299303" lon="8.2954427">
    <name>TP295</name>
  </trkpt>
  <trkpt lat="40.62988" lon="8.2956">
    <name>TP296</name>
  </trkpt>
  <trkpt lat="40.6298824" lon="8.2955998">
    <name>TP297</name>
  </trkpt>
  <trkpt lat="40.62983" lon="8.29564">
    <name>TP298</name>
  </trkpt>
  <trkpt lat="40.62982" lon="8.29565">
    <name>TP299</name>
  </trkpt>
  <trkpt lat="40.62979" lon="8.29566">
    <name>TP300</name>
  </trkpt>
  <trkpt lat="40.62977" lon="8.29566">
    <name>TP301</name>
  </trkpt>
  <trkpt lat="40.62972" lon="8.29566">
    <name>TP302</name>
  </trkpt>
  <trkpt lat="40.6295" lon="8.29566">
    <name>TP303</name>
  </trkpt>
  <trkpt lat="40.62949" lon="8.29565">
    <name>TP304</name>
  </trkpt>
  <trkpt lat="40.62948" lon="8.29565">
    <name>TP305</name>
  </trkpt>
  <trkpt lat="40.62947" lon="8.29564">
    <name>TP306</name>
  </trkpt>
  <trkpt lat="40.62946" lon="8.29564">
    <name>TP307</name>
  </trkpt>
  <trkpt lat="40.62945" lon="8.29562">
    <name>TP308</name>
  </trkpt>
  <trkpt lat="40.62944" lon="8.2956">
    <name>TP309</name>
  </trkpt>
  <trkpt lat="40.62942" lon="8.29553">
    <name>TP310</name>
  </trkpt>
  <trkpt lat="40.6294225" lon="8.2955284">
    <name>TP311</name>
  </trkpt>
  <trkpt lat="40.62931" lon="8.29545">
    <name>TP312</name>
  </trkpt>
  <trkpt lat="40.6293059" lon="8.2954544">
    <name>TP313</name>
  </trkpt>
  <trkpt lat="40.6293059" lon="8.2954544">
    <name>TP314</name>
  </trkpt>
  <trkpt lat="40.62914" lon="8.29535">
    <name>TP315</name>
  </trkpt>
  <trkpt lat="40.62912" lon="8.29534">
    <name>TP316</name>
  </trkpt>
  <trkpt lat="40.62911" lon="8.29534">
    <name>TP317</name>
  </trkpt>
  <trkpt lat="40.6291" lon="8.29534">
    <name>TP318</name>
  </trkpt>
  <trkpt lat="40.62883" lon="8.29533">
    <name>TP319</name>
  </trkpt>
  <trkpt lat="40.6288252" lon="8.2953259">
    <name>TP320</name>
  </trkpt>
  <trkpt lat="40.62881" lon="8.29544">
    <name>TP321</name>
  </trkpt>
  <trkpt lat="40.6288" lon="8.29552">
    <name>TP322</name>
  </trkpt>
  <trkpt lat="40.6287957" lon="8.2955175">
    <name>TP323</name>
  </trkpt>
  <trkpt lat="40.62879" lon="8.29552">
    <name>TP324</name>
  </trkpt>
  <trkpt lat="40.62878" lon="8.29552">
    <name>TP325</name>
  </trkpt>
  <trkpt lat="40.62877" lon="8.29552">
    <name>TP326</name>
  </trkpt>
  <trkpt lat="40.62876" lon="8.29552">
    <name>TP327</name>
  </trkpt>
  <trkpt lat="40.62875" lon="8.29552">
    <name>TP328</name>
  </trkpt>
  <trkpt lat="40.62874" lon="8.29552">
    <name>TP329</name>
  </trkpt>
  <trkpt lat="40.62873" lon="8.29553">
    <name>TP330</name>
  </trkpt>
  <trkpt lat="40.62872" lon="8.29553">
    <name>TP331</name>
  </trkpt>
  <trkpt lat="40.62871" lon="8.29554">
    <name>TP332</name>
  </trkpt>
  <trkpt lat="40.6287" lon="8.29554">
    <name>TP333</name>
  </trkpt>
  <trkpt lat="40.6287" lon="8.29555">
    <name>TP334</name>
  </trkpt>
  <trkpt lat="40.62869" lon="8.29555">
    <name>TP335</name>
  </trkpt>
  <trkpt lat="40.62869" lon="8.29556">
    <name>TP336</name>
  </trkpt>
  <trkpt lat="40.62868" lon="8.29557">
    <name>TP337</name>
  </trkpt>
  <trkpt lat="40.62868" lon="8.29558">
    <name>TP338</name>
  </trkpt>
  <trkpt lat="40.62867" lon="8.29558">
    <name>TP339</name>
  </trkpt>
  <trkpt lat="40.62867" lon="8.29559">
    <name>TP340</name>
  </trkpt>
  <trkpt lat="40.62867" lon="8.2956">
    <name>TP341</name>
  </trkpt>
  <trkpt lat="40.62866" lon="8.29561">
    <name>TP342</name>
  </trkpt>
  <trkpt lat="40.62866" lon="8.29562">
    <name>TP343</name>
  </trkpt>
  <trkpt lat="40.62866" lon="8.29563">
    <name>TP344</name>
  </trkpt>
  <trkpt lat="40.62865" lon="8.29564">
    <name>TP345</name>
  </trkpt>
  <trkpt lat="40.62865" lon="8.29565">
    <name>TP346</name>
  </trkpt>
  <trkpt lat="40.62865" lon="8.29566">
    <name>TP347</name>
  </trkpt>
  <trkpt lat="40.62865" lon="8.29567">
    <name>TP348</name>
  </trkpt>
  <trkpt lat="40.62865" lon="8.29568">
    <name>TP349</name>
  </trkpt>
  <trkpt lat="40.62865" lon="8.29569">
    <name>TP350</name>
  </trkpt>
  <trkpt lat="40.62865" lon="8.2957">
    <name>TP351</name>
  </trkpt>
  <trkpt lat="40.62865" lon="8.29571">
    <name>TP352</name>
  </trkpt>
  <trkpt lat="40.62865" lon="8.29572">
    <name>TP353</name>
  </trkpt>
  <trkpt lat="40.62866" lon="8.29573">
    <name>TP354</name>
  </trkpt>
  <trkpt lat="40.62866" lon="8.29575">
    <name>TP355</name>
  </trkpt>
  <trkpt lat="40.62866" lon="8.29576">
    <name>TP356</name>
  </trkpt>
  <trkpt lat="40.62867" lon="8.29577">
    <name>TP357</name>
  </trkpt>
  <trkpt lat="40.62867" lon="8.29578">
    <name>TP358</name>
  </trkpt>
  <trkpt lat="40.62868" lon="8.29578">
    <name>TP359</name>
  </trkpt>
  <trkpt lat="40.62868" lon="8.29579">
    <name>TP360</name>
  </trkpt>
  <trkpt lat="40.62868" lon="8.2958">
    <name>TP361</name>
  </trkpt>
  <trkpt lat="40.62869" lon="8.2958">
    <name>TP362</name>
  </trkpt>
  <trkpt lat="40.62869" lon="8.29581">
    <name>TP363</name>
  </trkpt>
  <trkpt lat="40.6287" lon="8.29581">
    <name>TP364</name>
  </trkpt>
  <trkpt lat="40.6287" lon="8.29582">
    <name>TP365</name>
  </trkpt>
  <trkpt lat="40.62871" lon="8.29582">
    <name>TP366</name>
  </trkpt>
  <trkpt lat="40.62871" lon="8.29583">
    <name>TP367</name>
  </trkpt>
  <trkpt lat="40.62872" lon="8.29583">
    <name>TP368</name>
  </trkpt>
  <trkpt lat="40.62873" lon="8.29584">
    <name>TP369</name>
  </trkpt>
  <trkpt lat="40.62874" lon="8.29584">
    <name>TP370</name>
  </trkpt>
  <trkpt lat="40.62875" lon="8.29584">
    <name>TP371</name>
  </trkpt>
  <trkpt lat="40.62876" lon="8.29585">
    <name>TP372</name>
  </trkpt>
  <trkpt lat="40.62877" lon="8.29585">
    <name>TP373</name>
  </trkpt>
  <trkpt lat="40.6288" lon="8.29665">
    <name>TP374</name>
  </trkpt>
  <trkpt lat="40.62879" lon="8.29688">
    <name>TP375</name>
  </trkpt>
  <trkpt lat="40.6287945" lon="8.2968775">
    <name>TP376</name>
  </trkpt>
  <trkpt lat="40.62866" lon="8.29688">
    <name>TP377</name>
  </trkpt>
  <trkpt lat="40.62843" lon="8.29688">
    <name>TP378</name>
  </trkpt>
  <trkpt lat="40.62713" lon="8.29687">
    <name>TP379</name>
  </trkpt>
  <trkpt lat="40.6269" lon="8.29687">
    <name>TP380</name>
  </trkpt>
  <trkpt lat="40.62679" lon="8.29688">
    <name>TP381</name>
  </trkpt>
  <trkpt lat="40.62638" lon="8.29686">
    <name>TP382</name>
  </trkpt>
  <trkpt lat="40.62598" lon="8.29686">
    <name>TP383</name>
  </trkpt>
  <trkpt lat="40.62591" lon="8.29686">
    <name>TP384</name>
  </trkpt>
  <trkpt lat="40.62588" lon="8.29686">
    <name>TP385</name>
  </trkpt>
  <trkpt lat="40.6244" lon="8.29685">
    <name>TP386</name>
  </trkpt>
  <trkpt lat="40.62407" lon="8.29685">
    <name>TP387</name>
  </trkpt>
  <trkpt lat="40.6238" lon="8.29685">
    <name>TP388</name>
  </trkpt>
  <trkpt lat="40.62341" lon="8.29685">
    <name>TP389</name>
  </trkpt>
  <trkpt lat="40.62302" lon="8.29684">
    <name>TP390</name>
  </trkpt>
  <trkpt lat="40.62231" lon="8.29685">
    <name>TP391</name>
  </trkpt>
  <trkpt lat="40.62044" lon="8.29686">
    <name>TP392</name>
  </trkpt>
  <trkpt lat="40.61985" lon="8.29685">
    <name>TP393</name>
  </trkpt>
  <trkpt lat="40.619" lon="8.29684">
    <name>TP394</name>
  </trkpt>
  <trkpt lat="40.61882" lon="8.29684">
    <name>TP395</name>
  </trkpt>
  <trkpt lat="40.61744" lon="8.29683">
    <name>TP396</name>
  </trkpt>
  <trkpt lat="40.61738" lon="8.29682">
    <name>TP397</name>
  </trkpt>
  <trkpt lat="40.61719" lon="8.29682">
    <name>TP398</name>
  </trkpt>
  <trkpt lat="40.61667" lon="8.29681">
    <name>TP399</name>
  </trkpt>
  <trkpt lat="40.61361" lon="8.29678">
    <name>TP400</name>
  </trkpt>
  <trkpt lat="40.61351" lon="8.2968">
    <name>TP401</name>
  </trkpt>
  <trkpt lat="40.61332" lon="8.29678">
    <name>TP402</name>
  </trkpt>
  <trkpt lat="40.61266" lon="8.29678">
    <name>TP403</name>
  </trkpt>
  <trkpt lat="40.6124" lon="8.29677">
    <name>TP404</name>
  </trkpt>
  <trkpt lat="40.61204" lon="8.29677">
    <name>TP405</name>
  </trkpt>
  <trkpt lat="40.6120363" lon="8.296771">
    <name>TP406</name>
  </trkpt>
  <trkpt lat="40.61202" lon="8.29675">
    <name>TP407</name>
  </trkpt>
  <trkpt lat="40.61199" lon="8.29672">
    <name>TP408</name>
  </trkpt>
  <trkpt lat="40.61197" lon="8.2967">
    <name>TP409</name>
  </trkpt>
  <trkpt lat="40.61195" lon="8.29668">
    <name>TP410</name>
  </trkpt>
  <trkpt lat="40.61193" lon="8.29667">
    <name>TP411</name>
  </trkpt>
  <trkpt lat="40.6119" lon="8.29665">
    <name>TP412</name>
  </trkpt>
  <trkpt lat="40.61187" lon="8.29661">
    <name>TP413</name>
  </trkpt>
  <trkpt lat="40.61184" lon="8.29659">
    <name>TP414</name>
  </trkpt>
  <trkpt lat="40.6118" lon="8.29655">
    <name>TP415</name>
  </trkpt>
  <trkpt lat="40.61176" lon="8.2965">
    <name>TP416</name>
  </trkpt>
  <trkpt lat="40.61175" lon="8.2964">
    <name>TP417</name>
  </trkpt>
  <trkpt lat="40.61172" lon="8.29631">
    <name>TP418</name>
  </trkpt>
  <trkpt lat="40.61174" lon="8.29427">
    <name>TP419</name>
  </trkpt>
  <trkpt lat="40.61175" lon="8.29403">
    <name>TP420</name>
  </trkpt>
  <trkpt lat="40.61177" lon="8.29214">
    <name>TP421</name>
  </trkpt>
  <trkpt lat="40.61178" lon="8.29119">
    <name>TP422</name>
  </trkpt>
  <trkpt lat="40.61178" lon="8.29095">
    <name>TP423</name>
  </trkpt>
  <trkpt lat="40.61178" lon="8.29072">
    <name>TP424</name>
  </trkpt>
  <trkpt lat="40.61179" lon="8.29048">
    <name>TP425</name>
  </trkpt>
  <trkpt lat="40.61181" lon="8.28863">
    <name>TP426</name>
  </trkpt>
  <trkpt lat="40.61181" lon="8.28842">
    <name>TP427</name>
  </trkpt>
  <trkpt lat="40.6118" lon="8.28835">
    <name>TP428</name>
  </trkpt>
  <trkpt lat="40.61178" lon="8.28827">
    <name>TP429</name>
  </trkpt>
  <trkpt lat="40.61175" lon="8.28822">
    <name>TP430</name>
  </trkpt>
  <trkpt lat="40.61173" lon="8.28819">
    <name>TP431</name>
  </trkpt>
  <trkpt lat="40.61168" lon="8.28812">
    <name>TP432</name>
  </trkpt>
  <trkpt lat="40.61125" lon="8.28765">
    <name>TP433</name>
  </trkpt>
  <trkpt lat="40.61112" lon="8.2875">
    <name>TP434</name>
  </trkpt>
  <trkpt lat="40.61098" lon="8.28733">
    <name>TP435</name>
  </trkpt>
  <trkpt lat="40.61085" lon="8.28717">
    <name>TP436</name>
  </trkpt>
  <trkpt lat="40.61069" lon="8.28697">
    <name>TP437</name>
  </trkpt>
  <trkpt lat="40.61057" lon="8.28667">
    <name>TP438</name>
  </trkpt>
  <trkpt lat="40.6105" lon="8.2864">
    <name>TP439</name>
  </trkpt>
  <trkpt lat="40.6105" lon="8.28636">
    <name>TP440</name>
  </trkpt>
  <trkpt lat="40.61048" lon="8.28621">
    <name>TP441</name>
  </trkpt>
  <trkpt lat="40.61043" lon="8.28591">
    <name>TP442</name>
  </trkpt>
  <trkpt lat="40.61035" lon="8.28576">
    <name>TP443</name>
  </trkpt>
  <trkpt lat="40.61031" lon="8.28571">
    <name>TP444</name>
  </trkpt>
  <trkpt lat="40.61021" lon="8.28556">
    <name>TP445</name>
  </trkpt>
  <trkpt lat="40.61008" lon="8.28542">
    <name>TP446</name>
  </trkpt>
  <trkpt lat="40.60991" lon="8.28524">
    <name>TP447</name>
  </trkpt>
  <trkpt lat="40.60982" lon="8.28515">
    <name>TP448</name>
  </trkpt>
  <trkpt lat="40.60977" lon="8.28509">
    <name>TP449</name>
  </trkpt>
  <trkpt lat="40.60964" lon="8.28493">
    <name>TP450</name>
  </trkpt>
  <trkpt lat="40.60925" lon="8.28446">
    <name>TP451</name>
  </trkpt>
  <trkpt lat="40.60913" lon="8.28431">
    <name>TP452</name>
  </trkpt>
  <trkpt lat="40.60891" lon="8.28407">
    <name>TP453</name>
  </trkpt>
  <trkpt lat="40.60878" lon="8.28391">
    <name>TP454</name>
  </trkpt>
  <trkpt lat="40.60868" lon="8.28378">
    <name>TP455</name>
  </trkpt>
  <trkpt lat="40.60863" lon="8.28364">
    <name>TP456</name>
  </trkpt>
  <trkpt lat="40.60859" lon="8.2835">
    <name>TP457</name>
  </trkpt>
  <trkpt lat="40.60851" lon="8.28318">
    <name>TP458</name>
  </trkpt>
  <trkpt lat="40.60838" lon="8.2826">
    <name>TP459</name>
  </trkpt>
  <trkpt lat="40.60813" lon="8.28149">
    <name>TP460</name>
  </trkpt>
  <trkpt lat="40.6074" lon="8.27832">
    <name>TP461</name>
  </trkpt>
  <trkpt lat="40.6074021" lon="8.2783193">
    <name>TP462</name>
  </trkpt>
  <trkpt lat="40.60723" lon="8.27838">
    <name>TP463</name>
  </trkpt>
  <trkpt lat="40.60719" lon="8.2784">
    <name>TP464</name>
  </trkpt>
  <trkpt lat="40.60714" lon="8.27842">
    <name>TP465</name>
  </trkpt>
  <trkpt lat="40.60576" lon="8.27894">
    <name>TP466</name>
  </trkpt>
  <trkpt lat="40.60565" lon="8.27898">
    <name>TP467</name>
  </trkpt>
  <trkpt lat="40.60461" lon="8.27937">
    <name>TP468</name>
  </trkpt>
  <trkpt lat="40.60389" lon="8.27964">
    <name>TP469</name>
  </trkpt>
  <trkpt lat="40.60318" lon="8.27991">
    <name>TP470</name>
  </trkpt>
  <trkpt lat="40.60279" lon="8.28006">
    <name>TP471</name>
  </trkpt>
  <trkpt lat="40.60244" lon="8.28018">
    <name>TP472</name>
  </trkpt>
  <trkpt lat="40.60231" lon="8.28024">
    <name>TP473</name>
  </trkpt>
  <trkpt lat="40.60199" lon="8.28037">
    <name>TP474</name>
  </trkpt>
  <trkpt lat="40.60176" lon="8.28046">
    <name>TP475</name>
  </trkpt>
  <trkpt lat="40.60048" lon="8.28092">
    <name>TP476</name>
  </trkpt>
  <trkpt lat="40.60044" lon="8.28094">
    <name>TP477</name>
  </trkpt>
  <trkpt lat="40.6004" lon="8.28095">
    <name>TP478</name>
  </trkpt>
  <trkpt lat="40.59968" lon="8.28121">
    <name>TP479</name>
  </trkpt>
  <trkpt lat="40.59782" lon="8.28194">
    <name>TP480</name>
  </trkpt>
  <trkpt lat="40.59781" lon="8.28194">
    <name>TP481</name>
  </trkpt>
  <trkpt lat="40.59777" lon="8.28196">
    <name>TP482</name>
  </trkpt>
  <trkpt lat="40.59745" lon="8.28208">
    <name>TP483</name>
  </trkpt>
  <trkpt lat="40.59731" lon="8.28214">
    <name>TP484</name>
  </trkpt>
  <trkpt lat="40.59591" lon="8.28269">
    <name>TP485</name>
  </trkpt>
  <trkpt lat="40.5959" lon="8.28269">
    <name>TP486</name>
  </trkpt>
  <trkpt lat="40.59572" lon="8.28276">
    <name>TP487</name>
  </trkpt>
  <trkpt lat="40.59566" lon="8.28278">
    <name>TP488</name>
  </trkpt>
  <trkpt lat="40.5956588" lon="8.2827839">
    <name>TP489</name>
  </trkpt>
  <trkpt lat="40.59566" lon="8.28277">
    <name>TP490</name>
  </trkpt>
  <trkpt lat="40.59565" lon="8.28277">
    <name>TP491</name>
  </trkpt>
  <trkpt lat="40.59565" lon="8.28276">
    <name>TP492</name>
  </trkpt>
  <trkpt lat="40.59565" lon="8.28275">
    <name>TP493</name>
  </trkpt>
  <trkpt lat="40.59564" lon="8.28275">
    <name>TP494</name>
  </trkpt>
  <trkpt lat="40.59564" lon="8.28274">
    <name>TP495</name>
  </trkpt>
  <trkpt lat="40.59563" lon="8.28274">
    <name>TP496</name>
  </trkpt>
  <trkpt lat="40.59563" lon="8.28273">
    <name>TP497</name>
  </trkpt>
  <trkpt lat="40.59562" lon="8.28273">
    <name>TP498</name>
  </trkpt>
  <trkpt lat="40.59562" lon="8.28272">
    <name>TP499</name>
  </trkpt>
  <trkpt lat="40.59561" lon="8.28272">
    <name>TP500</name>
  </trkpt>
  <trkpt lat="40.5956" lon="8.28272">
    <name>TP501</name>
  </trkpt>
  <trkpt lat="40.59559" lon="8.28272">
    <name>TP502</name>
  </trkpt>
  <trkpt lat="40.59558" lon="8.28272">
    <name>TP503</name>
  </trkpt>
  <trkpt lat="40.59555" lon="8.28261">
    <name>TP504</name>
  </trkpt>
  <trkpt lat="40.5955" lon="8.28232">
    <name>TP505</name>
  </trkpt>
  <trkpt lat="40.59548" lon="8.28221">
    <name>TP506</name>
  </trkpt>
  <trkpt lat="40.59474" lon="8.27784">
    <name>TP507</name>
  </trkpt>
  <trkpt lat="40.59466" lon="8.27733">
    <name>TP508</name>
  </trkpt>
  <trkpt lat="40.59465" lon="8.27727">
    <name>TP509</name>
  </trkpt>
  <trkpt lat="40.59465" lon="8.27726">
    <name>TP510</name>
  </trkpt>
  <trkpt lat="40.5944" lon="8.27576">
    <name>TP511</name>
  </trkpt>
  <trkpt lat="40.59436" lon="8.27553">
    <name>TP512</name>
  </trkpt>
  <trkpt lat="40.59424" lon="8.27483">
    <name>TP513</name>
  </trkpt>
  <trkpt lat="40.59409" lon="8.27399">
    <name>TP514</name>
  </trkpt>
  <trkpt lat="40.59404" lon="8.27369">
    <name>TP515</name>
  </trkpt>
  <trkpt lat="40.59383" lon="8.27246">
    <name>TP516</name>
  </trkpt>
  <trkpt lat="40.59379" lon="8.27224">
    <name>TP517</name>
  </trkpt>
  <trkpt lat="40.59361" lon="8.27118">
    <name>TP518</name>
  </trkpt>
  <trkpt lat="40.59357" lon="8.27095">
    <name>TP519</name>
  </trkpt>
  <trkpt lat="40.59292" lon="8.26719">
    <name>TP520</name>
  </trkpt>
  <trkpt lat="40.5929" lon="8.26704">
    <name>TP521</name>
  </trkpt>
  <trkpt lat="40.59231" lon="8.26363">
    <name>TP522</name>
  </trkpt>
  <trkpt lat="40.59231" lon="8.26359">
    <name>TP523</name>
  </trkpt>
  <trkpt lat="40.5923" lon="8.26353">
    <name>TP524</name>
  </trkpt>
  <trkpt lat="40.59205" lon="8.2621">
    <name>TP525</name>
  </trkpt>
  <trkpt lat="40.59202" lon="8.26187">
    <name>TP526</name>
  </trkpt>
  <trkpt lat="40.59201" lon="8.26182">
    <name>TP527</name>
  </trkpt>
  <trkpt lat="40.592" lon="8.26176">
    <name>TP528</name>
  </trkpt>
  <trkpt lat="40.59174" lon="8.26025">
    <name>TP529</name>
  </trkpt>
  <trkpt lat="40.59146" lon="8.25852">
    <name>TP530</name>
  </trkpt>
  <trkpt lat="40.59143" lon="8.25827">
    <name>TP531</name>
  </trkpt>
  <trkpt lat="40.59142" lon="8.2581">
    <name>TP532</name>
  </trkpt>
  <trkpt lat="40.59142" lon="8.25797">
    <name>TP533</name>
  </trkpt>
  <trkpt lat="40.59143" lon="8.25783">
    <name>TP534</name>
  </trkpt>
  <trkpt lat="40.59145" lon="8.25766">
    <name>TP535</name>
  </trkpt>
  <trkpt lat="40.59147" lon="8.25753">
    <name>TP536</name>
  </trkpt>
  <trkpt lat="40.59152" lon="8.25726">
    <name>TP537</name>
  </trkpt>
  <trkpt lat="40.59163" lon="8.2567">
    <name>TP538</name>
  </trkpt>
  <trkpt lat="40.59176" lon="8.25606">
    <name>TP539</name>
  </trkpt>
  <trkpt lat="40.59181" lon="8.25582">
    <name>TP540</name>
  </trkpt>
  <trkpt lat="40.5918118" lon="8.2558192">
    <name>TP541</name>
  </trkpt>
  <trkpt lat="40.59168" lon="8.25577">
    <name>TP542</name>
  </trkpt>
  <trkpt lat="40.59151" lon="8.25571">
    <name>TP543</name>
  </trkpt>
  <trkpt lat="40.59115" lon="8.25562">
    <name>TP544</name>
  </trkpt>
  <trkpt lat="40.5909" lon="8.25554">
    <name>TP545</name>
  </trkpt>
  <trkpt lat="40.59089" lon="8.25554">
    <name>TP546</name>
  </trkpt>
  <trkpt lat="40.59072" lon="8.25551">
    <name>TP547</name>
  </trkpt>
  <trkpt lat="40.59071" lon="8.25551">
    <name>TP548</name>
  </trkpt>
  <trkpt lat="40.59053" lon="8.25552">
    <name>TP549</name>
  </trkpt>
  <trkpt lat="40.5905" lon="8.25552">
    <name>TP550</name>
  </trkpt>
  <trkpt lat="40.59023" lon="8.25555">
    <name>TP551</name>
  </trkpt>
  <trkpt lat="40.59008" lon="8.25557">
    <name>TP552</name>
  </trkpt>
  <trkpt lat="40.58983" lon="8.25561">
    <name>TP553</name>
  </trkpt>
  <trkpt lat="40.58959" lon="8.25565">
    <name>TP554</name>
  </trkpt>
  <trkpt lat="40.58953" lon="8.25565">
    <name>TP555</name>
  </trkpt>
  <trkpt lat="40.58905" lon="8.25567">
    <name>TP556</name>
  </trkpt>
  <trkpt lat="40.58901" lon="8.25567">
    <name>TP557</name>
  </trkpt>
  <trkpt lat="40.58851" lon="8.25565">
    <name>TP558</name>
  </trkpt>
  <trkpt lat="40.58832" lon="8.25565">
    <name>TP559</name>
  </trkpt>
  <trkpt lat="40.58797" lon="8.25563">
    <name>TP560</name>
  </trkpt>
  <trkpt lat="40.58761" lon="8.25561">
    <name>TP561</name>
  </trkpt>
  <trkpt lat="40.5869" lon="8.25558">
    <name>TP562</name>
  </trkpt>
  <trkpt lat="40.58672" lon="8.25557">
    <name>TP563</name>
  </trkpt>
  <trkpt lat="40.58654" lon="8.25556">
    <name>TP564</name>
  </trkpt>
  <trkpt lat="40.58618" lon="8.25554">
    <name>TP565</name>
  </trkpt>
  <trkpt lat="40.5861763" lon="8.25554">
    <name>TP566</name>
  </trkpt>
  <trkpt lat="40.58624" lon="8.25572">
    <name>TP567</name>
  </trkpt>
  <trkpt lat="40.58632" lon="8.25592">
    <name>TP568</name>
  </trkpt>
  <trkpt lat="40.58634" lon="8.25596">
    <name>TP569</name>
  </trkpt>
  <trkpt lat="40.58644" lon="8.25618">
    <name>TP570</name>
  </trkpt>
  <trkpt lat="40.5865" lon="8.25626">
    <name>TP571</name>
  </trkpt>
  <trkpt lat="40.5864974" lon="8.2562616">
    <name>TP572</name>
  </trkpt>
  <trkpt lat="40.58633" lon="8.25636">
    <name>TP573</name>
  </trkpt>
  <trkpt lat="40.58617" lon="8.25647">
    <name>TP574</name>
  </trkpt>
  <trkpt lat="40.58585" lon="8.25667">
    <name>TP575</name>
  </trkpt>
  <trkpt lat="40.58575" lon="8.2567">
    <name>TP576</name>
  </trkpt>
  <trkpt lat="40.58567" lon="8.25672">
    <name>TP577</name>
  </trkpt>
  <trkpt lat="40.58566" lon="8.25672">
    <name>TP578</name>
  </trkpt>
  <trkpt lat="40.5855" lon="8.25668">
    <name>TP579</name>
  </trkpt>
  <trkpt lat="40.58549" lon="8.25668">
    <name>TP580</name>
  </trkpt>
  <trkpt lat="40.58542" lon="8.25665">
    <name>TP581</name>
  </trkpt>
  <trkpt lat="40.58535" lon="8.25665">
    <name>TP582</name>
  </trkpt>
  <trkpt lat="40.58525" lon="8.25668">
    <name>TP583</name>
  </trkpt>
  <trkpt lat="40.58523" lon="8.25669">
    <name>TP584</name>
  </trkpt>
  <trkpt lat="40.58516" lon="8.25672">
    <name>TP585</name>
  </trkpt>
  <trkpt lat="40.58505" lon="8.25678">
    <name>TP586</name>
  </trkpt>
  <trkpt lat="40.58496" lon="8.25689">
    <name>TP587</name>
  </trkpt>
  <trkpt lat="40.58493" lon="8.25695">
    <name>TP588</name>
  </trkpt>
  <trkpt lat="40.58493" lon="8.25696">
    <name>TP589</name>
  </trkpt>
  <trkpt lat="40.58492" lon="8.25701">
    <name>TP590</name>
  </trkpt>
  <trkpt lat="40.58493" lon="8.25712">
    <name>TP591</name>
  </trkpt>
  <trkpt lat="40.58493" lon="8.25713">
    <name>TP592</name>
  </trkpt>
  <trkpt lat="40.58498" lon="8.25727">
    <name>TP593</name>
  </trkpt>
  <trkpt lat="40.58504" lon="8.25739">
    <name>TP594</name>
  </trkpt>
  <trkpt lat="40.58509" lon="8.2575">
    <name>TP595</name>
  </trkpt>
  <trkpt lat="40.58514" lon="8.25758">
    <name>TP596</name>
  </trkpt>
  <trkpt lat="40.585138" lon="8.2575797">
    <name>TP597</name>
  </trkpt>
  <trkpt lat="40.58512" lon="8.2576">
    <name>TP598</name>
  </trkpt>
  <trkpt lat="40.58505" lon="8.25774">
    <name>TP599</name>
  </trkpt>
  <trkpt lat="40.585" lon="8.25787">
    <name>TP600</name>
  </trkpt>
  <trkpt lat="40.58495" lon="8.25796">
    <name>TP601</name>
  </trkpt>
  <trkpt lat="40.5849" lon="8.25813">
    <name>TP602</name>
  </trkpt>
  <trkpt lat="40.58488" lon="8.25825">
    <name>TP603</name>
  </trkpt>
  <trkpt lat="40.58487" lon="8.25837">
    <name>TP604</name>
  </trkpt>
  <trkpt lat="40.58484" lon="8.25859">
    <name>TP605</name>
  </trkpt>
  <trkpt lat="40.58483" lon="8.25884">
    <name>TP606</name>
  </trkpt>
  <trkpt lat="40.58481" lon="8.25917">
    <name>TP607</name>
  </trkpt>
  <trkpt lat="40.58481" lon="8.2592">
    <name>TP608</name>
  </trkpt>
  <trkpt lat="40.58479" lon="8.25943">
    <name>TP609</name>
  </trkpt>
  <trkpt lat="40.58479" lon="8.25945">
    <name>TP610</name>
  </trkpt>
  <trkpt lat="40.58479" lon="8.25953">
    <name>TP611</name>
  </trkpt>
  <trkpt lat="40.58479" lon="8.25959">
    <name>TP612</name>
  </trkpt>
  <trkpt lat="40.5848" lon="8.25963">
    <name>TP613</name>
  </trkpt>
  <trkpt lat="40.58482" lon="8.25966">
    <name>TP614</name>
  </trkpt>
  <trkpt lat="40.58482" lon="8.25967">
    <name>TP615</name>
  </trkpt>
  <trkpt lat="40.58484" lon="8.2597">
    <name>TP616</name>
  </trkpt>
  <trkpt lat="40.58488" lon="8.2597">
    <name>TP617</name>
  </trkpt>
  <trkpt lat="40.58499" lon="8.25971">
    <name>TP618</name>
  </trkpt>
  <trkpt lat="40.584986" lon="8.2597052">
    <name>TP619</name>
  </trkpt>
  <trkpt lat="40.584986" lon="8.2597052">
    <name>TP620</name>
  </trkpt>
  <trkpt lat="40.58505" lon="8.2597">
    <name>TP621</name>
  </trkpt>
  <trkpt lat="40.58507" lon="8.25969">
    <name>TP622</name>
  </trkpt>
  <trkpt lat="40.58509" lon="8.25968">
    <name>TP623</name>
  </trkpt>
  <trkpt lat="40.5851" lon="8.25967">
    <name>TP624</name>
  </trkpt>
  <trkpt lat="40.58512" lon="8.25965">
    <name>TP625</name>
  </trkpt>
  <trkpt lat="40.58512" lon="8.25964">
    <name>TP626</name>
  </trkpt>
  <trkpt lat="40.58513" lon="8.25963">
    <name>TP627</name>
  </trkpt>
  <trkpt lat="40.58513" lon="8.25961">
    <name>TP628</name>
  </trkpt>
  <trkpt lat="40.58514" lon="8.25955">
    <name>TP629</name>
  </trkpt>
  <trkpt lat="40.58515" lon="8.25954">
    <name>TP630</name>
  </trkpt>
  <trkpt lat="40.58517" lon="8.25913">
    <name>TP631</name>
  </trkpt>
  <trkpt lat="40.58517" lon="8.25911">
    <name>TP632</name>
  </trkpt>
  <trkpt lat="40.58517" lon="8.25909">
    <name>TP633</name>
  </trkpt>
  <trkpt lat="40.58517" lon="8.25908">
    <name>TP634</name>
  </trkpt>
  <trkpt lat="40.58516" lon="8.25906">
    <name>TP635</name>
  </trkpt>
  <trkpt lat="40.58515" lon="8.25904">
    <name>TP636</name>
  </trkpt>
  <trkpt lat="40.58514" lon="8.25904">
    <name>TP637</name>
  </trkpt>
  <trkpt lat="40.58513" lon="8.25902">
    <name>TP638</name>
  </trkpt>
  <trkpt lat="40.58501" lon="8.259">
    <name>TP639</name>
  </trkpt>
  <trkpt lat="40.58499" lon="8.25899">
    <name>TP640</name>
  </trkpt>
  <trkpt lat="40.58496" lon="8.25898">
    <name>TP641</name>
  </trkpt>
  <trkpt lat="40.58493" lon="8.25895">
    <name>TP642</name>
  </trkpt>
  <trkpt lat="40.58483" lon="8.25884">
    <name>TP643</name>
  </trkpt>
  <trkpt lat="40.5848291" lon="8.258836">
    <name>TP644</name>
  </trkpt>
  <trkpt lat="40.58484" lon="8.25859">
    <name>TP645</name>
  </trkpt>
  <trkpt lat="40.58487" lon="8.25837">
    <name>TP646</name>
  </trkpt>
  <trkpt lat="40.58488" lon="8.25825">
    <name>TP647</name>
  </trkpt>
  <trkpt lat="40.5849" lon="8.25813">
    <name>TP648</name>
  </trkpt>
  <trkpt lat="40.58495" lon="8.25796">
    <name>TP649</name>
  </trkpt>
  <trkpt lat="40.585" lon="8.25787">
    <name>TP650</name>
  </trkpt>
  <trkpt lat="40.58505" lon="8.25774">
    <name>TP651</name>
  </trkpt>
  <trkpt lat="40.58512" lon="8.2576">
    <name>TP652</name>
  </trkpt>
  <trkpt lat="40.58514" lon="8.25758">
    <name>TP653</name>
  </trkpt>
  <trkpt lat="40.58531" lon="8.25747">
    <name>TP654</name>
  </trkpt>
  <trkpt lat="40.58547" lon="8.25738">
    <name>TP655</name>
  </trkpt>
  <trkpt lat="40.5855" lon="8.25736">
    <name>TP656</name>
  </trkpt>
  <trkpt lat="40.58558" lon="8.25729">
    <name>TP657</name>
  </trkpt>
  <trkpt lat="40.58561" lon="8.25723">
    <name>TP658</name>
  </trkpt>
  <trkpt lat="40.58565" lon="8.25713">
    <name>TP659</name>
  </trkpt>
  <trkpt lat="40.58566" lon="8.25708">
    <name>TP660</name>
  </trkpt>
  <trkpt lat="40.58566" lon="8.25702">
    <name>TP661</name>
  </trkpt>
  <trkpt lat="40.58566" lon="8.25701">
    <name>TP662</name>
  </trkpt>
  <trkpt lat="40.58569" lon="8.2569">
    <name>TP663</name>
  </trkpt>
  <trkpt lat="40.58573" lon="8.25682">
    <name>TP664</name>
  </trkpt>
  <trkpt lat="40.58585" lon="8.25667">
    <name>TP665</name>
  </trkpt>
  <trkpt lat="40.58617" lon="8.25647">
    <name>TP666</name>
  </trkpt>
  <trkpt lat="40.58633" lon="8.25636">
    <name>TP667</name>
  </trkpt>
  <trkpt lat="40.5865" lon="8.25626">
    <name>TP668</name>
  </trkpt>
  <trkpt lat="40.5864974" lon="8.2562616">
    <name>TP669</name>
  </trkpt>
  <trkpt lat="40.58644" lon="8.25618">
    <name>TP670</name>
  </trkpt>
  <trkpt lat="40.58634" lon="8.25596">
    <name>TP671</name>
  </trkpt>
  <trkpt lat="40.58632" lon="8.25592">
    <name>TP672</name>
  </trkpt>
  <trkpt lat="40.58624" lon="8.25572">
    <name>TP673</name>
  </trkpt>
  <trkpt lat="40.58618" lon="8.25554">
    <name>TP674</name>
  </trkpt>
  <trkpt lat="40.58598" lon="8.25514">
    <name>TP675</name>
  </trkpt>
  <trkpt lat="40.58597" lon="8.25512">
    <name>TP676</name>
  </trkpt>
  <trkpt lat="40.58576" lon="8.25473">
    <name>TP677</name>
  </trkpt>
  <trkpt lat="40.58572" lon="8.25466">
    <name>TP678</name>
  </trkpt>
  <trkpt lat="40.58569" lon="8.25456">
    <name>TP679</name>
  </trkpt>
  <trkpt lat="40.58567" lon="8.25444">
    <name>TP680</name>
  </trkpt>
  <trkpt lat="40.58565" lon="8.25421">
    <name>TP681</name>
  </trkpt>
  <trkpt lat="40.58565" lon="8.25419">
    <name>TP682</name>
  </trkpt>
  <trkpt lat="40.58562" lon="8.25396">
    <name>TP683</name>
  </trkpt>
  <trkpt lat="40.5856" lon="8.25372">
    <name>TP684</name>
  </trkpt>
  <trkpt lat="40.58559" lon="8.25365">
    <name>TP685</name>
  </trkpt>
  <trkpt lat="40.58553" lon="8.2529">
    <name>TP686</name>
  </trkpt>
  <trkpt lat="40.58552" lon="8.25278">
    <name>TP687</name>
  </trkpt>
  <trkpt lat="40.58549" lon="8.25234">
    <name>TP688</name>
  </trkpt>
  <trkpt lat="40.58549" lon="8.25231">
    <name>TP689</name>
  </trkpt>
  <trkpt lat="40.58546" lon="8.2521">
    <name>TP690</name>
  </trkpt>
  <trkpt lat="40.58544" lon="8.25194">
    <name>TP691</name>
  </trkpt>
  <trkpt lat="40.5854" lon="8.25182">
    <name>TP692</name>
  </trkpt>
  <trkpt lat="40.58533" lon="8.25165">
    <name>TP693</name>
  </trkpt>
  <trkpt lat="40.58533" lon="8.25164">
    <name>TP694</name>
  </trkpt>
  <trkpt lat="40.58526" lon="8.2515">
    <name>TP695</name>
  </trkpt>
  <trkpt lat="40.58515" lon="8.25123">
    <name>TP696</name>
  </trkpt>
  <trkpt lat="40.58504" lon="8.25102">
    <name>TP697</name>
  </trkpt>
  <trkpt lat="40.58465" lon="8.25025">
    <name>TP698</name>
  </trkpt>
  <trkpt lat="40.58457" lon="8.25005">
    <name>TP699</name>
  </trkpt>
  <trkpt lat="40.58452" lon="8.24987">
    <name>TP700</name>
  </trkpt>
  <trkpt lat="40.58448" lon="8.24963">
    <name>TP701</name>
  </trkpt>
  <trkpt lat="40.58447" lon="8.24941">
    <name>TP702</name>
  </trkpt>
  <trkpt lat="40.58448" lon="8.24934">
    <name>TP703</name>
  </trkpt>
  <trkpt lat="40.58448" lon="8.2492">
    <name>TP704</name>
  </trkpt>
  <trkpt lat="40.58452" lon="8.24902">
    <name>TP705</name>
  </trkpt>
  <trkpt lat="40.58454" lon="8.2489">
    <name>TP706</name>
  </trkpt>
  <trkpt lat="40.58458" lon="8.24873">
    <name>TP707</name>
  </trkpt>
  <trkpt lat="40.58471" lon="8.24825">
    <name>TP708</name>
  </trkpt>
  <trkpt lat="40.58476" lon="8.24797">
    <name>TP709</name>
  </trkpt>
  <trkpt lat="40.58476" lon="8.24796">
    <name>TP710</name>
  </trkpt>
  <trkpt lat="40.58479" lon="8.2477">
    <name>TP711</name>
  </trkpt>
  <trkpt lat="40.5848" lon="8.2475">
    <name>TP712</name>
  </trkpt>
  <trkpt lat="40.5848" lon="8.24726">
    <name>TP713</name>
  </trkpt>
  <trkpt lat="40.58481" lon="8.24719">
    <name>TP714</name>
  </trkpt>
  <trkpt lat="40.58483" lon="8.24661">
    <name>TP715</name>
  </trkpt>
  <trkpt lat="40.58485" lon="8.24618">
    <name>TP716</name>
  </trkpt>
  <trkpt lat="40.5848547" lon="8.2461769">
    <name>TP717</name>
  </trkpt>
  <trkpt lat="40.58495" lon="8.2462">
    <name>TP718</name>
  </trkpt>
  <trkpt lat="40.58499" lon="8.24621">
    <name>TP719</name>
  </trkpt>
  <trkpt lat="40.58583" lon="8.24641">
    <name>TP720</name>
  </trkpt>
  <trkpt lat="40.58627" lon="8.24652">
    <name>TP721</name>
  </trkpt>
  <trkpt lat="40.58645" lon="8.24657">
    <name>TP722</name>
  </trkpt>
  <trkpt lat="40.58727" lon="8.24678">
    <name>TP723</name>
  </trkpt>
  <trkpt lat="40.58733" lon="8.24679">
    <name>TP724</name>
  </trkpt>
  <trkpt lat="40.58751" lon="8.24684">
    <name>TP725</name>
  </trkpt>
  <trkpt lat="40.58821" lon="8.24702">
    <name>TP726</name>
  </trkpt>
  <trkpt lat="40.58839" lon="8.24706">
    <name>TP727</name>
  </trkpt>
  <trkpt lat="40.58874" lon="8.24715">
    <name>TP728</name>
  </trkpt>
  <trkpt lat="40.58927" lon="8.24729">
    <name>TP729</name>
  </trkpt>
  <trkpt lat="40.59025" lon="8.24754">
    <name>TP730</name>
  </trkpt>
  <trkpt lat="40.59131" lon="8.24781">
    <name>TP731</name>
  </trkpt>
  <trkpt lat="40.59149" lon="8.24785">
    <name>TP732</name>
  </trkpt>
  <trkpt lat="40.59184" lon="8.24794">
    <name>TP733</name>
  </trkpt>
  <trkpt lat="40.59202" lon="8.24799">
    <name>TP734</name>
  </trkpt>
  <trkpt lat="40.59255" lon="8.24812">
    <name>TP735</name>
  </trkpt>
  <trkpt lat="40.5933" lon="8.24832">
    <name>TP736</name>
  </trkpt>
  <trkpt lat="40.5933018" lon="8.2483169">
    <name>TP737</name>
  </trkpt>
  <trkpt lat="40.59326" lon="8.24852">
    <name>TP738</name>
  </trkpt>
  <trkpt lat="40.59295" lon="8.2501">
    <name>TP739</name>
  </trkpt>
  <trkpt lat="40.59294" lon="8.25015">
    <name>TP740</name>
  </trkpt>
  <trkpt lat="40.59282" lon="8.25079">
    <name>TP741</name>
  </trkpt>
  <trkpt lat="40.5927" lon="8.25136">
    <name>TP742</name>
  </trkpt>
  <trkpt lat="40.59259" lon="8.25195">
    <name>TP743</name>
  </trkpt>
  <trkpt lat="40.59249" lon="8.25241">
    <name>TP744</name>
  </trkpt>
  <trkpt lat="40.59245" lon="8.25264">
    <name>TP745</name>
  </trkpt>
  <trkpt lat="40.5924" lon="8.25286">
    <name>TP746</name>
  </trkpt>
  <trkpt lat="40.59181" lon="8.25582">
    <name>TP747</name>
  </trkpt>
  <trkpt lat="40.59176" lon="8.25606">
    <name>TP748</name>
  </trkpt>
  <trkpt lat="40.59163" lon="8.2567">
    <name>TP749</name>
  </trkpt>
  <trkpt lat="40.59152" lon="8.25726">
    <name>TP750</name>
  </trkpt>
  <trkpt lat="40.59147" lon="8.25753">
    <name>TP751</name>
  </trkpt>
  <trkpt lat="40.59145" lon="8.25766">
    <name>TP752</name>
  </trkpt>
  <trkpt lat="40.59143" lon="8.25783">
    <name>TP753</name>
  </trkpt>
  <trkpt lat="40.59142" lon="8.25797">
    <name>TP754</name>
  </trkpt>
  <trkpt lat="40.59142" lon="8.2581">
    <name>TP755</name>
  </trkpt>
  <trkpt lat="40.59143" lon="8.25827">
    <name>TP756</name>
  </trkpt>
  <trkpt lat="40.59146" lon="8.25852">
    <name>TP757</name>
  </trkpt>
  <trkpt lat="40.59174" lon="8.26025">
    <name>TP758</name>
  </trkpt>
  <trkpt lat="40.592" lon="8.26176">
    <name>TP759</name>
  </trkpt>
  <trkpt lat="40.59201" lon="8.26182">
    <name>TP760</name>
  </trkpt>
  <trkpt lat="40.59202" lon="8.26187">
    <name>TP761</name>
  </trkpt>
  <trkpt lat="40.59205" lon="8.2621">
    <name>TP762</name>
  </trkpt>
  <trkpt lat="40.5923" lon="8.26353">
    <name>TP763</name>
  </trkpt>
  <trkpt lat="40.59231" lon="8.26359">
    <name>TP764</name>
  </trkpt>
  <trkpt lat="40.59231" lon="8.26363">
    <name>TP765</name>
  </trkpt>
  <trkpt lat="40.5929" lon="8.26704">
    <name>TP766</name>
  </trkpt>
  <trkpt lat="40.59292" lon="8.26719">
    <name>TP767</name>
  </trkpt>
  <trkpt lat="40.59357" lon="8.27095">
    <name>TP768</name>
  </trkpt>
  <trkpt lat="40.59361" lon="8.27118">
    <name>TP769</name>
  </trkpt>
  <trkpt lat="40.59379" lon="8.27224">
    <name>TP770</name>
  </trkpt>
  <trkpt lat="40.59383" lon="8.27246">
    <name>TP771</name>
  </trkpt>
  <trkpt lat="40.59404" lon="8.27369">
    <name>TP772</name>
  </trkpt>
  <trkpt lat="40.59409" lon="8.27399">
    <name>TP773</name>
  </trkpt>
  <trkpt lat="40.59424" lon="8.27483">
    <name>TP774</name>
  </trkpt>
  <trkpt lat="40.59436" lon="8.27553">
    <name>TP775</name>
  </trkpt>
  <trkpt lat="40.5944" lon="8.27576">
    <name>TP776</name>
  </trkpt>
  <trkpt lat="40.59465" lon="8.27726">
    <name>TP777</name>
  </trkpt>
  <trkpt lat="40.59465" lon="8.27727">
    <name>TP778</name>
  </trkpt>
  <trkpt lat="40.59466" lon="8.27733">
    <name>TP779</name>
  </trkpt>
  <trkpt lat="40.59474" lon="8.27784">
    <name>TP780</name>
  </trkpt>
  <trkpt lat="40.59548" lon="8.28221">
    <name>TP781</name>
  </trkpt>
  <trkpt lat="40.5955" lon="8.28232">
    <name>TP782</name>
  </trkpt>
  <trkpt lat="40.59555" lon="8.28261">
    <name>TP783</name>
  </trkpt>
  <trkpt lat="40.59558" lon="8.28272">
    <name>TP784</name>
  </trkpt>
  <trkpt lat="40.59557" lon="8.28272">
    <name>TP785</name>
  </trkpt>
  <trkpt lat="40.59557" lon="8.28273">
    <name>TP786</name>
  </trkpt>
  <trkpt lat="40.59556" lon="8.28273">
    <name>TP787</name>
  </trkpt>
  <trkpt lat="40.59556" lon="8.28274">
    <name>TP788</name>
  </trkpt>
  <trkpt lat="40.59555" lon="8.28274">
    <name>TP789</name>
  </trkpt>
  <trkpt lat="40.59555" lon="8.28275">
    <name>TP790</name>
  </trkpt>
  <trkpt lat="40.59554" lon="8.28275">
    <name>TP791</name>
  </trkpt>
  <trkpt lat="40.59554" lon="8.28276">
    <name>TP792</name>
  </trkpt>
  <trkpt lat="40.59554" lon="8.28277">
    <name>TP793</name>
  </trkpt>
  <trkpt lat="40.59553" lon="8.28277">
    <name>TP794</name>
  </trkpt>
  <trkpt lat="40.59553" lon="8.28278">
    <name>TP795</name>
  </trkpt>
  <trkpt lat="40.59553" lon="8.28279">
    <name>TP796</name>
  </trkpt>
  <trkpt lat="40.59553" lon="8.2828">
    <name>TP797</name>
  </trkpt>
  <trkpt lat="40.59553" lon="8.28281">
    <name>TP798</name>
  </trkpt>
  <trkpt lat="40.59553" lon="8.28282">
    <name>TP799</name>
  </trkpt>
  <trkpt lat="40.59553" lon="8.28283">
    <name>TP800</name>
  </trkpt>
  <trkpt lat="40.59553" lon="8.28284">
    <name>TP801</name>
  </trkpt>
  <trkpt lat="40.59554" lon="8.28284">
    <name>TP802</name>
  </trkpt>
  <trkpt lat="40.59554" lon="8.28285">
    <name>TP803</name>
  </trkpt>
  <trkpt lat="40.59554" lon="8.28286">
    <name>TP804</name>
  </trkpt>
  <trkpt lat="40.59555" lon="8.28286">
    <name>TP805</name>
  </trkpt>
  <trkpt lat="40.59555" lon="8.28287">
    <name>TP806</name>
  </trkpt>
  <trkpt lat="40.59555" lon="8.28288">
    <name>TP807</name>
  </trkpt>
  <trkpt lat="40.59556" lon="8.28288">
    <name>TP808</name>
  </trkpt>
  <trkpt lat="40.59557" lon="8.28289">
    <name>TP809</name>
  </trkpt>
  <trkpt lat="40.59558" lon="8.28289">
    <name>TP810</name>
  </trkpt>
  <trkpt lat="40.59559" lon="8.28289">
    <name>TP811</name>
  </trkpt>
  <trkpt lat="40.5956" lon="8.28289">
    <name>TP812</name>
  </trkpt>
  <trkpt lat="40.5956" lon="8.28296">
    <name>TP813</name>
  </trkpt>
  <trkpt lat="40.59562" lon="8.28321">
    <name>TP814</name>
  </trkpt>
  <trkpt lat="40.5956" lon="8.28341">
    <name>TP815</name>
  </trkpt>
  <trkpt lat="40.59556" lon="8.28374">
    <name>TP816</name>
  </trkpt>
  <trkpt lat="40.59553" lon="8.284">
    <name>TP817</name>
  </trkpt>
  <trkpt lat="40.59549" lon="8.2843">
    <name>TP818</name>
  </trkpt>
  <trkpt lat="40.59546" lon="8.28452">
    <name>TP819</name>
  </trkpt>
  <trkpt lat="40.59538" lon="8.28516">
    <name>TP820</name>
  </trkpt>
  <trkpt lat="40.59535" lon="8.28541">
    <name>TP821</name>
  </trkpt>
  <trkpt lat="40.59531" lon="8.28579">
    <name>TP822</name>
  </trkpt>
  <trkpt lat="40.5953" lon="8.28586">
    <name>TP823</name>
  </trkpt>
  <trkpt lat="40.5953" lon="8.28592">
    <name>TP824</name>
  </trkpt>
  <trkpt lat="40.59529" lon="8.28599">
    <name>TP825</name>
  </trkpt>
  <trkpt lat="40.59525" lon="8.28645">
    <name>TP826</name>
  </trkpt>
  <trkpt lat="40.59523" lon="8.28655">
    <name>TP827</name>
  </trkpt>
  <trkpt lat="40.59523" lon="8.28661">
    <name>TP828</name>
  </trkpt>
  <trkpt lat="40.59522" lon="8.28667">
    <name>TP829</name>
  </trkpt>
  <trkpt lat="40.59518" lon="8.28702">
    <name>TP830</name>
  </trkpt>
  <trkpt lat="40.59517" lon="8.28709">
    <name>TP831</name>
  </trkpt>
  <trkpt lat="40.59515" lon="8.28725">
    <name>TP832</name>
  </trkpt>
  <trkpt lat="40.59514" lon="8.28737">
    <name>TP833</name>
  </trkpt>
  <trkpt lat="40.59508" lon="8.2879">
    <name>TP834</name>
  </trkpt>
  <trkpt lat="40.59507" lon="8.28796">
    <name>TP835</name>
  </trkpt>
  <trkpt lat="40.59503" lon="8.28826">
    <name>TP836</name>
  </trkpt>
  <trkpt lat="40.59495" lon="8.28889">
    <name>TP837</name>
  </trkpt>
  <trkpt lat="40.59494" lon="8.28896">
    <name>TP838</name>
  </trkpt>
  <trkpt lat="40.59481" lon="8.28995">
    <name>TP839</name>
  </trkpt>
  <trkpt lat="40.59478" lon="8.29012">
    <name>TP840</name>
  </trkpt>
  <trkpt lat="40.59474" lon="8.29041">
    <name>TP841</name>
  </trkpt>
  <trkpt lat="40.59467" lon="8.29099">
    <name>TP842</name>
  </trkpt>
  <trkpt lat="40.59462" lon="8.29127">
    <name>TP843</name>
  </trkpt>
  <trkpt lat="40.59462" lon="8.29129">
    <name>TP844</name>
  </trkpt>
  <trkpt lat="40.59429" lon="8.29263">
    <name>TP845</name>
  </trkpt>
  <trkpt lat="40.59421" lon="8.29299">
    <name>TP846</name>
  </trkpt>
  <trkpt lat="40.59415" lon="8.29323">
    <name>TP847</name>
  </trkpt>
  <trkpt lat="40.5941" lon="8.29348">
    <name>TP848</name>
  </trkpt>
  <trkpt lat="40.5940976" lon="8.2934844">
    <name>TP849</name>
  </trkpt>
  <trkpt lat="40.59405" lon="8.29352">
    <name>TP850</name>
  </trkpt>
  <trkpt lat="40.59402" lon="8.29355">
    <name>TP851</name>
  </trkpt>
  <trkpt lat="40.594" lon="8.29359">
    <name>TP852</name>
  </trkpt>
  <trkpt lat="40.59397" lon="8.29363">
    <name>TP853</name>
  </trkpt>
  <trkpt lat="40.59396" lon="8.29368">
    <name>TP854</name>
  </trkpt>
  <trkpt lat="40.59394" lon="8.29373">
    <name>TP855</name>
  </trkpt>
  <trkpt lat="40.59393" lon="8.29378">
    <name>TP856</name>
  </trkpt>
  <trkpt lat="40.59393" lon="8.29383">
    <name>TP857</name>
  </trkpt>
  <trkpt lat="40.59393" lon="8.29388">
    <name>TP858</name>
  </trkpt>
  <trkpt lat="40.59394" lon="8.29392">
    <name>TP859</name>
  </trkpt>
  <trkpt lat="40.59395" lon="8.29397">
    <name>TP860</name>
  </trkpt>
  <trkpt lat="40.59396" lon="8.29401">
    <name>TP861</name>
  </trkpt>
  <trkpt lat="40.59398" lon="8.29405">
    <name>TP862</name>
  </trkpt>
  <trkpt lat="40.594" lon="8.29409">
    <name>TP863</name>
  </trkpt>
  <trkpt lat="40.59403" lon="8.29413">
    <name>TP864</name>
  </trkpt>
  <trkpt lat="40.59406" lon="8.29416">
    <name>TP865</name>
  </trkpt>
  <trkpt lat="40.5941" lon="8.29418">
    <name>TP866</name>
  </trkpt>
  <trkpt lat="40.59412" lon="8.2942">
    <name>TP867</name>
  </trkpt>
  <trkpt lat="40.59413" lon="8.2942">
    <name>TP868</name>
  </trkpt>
  <trkpt lat="40.59415" lon="8.29421">
    <name>TP869</name>
  </trkpt>
  <trkpt lat="40.59418" lon="8.29422">
    <name>TP870</name>
  </trkpt>
  <trkpt lat="40.5942" lon="8.29423">
    <name>TP871</name>
  </trkpt>
  <trkpt lat="40.59423" lon="8.29423">
    <name>TP872</name>
  </trkpt>
  <trkpt lat="40.59425" lon="8.29422">
    <name>TP873</name>
  </trkpt>
  <trkpt lat="40.59428" lon="8.29422">
    <name>TP874</name>
  </trkpt>
  <trkpt lat="40.5944" lon="8.29439">
    <name>TP875</name>
  </trkpt>
  <trkpt lat="40.59445" lon="8.29444">
    <name>TP876</name>
  </trkpt>
  <trkpt lat="40.59495" lon="8.2958">
    <name>TP877</name>
  </trkpt>
  <trkpt lat="40.59515" lon="8.29637">
    <name>TP878</name>
  </trkpt>
  <trkpt lat="40.59531" lon="8.29681">
    <name>TP879</name>
  </trkpt>
  <trkpt lat="40.59534" lon="8.29694">
    <name>TP880</name>
  </trkpt>
  <trkpt lat="40.59538" lon="8.2971">
    <name>TP881</name>
  </trkpt>
  <trkpt lat="40.59538" lon="8.29743">
    <name>TP882</name>
  </trkpt>
  <trkpt lat="40.59537" lon="8.29757">
    <name>TP883</name>
  </trkpt>
  <trkpt lat="40.59535" lon="8.2977">
    <name>TP884</name>
  </trkpt>
  <trkpt lat="40.59531" lon="8.29788">
    <name>TP885</name>
  </trkpt>
  <trkpt lat="40.59526" lon="8.29809">
    <name>TP886</name>
  </trkpt>
  <trkpt lat="40.59514" lon="8.2984">
    <name>TP887</name>
  </trkpt>
  <trkpt lat="40.59507" lon="8.29854">
    <name>TP888</name>
  </trkpt>
  <trkpt lat="40.59495" lon="8.29876">
    <name>TP889</name>
  </trkpt>
  <trkpt lat="40.59492" lon="8.29882">
    <name>TP890</name>
  </trkpt>
  <trkpt lat="40.59488" lon="8.29889">
    <name>TP891</name>
  </trkpt>
  <trkpt lat="40.59462" lon="8.29933">
    <name>TP892</name>
  </trkpt>
  <trkpt lat="40.59436" lon="8.29974">
    <name>TP893</name>
  </trkpt>
  <trkpt lat="40.59433" lon="8.29979">
    <name>TP894</name>
  </trkpt>
  <trkpt lat="40.5943" lon="8.29983">
    <name>TP895</name>
  </trkpt>
  <trkpt lat="40.59425" lon="8.29993">
    <name>TP896</name>
  </trkpt>
  <trkpt lat="40.59422" lon="8.29997">
    <name>TP897</name>
  </trkpt>
  <trkpt lat="40.59405" lon="8.30024">
    <name>TP898</name>
  </trkpt>
  <trkpt lat="40.59386" lon="8.30056">
    <name>TP899</name>
  </trkpt>
  <trkpt lat="40.59376" lon="8.30076">
    <name>TP900</name>
  </trkpt>
  <trkpt lat="40.59369" lon="8.30091">
    <name>TP901</name>
  </trkpt>
  <trkpt lat="40.59363" lon="8.30107">
    <name>TP902</name>
  </trkpt>
  <trkpt lat="40.59362" lon="8.30109">
    <name>TP903</name>
  </trkpt>
  <trkpt lat="40.59348" lon="8.30148">
    <name>TP904</name>
  </trkpt>
  <trkpt lat="40.5931" lon="8.30264">
    <name>TP905</name>
  </trkpt>
  <trkpt lat="40.59296" lon="8.3031">
    <name>TP906</name>
  </trkpt>
  <trkpt lat="40.59288" lon="8.30336">
    <name>TP907</name>
  </trkpt>
  <trkpt lat="40.59275" lon="8.30377">
    <name>TP908</name>
  </trkpt>
  <trkpt lat="40.59266" lon="8.30405">
    <name>TP909</name>
  </trkpt>
  <trkpt lat="40.59258" lon="8.30423">
    <name>TP910</name>
  </trkpt>
  <trkpt lat="40.59237" lon="8.30464">
    <name>TP911</name>
  </trkpt>
  <trkpt lat="40.59233" lon="8.30472">
    <name>TP912</name>
  </trkpt>
  <trkpt lat="40.59231" lon="8.30476">
    <name>TP913</name>
  </trkpt>
  <trkpt lat="40.59228" lon="8.30481">
    <name>TP914</name>
  </trkpt>
  <trkpt lat="40.59188" lon="8.30562">
    <name>TP915</name>
  </trkpt>
  <trkpt lat="40.59141" lon="8.30654">
    <name>TP916</name>
  </trkpt>
  <trkpt lat="40.59112" lon="8.30709">
    <name>TP917</name>
  </trkpt>
  <trkpt lat="40.59092" lon="8.30748">
    <name>TP918</name>
  </trkpt>
  <trkpt lat="40.59091" lon="8.3075">
    <name>TP919</name>
  </trkpt>
  <trkpt lat="40.59081" lon="8.30769">
    <name>TP920</name>
  </trkpt>
  <trkpt lat="40.59063" lon="8.30798">
    <name>TP921</name>
  </trkpt>
  <trkpt lat="40.59048" lon="8.30823">
    <name>TP922</name>
  </trkpt>
  <trkpt lat="40.59047" lon="8.30825">
    <name>TP923</name>
  </trkpt>
  <trkpt lat="40.59039" lon="8.30837">
    <name>TP924</name>
  </trkpt>
  <trkpt lat="40.59037" lon="8.30841">
    <name>TP925</name>
  </trkpt>
  <trkpt lat="40.59036" lon="8.30843">
    <name>TP926</name>
  </trkpt>
  <trkpt lat="40.59019" lon="8.30865">
    <name>TP927</name>
  </trkpt>
  <trkpt lat="40.58988" lon="8.3091">
    <name>TP928</name>
  </trkpt>
  <trkpt lat="40.58975" lon="8.3093">
    <name>TP929</name>
  </trkpt>
  <trkpt lat="40.58786" lon="8.31202">
    <name>TP930</name>
  </trkpt>
  <trkpt lat="40.58769" lon="8.31227">
    <name>TP931</name>
  </trkpt>
  <trkpt lat="40.58759" lon="8.31241">
    <name>TP932</name>
  </trkpt>
  <trkpt lat="40.5872" lon="8.31297">
    <name>TP933</name>
  </trkpt>
  <trkpt lat="40.58711" lon="8.3131">
    <name>TP934</name>
  </trkpt>
  <trkpt lat="40.58708" lon="8.31314">
    <name>TP935</name>
  </trkpt>
  <trkpt lat="40.58702" lon="8.31322">
    <name>TP936</name>
  </trkpt>
  <trkpt lat="40.58641" lon="8.31408">
    <name>TP937</name>
  </trkpt>
  <trkpt lat="40.58605" lon="8.31458">
    <name>TP938</name>
  </trkpt>
  <trkpt lat="40.58599" lon="8.31466">
    <name>TP939</name>
  </trkpt>
  <trkpt lat="40.58594" lon="8.31472">
    <name>TP940</name>
  </trkpt>
  <trkpt lat="40.58588" lon="8.31479">
    <name>TP941</name>
  </trkpt>
  <trkpt lat="40.58521" lon="8.31551">
    <name>TP942</name>
  </trkpt>
  <trkpt lat="40.58494" lon="8.31578">
    <name>TP943</name>
  </trkpt>
  <trkpt lat="40.58488" lon="8.31585">
    <name>TP944</name>
  </trkpt>
  <trkpt lat="40.5848" lon="8.31592">
    <name>TP945</name>
  </trkpt>
  <trkpt lat="40.58474" lon="8.31594">
    <name>TP946</name>
  </trkpt>
  <trkpt lat="40.58472" lon="8.31595">
    <name>TP947</name>
  </trkpt>
  <trkpt lat="40.58471" lon="8.31596">
    <name>TP948</name>
  </trkpt>
  <trkpt lat="40.5847" lon="8.31597">
    <name>TP949</name>
  </trkpt>
  <trkpt lat="40.58461" lon="8.31606">
    <name>TP950</name>
  </trkpt>
  <trkpt lat="40.58456" lon="8.31611">
    <name>TP951</name>
  </trkpt>
  <trkpt lat="40.58452" lon="8.31616">
    <name>TP952</name>
  </trkpt>
  <trkpt lat="40.58448" lon="8.31621">
    <name>TP953</name>
  </trkpt>
  <trkpt lat="40.58443" lon="8.31628">
    <name>TP954</name>
  </trkpt>
  <trkpt lat="40.58438" lon="8.31634">
    <name>TP955</name>
  </trkpt>
  <trkpt lat="40.58424" lon="8.31652">
    <name>TP956</name>
  </trkpt>
  <trkpt lat="40.58414" lon="8.31664">
    <name>TP957</name>
  </trkpt>
  <trkpt lat="40.58412" lon="8.31666">
    <name>TP958</name>
  </trkpt>
  <trkpt lat="40.5841" lon="8.31668">
    <name>TP959</name>
  </trkpt>
  <trkpt lat="40.58398" lon="8.31673">
    <name>TP960</name>
  </trkpt>
  <trkpt lat="40.5839842" lon="8.3167271">
    <name>TP961</name>
  </trkpt>
  <trkpt lat="40.58396" lon="8.31671">
    <name>TP962</name>
  </trkpt>
  <trkpt lat="40.58393" lon="8.3167">
    <name>TP963</name>
  </trkpt>
  <trkpt lat="40.58392" lon="8.31669">
    <name>TP964</name>
  </trkpt>
  <trkpt lat="40.5839" lon="8.31669">
    <name>TP965</name>
  </trkpt>
  <trkpt lat="40.58386" lon="8.31669">
    <name>TP966</name>
  </trkpt>
  <trkpt lat="40.58382" lon="8.3167">
    <name>TP967</name>
  </trkpt>
  <trkpt lat="40.58377" lon="8.31671">
    <name>TP968</name>
  </trkpt>
  <trkpt lat="40.58374" lon="8.31673">
    <name>TP969</name>
  </trkpt>
  <trkpt lat="40.5837" lon="8.31676">
    <name>TP970</name>
  </trkpt>
  <trkpt lat="40.58368" lon="8.31679">
    <name>TP971</name>
  </trkpt>
  <trkpt lat="40.58364" lon="8.31684">
    <name>TP972</name>
  </trkpt>
  <trkpt lat="40.58363" lon="8.31686">
    <name>TP973</name>
  </trkpt>
  <trkpt lat="40.58362" lon="8.31688">
    <name>TP974</name>
  </trkpt>
  <trkpt lat="40.58361" lon="8.3169">
    <name>TP975</name>
  </trkpt>
  <trkpt lat="40.58361" lon="8.31692">
    <name>TP976</name>
  </trkpt>
  <trkpt lat="40.58361" lon="8.31694">
    <name>TP977</name>
  </trkpt>
  <trkpt lat="40.58361" lon="8.31696">
    <name>TP978</name>
  </trkpt>
  <trkpt lat="40.5836" lon="8.31698">
    <name>TP979</name>
  </trkpt>
  <trkpt lat="40.58361" lon="8.31699">
    <name>TP980</name>
  </trkpt>
  <trkpt lat="40.58361" lon="8.31701">
    <name>TP981</name>
  </trkpt>
  <trkpt lat="40.58361" lon="8.31702">
    <name>TP982</name>
  </trkpt>
  <trkpt lat="40.58361" lon="8.31703">
    <name>TP983</name>
  </trkpt>
  <trkpt lat="40.58361" lon="8.31704">
    <name>TP984</name>
  </trkpt>
  <trkpt lat="40.58361" lon="8.31706">
    <name>TP985</name>
  </trkpt>
  <trkpt lat="40.58362" lon="8.31707">
    <name>TP986</name>
  </trkpt>
  <trkpt lat="40.58362" lon="8.31708">
    <name>TP987</name>
  </trkpt>
  <trkpt lat="40.58362" lon="8.31709">
    <name>TP988</name>
  </trkpt>
  <trkpt lat="40.5836" lon="8.31717">
    <name>TP989</name>
  </trkpt>
  <trkpt lat="40.58357" lon="8.31723">
    <name>TP990</name>
  </trkpt>
  <trkpt lat="40.58353" lon="8.31729">
    <name>TP991</name>
  </trkpt>
  <trkpt lat="40.58349" lon="8.31736">
    <name>TP992</name>
  </trkpt>
  <trkpt lat="40.58341" lon="8.31743">
    <name>TP993</name>
  </trkpt>
  <trkpt lat="40.58339" lon="8.31745">
    <name>TP994</name>
  </trkpt>
  <trkpt lat="40.58327" lon="8.31755">
    <name>TP995</name>
  </trkpt>
  <trkpt lat="40.58317" lon="8.31762">
    <name>TP996</name>
  </trkpt>
  <trkpt lat="40.58312" lon="8.31765">
    <name>TP997</name>
  </trkpt>
  <trkpt lat="40.58309" lon="8.31767">
    <name>TP998</name>
  </trkpt>
  <trkpt lat="40.58304" lon="8.3177">
    <name>TP999</name>
  </trkpt>
  <trkpt lat="40.58302" lon="8.31771">
    <name>TP1000</name>
  </trkpt>
  <trkpt lat="40.58301" lon="8.31771">
    <name>TP1001</name>
  </trkpt>
  <trkpt lat="40.58295" lon="8.31773">
    <name>TP1002</name>
  </trkpt>
  <trkpt lat="40.58287" lon="8.31776">
    <name>TP1003</name>
  </trkpt>
  <trkpt lat="40.58281" lon="8.31778">
    <name>TP1004</name>
  </trkpt>
  <trkpt lat="40.58264" lon="8.31783">
    <name>TP1005</name>
  </trkpt>
  <trkpt lat="40.58254" lon="8.31786">
    <name>TP1006</name>
  </trkpt>
  <trkpt lat="40.58232" lon="8.31794">
    <name>TP1007</name>
  </trkpt>
  <trkpt lat="40.58231" lon="8.31794">
    <name>TP1008</name>
  </trkpt>
  <trkpt lat="40.5823" lon="8.31795">
    <name>TP1009</name>
  </trkpt>
  <trkpt lat="40.58229" lon="8.31795">
    <name>TP1010</name>
  </trkpt>
  <trkpt lat="40.58225" lon="8.31799">
    <name>TP1011</name>
  </trkpt>
  <trkpt lat="40.58207" lon="8.31805">
    <name>TP1012</name>
  </trkpt>
  <trkpt lat="40.58199" lon="8.31808">
    <name>TP1013</name>
  </trkpt>
  <trkpt lat="40.58179" lon="8.31814">
    <name>TP1014</name>
  </trkpt>
  <trkpt lat="40.58162" lon="8.3182">
    <name>TP1015</name>
  </trkpt>
  <trkpt lat="40.58144" lon="8.31825">
    <name>TP1016</name>
  </trkpt>
  <trkpt lat="40.58121" lon="8.31831">
    <name>TP1017</name>
  </trkpt>
  <trkpt lat="40.58068" lon="8.31849">
    <name>TP1018</name>
  </trkpt>
  <trkpt lat="40.58014" lon="8.31868">
    <name>TP1019</name>
  </trkpt>
  <trkpt lat="40.57984" lon="8.31876">
    <name>TP1020</name>
  </trkpt>
  <trkpt lat="40.57967" lon="8.31882">
    <name>TP1021</name>
  </trkpt>
  <trkpt lat="40.5795" lon="8.31887">
    <name>TP1022</name>
  </trkpt>
  <trkpt lat="40.57925" lon="8.31895">
    <name>TP1023</name>
  </trkpt>
  <trkpt lat="40.57918" lon="8.31897">
    <name>TP1024</name>
  </trkpt>
  <trkpt lat="40.57901" lon="8.31903">
    <name>TP1025</name>
  </trkpt>
  <trkpt lat="40.57897" lon="8.31904">
    <name>TP1026</name>
  </trkpt>
  <trkpt lat="40.57893" lon="8.31906">
    <name>TP1027</name>
  </trkpt>
  <trkpt lat="40.57888" lon="8.31907">
    <name>TP1028</name>
  </trkpt>
  <trkpt lat="40.57876" lon="8.31911">
    <name>TP1029</name>
  </trkpt>
  <trkpt lat="40.57868" lon="8.31912">
    <name>TP1030</name>
  </trkpt>
  <trkpt lat="40.57858" lon="8.31914">
    <name>TP1031</name>
  </trkpt>
  <trkpt lat="40.57826" lon="8.31924">
    <name>TP1032</name>
  </trkpt>
  <trkpt lat="40.57799" lon="8.31932">
    <name>TP1033</name>
  </trkpt>
  <trkpt lat="40.57795" lon="8.31935">
    <name>TP1034</name>
  </trkpt>
  <trkpt lat="40.57778" lon="8.31941">
    <name>TP1035</name>
  </trkpt>
  <trkpt lat="40.57752" lon="8.31954">
    <name>TP1036</name>
  </trkpt>
  <trkpt lat="40.57728" lon="8.3197">
    <name>TP1037</name>
  </trkpt>
  <trkpt lat="40.57683" lon="8.32001">
    <name>TP1038</name>
  </trkpt>
  <trkpt lat="40.57677" lon="8.32005">
    <name>TP1039</name>
  </trkpt>
  <trkpt lat="40.57659" lon="8.32019">
    <name>TP1040</name>
  </trkpt>
  <trkpt lat="40.57651" lon="8.32025">
    <name>TP1041</name>
  </trkpt>
  <trkpt lat="40.57644" lon="8.32029">
    <name>TP1042</name>
  </trkpt>
  <trkpt lat="40.57591" lon="8.32068">
    <name>TP1043</name>
  </trkpt>
  <trkpt lat="40.57588" lon="8.3207">
    <name>TP1044</name>
  </trkpt>
  <trkpt lat="40.57586" lon="8.32072">
    <name>TP1045</name>
  </trkpt>
  <trkpt lat="40.57578" lon="8.32078">
    <name>TP1046</name>
  </trkpt>
  <trkpt lat="40.57569" lon="8.32085">
    <name>TP1047</name>
  </trkpt>
  <trkpt lat="40.57559" lon="8.32092">
    <name>TP1048</name>
  </trkpt>
  <trkpt lat="40.57555" lon="8.32095">
    <name>TP1049</name>
  </trkpt>
  <trkpt lat="40.57521" lon="8.3212">
    <name>TP1050</name>
  </trkpt>
  <trkpt lat="40.57517" lon="8.32123">
    <name>TP1051</name>
  </trkpt>
  <trkpt lat="40.57509" lon="8.32129">
    <name>TP1052</name>
  </trkpt>
  <trkpt lat="40.57492" lon="8.32141">
    <name>TP1053</name>
  </trkpt>
  <trkpt lat="40.57447" lon="8.32174">
    <name>TP1054</name>
  </trkpt>
  <trkpt lat="40.5743" lon="8.32185">
    <name>TP1055</name>
  </trkpt>
  <trkpt lat="40.57416" lon="8.32194">
    <name>TP1056</name>
  </trkpt>
  <trkpt lat="40.57412" lon="8.32197">
    <name>TP1057</name>
  </trkpt>
  <trkpt lat="40.57408" lon="8.322">
    <name>TP1058</name>
  </trkpt>
  <trkpt lat="40.57403" lon="8.32202">
    <name>TP1059</name>
  </trkpt>
  <trkpt lat="40.57398" lon="8.32204">
    <name>TP1060</name>
  </trkpt>
  <trkpt lat="40.57389" lon="8.32207">
    <name>TP1061</name>
  </trkpt>
  <trkpt lat="40.57378" lon="8.32209">
    <name>TP1062</name>
  </trkpt>
  <trkpt lat="40.57373" lon="8.32209">
    <name>TP1063</name>
  </trkpt>
  <trkpt lat="40.57345" lon="8.32209">
    <name>TP1064</name>
  </trkpt>
  <trkpt lat="40.57344" lon="8.32209">
    <name>TP1065</name>
  </trkpt>
  <trkpt lat="40.57313" lon="8.32213">
    <name>TP1066</name>
  </trkpt>
  <trkpt lat="40.57303" lon="8.32219">
    <name>TP1067</name>
  </trkpt>
  <trkpt lat="40.57297" lon="8.32224">
    <name>TP1068</name>
  </trkpt>
  <trkpt lat="40.5729722" lon="8.3222391">
    <name>TP1069</name>
  </trkpt>
  <trkpt lat="40.57297" lon="8.32223">
    <name>TP1070</name>
  </trkpt>
  <trkpt lat="40.57296" lon="8.32223">
    <name>TP1071</name>
  </trkpt>
  <trkpt lat="40.57295" lon="8.32222">
    <name>TP1072</name>
  </trkpt>
  <trkpt lat="40.57294" lon="8.32222">
    <name>TP1073</name>
  </trkpt>
  <trkpt lat="40.57293" lon="8.32221">
    <name>TP1074</name>
  </trkpt>
  <trkpt lat="40.57292" lon="8.32221">
    <name>TP1075</name>
  </trkpt>
  <trkpt lat="40.57291" lon="8.32221">
    <name>TP1076</name>
  </trkpt>
  <trkpt lat="40.5729" lon="8.32221">
    <name>TP1077</name>
  </trkpt>
  <trkpt lat="40.57289" lon="8.32221">
    <name>TP1078</name>
  </trkpt>
  <trkpt lat="40.57288" lon="8.32221">
    <name>TP1079</name>
  </trkpt>
  <trkpt lat="40.57287" lon="8.32221">
    <name>TP1080</name>
  </trkpt>
  <trkpt lat="40.57286" lon="8.32222">
    <name>TP1081</name>
  </trkpt>
  <trkpt lat="40.57285" lon="8.32222">
    <name>TP1082</name>
  </trkpt>
  <trkpt lat="40.57258" lon="8.32222">
    <name>TP1083</name>
  </trkpt>
  <trkpt lat="40.57241" lon="8.32223">
    <name>TP1084</name>
  </trkpt>
  <trkpt lat="40.57204" lon="8.32224">
    <name>TP1085</name>
  </trkpt>
  <trkpt lat="40.57199" lon="8.32224">
    <name>TP1086</name>
  </trkpt>
  <trkpt lat="40.57193" lon="8.32224">
    <name>TP1087</name>
  </trkpt>
  <trkpt lat="40.57185" lon="8.32225">
    <name>TP1088</name>
  </trkpt>
  <trkpt lat="40.57177" lon="8.32225">
    <name>TP1089</name>
  </trkpt>
  <trkpt lat="40.57172" lon="8.32225">
    <name>TP1090</name>
  </trkpt>
  <trkpt lat="40.57153" lon="8.32225">
    <name>TP1091</name>
  </trkpt>
  <trkpt lat="40.5714" lon="8.32223">
    <name>TP1092</name>
  </trkpt>
  <trkpt lat="40.57126" lon="8.32221">
    <name>TP1093</name>
  </trkpt>
  <trkpt lat="40.57114" lon="8.32217">
    <name>TP1094</name>
  </trkpt>
  <trkpt lat="40.57101" lon="8.32211">
    <name>TP1095</name>
  </trkpt>
  <trkpt lat="40.5709" lon="8.32205">
    <name>TP1096</name>
  </trkpt>
  <trkpt lat="40.57075" lon="8.32194">
    <name>TP1097</name>
  </trkpt>
  <trkpt lat="40.57063" lon="8.32183">
    <name>TP1098</name>
  </trkpt>
  <trkpt lat="40.57061" lon="8.32181">
    <name>TP1099</name>
  </trkpt>
  <trkpt lat="40.57054" lon="8.32174">
    <name>TP1100</name>
  </trkpt>
  <trkpt lat="40.57053" lon="8.32172">
    <name>TP1101</name>
  </trkpt>
  <trkpt lat="40.57045" lon="8.32164">
    <name>TP1102</name>
  </trkpt>
  <trkpt lat="40.57035" lon="8.32151">
    <name>TP1103</name>
  </trkpt>
  <trkpt lat="40.5703495" lon="8.3215126">
    <name>TP1104</name>
  </trkpt>
  <trkpt lat="40.57036" lon="8.32151">
    <name>TP1105</name>
  </trkpt>
  <trkpt lat="40.57036" lon="8.3215">
    <name>TP1106</name>
  </trkpt>
  <trkpt lat="40.57036" lon="8.32149">
    <name>TP1107</name>
  </trkpt>
  <trkpt lat="40.57037" lon="8.32149">
    <name>TP1108</name>
  </trkpt>
  <trkpt lat="40.57037" lon="8.32148">
    <name>TP1109</name>
  </trkpt>
  <trkpt lat="40.57037" lon="8.32147">
    <name>TP1110</name>
  </trkpt>
  <trkpt lat="40.57037" lon="8.32146">
    <name>TP1111</name>
  </trkpt>
  <trkpt lat="40.57037" lon="8.32145">
    <name>TP1112</name>
  </trkpt>
  <trkpt lat="40.57037" lon="8.32144">
    <name>TP1113</name>
  </trkpt>
  <trkpt lat="40.57037" lon="8.32143">
    <name>TP1114</name>
  </trkpt>
  <trkpt lat="40.57037" lon="8.32142">
    <name>TP1115</name>
  </trkpt>
  <trkpt lat="40.57036" lon="8.32142">
    <name>TP1116</name>
  </trkpt>
  <trkpt lat="40.57036" lon="8.32141">
    <name>TP1117</name>
  </trkpt>
  <trkpt lat="40.57036" lon="8.3214">
    <name>TP1118</name>
  </trkpt>
  <trkpt lat="40.57035" lon="8.3214">
    <name>TP1119</name>
  </trkpt>
  <trkpt lat="40.57035" lon="8.32139">
    <name>TP1120</name>
  </trkpt>
  <trkpt lat="40.57034" lon="8.32139">
    <name>TP1121</name>
  </trkpt>
  <trkpt lat="40.57034" lon="8.32138">
    <name>TP1122</name>
  </trkpt>
  <trkpt lat="40.57033" lon="8.32138">
    <name>TP1123</name>
  </trkpt>
  <trkpt lat="40.57032" lon="8.32138">
    <name>TP1124</name>
  </trkpt>
  <trkpt lat="40.57032" lon="8.32137">
    <name>TP1125</name>
  </trkpt>
  <trkpt lat="40.57031" lon="8.32137">
    <name>TP1126</name>
  </trkpt>
  <trkpt lat="40.5703" lon="8.32137">
    <name>TP1127</name>
  </trkpt>
  <trkpt lat="40.5703" lon="8.32138">
    <name>TP1128</name>
  </trkpt>
  <trkpt lat="40.57029" lon="8.32138">
    <name>TP1129</name>
  </trkpt>
  <trkpt lat="40.57028" lon="8.32138">
    <name>TP1130</name>
  </trkpt>
  <trkpt lat="40.57028" lon="8.32139">
    <name>TP1131</name>
  </trkpt>
  <trkpt lat="40.57027" lon="8.32139">
    <name>TP1132</name>
  </trkpt>
  <trkpt lat="40.57027" lon="8.3214">
    <name>TP1133</name>
  </trkpt>
  <trkpt lat="40.57026" lon="8.3214">
    <name>TP1134</name>
  </trkpt>
  <trkpt lat="40.57026" lon="8.32141">
    <name>TP1135</name>
  </trkpt>
  <trkpt lat="40.57026" lon="8.32142">
    <name>TP1136</name>
  </trkpt>
  <trkpt lat="40.57025" lon="8.32143">
    <name>TP1137</name>
  </trkpt>
  <trkpt lat="40.57025" lon="8.32144">
    <name>TP1138</name>
  </trkpt>
  <trkpt lat="40.57025" lon="8.32145">
    <name>TP1139</name>
  </trkpt>
  <trkpt lat="40.57025" lon="8.32146">
    <name>TP1140</name>
  </trkpt>
  <trkpt lat="40.57025" lon="8.32147">
    <name>TP1141</name>
  </trkpt>
  <trkpt lat="40.57025" lon="8.32148">
    <name>TP1142</name>
  </trkpt>
  <trkpt lat="40.57026" lon="8.32148">
    <name>TP1143</name>
  </trkpt>
  <trkpt lat="40.57026" lon="8.32149">
    <name>TP1144</name>
  </trkpt>
  <trkpt lat="40.57026" lon="8.3215">
    <name>TP1145</name>
  </trkpt>
  <trkpt lat="40.56994" lon="8.32174">
    <name>TP1146</name>
  </trkpt>
  <trkpt lat="40.56981" lon="8.32183">
    <name>TP1147</name>
  </trkpt>
  <trkpt lat="40.5693" lon="8.32222">
    <name>TP1148</name>
  </trkpt>
  <trkpt lat="40.56906" lon="8.3224">
    <name>TP1149</name>
  </trkpt>
  <trkpt lat="40.56884" lon="8.32258">
    <name>TP1150</name>
  </trkpt>
  <trkpt lat="40.5688365" lon="8.3225844">
    <name>TP1151</name>
  </trkpt>
  <trkpt lat="40.5688" lon="8.32252">
    <name>TP1152</name>
  </trkpt>
  <trkpt lat="40.56867" lon="8.32231">
    <name>TP1153</name>
  </trkpt>
  <trkpt lat="40.56858" lon="8.32218">
    <name>TP1154</name>
  </trkpt>
  <trkpt lat="40.5684" lon="8.3219">
    <name>TP1155</name>
  </trkpt>
  <trkpt lat="40.56833" lon="8.32179">
    <name>TP1156</name>
  </trkpt>
  <trkpt lat="40.56824" lon="8.32169">
    <name>TP1157</name>
  </trkpt>
  <trkpt lat="40.56816" lon="8.3216">
    <name>TP1158</name>
  </trkpt>
  <trkpt lat="40.56804" lon="8.32149">
    <name>TP1159</name>
  </trkpt>
  <trkpt lat="40.56792" lon="8.32139">
    <name>TP1160</name>
  </trkpt>
  <trkpt lat="40.56789" lon="8.32137">
    <name>TP1161</name>
  </trkpt>
  <trkpt lat="40.56774" lon="8.32124">
    <name>TP1162</name>
  </trkpt>
  <trkpt lat="40.56744" lon="8.32101">
    <name>TP1163</name>
  </trkpt>
  <trkpt lat="40.56721" lon="8.32083">
    <name>TP1164</name>
  </trkpt>
  <trkpt lat="40.56713" lon="8.32076">
    <name>TP1165</name>
  </trkpt>
  <trkpt lat="40.567" lon="8.32067">
    <name>TP1166</name>
  </trkpt>
  <trkpt lat="40.56697" lon="8.32065">
    <name>TP1167</name>
  </trkpt>
  <trkpt lat="40.56615" lon="8.31999">
    <name>TP1168</name>
  </trkpt>
  <trkpt lat="40.56565" lon="8.31956">
    <name>TP1169</name>
  </trkpt>
  <trkpt lat="40.5656473" lon="8.3195593">
    <name>TP1170</name>
  </trkpt>
  <trkpt lat="40.56531" lon="8.32045">
    <name>TP1171</name>
  </trkpt>
  <trkpt lat="40.5653142" lon="8.3204506">
    <name>TP1172</name>
  </trkpt>
  <trkpt lat="40.56487" lon="8.32012">
    <name>TP1173</name>
  </trkpt>
  <trkpt lat="40.56466" lon="8.31997">
    <name>TP1174</name>
  </trkpt>
  <trkpt lat="40.5644" lon="8.31974">
    <name>TP1175</name>
  </trkpt>
  <trkpt lat="40.56427" lon="8.31962">
    <name>TP1176</name>
  </trkpt>
  <trkpt lat="40.56397" lon="8.31934">
    <name>TP1177</name>
  </trkpt>
  <trkpt lat="40.56384" lon="8.31925">
    <name>TP1178</name>
  </trkpt>
  <trkpt lat="40.56381" lon="8.31922">
    <name>TP1179</name>
  </trkpt>
  <trkpt lat="40.5634" lon="8.31885">
    <name>TP1180</name>
  </trkpt>
  <trkpt lat="40.56269" lon="8.31824">
    <name>TP1181</name>
  </trkpt>
  <trkpt lat="40.5626946" lon="8.3182428">
    <name>TP1182</name>
  </trkpt>
  <trkpt lat="40.56293" lon="8.31782">
    <name>TP1183</name>
  </trkpt>
  <trkpt lat="40.56301" lon="8.31767">
    <name>TP1184</name>
  </trkpt>
  <trkpt lat="40.5630113" lon="8.3176725">
    <name>TP1185</name>
  </trkpt>
  <trkpt lat="40.5629" lon="8.31758">
    <name>TP1186</name>
  </trkpt>
  <trkpt lat="40.5628963" lon="8.3175845">
    <name>TP1187</name>
  </trkpt>
  <trkpt lat="40.56275" lon="8.31784">
    <name>TP1188</name>
  </trkpt>
  <trkpt lat="40.5627535" lon="8.3178442">
    <name>TP1189</name>
  </trkpt>
  <trkpt lat="40.56262" lon="8.31773">
    <name>TP1190</name>
  </trkpt>
  <trkpt lat="40.56253" lon="8.31765">
    <name>TP1191</name>
  </trkpt>
  <trkpt lat="40.56242" lon="8.31755">
    <name>TP1192</name>
  </trkpt>
  <trkpt lat="40.56233" lon="8.31748">
    <name>TP1193</name>
  </trkpt>
  <trkpt lat="40.56227" lon="8.31743">
    <name>TP1194</name>
  </trkpt>
  <trkpt lat="40.56223" lon="8.31739">
    <name>TP1195</name>
  </trkpt>
  <trkpt lat="40.56214" lon="8.31731">
    <name>TP1196</name>
  </trkpt>
  <trkpt lat="40.56205" lon="8.31724">
    <name>TP1197</name>
  </trkpt>
  <trkpt lat="40.562" lon="8.31707">
    <name>TP1198</name>
  </trkpt>
  <trkpt lat="40.5619" lon="8.31694">
    <name>TP1199</name>
  </trkpt>
  <trkpt lat="40.56182" lon="8.31687">
    <name>TP1200</name>
  </trkpt>
  <trkpt lat="40.56187" lon="8.31677">
    <name>TP1201</name>
  </trkpt>
  <trkpt lat="40.5618731" lon="8.3167718">
    <name>TP1202</name>
  </trkpt>
  <trkpt lat="40.5618731" lon="8.3167718">
    <name>TP1203</name>
  </trkpt>
  <trkpt lat="40.5618731" lon="8.3167718">
    <name>TP1204</name>
  </trkpt>
  </trkseg>
</trk>
</gpx>