<?xml version="1.0" encoding="UTF-8" standalone="no" ?>
<gpx xmlns="http://www.topografix.com/GPX/1/1" xmlns:gpxx="http://www.garmin.com/xmlschemas/GpxExtensions/v3" xmlns:gpxtpx="http://www.garmin.com/xmlschemas/TrackPointExtension/v1" creator="mapstogpx.com" version="1.1" xmlns:xsi="http://www.w3.org/2001/XMLSchema-instance" xsi:schemaLocation="http://www.topografix.com/GPX/1/1 http://www.topografix.com/GPX/1/1/gpx.xsd http://www.garmin.com/xmlschemas/GpxExtensions/v3 http://www.garmin.com/xmlschemas/GpxExtensionsv3.xsd http://www.garmin.com/xmlschemas/TrackPointExtension/v1 http://www.garmin.com/xmlschemas/TrackPointExtensionv1.xsd">
  <metadata>
    <link href="http://www.mapstogpx.com">
      <text>Sverrir Sigmundarson</text>
    </link>
    <!--desc>Powered by Google, ©2025 Google</desc-->
    <!--copyright author="Google Inc">
    	<year>2025</year>
    	<license>https://developers.google.com/maps/terms</license>
    </copyright-->
    <!--url>https://www.google.com/maps/dir/C%C3%A0mping+%26+Bungalows+Vall+de+Laguar,+Carrer+Sant+Antoni,+Campell/Apartamento+Benimaurell,+Partida+Puchol,+9,+03791+Benimaurell,+Alicante/Wasserquelle/@38.747692,-0.2050193,15404m/data=!3m2!1e3!5s0x129e02cb9d63b3ff:0xcc0027a8fdb85315!4m25!4m24!1m5!1m1!1s0xd61fb0787d5b677:0x7976da7aaa63f60!2m2!1d-0.1057004!2d38.7768887!1m10!1m1!1s0xd61fb69c5f57a59:0x870d54712f5fb4a1!2m2!1d-0.1272386!2d38.7736312!3m4!1m2!1d-0.1037385!2d38.781488!3s0xd61fb065bae53f1:0x681b987b1d7a947!1m5!1m1!1s0xd61fb193b94eaab:0xc736f276e1f97bab!2m2!1d-0.1050379!2d38.7771723!3e0?entry=tts&g_ep=EgoyMDI1MDQyMy4wKgksMTAyMTE2MzlIAVAD&skid=ce25b226-2300-4f96-8f9f-5b02ae9914b5&hl=en</url-->
    <time>2025-04-29T21:19:08Z</time>
  </metadata>
  <wpt lat="38.7768887" lon="-0.1057004">
    <name>Càmping &amp; Bungalows Vall de Laguar</name>
    <desc>Càmping &amp; Bungalows Vall de Laguar, Carrer Sant Antoni, 24, 03791 Campell, Alicante, Spain</desc>
  </wpt>
  <wpt lat="38.7736312" lon="-0.1272386">
    <name>Apartamento Benimaurell</name>
    <desc>Apartamento Benimaurell, Partida Puchol, 9, 03791 Benimaurell, Alicante, Spain</desc>
  </wpt>
  <wpt lat="38.7771723" lon="-0.1050379">
    <name>Wasserquelle</name>
    <desc>Wasserquelle, Partida Font del Campell, 3, 03791, Alicante, Spain</desc>
  </wpt>
<trk>
  <name>Càmping &amp; Bungalows Vall de Laguar to Wasserquelle</name>
  <number>1</number>
  <trkseg>
  <trkpt lat="38.7769161" lon="-0.105597">
    <name>TP001</name>
  </trkpt>
  <trkpt lat="38.77689" lon="-0.10558">
    <name>TP002</name>
  </trkpt>
  <trkpt lat="38.77683" lon="-0.10556">
    <name>TP003</name>
  </trkpt>
  <trkpt lat="38.77673" lon="-0.10547">
    <name>TP004</name>
  </trkpt>
  <trkpt lat="38.7767" lon="-0.10544">
    <name>TP005</name>
  </trkpt>
  <trkpt lat="38.77666" lon="-0.10537">
    <name>TP006</name>
  </trkpt>
  <trkpt lat="38.77662" lon="-0.10532">
    <name>TP007</name>
  </trkpt>
  <trkpt lat="38.77661" lon="-0.1053">
    <name>TP008</name>
  </trkpt>
  <trkpt lat="38.77659" lon="-0.10528">
    <name>TP009</name>
  </trkpt>
  <trkpt lat="38.77659" lon="-0.10525">
    <name>TP010</name>
  </trkpt>
  <trkpt lat="38.77658" lon="-0.10522">
    <name>TP011</name>
  </trkpt>
  <trkpt lat="38.77659" lon="-0.10518">
    <name>TP012</name>
  </trkpt>
  <trkpt lat="38.77661" lon="-0.10515">
    <name>TP013</name>
  </trkpt>
  <trkpt lat="38.77664" lon="-0.10511">
    <name>TP014</name>
  </trkpt>
  <trkpt lat="38.7766412" lon="-0.1051092">
    <name>TP015</name>
  </trkpt>
  <trkpt lat="38.77653" lon="-0.10504">
    <name>TP016</name>
  </trkpt>
  <trkpt lat="38.77649" lon="-0.10498">
    <name>TP017</name>
  </trkpt>
  <trkpt lat="38.77647" lon="-0.10495">
    <name>TP018</name>
  </trkpt>
  <trkpt lat="38.77638" lon="-0.10483">
    <name>TP019</name>
  </trkpt>
  <trkpt lat="38.77637" lon="-0.10482">
    <name>TP020</name>
  </trkpt>
  <trkpt lat="38.77633" lon="-0.10477">
    <name>TP021</name>
  </trkpt>
  <trkpt lat="38.77629" lon="-0.10474">
    <name>TP022</name>
  </trkpt>
  <trkpt lat="38.77627" lon="-0.10473">
    <name>TP023</name>
  </trkpt>
  <trkpt lat="38.77625" lon="-0.10472">
    <name>TP024</name>
  </trkpt>
  <trkpt lat="38.77621" lon="-0.10472">
    <name>TP025</name>
  </trkpt>
  <trkpt lat="38.77618" lon="-0.10471">
    <name>TP026</name>
  </trkpt>
  <trkpt lat="38.77604" lon="-0.10476">
    <name>TP027</name>
  </trkpt>
  <trkpt lat="38.77592" lon="-0.1048">
    <name>TP028</name>
  </trkpt>
  <trkpt lat="38.77586" lon="-0.10482">
    <name>TP029</name>
  </trkpt>
  <trkpt lat="38.77579" lon="-0.10485">
    <name>TP030</name>
  </trkpt>
  <trkpt lat="38.77572" lon="-0.10487">
    <name>TP031</name>
  </trkpt>
  <trkpt lat="38.77569" lon="-0.10487">
    <name>TP032</name>
  </trkpt>
  <trkpt lat="38.77566" lon="-0.10487">
    <name>TP033</name>
  </trkpt>
  <trkpt lat="38.77562" lon="-0.10487">
    <name>TP034</name>
  </trkpt>
  <trkpt lat="38.77558" lon="-0.10486">
    <name>TP035</name>
  </trkpt>
  <trkpt lat="38.77556" lon="-0.10482">
    <name>TP036</name>
  </trkpt>
  <trkpt lat="38.77554" lon="-0.10479">
    <name>TP037</name>
  </trkpt>
  <trkpt lat="38.77554" lon="-0.10477">
    <name>TP038</name>
  </trkpt>
  <trkpt lat="38.77551" lon="-0.10468">
    <name>TP039</name>
  </trkpt>
  <trkpt lat="38.7755" lon="-0.10456">
    <name>TP040</name>
  </trkpt>
  <trkpt lat="38.77549" lon="-0.10438">
    <name>TP041</name>
  </trkpt>
  <trkpt lat="38.77548" lon="-0.10434">
    <name>TP042</name>
  </trkpt>
  <trkpt lat="38.77546" lon="-0.10425">
    <name>TP043</name>
  </trkpt>
  <trkpt lat="38.77542" lon="-0.10412">
    <name>TP044</name>
  </trkpt>
  <trkpt lat="38.77541" lon="-0.1041">
    <name>TP045</name>
  </trkpt>
  <trkpt lat="38.77539" lon="-0.10401">
    <name>TP046</name>
  </trkpt>
  <trkpt lat="38.77539" lon="-0.10392">
    <name>TP047</name>
  </trkpt>
  <trkpt lat="38.77539" lon="-0.1039">
    <name>TP048</name>
  </trkpt>
  <trkpt lat="38.77539" lon="-0.10383">
    <name>TP049</name>
  </trkpt>
  <trkpt lat="38.7754" lon="-0.10376">
    <name>TP050</name>
  </trkpt>
  <trkpt lat="38.77539" lon="-0.10374">
    <name>TP051</name>
  </trkpt>
  <trkpt lat="38.77538" lon="-0.1037">
    <name>TP052</name>
  </trkpt>
  <trkpt lat="38.77536" lon="-0.10368">
    <name>TP053</name>
  </trkpt>
  <trkpt lat="38.77535" lon="-0.10367">
    <name>TP054</name>
  </trkpt>
  <trkpt lat="38.7753" lon="-0.10365">
    <name>TP055</name>
  </trkpt>
  <trkpt lat="38.77525" lon="-0.10364">
    <name>TP056</name>
  </trkpt>
  <trkpt lat="38.7752489" lon="-0.1036395">
    <name>TP057</name>
  </trkpt>
  <trkpt lat="38.77528" lon="-0.1037">
    <name>TP058</name>
  </trkpt>
  <trkpt lat="38.77529" lon="-0.10374">
    <name>TP059</name>
  </trkpt>
  <trkpt lat="38.77529" lon="-0.10377">
    <name>TP060</name>
  </trkpt>
  <trkpt lat="38.77529" lon="-0.10383">
    <name>TP061</name>
  </trkpt>
  <trkpt lat="38.7753" lon="-0.10393">
    <name>TP062</name>
  </trkpt>
  <trkpt lat="38.7753" lon="-0.10395">
    <name>TP063</name>
  </trkpt>
  <trkpt lat="38.7753" lon="-0.10403">
    <name>TP064</name>
  </trkpt>
  <trkpt lat="38.77532" lon="-0.10413">
    <name>TP065</name>
  </trkpt>
  <trkpt lat="38.77534" lon="-0.10424">
    <name>TP066</name>
  </trkpt>
  <trkpt lat="38.77535" lon="-0.10432">
    <name>TP067</name>
  </trkpt>
  <trkpt lat="38.77535" lon="-0.10436">
    <name>TP068</name>
  </trkpt>
  <trkpt lat="38.77534" lon="-0.10446">
    <name>TP069</name>
  </trkpt>
  <trkpt lat="38.77532" lon="-0.10458">
    <name>TP070</name>
  </trkpt>
  <trkpt lat="38.77528" lon="-0.10481">
    <name>TP071</name>
  </trkpt>
  <trkpt lat="38.77527" lon="-0.10482">
    <name>TP072</name>
  </trkpt>
  <trkpt lat="38.77523" lon="-0.10516">
    <name>TP073</name>
  </trkpt>
  <trkpt lat="38.77521" lon="-0.10526">
    <name>TP074</name>
  </trkpt>
  <trkpt lat="38.77519" lon="-0.10534">
    <name>TP075</name>
  </trkpt>
  <trkpt lat="38.77515" lon="-0.10548">
    <name>TP076</name>
  </trkpt>
  <trkpt lat="38.77511" lon="-0.10558">
    <name>TP077</name>
  </trkpt>
  <trkpt lat="38.77508" lon="-0.10568">
    <name>TP078</name>
  </trkpt>
  <trkpt lat="38.77508" lon="-0.10569">
    <name>TP079</name>
  </trkpt>
  <trkpt lat="38.77507" lon="-0.10582">
    <name>TP080</name>
  </trkpt>
  <trkpt lat="38.77508" lon="-0.10596">
    <name>TP081</name>
  </trkpt>
  <trkpt lat="38.7751" lon="-0.10617">
    <name>TP082</name>
  </trkpt>
  <trkpt lat="38.77513" lon="-0.10637">
    <name>TP083</name>
  </trkpt>
  <trkpt lat="38.77516" lon="-0.10654">
    <name>TP084</name>
  </trkpt>
  <trkpt lat="38.77524" lon="-0.1067">
    <name>TP085</name>
  </trkpt>
  <trkpt lat="38.77528" lon="-0.10676">
    <name>TP086</name>
  </trkpt>
  <trkpt lat="38.77529" lon="-0.10678">
    <name>TP087</name>
  </trkpt>
  <trkpt lat="38.77535" lon="-0.10683">
    <name>TP088</name>
  </trkpt>
  <trkpt lat="38.77542" lon="-0.10687">
    <name>TP089</name>
  </trkpt>
  <trkpt lat="38.77545" lon="-0.10688">
    <name>TP090</name>
  </trkpt>
  <trkpt lat="38.77551" lon="-0.10689">
    <name>TP091</name>
  </trkpt>
  <trkpt lat="38.77566" lon="-0.10698">
    <name>TP092</name>
  </trkpt>
  <trkpt lat="38.77585" lon="-0.10717">
    <name>TP093</name>
  </trkpt>
  <trkpt lat="38.77591" lon="-0.10723">
    <name>TP094</name>
  </trkpt>
  <trkpt lat="38.77593" lon="-0.10726">
    <name>TP095</name>
  </trkpt>
  <trkpt lat="38.77597" lon="-0.1073">
    <name>TP096</name>
  </trkpt>
  <trkpt lat="38.776" lon="-0.10734">
    <name>TP097</name>
  </trkpt>
  <trkpt lat="38.77605" lon="-0.10736">
    <name>TP098</name>
  </trkpt>
  <trkpt lat="38.77606" lon="-0.10737">
    <name>TP099</name>
  </trkpt>
  <trkpt lat="38.77611" lon="-0.10738">
    <name>TP100</name>
  </trkpt>
  <trkpt lat="38.77613" lon="-0.10738">
    <name>TP101</name>
  </trkpt>
  <trkpt lat="38.77615" lon="-0.10738">
    <name>TP102</name>
  </trkpt>
  <trkpt lat="38.77616" lon="-0.10738">
    <name>TP103</name>
  </trkpt>
  <trkpt lat="38.77616" lon="-0.10739">
    <name>TP104</name>
  </trkpt>
  <trkpt lat="38.77617" lon="-0.1074">
    <name>TP105</name>
  </trkpt>
  <trkpt lat="38.77618" lon="-0.10742">
    <name>TP106</name>
  </trkpt>
  <trkpt lat="38.77618" lon="-0.10743">
    <name>TP107</name>
  </trkpt>
  <trkpt lat="38.77618" lon="-0.10747">
    <name>TP108</name>
  </trkpt>
  <trkpt lat="38.776181" lon="-0.1074688">
    <name>TP109</name>
  </trkpt>
  <trkpt lat="38.77627" lon="-0.10741">
    <name>TP110</name>
  </trkpt>
  <trkpt lat="38.77635" lon="-0.1074">
    <name>TP111</name>
  </trkpt>
  <trkpt lat="38.77648" lon="-0.10737">
    <name>TP112</name>
  </trkpt>
  <trkpt lat="38.77653" lon="-0.10736">
    <name>TP113</name>
  </trkpt>
  <trkpt lat="38.77662" lon="-0.10736">
    <name>TP114</name>
  </trkpt>
  <trkpt lat="38.77671" lon="-0.10737">
    <name>TP115</name>
  </trkpt>
  <trkpt lat="38.77672" lon="-0.10738">
    <name>TP116</name>
  </trkpt>
  <trkpt lat="38.77681" lon="-0.10743">
    <name>TP117</name>
  </trkpt>
  <trkpt lat="38.77696" lon="-0.10753">
    <name>TP118</name>
  </trkpt>
  <trkpt lat="38.77711" lon="-0.10762">
    <name>TP119</name>
  </trkpt>
  <trkpt lat="38.77719" lon="-0.10768">
    <name>TP120</name>
  </trkpt>
  <trkpt lat="38.77726" lon="-0.10775">
    <name>TP121</name>
  </trkpt>
  <trkpt lat="38.77733" lon="-0.10782">
    <name>TP122</name>
  </trkpt>
  <trkpt lat="38.77747" lon="-0.10794">
    <name>TP123</name>
  </trkpt>
  <trkpt lat="38.77775" lon="-0.10815">
    <name>TP124</name>
  </trkpt>
  <trkpt lat="38.77789" lon="-0.10823">
    <name>TP125</name>
  </trkpt>
  <trkpt lat="38.7779" lon="-0.10823">
    <name>TP126</name>
  </trkpt>
  <trkpt lat="38.778" lon="-0.10828">
    <name>TP127</name>
  </trkpt>
  <trkpt lat="38.77806" lon="-0.1083">
    <name>TP128</name>
  </trkpt>
  <trkpt lat="38.77812" lon="-0.10831">
    <name>TP129</name>
  </trkpt>
  <trkpt lat="38.77823" lon="-0.10837">
    <name>TP130</name>
  </trkpt>
  <trkpt lat="38.77831" lon="-0.10841">
    <name>TP131</name>
  </trkpt>
  <trkpt lat="38.77839" lon="-0.10848">
    <name>TP132</name>
  </trkpt>
  <trkpt lat="38.7783866" lon="-0.1084842">
    <name>TP133</name>
  </trkpt>
  <trkpt lat="38.77839" lon="-0.10853">
    <name>TP134</name>
  </trkpt>
  <trkpt lat="38.77833" lon="-0.10873">
    <name>TP135</name>
  </trkpt>
  <trkpt lat="38.7783" lon="-0.10884">
    <name>TP136</name>
  </trkpt>
  <trkpt lat="38.77827" lon="-0.10895">
    <name>TP137</name>
  </trkpt>
  <trkpt lat="38.7782666" lon="-0.1089497">
    <name>TP138</name>
  </trkpt>
  <trkpt lat="38.77814" lon="-0.10931">
    <name>TP139</name>
  </trkpt>
  <trkpt lat="38.77811" lon="-0.10942">
    <name>TP140</name>
  </trkpt>
  <trkpt lat="38.77811" lon="-0.10945">
    <name>TP141</name>
  </trkpt>
  <trkpt lat="38.77812" lon="-0.10957">
    <name>TP142</name>
  </trkpt>
  <trkpt lat="38.77814" lon="-0.10966">
    <name>TP143</name>
  </trkpt>
  <trkpt lat="38.77819" lon="-0.10976">
    <name>TP144</name>
  </trkpt>
  <trkpt lat="38.77827" lon="-0.10989">
    <name>TP145</name>
  </trkpt>
  <trkpt lat="38.77831" lon="-0.11008">
    <name>TP146</name>
  </trkpt>
  <trkpt lat="38.7783" lon="-0.11016">
    <name>TP147</name>
  </trkpt>
  <trkpt lat="38.7783033" lon="-0.1101559">
    <name>TP148</name>
  </trkpt>
  <trkpt lat="38.77825" lon="-0.11033">
    <name>TP149</name>
  </trkpt>
  <trkpt lat="38.77824" lon="-0.11037">
    <name>TP150</name>
  </trkpt>
  <trkpt lat="38.77822" lon="-0.11042">
    <name>TP151</name>
  </trkpt>
  <trkpt lat="38.77821" lon="-0.11045">
    <name>TP152</name>
  </trkpt>
  <trkpt lat="38.7782" lon="-0.11049">
    <name>TP153</name>
  </trkpt>
  <trkpt lat="38.77819" lon="-0.11055">
    <name>TP154</name>
  </trkpt>
  <trkpt lat="38.77818" lon="-0.1106">
    <name>TP155</name>
  </trkpt>
  <trkpt lat="38.77817" lon="-0.11061">
    <name>TP156</name>
  </trkpt>
  <trkpt lat="38.77815" lon="-0.11071">
    <name>TP157</name>
  </trkpt>
  <trkpt lat="38.77814" lon="-0.11078">
    <name>TP158</name>
  </trkpt>
  <trkpt lat="38.77813" lon="-0.11082">
    <name>TP159</name>
  </trkpt>
  <trkpt lat="38.77812" lon="-0.11089">
    <name>TP160</name>
  </trkpt>
  <trkpt lat="38.77811" lon="-0.11093">
    <name>TP161</name>
  </trkpt>
  <trkpt lat="38.77811" lon="-0.11097">
    <name>TP162</name>
  </trkpt>
  <trkpt lat="38.7781" lon="-0.11101">
    <name>TP163</name>
  </trkpt>
  <trkpt lat="38.7781" lon="-0.11103">
    <name>TP164</name>
  </trkpt>
  <trkpt lat="38.77809" lon="-0.11107">
    <name>TP165</name>
  </trkpt>
  <trkpt lat="38.77809" lon="-0.11111">
    <name>TP166</name>
  </trkpt>
  <trkpt lat="38.77808" lon="-0.11114">
    <name>TP167</name>
  </trkpt>
  <trkpt lat="38.77807" lon="-0.11116">
    <name>TP168</name>
  </trkpt>
  <trkpt lat="38.77806" lon="-0.11121">
    <name>TP169</name>
  </trkpt>
  <trkpt lat="38.77804" lon="-0.11126">
    <name>TP170</name>
  </trkpt>
  <trkpt lat="38.77801" lon="-0.11133">
    <name>TP171</name>
  </trkpt>
  <trkpt lat="38.778" lon="-0.11136">
    <name>TP172</name>
  </trkpt>
  <trkpt lat="38.77798" lon="-0.11139">
    <name>TP173</name>
  </trkpt>
  <trkpt lat="38.77795" lon="-0.11146">
    <name>TP174</name>
  </trkpt>
  <trkpt lat="38.77793" lon="-0.1115">
    <name>TP175</name>
  </trkpt>
  <trkpt lat="38.77791" lon="-0.11154">
    <name>TP176</name>
  </trkpt>
  <trkpt lat="38.77788" lon="-0.11157">
    <name>TP177</name>
  </trkpt>
  <trkpt lat="38.77786" lon="-0.1116">
    <name>TP178</name>
  </trkpt>
  <trkpt lat="38.77783" lon="-0.11163">
    <name>TP179</name>
  </trkpt>
  <trkpt lat="38.77776" lon="-0.11166">
    <name>TP180</name>
  </trkpt>
  <trkpt lat="38.77769" lon="-0.1117">
    <name>TP181</name>
  </trkpt>
  <trkpt lat="38.77759" lon="-0.11175">
    <name>TP182</name>
  </trkpt>
  <trkpt lat="38.77729" lon="-0.11191">
    <name>TP183</name>
  </trkpt>
  <trkpt lat="38.77726" lon="-0.11193">
    <name>TP184</name>
  </trkpt>
  <trkpt lat="38.77722" lon="-0.11195">
    <name>TP185</name>
  </trkpt>
  <trkpt lat="38.7772" lon="-0.11198">
    <name>TP186</name>
  </trkpt>
  <trkpt lat="38.77712" lon="-0.11208">
    <name>TP187</name>
  </trkpt>
  <trkpt lat="38.77712" lon="-0.11209">
    <name>TP188</name>
  </trkpt>
  <trkpt lat="38.77708" lon="-0.11213">
    <name>TP189</name>
  </trkpt>
  <trkpt lat="38.777" lon="-0.11222">
    <name>TP190</name>
  </trkpt>
  <trkpt lat="38.7769" lon="-0.11231">
    <name>TP191</name>
  </trkpt>
  <trkpt lat="38.77688" lon="-0.11232">
    <name>TP192</name>
  </trkpt>
  <trkpt lat="38.77687" lon="-0.11233">
    <name>TP193</name>
  </trkpt>
  <trkpt lat="38.77684" lon="-0.11236">
    <name>TP194</name>
  </trkpt>
  <trkpt lat="38.77682" lon="-0.11239">
    <name>TP195</name>
  </trkpt>
  <trkpt lat="38.77679" lon="-0.11243">
    <name>TP196</name>
  </trkpt>
  <trkpt lat="38.77677" lon="-0.11246">
    <name>TP197</name>
  </trkpt>
  <trkpt lat="38.77676" lon="-0.11249">
    <name>TP198</name>
  </trkpt>
  <trkpt lat="38.77675" lon="-0.1125">
    <name>TP199</name>
  </trkpt>
  <trkpt lat="38.77674" lon="-0.11254">
    <name>TP200</name>
  </trkpt>
  <trkpt lat="38.7767" lon="-0.11264">
    <name>TP201</name>
  </trkpt>
  <trkpt lat="38.77668" lon="-0.11268">
    <name>TP202</name>
  </trkpt>
  <trkpt lat="38.77668" lon="-0.11269">
    <name>TP203</name>
  </trkpt>
  <trkpt lat="38.77666" lon="-0.11272">
    <name>TP204</name>
  </trkpt>
  <trkpt lat="38.77664" lon="-0.11278">
    <name>TP205</name>
  </trkpt>
  <trkpt lat="38.77661" lon="-0.11283">
    <name>TP206</name>
  </trkpt>
  <trkpt lat="38.77658" lon="-0.11288">
    <name>TP207</name>
  </trkpt>
  <trkpt lat="38.77656" lon="-0.11292">
    <name>TP208</name>
  </trkpt>
  <trkpt lat="38.77654" lon="-0.11296">
    <name>TP209</name>
  </trkpt>
  <trkpt lat="38.77651" lon="-0.11301">
    <name>TP210</name>
  </trkpt>
  <trkpt lat="38.77648" lon="-0.11306">
    <name>TP211</name>
  </trkpt>
  <trkpt lat="38.77647" lon="-0.11307">
    <name>TP212</name>
  </trkpt>
  <trkpt lat="38.77646" lon="-0.11308">
    <name>TP213</name>
  </trkpt>
  <trkpt lat="38.77644" lon="-0.11312">
    <name>TP214</name>
  </trkpt>
  <trkpt lat="38.77642" lon="-0.11316">
    <name>TP215</name>
  </trkpt>
  <trkpt lat="38.77641" lon="-0.1132">
    <name>TP216</name>
  </trkpt>
  <trkpt lat="38.7764" lon="-0.11323">
    <name>TP217</name>
  </trkpt>
  <trkpt lat="38.77638" lon="-0.11327">
    <name>TP218</name>
  </trkpt>
  <trkpt lat="38.77636" lon="-0.11331">
    <name>TP219</name>
  </trkpt>
  <trkpt lat="38.77635" lon="-0.11336">
    <name>TP220</name>
  </trkpt>
  <trkpt lat="38.77633" lon="-0.1134">
    <name>TP221</name>
  </trkpt>
  <trkpt lat="38.77632" lon="-0.11345">
    <name>TP222</name>
  </trkpt>
  <trkpt lat="38.7763" lon="-0.11349">
    <name>TP223</name>
  </trkpt>
  <trkpt lat="38.77628" lon="-0.11354">
    <name>TP224</name>
  </trkpt>
  <trkpt lat="38.77626" lon="-0.11358">
    <name>TP225</name>
  </trkpt>
  <trkpt lat="38.77624" lon="-0.11362">
    <name>TP226</name>
  </trkpt>
  <trkpt lat="38.77622" lon="-0.11366">
    <name>TP227</name>
  </trkpt>
  <trkpt lat="38.77621" lon="-0.11367">
    <name>TP228</name>
  </trkpt>
  <trkpt lat="38.77614" lon="-0.11379">
    <name>TP229</name>
  </trkpt>
  <trkpt lat="38.77602" lon="-0.11397">
    <name>TP230</name>
  </trkpt>
  <trkpt lat="38.77598" lon="-0.11403">
    <name>TP231</name>
  </trkpt>
  <trkpt lat="38.77589" lon="-0.11416">
    <name>TP232</name>
  </trkpt>
  <trkpt lat="38.77586" lon="-0.1142">
    <name>TP233</name>
  </trkpt>
  <trkpt lat="38.77583" lon="-0.11425">
    <name>TP234</name>
  </trkpt>
  <trkpt lat="38.7758" lon="-0.11428">
    <name>TP235</name>
  </trkpt>
  <trkpt lat="38.77577" lon="-0.1143">
    <name>TP236</name>
  </trkpt>
  <trkpt lat="38.77577" lon="-0.11431">
    <name>TP237</name>
  </trkpt>
  <trkpt lat="38.77574" lon="-0.11433">
    <name>TP238</name>
  </trkpt>
  <trkpt lat="38.77572" lon="-0.11434">
    <name>TP239</name>
  </trkpt>
  <trkpt lat="38.7757" lon="-0.11436">
    <name>TP240</name>
  </trkpt>
  <trkpt lat="38.77561" lon="-0.11441">
    <name>TP241</name>
  </trkpt>
  <trkpt lat="38.77556" lon="-0.11445">
    <name>TP242</name>
  </trkpt>
  <trkpt lat="38.77545" lon="-0.11452">
    <name>TP243</name>
  </trkpt>
  <trkpt lat="38.7754" lon="-0.11455">
    <name>TP244</name>
  </trkpt>
  <trkpt lat="38.7753" lon="-0.11462">
    <name>TP245</name>
  </trkpt>
  <trkpt lat="38.77526" lon="-0.11464">
    <name>TP246</name>
  </trkpt>
  <trkpt lat="38.77524" lon="-0.11465">
    <name>TP247</name>
  </trkpt>
  <trkpt lat="38.77521" lon="-0.11468">
    <name>TP248</name>
  </trkpt>
  <trkpt lat="38.77517" lon="-0.11471">
    <name>TP249</name>
  </trkpt>
  <trkpt lat="38.77514" lon="-0.11474">
    <name>TP250</name>
  </trkpt>
  <trkpt lat="38.77511" lon="-0.11477">
    <name>TP251</name>
  </trkpt>
  <trkpt lat="38.77509" lon="-0.11479">
    <name>TP252</name>
  </trkpt>
  <trkpt lat="38.77508" lon="-0.11481">
    <name>TP253</name>
  </trkpt>
  <trkpt lat="38.77504" lon="-0.11485">
    <name>TP254</name>
  </trkpt>
  <trkpt lat="38.77501" lon="-0.1149">
    <name>TP255</name>
  </trkpt>
  <trkpt lat="38.77497" lon="-0.11496">
    <name>TP256</name>
  </trkpt>
  <trkpt lat="38.77494" lon="-0.115">
    <name>TP257</name>
  </trkpt>
  <trkpt lat="38.77489" lon="-0.11507">
    <name>TP258</name>
  </trkpt>
  <trkpt lat="38.77487" lon="-0.1151">
    <name>TP259</name>
  </trkpt>
  <trkpt lat="38.77485" lon="-0.11513">
    <name>TP260</name>
  </trkpt>
  <trkpt lat="38.77481" lon="-0.11519">
    <name>TP261</name>
  </trkpt>
  <trkpt lat="38.77474" lon="-0.11529">
    <name>TP262</name>
  </trkpt>
  <trkpt lat="38.77468" lon="-0.11534">
    <name>TP263</name>
  </trkpt>
  <trkpt lat="38.77462" lon="-0.11539">
    <name>TP264</name>
  </trkpt>
  <trkpt lat="38.77459" lon="-0.11541">
    <name>TP265</name>
  </trkpt>
  <trkpt lat="38.77453" lon="-0.11546">
    <name>TP266</name>
  </trkpt>
  <trkpt lat="38.77449" lon="-0.11548">
    <name>TP267</name>
  </trkpt>
  <trkpt lat="38.77446" lon="-0.1155">
    <name>TP268</name>
  </trkpt>
  <trkpt lat="38.77442" lon="-0.11553">
    <name>TP269</name>
  </trkpt>
  <trkpt lat="38.7744" lon="-0.11554">
    <name>TP270</name>
  </trkpt>
  <trkpt lat="38.77433" lon="-0.11558">
    <name>TP271</name>
  </trkpt>
  <trkpt lat="38.7743" lon="-0.1156">
    <name>TP272</name>
  </trkpt>
  <trkpt lat="38.77427" lon="-0.11561">
    <name>TP273</name>
  </trkpt>
  <trkpt lat="38.77423" lon="-0.11563">
    <name>TP274</name>
  </trkpt>
  <trkpt lat="38.7742" lon="-0.11565">
    <name>TP275</name>
  </trkpt>
  <trkpt lat="38.77416" lon="-0.11567">
    <name>TP276</name>
  </trkpt>
  <trkpt lat="38.77412" lon="-0.11569">
    <name>TP277</name>
  </trkpt>
  <trkpt lat="38.77409" lon="-0.1157">
    <name>TP278</name>
  </trkpt>
  <trkpt lat="38.77405" lon="-0.11572">
    <name>TP279</name>
  </trkpt>
  <trkpt lat="38.77401" lon="-0.11574">
    <name>TP280</name>
  </trkpt>
  <trkpt lat="38.77398" lon="-0.11575">
    <name>TP281</name>
  </trkpt>
  <trkpt lat="38.77394" lon="-0.11577">
    <name>TP282</name>
  </trkpt>
  <trkpt lat="38.7739" lon="-0.11578">
    <name>TP283</name>
  </trkpt>
  <trkpt lat="38.77386" lon="-0.11579">
    <name>TP284</name>
  </trkpt>
  <trkpt lat="38.77382" lon="-0.1158">
    <name>TP285</name>
  </trkpt>
  <trkpt lat="38.7738" lon="-0.11581">
    <name>TP286</name>
  </trkpt>
  <trkpt lat="38.77379" lon="-0.11582">
    <name>TP287</name>
  </trkpt>
  <trkpt lat="38.77375" lon="-0.11582">
    <name>TP288</name>
  </trkpt>
  <trkpt lat="38.77371" lon="-0.11583">
    <name>TP289</name>
  </trkpt>
  <trkpt lat="38.77367" lon="-0.11584">
    <name>TP290</name>
  </trkpt>
  <trkpt lat="38.77363" lon="-0.11585">
    <name>TP291</name>
  </trkpt>
  <trkpt lat="38.77356" lon="-0.11586">
    <name>TP292</name>
  </trkpt>
  <trkpt lat="38.77338" lon="-0.1159">
    <name>TP293</name>
  </trkpt>
  <trkpt lat="38.77336" lon="-0.11591">
    <name>TP294</name>
  </trkpt>
  <trkpt lat="38.77318" lon="-0.11594">
    <name>TP295</name>
  </trkpt>
  <trkpt lat="38.773" lon="-0.11598">
    <name>TP296</name>
  </trkpt>
  <trkpt lat="38.77294" lon="-0.11599">
    <name>TP297</name>
  </trkpt>
  <trkpt lat="38.7729" lon="-0.116">
    <name>TP298</name>
  </trkpt>
  <trkpt lat="38.77285" lon="-0.11601">
    <name>TP299</name>
  </trkpt>
  <trkpt lat="38.77281" lon="-0.11602">
    <name>TP300</name>
  </trkpt>
  <trkpt lat="38.77277" lon="-0.11603">
    <name>TP301</name>
  </trkpt>
  <trkpt lat="38.77273" lon="-0.11604">
    <name>TP302</name>
  </trkpt>
  <trkpt lat="38.77269" lon="-0.11606">
    <name>TP303</name>
  </trkpt>
  <trkpt lat="38.77265" lon="-0.11607">
    <name>TP304</name>
  </trkpt>
  <trkpt lat="38.77261" lon="-0.11609">
    <name>TP305</name>
  </trkpt>
  <trkpt lat="38.77256" lon="-0.11612">
    <name>TP306</name>
  </trkpt>
  <trkpt lat="38.77249" lon="-0.11616">
    <name>TP307</name>
  </trkpt>
  <trkpt lat="38.77237" lon="-0.11623">
    <name>TP308</name>
  </trkpt>
  <trkpt lat="38.77233" lon="-0.11625">
    <name>TP309</name>
  </trkpt>
  <trkpt lat="38.77232" lon="-0.11626">
    <name>TP310</name>
  </trkpt>
  <trkpt lat="38.7723" lon="-0.11627">
    <name>TP311</name>
  </trkpt>
  <trkpt lat="38.77227" lon="-0.1163">
    <name>TP312</name>
  </trkpt>
  <trkpt lat="38.77225" lon="-0.11632">
    <name>TP313</name>
  </trkpt>
  <trkpt lat="38.77221" lon="-0.11636">
    <name>TP314</name>
  </trkpt>
  <trkpt lat="38.77218" lon="-0.1164">
    <name>TP315</name>
  </trkpt>
  <trkpt lat="38.77215" lon="-0.11645">
    <name>TP316</name>
  </trkpt>
  <trkpt lat="38.77213" lon="-0.11649">
    <name>TP317</name>
  </trkpt>
  <trkpt lat="38.77212" lon="-0.11652">
    <name>TP318</name>
  </trkpt>
  <trkpt lat="38.7721" lon="-0.11657">
    <name>TP319</name>
  </trkpt>
  <trkpt lat="38.77208" lon="-0.11662">
    <name>TP320</name>
  </trkpt>
  <trkpt lat="38.77206" lon="-0.11667">
    <name>TP321</name>
  </trkpt>
  <trkpt lat="38.77205" lon="-0.1167">
    <name>TP322</name>
  </trkpt>
  <trkpt lat="38.77203" lon="-0.11674">
    <name>TP323</name>
  </trkpt>
  <trkpt lat="38.772" lon="-0.11678">
    <name>TP324</name>
  </trkpt>
  <trkpt lat="38.77198" lon="-0.11682">
    <name>TP325</name>
  </trkpt>
  <trkpt lat="38.77189" lon="-0.11691">
    <name>TP326</name>
  </trkpt>
  <trkpt lat="38.77187" lon="-0.11694">
    <name>TP327</name>
  </trkpt>
  <trkpt lat="38.77185" lon="-0.11697">
    <name>TP328</name>
  </trkpt>
  <trkpt lat="38.77184" lon="-0.117">
    <name>TP329</name>
  </trkpt>
  <trkpt lat="38.77182" lon="-0.11703">
    <name>TP330</name>
  </trkpt>
  <trkpt lat="38.77181" lon="-0.11707">
    <name>TP331</name>
  </trkpt>
  <trkpt lat="38.7718" lon="-0.11711">
    <name>TP332</name>
  </trkpt>
  <trkpt lat="38.77179" lon="-0.11716">
    <name>TP333</name>
  </trkpt>
  <trkpt lat="38.77179" lon="-0.11717">
    <name>TP334</name>
  </trkpt>
  <trkpt lat="38.77179" lon="-0.11722">
    <name>TP335</name>
  </trkpt>
  <trkpt lat="38.77179" lon="-0.11727">
    <name>TP336</name>
  </trkpt>
  <trkpt lat="38.7718" lon="-0.11731">
    <name>TP337</name>
  </trkpt>
  <trkpt lat="38.7718" lon="-0.11734">
    <name>TP338</name>
  </trkpt>
  <trkpt lat="38.77181" lon="-0.11738">
    <name>TP339</name>
  </trkpt>
  <trkpt lat="38.77183" lon="-0.11746">
    <name>TP340</name>
  </trkpt>
  <trkpt lat="38.77184" lon="-0.11749">
    <name>TP341</name>
  </trkpt>
  <trkpt lat="38.77185" lon="-0.11754">
    <name>TP342</name>
  </trkpt>
  <trkpt lat="38.77185" lon="-0.11758">
    <name>TP343</name>
  </trkpt>
  <trkpt lat="38.77186" lon="-0.11762">
    <name>TP344</name>
  </trkpt>
  <trkpt lat="38.77186" lon="-0.11767">
    <name>TP345</name>
  </trkpt>
  <trkpt lat="38.77186" lon="-0.11772">
    <name>TP346</name>
  </trkpt>
  <trkpt lat="38.77185" lon="-0.11777">
    <name>TP347</name>
  </trkpt>
  <trkpt lat="38.77183" lon="-0.11782">
    <name>TP348</name>
  </trkpt>
  <trkpt lat="38.7718" lon="-0.11788">
    <name>TP349</name>
  </trkpt>
  <trkpt lat="38.77178" lon="-0.11792">
    <name>TP350</name>
  </trkpt>
  <trkpt lat="38.77176" lon="-0.11795">
    <name>TP351</name>
  </trkpt>
  <trkpt lat="38.77174" lon="-0.11799">
    <name>TP352</name>
  </trkpt>
  <trkpt lat="38.77172" lon="-0.11802">
    <name>TP353</name>
  </trkpt>
  <trkpt lat="38.7717" lon="-0.11806">
    <name>TP354</name>
  </trkpt>
  <trkpt lat="38.77168" lon="-0.11809">
    <name>TP355</name>
  </trkpt>
  <trkpt lat="38.77165" lon="-0.11813">
    <name>TP356</name>
  </trkpt>
  <trkpt lat="38.77162" lon="-0.11817">
    <name>TP357</name>
  </trkpt>
  <trkpt lat="38.7716" lon="-0.11819">
    <name>TP358</name>
  </trkpt>
  <trkpt lat="38.77158" lon="-0.11821">
    <name>TP359</name>
  </trkpt>
  <trkpt lat="38.77156" lon="-0.11823">
    <name>TP360</name>
  </trkpt>
  <trkpt lat="38.77153" lon="-0.11826">
    <name>TP361</name>
  </trkpt>
  <trkpt lat="38.77149" lon="-0.11829">
    <name>TP362</name>
  </trkpt>
  <trkpt lat="38.77146" lon="-0.11832">
    <name>TP363</name>
  </trkpt>
  <trkpt lat="38.77143" lon="-0.11836">
    <name>TP364</name>
  </trkpt>
  <trkpt lat="38.77141" lon="-0.1184">
    <name>TP365</name>
  </trkpt>
  <trkpt lat="38.77139" lon="-0.11843">
    <name>TP366</name>
  </trkpt>
  <trkpt lat="38.77137" lon="-0.11848">
    <name>TP367</name>
  </trkpt>
  <trkpt lat="38.77137" lon="-0.11852">
    <name>TP368</name>
  </trkpt>
  <trkpt lat="38.77137" lon="-0.11853">
    <name>TP369</name>
  </trkpt>
  <trkpt lat="38.77137" lon="-0.11854">
    <name>TP370</name>
  </trkpt>
  <trkpt lat="38.77137" lon="-0.11857">
    <name>TP371</name>
  </trkpt>
  <trkpt lat="38.77139" lon="-0.11863">
    <name>TP372</name>
  </trkpt>
  <trkpt lat="38.77142" lon="-0.11868">
    <name>TP373</name>
  </trkpt>
  <trkpt lat="38.77145" lon="-0.11871">
    <name>TP374</name>
  </trkpt>
  <trkpt lat="38.77148" lon="-0.11874">
    <name>TP375</name>
  </trkpt>
  <trkpt lat="38.77157" lon="-0.11882">
    <name>TP376</name>
  </trkpt>
  <trkpt lat="38.77159" lon="-0.11887">
    <name>TP377</name>
  </trkpt>
  <trkpt lat="38.7716" lon="-0.11891">
    <name>TP378</name>
  </trkpt>
  <trkpt lat="38.7716" lon="-0.11895">
    <name>TP379</name>
  </trkpt>
  <trkpt lat="38.7716" lon="-0.11898">
    <name>TP380</name>
  </trkpt>
  <trkpt lat="38.7716" lon="-0.11902">
    <name>TP381</name>
  </trkpt>
  <trkpt lat="38.77159" lon="-0.11903">
    <name>TP382</name>
  </trkpt>
  <trkpt lat="38.77158" lon="-0.11907">
    <name>TP383</name>
  </trkpt>
  <trkpt lat="38.77156" lon="-0.1191">
    <name>TP384</name>
  </trkpt>
  <trkpt lat="38.77156" lon="-0.11911">
    <name>TP385</name>
  </trkpt>
  <trkpt lat="38.77153" lon="-0.11915">
    <name>TP386</name>
  </trkpt>
  <trkpt lat="38.77148" lon="-0.11917">
    <name>TP387</name>
  </trkpt>
  <trkpt lat="38.77141" lon="-0.11921">
    <name>TP388</name>
  </trkpt>
  <trkpt lat="38.77117" lon="-0.11931">
    <name>TP389</name>
  </trkpt>
  <trkpt lat="38.77113" lon="-0.11933">
    <name>TP390</name>
  </trkpt>
  <trkpt lat="38.77107" lon="-0.11935">
    <name>TP391</name>
  </trkpt>
  <trkpt lat="38.77093" lon="-0.11941">
    <name>TP392</name>
  </trkpt>
  <trkpt lat="38.77084" lon="-0.11946">
    <name>TP393</name>
  </trkpt>
  <trkpt lat="38.77079" lon="-0.11949">
    <name>TP394</name>
  </trkpt>
  <trkpt lat="38.77076" lon="-0.11952">
    <name>TP395</name>
  </trkpt>
  <trkpt lat="38.77068" lon="-0.11958">
    <name>TP396</name>
  </trkpt>
  <trkpt lat="38.77067" lon="-0.11964">
    <name>TP397</name>
  </trkpt>
  <trkpt lat="38.77067" lon="-0.11968">
    <name>TP398</name>
  </trkpt>
  <trkpt lat="38.77067" lon="-0.11971">
    <name>TP399</name>
  </trkpt>
  <trkpt lat="38.77066" lon="-0.11976">
    <name>TP400</name>
  </trkpt>
  <trkpt lat="38.77067" lon="-0.1198">
    <name>TP401</name>
  </trkpt>
  <trkpt lat="38.77067" lon="-0.11981">
    <name>TP402</name>
  </trkpt>
  <trkpt lat="38.77067" lon="-0.11986">
    <name>TP403</name>
  </trkpt>
  <trkpt lat="38.77067" lon="-0.1199">
    <name>TP404</name>
  </trkpt>
  <trkpt lat="38.77068" lon="-0.11995">
    <name>TP405</name>
  </trkpt>
  <trkpt lat="38.77068" lon="-0.11999">
    <name>TP406</name>
  </trkpt>
  <trkpt lat="38.77069" lon="-0.12003">
    <name>TP407</name>
  </trkpt>
  <trkpt lat="38.77072" lon="-0.12008">
    <name>TP408</name>
  </trkpt>
  <trkpt lat="38.77074" lon="-0.12012">
    <name>TP409</name>
  </trkpt>
  <trkpt lat="38.77076" lon="-0.12014">
    <name>TP410</name>
  </trkpt>
  <trkpt lat="38.77079" lon="-0.12017">
    <name>TP411</name>
  </trkpt>
  <trkpt lat="38.7708" lon="-0.12019">
    <name>TP412</name>
  </trkpt>
  <trkpt lat="38.77081" lon="-0.1202">
    <name>TP413</name>
  </trkpt>
  <trkpt lat="38.77088" lon="-0.1203">
    <name>TP414</name>
  </trkpt>
  <trkpt lat="38.77094" lon="-0.12037">
    <name>TP415</name>
  </trkpt>
  <trkpt lat="38.77106" lon="-0.12053">
    <name>TP416</name>
  </trkpt>
  <trkpt lat="38.77109" lon="-0.12056">
    <name>TP417</name>
  </trkpt>
  <trkpt lat="38.77115" lon="-0.12071">
    <name>TP418</name>
  </trkpt>
  <trkpt lat="38.77116" lon="-0.12077">
    <name>TP419</name>
  </trkpt>
  <trkpt lat="38.77117" lon="-0.12081">
    <name>TP420</name>
  </trkpt>
  <trkpt lat="38.77116" lon="-0.12084">
    <name>TP421</name>
  </trkpt>
  <trkpt lat="38.77116" lon="-0.12087">
    <name>TP422</name>
  </trkpt>
  <trkpt lat="38.77116" lon="-0.12091">
    <name>TP423</name>
  </trkpt>
  <trkpt lat="38.77115" lon="-0.12094">
    <name>TP424</name>
  </trkpt>
  <trkpt lat="38.77112" lon="-0.12101">
    <name>TP425</name>
  </trkpt>
  <trkpt lat="38.77109" lon="-0.1211">
    <name>TP426</name>
  </trkpt>
  <trkpt lat="38.77106" lon="-0.12117">
    <name>TP427</name>
  </trkpt>
  <trkpt lat="38.77093" lon="-0.12142">
    <name>TP428</name>
  </trkpt>
  <trkpt lat="38.77086" lon="-0.12154">
    <name>TP429</name>
  </trkpt>
  <trkpt lat="38.77082" lon="-0.1216">
    <name>TP430</name>
  </trkpt>
  <trkpt lat="38.77074" lon="-0.12175">
    <name>TP431</name>
  </trkpt>
  <trkpt lat="38.7707" lon="-0.12185">
    <name>TP432</name>
  </trkpt>
  <trkpt lat="38.77067" lon="-0.12192">
    <name>TP433</name>
  </trkpt>
  <trkpt lat="38.77067" lon="-0.12193">
    <name>TP434</name>
  </trkpt>
  <trkpt lat="38.77067" lon="-0.12198">
    <name>TP435</name>
  </trkpt>
  <trkpt lat="38.77067" lon="-0.12203">
    <name>TP436</name>
  </trkpt>
  <trkpt lat="38.77067" lon="-0.12207">
    <name>TP437</name>
  </trkpt>
  <trkpt lat="38.77067" lon="-0.12211">
    <name>TP438</name>
  </trkpt>
  <trkpt lat="38.77068" lon="-0.12215">
    <name>TP439</name>
  </trkpt>
  <trkpt lat="38.77069" lon="-0.12216">
    <name>TP440</name>
  </trkpt>
  <trkpt lat="38.77071" lon="-0.12218">
    <name>TP441</name>
  </trkpt>
  <trkpt lat="38.77075" lon="-0.12222">
    <name>TP442</name>
  </trkpt>
  <trkpt lat="38.77078" lon="-0.12225">
    <name>TP443</name>
  </trkpt>
  <trkpt lat="38.77081" lon="-0.12225">
    <name>TP444</name>
  </trkpt>
  <trkpt lat="38.77084" lon="-0.12226">
    <name>TP445</name>
  </trkpt>
  <trkpt lat="38.77087" lon="-0.12228">
    <name>TP446</name>
  </trkpt>
  <trkpt lat="38.7709" lon="-0.12228">
    <name>TP447</name>
  </trkpt>
  <trkpt lat="38.77093" lon="-0.12228">
    <name>TP448</name>
  </trkpt>
  <trkpt lat="38.771" lon="-0.1223">
    <name>TP449</name>
  </trkpt>
  <trkpt lat="38.77105" lon="-0.12232">
    <name>TP450</name>
  </trkpt>
  <trkpt lat="38.77109" lon="-0.12231">
    <name>TP451</name>
  </trkpt>
  <trkpt lat="38.77113" lon="-0.12233">
    <name>TP452</name>
  </trkpt>
  <trkpt lat="38.77116" lon="-0.12234">
    <name>TP453</name>
  </trkpt>
  <trkpt lat="38.7712" lon="-0.12235">
    <name>TP454</name>
  </trkpt>
  <trkpt lat="38.77124" lon="-0.12235">
    <name>TP455</name>
  </trkpt>
  <trkpt lat="38.77128" lon="-0.12236">
    <name>TP456</name>
  </trkpt>
  <trkpt lat="38.77133" lon="-0.12239">
    <name>TP457</name>
  </trkpt>
  <trkpt lat="38.77137" lon="-0.12244">
    <name>TP458</name>
  </trkpt>
  <trkpt lat="38.7714" lon="-0.12245">
    <name>TP459</name>
  </trkpt>
  <trkpt lat="38.77141" lon="-0.12248">
    <name>TP460</name>
  </trkpt>
  <trkpt lat="38.77142" lon="-0.1225">
    <name>TP461</name>
  </trkpt>
  <trkpt lat="38.77145" lon="-0.12254">
    <name>TP462</name>
  </trkpt>
  <trkpt lat="38.77147" lon="-0.12259">
    <name>TP463</name>
  </trkpt>
  <trkpt lat="38.77147" lon="-0.1226">
    <name>TP464</name>
  </trkpt>
  <trkpt lat="38.77154" lon="-0.1228">
    <name>TP465</name>
  </trkpt>
  <trkpt lat="38.7716" lon="-0.12296">
    <name>TP466</name>
  </trkpt>
  <trkpt lat="38.77162" lon="-0.12301">
    <name>TP467</name>
  </trkpt>
  <trkpt lat="38.77163" lon="-0.12306">
    <name>TP468</name>
  </trkpt>
  <trkpt lat="38.77166" lon="-0.12316">
    <name>TP469</name>
  </trkpt>
  <trkpt lat="38.77167" lon="-0.12323">
    <name>TP470</name>
  </trkpt>
  <trkpt lat="38.77169" lon="-0.1233">
    <name>TP471</name>
  </trkpt>
  <trkpt lat="38.7717" lon="-0.12337">
    <name>TP472</name>
  </trkpt>
  <trkpt lat="38.77172" lon="-0.12347">
    <name>TP473</name>
  </trkpt>
  <trkpt lat="38.77173" lon="-0.1235">
    <name>TP474</name>
  </trkpt>
  <trkpt lat="38.77175" lon="-0.12362">
    <name>TP475</name>
  </trkpt>
  <trkpt lat="38.77176" lon="-0.12368">
    <name>TP476</name>
  </trkpt>
  <trkpt lat="38.77179" lon="-0.12386">
    <name>TP477</name>
  </trkpt>
  <trkpt lat="38.77179" lon="-0.1239">
    <name>TP478</name>
  </trkpt>
  <trkpt lat="38.77181" lon="-0.12399">
    <name>TP479</name>
  </trkpt>
  <trkpt lat="38.77183" lon="-0.12407">
    <name>TP480</name>
  </trkpt>
  <trkpt lat="38.77184" lon="-0.12413">
    <name>TP481</name>
  </trkpt>
  <trkpt lat="38.77185" lon="-0.12415">
    <name>TP482</name>
  </trkpt>
  <trkpt lat="38.77187" lon="-0.12424">
    <name>TP483</name>
  </trkpt>
  <trkpt lat="38.77188" lon="-0.12428">
    <name>TP484</name>
  </trkpt>
  <trkpt lat="38.7719" lon="-0.12436">
    <name>TP485</name>
  </trkpt>
  <trkpt lat="38.77191" lon="-0.1244">
    <name>TP486</name>
  </trkpt>
  <trkpt lat="38.77194" lon="-0.12448">
    <name>TP487</name>
  </trkpt>
  <trkpt lat="38.77195" lon="-0.12451">
    <name>TP488</name>
  </trkpt>
  <trkpt lat="38.77195" lon="-0.12452">
    <name>TP489</name>
  </trkpt>
  <trkpt lat="38.77197" lon="-0.12456">
    <name>TP490</name>
  </trkpt>
  <trkpt lat="38.77197" lon="-0.12457">
    <name>TP491</name>
  </trkpt>
  <trkpt lat="38.77201" lon="-0.12467">
    <name>TP492</name>
  </trkpt>
  <trkpt lat="38.77203" lon="-0.12472">
    <name>TP493</name>
  </trkpt>
  <trkpt lat="38.77205" lon="-0.12476">
    <name>TP494</name>
  </trkpt>
  <trkpt lat="38.77207" lon="-0.12481">
    <name>TP495</name>
  </trkpt>
  <trkpt lat="38.77208" lon="-0.12484">
    <name>TP496</name>
  </trkpt>
  <trkpt lat="38.77209" lon="-0.12486">
    <name>TP497</name>
  </trkpt>
  <trkpt lat="38.77211" lon="-0.12491">
    <name>TP498</name>
  </trkpt>
  <trkpt lat="38.77213" lon="-0.12496">
    <name>TP499</name>
  </trkpt>
  <trkpt lat="38.77214" lon="-0.12496">
    <name>TP500</name>
  </trkpt>
  <trkpt lat="38.77217" lon="-0.12504">
    <name>TP501</name>
  </trkpt>
  <trkpt lat="38.77218" lon="-0.12504">
    <name>TP502</name>
  </trkpt>
  <trkpt lat="38.77222" lon="-0.12513">
    <name>TP503</name>
  </trkpt>
  <trkpt lat="38.77224" lon="-0.12517">
    <name>TP504</name>
  </trkpt>
  <trkpt lat="38.77226" lon="-0.12522">
    <name>TP505</name>
  </trkpt>
  <trkpt lat="38.77229" lon="-0.12526">
    <name>TP506</name>
  </trkpt>
  <trkpt lat="38.77231" lon="-0.1253">
    <name>TP507</name>
  </trkpt>
  <trkpt lat="38.77234" lon="-0.12534">
    <name>TP508</name>
  </trkpt>
  <trkpt lat="38.77236" lon="-0.12537">
    <name>TP509</name>
  </trkpt>
  <trkpt lat="38.77238" lon="-0.1254">
    <name>TP510</name>
  </trkpt>
  <trkpt lat="38.77242" lon="-0.12544">
    <name>TP511</name>
  </trkpt>
  <trkpt lat="38.77247" lon="-0.12551">
    <name>TP512</name>
  </trkpt>
  <trkpt lat="38.77248" lon="-0.12553">
    <name>TP513</name>
  </trkpt>
  <trkpt lat="38.77252" lon="-0.12557">
    <name>TP514</name>
  </trkpt>
  <trkpt lat="38.77261" lon="-0.12568">
    <name>TP515</name>
  </trkpt>
  <trkpt lat="38.7726096" lon="-0.1256765">
    <name>TP516</name>
  </trkpt>
  <trkpt lat="38.77269" lon="-0.12565">
    <name>TP517</name>
  </trkpt>
  <trkpt lat="38.77282" lon="-0.12561">
    <name>TP518</name>
  </trkpt>
  <trkpt lat="38.77298" lon="-0.12555">
    <name>TP519</name>
  </trkpt>
  <trkpt lat="38.77301" lon="-0.12554">
    <name>TP520</name>
  </trkpt>
  <trkpt lat="38.77302" lon="-0.12554">
    <name>TP521</name>
  </trkpt>
  <trkpt lat="38.77306" lon="-0.12554">
    <name>TP522</name>
  </trkpt>
  <trkpt lat="38.77313" lon="-0.12554">
    <name>TP523</name>
  </trkpt>
  <trkpt lat="38.77319" lon="-0.12557">
    <name>TP524</name>
  </trkpt>
  <trkpt lat="38.7732" lon="-0.12557">
    <name>TP525</name>
  </trkpt>
  <trkpt lat="38.77329" lon="-0.12562">
    <name>TP526</name>
  </trkpt>
  <trkpt lat="38.77334" lon="-0.12568">
    <name>TP527</name>
  </trkpt>
  <trkpt lat="38.7733408" lon="-0.1256779">
    <name>TP528</name>
  </trkpt>
  <trkpt lat="38.77344" lon="-0.12575">
    <name>TP529</name>
  </trkpt>
  <trkpt lat="38.77347" lon="-0.12577">
    <name>TP530</name>
  </trkpt>
  <trkpt lat="38.77349" lon="-0.12581">
    <name>TP531</name>
  </trkpt>
  <trkpt lat="38.7735" lon="-0.12582">
    <name>TP532</name>
  </trkpt>
  <trkpt lat="38.77356" lon="-0.12591">
    <name>TP533</name>
  </trkpt>
  <trkpt lat="38.77361" lon="-0.12599">
    <name>TP534</name>
  </trkpt>
  <trkpt lat="38.77364" lon="-0.12622">
    <name>TP535</name>
  </trkpt>
  <trkpt lat="38.77364" lon="-0.12624">
    <name>TP536</name>
  </trkpt>
  <trkpt lat="38.77367" lon="-0.12644">
    <name>TP537</name>
  </trkpt>
  <trkpt lat="38.77368" lon="-0.12648">
    <name>TP538</name>
  </trkpt>
  <trkpt lat="38.77369" lon="-0.12657">
    <name>TP539</name>
  </trkpt>
  <trkpt lat="38.7737" lon="-0.12663">
    <name>TP540</name>
  </trkpt>
  <trkpt lat="38.77369" lon="-0.12668">
    <name>TP541</name>
  </trkpt>
  <trkpt lat="38.77369" lon="-0.1267">
    <name>TP542</name>
  </trkpt>
  <trkpt lat="38.77368" lon="-0.12674">
    <name>TP543</name>
  </trkpt>
  <trkpt lat="38.77368" lon="-0.12677">
    <name>TP544</name>
  </trkpt>
  <trkpt lat="38.77367" lon="-0.1268">
    <name>TP545</name>
  </trkpt>
  <trkpt lat="38.77364" lon="-0.12687">
    <name>TP546</name>
  </trkpt>
  <trkpt lat="38.77364" lon="-0.12689">
    <name>TP547</name>
  </trkpt>
  <trkpt lat="38.7736" lon="-0.12698">
    <name>TP548</name>
  </trkpt>
  <trkpt lat="38.77356" lon="-0.12711">
    <name>TP549</name>
  </trkpt>
  <trkpt lat="38.77353" lon="-0.1272">
    <name>TP550</name>
  </trkpt>
  <trkpt lat="38.77352" lon="-0.12726">
    <name>TP551</name>
  </trkpt>
  <trkpt lat="38.773524" lon="-0.1272606">
    <name>TP552</name>
  </trkpt>
  <trkpt lat="38.7736" lon="-0.12727">
    <name>TP553</name>
  </trkpt>
  <trkpt lat="38.77363" lon="-0.12728">
    <name>TP554</name>
  </trkpt>
  <trkpt lat="38.7736252" lon="-0.1272781">
    <name>TP555</name>
  </trkpt>
  <trkpt lat="38.7736252" lon="-0.1272781">
    <name>TP556</name>
  </trkpt>
  <trkpt lat="38.7736" lon="-0.12727">
    <name>TP557</name>
  </trkpt>
  <trkpt lat="38.77352" lon="-0.12726">
    <name>TP558</name>
  </trkpt>
  <trkpt lat="38.773524" lon="-0.1272606">
    <name>TP559</name>
  </trkpt>
  <trkpt lat="38.77353" lon="-0.1272">
    <name>TP560</name>
  </trkpt>
  <trkpt lat="38.77356" lon="-0.12711">
    <name>TP561</name>
  </trkpt>
  <trkpt lat="38.7736" lon="-0.12698">
    <name>TP562</name>
  </trkpt>
  <trkpt lat="38.77364" lon="-0.12689">
    <name>TP563</name>
  </trkpt>
  <trkpt lat="38.77364" lon="-0.12687">
    <name>TP564</name>
  </trkpt>
  <trkpt lat="38.77367" lon="-0.1268">
    <name>TP565</name>
  </trkpt>
  <trkpt lat="38.77368" lon="-0.12677">
    <name>TP566</name>
  </trkpt>
  <trkpt lat="38.77368" lon="-0.12674">
    <name>TP567</name>
  </trkpt>
  <trkpt lat="38.77369" lon="-0.1267">
    <name>TP568</name>
  </trkpt>
  <trkpt lat="38.77369" lon="-0.12668">
    <name>TP569</name>
  </trkpt>
  <trkpt lat="38.7737" lon="-0.12663">
    <name>TP570</name>
  </trkpt>
  <trkpt lat="38.77369" lon="-0.12657">
    <name>TP571</name>
  </trkpt>
  <trkpt lat="38.77368" lon="-0.12648">
    <name>TP572</name>
  </trkpt>
  <trkpt lat="38.77367" lon="-0.12644">
    <name>TP573</name>
  </trkpt>
  <trkpt lat="38.77364" lon="-0.12624">
    <name>TP574</name>
  </trkpt>
  <trkpt lat="38.77364" lon="-0.12622">
    <name>TP575</name>
  </trkpt>
  <trkpt lat="38.77361" lon="-0.12599">
    <name>TP576</name>
  </trkpt>
  <trkpt lat="38.77356" lon="-0.12591">
    <name>TP577</name>
  </trkpt>
  <trkpt lat="38.7735" lon="-0.12582">
    <name>TP578</name>
  </trkpt>
  <trkpt lat="38.77349" lon="-0.12581">
    <name>TP579</name>
  </trkpt>
  <trkpt lat="38.77347" lon="-0.12577">
    <name>TP580</name>
  </trkpt>
  <trkpt lat="38.77344" lon="-0.12575">
    <name>TP581</name>
  </trkpt>
  <trkpt lat="38.77334" lon="-0.12568">
    <name>TP582</name>
  </trkpt>
  <trkpt lat="38.7733408" lon="-0.1256779">
    <name>TP583</name>
  </trkpt>
  <trkpt lat="38.77329" lon="-0.12562">
    <name>TP584</name>
  </trkpt>
  <trkpt lat="38.7732" lon="-0.12557">
    <name>TP585</name>
  </trkpt>
  <trkpt lat="38.77319" lon="-0.12557">
    <name>TP586</name>
  </trkpt>
  <trkpt lat="38.77313" lon="-0.12554">
    <name>TP587</name>
  </trkpt>
  <trkpt lat="38.77306" lon="-0.12554">
    <name>TP588</name>
  </trkpt>
  <trkpt lat="38.77302" lon="-0.12554">
    <name>TP589</name>
  </trkpt>
  <trkpt lat="38.77301" lon="-0.12554">
    <name>TP590</name>
  </trkpt>
  <trkpt lat="38.77298" lon="-0.12555">
    <name>TP591</name>
  </trkpt>
  <trkpt lat="38.77282" lon="-0.12561">
    <name>TP592</name>
  </trkpt>
  <trkpt lat="38.77269" lon="-0.12565">
    <name>TP593</name>
  </trkpt>
  <trkpt lat="38.77261" lon="-0.12568">
    <name>TP594</name>
  </trkpt>
  <trkpt lat="38.7726096" lon="-0.1256765">
    <name>TP595</name>
  </trkpt>
  <trkpt lat="38.77252" lon="-0.12557">
    <name>TP596</name>
  </trkpt>
  <trkpt lat="38.77248" lon="-0.12553">
    <name>TP597</name>
  </trkpt>
  <trkpt lat="38.77247" lon="-0.12551">
    <name>TP598</name>
  </trkpt>
  <trkpt lat="38.77242" lon="-0.12544">
    <name>TP599</name>
  </trkpt>
  <trkpt lat="38.77238" lon="-0.1254">
    <name>TP600</name>
  </trkpt>
  <trkpt lat="38.77236" lon="-0.12537">
    <name>TP601</name>
  </trkpt>
  <trkpt lat="38.77234" lon="-0.12534">
    <name>TP602</name>
  </trkpt>
  <trkpt lat="38.77231" lon="-0.1253">
    <name>TP603</name>
  </trkpt>
  <trkpt lat="38.77229" lon="-0.12526">
    <name>TP604</name>
  </trkpt>
  <trkpt lat="38.77226" lon="-0.12522">
    <name>TP605</name>
  </trkpt>
  <trkpt lat="38.77224" lon="-0.12517">
    <name>TP606</name>
  </trkpt>
  <trkpt lat="38.77222" lon="-0.12513">
    <name>TP607</name>
  </trkpt>
  <trkpt lat="38.77218" lon="-0.12504">
    <name>TP608</name>
  </trkpt>
  <trkpt lat="38.77217" lon="-0.12504">
    <name>TP609</name>
  </trkpt>
  <trkpt lat="38.77214" lon="-0.12496">
    <name>TP610</name>
  </trkpt>
  <trkpt lat="38.77213" lon="-0.12496">
    <name>TP611</name>
  </trkpt>
  <trkpt lat="38.77211" lon="-0.12491">
    <name>TP612</name>
  </trkpt>
  <trkpt lat="38.77209" lon="-0.12486">
    <name>TP613</name>
  </trkpt>
  <trkpt lat="38.77208" lon="-0.12484">
    <name>TP614</name>
  </trkpt>
  <trkpt lat="38.77207" lon="-0.12481">
    <name>TP615</name>
  </trkpt>
  <trkpt lat="38.77205" lon="-0.12476">
    <name>TP616</name>
  </trkpt>
  <trkpt lat="38.77203" lon="-0.12472">
    <name>TP617</name>
  </trkpt>
  <trkpt lat="38.77201" lon="-0.12467">
    <name>TP618</name>
  </trkpt>
  <trkpt lat="38.77197" lon="-0.12457">
    <name>TP619</name>
  </trkpt>
  <trkpt lat="38.77197" lon="-0.12456">
    <name>TP620</name>
  </trkpt>
  <trkpt lat="38.77195" lon="-0.12452">
    <name>TP621</name>
  </trkpt>
  <trkpt lat="38.77195" lon="-0.12451">
    <name>TP622</name>
  </trkpt>
  <trkpt lat="38.77194" lon="-0.12448">
    <name>TP623</name>
  </trkpt>
  <trkpt lat="38.77191" lon="-0.1244">
    <name>TP624</name>
  </trkpt>
  <trkpt lat="38.7719" lon="-0.12436">
    <name>TP625</name>
  </trkpt>
  <trkpt lat="38.77188" lon="-0.12428">
    <name>TP626</name>
  </trkpt>
  <trkpt lat="38.77187" lon="-0.12424">
    <name>TP627</name>
  </trkpt>
  <trkpt lat="38.77185" lon="-0.12415">
    <name>TP628</name>
  </trkpt>
  <trkpt lat="38.77184" lon="-0.12413">
    <name>TP629</name>
  </trkpt>
  <trkpt lat="38.77183" lon="-0.12407">
    <name>TP630</name>
  </trkpt>
  <trkpt lat="38.77181" lon="-0.12399">
    <name>TP631</name>
  </trkpt>
  <trkpt lat="38.77179" lon="-0.1239">
    <name>TP632</name>
  </trkpt>
  <trkpt lat="38.77179" lon="-0.12386">
    <name>TP633</name>
  </trkpt>
  <trkpt lat="38.77176" lon="-0.12368">
    <name>TP634</name>
  </trkpt>
  <trkpt lat="38.77175" lon="-0.12362">
    <name>TP635</name>
  </trkpt>
  <trkpt lat="38.77173" lon="-0.1235">
    <name>TP636</name>
  </trkpt>
  <trkpt lat="38.77172" lon="-0.12347">
    <name>TP637</name>
  </trkpt>
  <trkpt lat="38.7717" lon="-0.12337">
    <name>TP638</name>
  </trkpt>
  <trkpt lat="38.77169" lon="-0.1233">
    <name>TP639</name>
  </trkpt>
  <trkpt lat="38.77167" lon="-0.12323">
    <name>TP640</name>
  </trkpt>
  <trkpt lat="38.77166" lon="-0.12316">
    <name>TP641</name>
  </trkpt>
  <trkpt lat="38.77163" lon="-0.12306">
    <name>TP642</name>
  </trkpt>
  <trkpt lat="38.77162" lon="-0.12301">
    <name>TP643</name>
  </trkpt>
  <trkpt lat="38.7716" lon="-0.12296">
    <name>TP644</name>
  </trkpt>
  <trkpt lat="38.77154" lon="-0.1228">
    <name>TP645</name>
  </trkpt>
  <trkpt lat="38.77147" lon="-0.1226">
    <name>TP646</name>
  </trkpt>
  <trkpt lat="38.77147" lon="-0.12259">
    <name>TP647</name>
  </trkpt>
  <trkpt lat="38.77145" lon="-0.12254">
    <name>TP648</name>
  </trkpt>
  <trkpt lat="38.77142" lon="-0.1225">
    <name>TP649</name>
  </trkpt>
  <trkpt lat="38.77141" lon="-0.12248">
    <name>TP650</name>
  </trkpt>
  <trkpt lat="38.7714" lon="-0.12245">
    <name>TP651</name>
  </trkpt>
  <trkpt lat="38.77137" lon="-0.12244">
    <name>TP652</name>
  </trkpt>
  <trkpt lat="38.77133" lon="-0.12239">
    <name>TP653</name>
  </trkpt>
  <trkpt lat="38.77128" lon="-0.12236">
    <name>TP654</name>
  </trkpt>
  <trkpt lat="38.77124" lon="-0.12235">
    <name>TP655</name>
  </trkpt>
  <trkpt lat="38.7712" lon="-0.12235">
    <name>TP656</name>
  </trkpt>
  <trkpt lat="38.77116" lon="-0.12234">
    <name>TP657</name>
  </trkpt>
  <trkpt lat="38.77113" lon="-0.12233">
    <name>TP658</name>
  </trkpt>
  <trkpt lat="38.77109" lon="-0.12231">
    <name>TP659</name>
  </trkpt>
  <trkpt lat="38.77105" lon="-0.12232">
    <name>TP660</name>
  </trkpt>
  <trkpt lat="38.771" lon="-0.1223">
    <name>TP661</name>
  </trkpt>
  <trkpt lat="38.77093" lon="-0.12228">
    <name>TP662</name>
  </trkpt>
  <trkpt lat="38.7709" lon="-0.12228">
    <name>TP663</name>
  </trkpt>
  <trkpt lat="38.77087" lon="-0.12228">
    <name>TP664</name>
  </trkpt>
  <trkpt lat="38.77084" lon="-0.12226">
    <name>TP665</name>
  </trkpt>
  <trkpt lat="38.77081" lon="-0.12225">
    <name>TP666</name>
  </trkpt>
  <trkpt lat="38.77078" lon="-0.12225">
    <name>TP667</name>
  </trkpt>
  <trkpt lat="38.77075" lon="-0.12222">
    <name>TP668</name>
  </trkpt>
  <trkpt lat="38.77071" lon="-0.12218">
    <name>TP669</name>
  </trkpt>
  <trkpt lat="38.77069" lon="-0.12216">
    <name>TP670</name>
  </trkpt>
  <trkpt lat="38.77068" lon="-0.12215">
    <name>TP671</name>
  </trkpt>
  <trkpt lat="38.77067" lon="-0.12211">
    <name>TP672</name>
  </trkpt>
  <trkpt lat="38.77067" lon="-0.12207">
    <name>TP673</name>
  </trkpt>
  <trkpt lat="38.77067" lon="-0.12203">
    <name>TP674</name>
  </trkpt>
  <trkpt lat="38.77067" lon="-0.12198">
    <name>TP675</name>
  </trkpt>
  <trkpt lat="38.77067" lon="-0.12193">
    <name>TP676</name>
  </trkpt>
  <trkpt lat="38.77067" lon="-0.12192">
    <name>TP677</name>
  </trkpt>
  <trkpt lat="38.7707" lon="-0.12185">
    <name>TP678</name>
  </trkpt>
  <trkpt lat="38.77074" lon="-0.12175">
    <name>TP679</name>
  </trkpt>
  <trkpt lat="38.77082" lon="-0.1216">
    <name>TP680</name>
  </trkpt>
  <trkpt lat="38.77086" lon="-0.12154">
    <name>TP681</name>
  </trkpt>
  <trkpt lat="38.77093" lon="-0.12142">
    <name>TP682</name>
  </trkpt>
  <trkpt lat="38.77106" lon="-0.12117">
    <name>TP683</name>
  </trkpt>
  <trkpt lat="38.77109" lon="-0.1211">
    <name>TP684</name>
  </trkpt>
  <trkpt lat="38.77112" lon="-0.12101">
    <name>TP685</name>
  </trkpt>
  <trkpt lat="38.77115" lon="-0.12094">
    <name>TP686</name>
  </trkpt>
  <trkpt lat="38.77116" lon="-0.12091">
    <name>TP687</name>
  </trkpt>
  <trkpt lat="38.77116" lon="-0.12087">
    <name>TP688</name>
  </trkpt>
  <trkpt lat="38.77116" lon="-0.12084">
    <name>TP689</name>
  </trkpt>
  <trkpt lat="38.77117" lon="-0.12081">
    <name>TP690</name>
  </trkpt>
  <trkpt lat="38.77116" lon="-0.12077">
    <name>TP691</name>
  </trkpt>
  <trkpt lat="38.77115" lon="-0.12071">
    <name>TP692</name>
  </trkpt>
  <trkpt lat="38.77109" lon="-0.12056">
    <name>TP693</name>
  </trkpt>
  <trkpt lat="38.77106" lon="-0.12053">
    <name>TP694</name>
  </trkpt>
  <trkpt lat="38.77094" lon="-0.12037">
    <name>TP695</name>
  </trkpt>
  <trkpt lat="38.77088" lon="-0.1203">
    <name>TP696</name>
  </trkpt>
  <trkpt lat="38.77081" lon="-0.1202">
    <name>TP697</name>
  </trkpt>
  <trkpt lat="38.7708" lon="-0.12019">
    <name>TP698</name>
  </trkpt>
  <trkpt lat="38.77079" lon="-0.12017">
    <name>TP699</name>
  </trkpt>
  <trkpt lat="38.77076" lon="-0.12014">
    <name>TP700</name>
  </trkpt>
  <trkpt lat="38.77074" lon="-0.12012">
    <name>TP701</name>
  </trkpt>
  <trkpt lat="38.77072" lon="-0.12008">
    <name>TP702</name>
  </trkpt>
  <trkpt lat="38.77069" lon="-0.12003">
    <name>TP703</name>
  </trkpt>
  <trkpt lat="38.77068" lon="-0.11999">
    <name>TP704</name>
  </trkpt>
  <trkpt lat="38.77068" lon="-0.11995">
    <name>TP705</name>
  </trkpt>
  <trkpt lat="38.77067" lon="-0.1199">
    <name>TP706</name>
  </trkpt>
  <trkpt lat="38.77067" lon="-0.11986">
    <name>TP707</name>
  </trkpt>
  <trkpt lat="38.77067" lon="-0.11981">
    <name>TP708</name>
  </trkpt>
  <trkpt lat="38.77067" lon="-0.1198">
    <name>TP709</name>
  </trkpt>
  <trkpt lat="38.77066" lon="-0.11976">
    <name>TP710</name>
  </trkpt>
  <trkpt lat="38.77067" lon="-0.11971">
    <name>TP711</name>
  </trkpt>
  <trkpt lat="38.77067" lon="-0.11968">
    <name>TP712</name>
  </trkpt>
  <trkpt lat="38.77067" lon="-0.11964">
    <name>TP713</name>
  </trkpt>
  <trkpt lat="38.77068" lon="-0.11958">
    <name>TP714</name>
  </trkpt>
  <trkpt lat="38.77076" lon="-0.11952">
    <name>TP715</name>
  </trkpt>
  <trkpt lat="38.77079" lon="-0.11949">
    <name>TP716</name>
  </trkpt>
  <trkpt lat="38.77084" lon="-0.11946">
    <name>TP717</name>
  </trkpt>
  <trkpt lat="38.77093" lon="-0.11941">
    <name>TP718</name>
  </trkpt>
  <trkpt lat="38.77107" lon="-0.11935">
    <name>TP719</name>
  </trkpt>
  <trkpt lat="38.77113" lon="-0.11933">
    <name>TP720</name>
  </trkpt>
  <trkpt lat="38.77117" lon="-0.11931">
    <name>TP721</name>
  </trkpt>
  <trkpt lat="38.77141" lon="-0.11921">
    <name>TP722</name>
  </trkpt>
  <trkpt lat="38.77148" lon="-0.11917">
    <name>TP723</name>
  </trkpt>
  <trkpt lat="38.77153" lon="-0.11915">
    <name>TP724</name>
  </trkpt>
  <trkpt lat="38.77156" lon="-0.11911">
    <name>TP725</name>
  </trkpt>
  <trkpt lat="38.77156" lon="-0.1191">
    <name>TP726</name>
  </trkpt>
  <trkpt lat="38.77158" lon="-0.11907">
    <name>TP727</name>
  </trkpt>
  <trkpt lat="38.77159" lon="-0.11903">
    <name>TP728</name>
  </trkpt>
  <trkpt lat="38.7716" lon="-0.11902">
    <name>TP729</name>
  </trkpt>
  <trkpt lat="38.7716" lon="-0.11898">
    <name>TP730</name>
  </trkpt>
  <trkpt lat="38.7716" lon="-0.11895">
    <name>TP731</name>
  </trkpt>
  <trkpt lat="38.7716" lon="-0.11891">
    <name>TP732</name>
  </trkpt>
  <trkpt lat="38.77159" lon="-0.11887">
    <name>TP733</name>
  </trkpt>
  <trkpt lat="38.77157" lon="-0.11882">
    <name>TP734</name>
  </trkpt>
  <trkpt lat="38.77148" lon="-0.11874">
    <name>TP735</name>
  </trkpt>
  <trkpt lat="38.77145" lon="-0.11871">
    <name>TP736</name>
  </trkpt>
  <trkpt lat="38.77142" lon="-0.11868">
    <name>TP737</name>
  </trkpt>
  <trkpt lat="38.77139" lon="-0.11863">
    <name>TP738</name>
  </trkpt>
  <trkpt lat="38.77137" lon="-0.11857">
    <name>TP739</name>
  </trkpt>
  <trkpt lat="38.77137" lon="-0.11854">
    <name>TP740</name>
  </trkpt>
  <trkpt lat="38.77137" lon="-0.11853">
    <name>TP741</name>
  </trkpt>
  <trkpt lat="38.77137" lon="-0.11852">
    <name>TP742</name>
  </trkpt>
  <trkpt lat="38.77137" lon="-0.11848">
    <name>TP743</name>
  </trkpt>
  <trkpt lat="38.77139" lon="-0.11843">
    <name>TP744</name>
  </trkpt>
  <trkpt lat="38.77141" lon="-0.1184">
    <name>TP745</name>
  </trkpt>
  <trkpt lat="38.77143" lon="-0.11836">
    <name>TP746</name>
  </trkpt>
  <trkpt lat="38.77146" lon="-0.11832">
    <name>TP747</name>
  </trkpt>
  <trkpt lat="38.77149" lon="-0.11829">
    <name>TP748</name>
  </trkpt>
  <trkpt lat="38.77153" lon="-0.11826">
    <name>TP749</name>
  </trkpt>
  <trkpt lat="38.77156" lon="-0.11823">
    <name>TP750</name>
  </trkpt>
  <trkpt lat="38.77158" lon="-0.11821">
    <name>TP751</name>
  </trkpt>
  <trkpt lat="38.7716" lon="-0.11819">
    <name>TP752</name>
  </trkpt>
  <trkpt lat="38.77162" lon="-0.11817">
    <name>TP753</name>
  </trkpt>
  <trkpt lat="38.77165" lon="-0.11813">
    <name>TP754</name>
  </trkpt>
  <trkpt lat="38.77168" lon="-0.11809">
    <name>TP755</name>
  </trkpt>
  <trkpt lat="38.7717" lon="-0.11806">
    <name>TP756</name>
  </trkpt>
  <trkpt lat="38.77172" lon="-0.11802">
    <name>TP757</name>
  </trkpt>
  <trkpt lat="38.77174" lon="-0.11799">
    <name>TP758</name>
  </trkpt>
  <trkpt lat="38.77176" lon="-0.11795">
    <name>TP759</name>
  </trkpt>
  <trkpt lat="38.77178" lon="-0.11792">
    <name>TP760</name>
  </trkpt>
  <trkpt lat="38.7718" lon="-0.11788">
    <name>TP761</name>
  </trkpt>
  <trkpt lat="38.77183" lon="-0.11782">
    <name>TP762</name>
  </trkpt>
  <trkpt lat="38.77185" lon="-0.11777">
    <name>TP763</name>
  </trkpt>
  <trkpt lat="38.77186" lon="-0.11772">
    <name>TP764</name>
  </trkpt>
  <trkpt lat="38.77186" lon="-0.11767">
    <name>TP765</name>
  </trkpt>
  <trkpt lat="38.77186" lon="-0.11762">
    <name>TP766</name>
  </trkpt>
  <trkpt lat="38.77185" lon="-0.11758">
    <name>TP767</name>
  </trkpt>
  <trkpt lat="38.77185" lon="-0.11754">
    <name>TP768</name>
  </trkpt>
  <trkpt lat="38.77184" lon="-0.11749">
    <name>TP769</name>
  </trkpt>
  <trkpt lat="38.77183" lon="-0.11746">
    <name>TP770</name>
  </trkpt>
  <trkpt lat="38.77181" lon="-0.11738">
    <name>TP771</name>
  </trkpt>
  <trkpt lat="38.7718" lon="-0.11734">
    <name>TP772</name>
  </trkpt>
  <trkpt lat="38.7718" lon="-0.11731">
    <name>TP773</name>
  </trkpt>
  <trkpt lat="38.77179" lon="-0.11727">
    <name>TP774</name>
  </trkpt>
  <trkpt lat="38.77179" lon="-0.11722">
    <name>TP775</name>
  </trkpt>
  <trkpt lat="38.77179" lon="-0.11717">
    <name>TP776</name>
  </trkpt>
  <trkpt lat="38.77179" lon="-0.11716">
    <name>TP777</name>
  </trkpt>
  <trkpt lat="38.7718" lon="-0.11711">
    <name>TP778</name>
  </trkpt>
  <trkpt lat="38.77181" lon="-0.11707">
    <name>TP779</name>
  </trkpt>
  <trkpt lat="38.77182" lon="-0.11703">
    <name>TP780</name>
  </trkpt>
  <trkpt lat="38.77184" lon="-0.117">
    <name>TP781</name>
  </trkpt>
  <trkpt lat="38.77185" lon="-0.11697">
    <name>TP782</name>
  </trkpt>
  <trkpt lat="38.77187" lon="-0.11694">
    <name>TP783</name>
  </trkpt>
  <trkpt lat="38.77189" lon="-0.11691">
    <name>TP784</name>
  </trkpt>
  <trkpt lat="38.77198" lon="-0.11682">
    <name>TP785</name>
  </trkpt>
  <trkpt lat="38.772" lon="-0.11678">
    <name>TP786</name>
  </trkpt>
  <trkpt lat="38.77203" lon="-0.11674">
    <name>TP787</name>
  </trkpt>
  <trkpt lat="38.77205" lon="-0.1167">
    <name>TP788</name>
  </trkpt>
  <trkpt lat="38.77206" lon="-0.11667">
    <name>TP789</name>
  </trkpt>
  <trkpt lat="38.77208" lon="-0.11662">
    <name>TP790</name>
  </trkpt>
  <trkpt lat="38.7721" lon="-0.11657">
    <name>TP791</name>
  </trkpt>
  <trkpt lat="38.77212" lon="-0.11652">
    <name>TP792</name>
  </trkpt>
  <trkpt lat="38.77213" lon="-0.11649">
    <name>TP793</name>
  </trkpt>
  <trkpt lat="38.77215" lon="-0.11645">
    <name>TP794</name>
  </trkpt>
  <trkpt lat="38.77218" lon="-0.1164">
    <name>TP795</name>
  </trkpt>
  <trkpt lat="38.77221" lon="-0.11636">
    <name>TP796</name>
  </trkpt>
  <trkpt lat="38.77225" lon="-0.11632">
    <name>TP797</name>
  </trkpt>
  <trkpt lat="38.77227" lon="-0.1163">
    <name>TP798</name>
  </trkpt>
  <trkpt lat="38.7723" lon="-0.11627">
    <name>TP799</name>
  </trkpt>
  <trkpt lat="38.77232" lon="-0.11626">
    <name>TP800</name>
  </trkpt>
  <trkpt lat="38.77233" lon="-0.11625">
    <name>TP801</name>
  </trkpt>
  <trkpt lat="38.77237" lon="-0.11623">
    <name>TP802</name>
  </trkpt>
  <trkpt lat="38.77249" lon="-0.11616">
    <name>TP803</name>
  </trkpt>
  <trkpt lat="38.77256" lon="-0.11612">
    <name>TP804</name>
  </trkpt>
  <trkpt lat="38.77261" lon="-0.11609">
    <name>TP805</name>
  </trkpt>
  <trkpt lat="38.77265" lon="-0.11607">
    <name>TP806</name>
  </trkpt>
  <trkpt lat="38.77269" lon="-0.11606">
    <name>TP807</name>
  </trkpt>
  <trkpt lat="38.77273" lon="-0.11604">
    <name>TP808</name>
  </trkpt>
  <trkpt lat="38.77277" lon="-0.11603">
    <name>TP809</name>
  </trkpt>
  <trkpt lat="38.77281" lon="-0.11602">
    <name>TP810</name>
  </trkpt>
  <trkpt lat="38.77285" lon="-0.11601">
    <name>TP811</name>
  </trkpt>
  <trkpt lat="38.7729" lon="-0.116">
    <name>TP812</name>
  </trkpt>
  <trkpt lat="38.77294" lon="-0.11599">
    <name>TP813</name>
  </trkpt>
  <trkpt lat="38.773" lon="-0.11598">
    <name>TP814</name>
  </trkpt>
  <trkpt lat="38.77318" lon="-0.11594">
    <name>TP815</name>
  </trkpt>
  <trkpt lat="38.77336" lon="-0.11591">
    <name>TP816</name>
  </trkpt>
  <trkpt lat="38.77338" lon="-0.1159">
    <name>TP817</name>
  </trkpt>
  <trkpt lat="38.77356" lon="-0.11586">
    <name>TP818</name>
  </trkpt>
  <trkpt lat="38.77363" lon="-0.11585">
    <name>TP819</name>
  </trkpt>
  <trkpt lat="38.77367" lon="-0.11584">
    <name>TP820</name>
  </trkpt>
  <trkpt lat="38.77371" lon="-0.11583">
    <name>TP821</name>
  </trkpt>
  <trkpt lat="38.77375" lon="-0.11582">
    <name>TP822</name>
  </trkpt>
  <trkpt lat="38.77379" lon="-0.11582">
    <name>TP823</name>
  </trkpt>
  <trkpt lat="38.7738" lon="-0.11581">
    <name>TP824</name>
  </trkpt>
  <trkpt lat="38.77382" lon="-0.1158">
    <name>TP825</name>
  </trkpt>
  <trkpt lat="38.77386" lon="-0.11579">
    <name>TP826</name>
  </trkpt>
  <trkpt lat="38.7739" lon="-0.11578">
    <name>TP827</name>
  </trkpt>
  <trkpt lat="38.77394" lon="-0.11577">
    <name>TP828</name>
  </trkpt>
  <trkpt lat="38.77398" lon="-0.11575">
    <name>TP829</name>
  </trkpt>
  <trkpt lat="38.77401" lon="-0.11574">
    <name>TP830</name>
  </trkpt>
  <trkpt lat="38.77405" lon="-0.11572">
    <name>TP831</name>
  </trkpt>
  <trkpt lat="38.77409" lon="-0.1157">
    <name>TP832</name>
  </trkpt>
  <trkpt lat="38.77412" lon="-0.11569">
    <name>TP833</name>
  </trkpt>
  <trkpt lat="38.77416" lon="-0.11567">
    <name>TP834</name>
  </trkpt>
  <trkpt lat="38.7742" lon="-0.11565">
    <name>TP835</name>
  </trkpt>
  <trkpt lat="38.77423" lon="-0.11563">
    <name>TP836</name>
  </trkpt>
  <trkpt lat="38.77427" lon="-0.11561">
    <name>TP837</name>
  </trkpt>
  <trkpt lat="38.7743" lon="-0.1156">
    <name>TP838</name>
  </trkpt>
  <trkpt lat="38.77433" lon="-0.11558">
    <name>TP839</name>
  </trkpt>
  <trkpt lat="38.7744" lon="-0.11554">
    <name>TP840</name>
  </trkpt>
  <trkpt lat="38.77442" lon="-0.11553">
    <name>TP841</name>
  </trkpt>
  <trkpt lat="38.77446" lon="-0.1155">
    <name>TP842</name>
  </trkpt>
  <trkpt lat="38.77449" lon="-0.11548">
    <name>TP843</name>
  </trkpt>
  <trkpt lat="38.77453" lon="-0.11546">
    <name>TP844</name>
  </trkpt>
  <trkpt lat="38.77459" lon="-0.11541">
    <name>TP845</name>
  </trkpt>
  <trkpt lat="38.77462" lon="-0.11539">
    <name>TP846</name>
  </trkpt>
  <trkpt lat="38.77468" lon="-0.11534">
    <name>TP847</name>
  </trkpt>
  <trkpt lat="38.77474" lon="-0.11529">
    <name>TP848</name>
  </trkpt>
  <trkpt lat="38.77481" lon="-0.11519">
    <name>TP849</name>
  </trkpt>
  <trkpt lat="38.77485" lon="-0.11513">
    <name>TP850</name>
  </trkpt>
  <trkpt lat="38.77487" lon="-0.1151">
    <name>TP851</name>
  </trkpt>
  <trkpt lat="38.77489" lon="-0.11507">
    <name>TP852</name>
  </trkpt>
  <trkpt lat="38.77494" lon="-0.115">
    <name>TP853</name>
  </trkpt>
  <trkpt lat="38.77497" lon="-0.11496">
    <name>TP854</name>
  </trkpt>
  <trkpt lat="38.77501" lon="-0.1149">
    <name>TP855</name>
  </trkpt>
  <trkpt lat="38.77504" lon="-0.11485">
    <name>TP856</name>
  </trkpt>
  <trkpt lat="38.77508" lon="-0.11481">
    <name>TP857</name>
  </trkpt>
  <trkpt lat="38.77509" lon="-0.11479">
    <name>TP858</name>
  </trkpt>
  <trkpt lat="38.77511" lon="-0.11477">
    <name>TP859</name>
  </trkpt>
  <trkpt lat="38.77514" lon="-0.11474">
    <name>TP860</name>
  </trkpt>
  <trkpt lat="38.77517" lon="-0.11471">
    <name>TP861</name>
  </trkpt>
  <trkpt lat="38.77521" lon="-0.11468">
    <name>TP862</name>
  </trkpt>
  <trkpt lat="38.77524" lon="-0.11465">
    <name>TP863</name>
  </trkpt>
  <trkpt lat="38.77526" lon="-0.11464">
    <name>TP864</name>
  </trkpt>
  <trkpt lat="38.7753" lon="-0.11462">
    <name>TP865</name>
  </trkpt>
  <trkpt lat="38.7754" lon="-0.11455">
    <name>TP866</name>
  </trkpt>
  <trkpt lat="38.77545" lon="-0.11452">
    <name>TP867</name>
  </trkpt>
  <trkpt lat="38.77556" lon="-0.11445">
    <name>TP868</name>
  </trkpt>
  <trkpt lat="38.77561" lon="-0.11441">
    <name>TP869</name>
  </trkpt>
  <trkpt lat="38.7757" lon="-0.11436">
    <name>TP870</name>
  </trkpt>
  <trkpt lat="38.77572" lon="-0.11434">
    <name>TP871</name>
  </trkpt>
  <trkpt lat="38.77574" lon="-0.11433">
    <name>TP872</name>
  </trkpt>
  <trkpt lat="38.77577" lon="-0.11431">
    <name>TP873</name>
  </trkpt>
  <trkpt lat="38.77577" lon="-0.1143">
    <name>TP874</name>
  </trkpt>
  <trkpt lat="38.7758" lon="-0.11428">
    <name>TP875</name>
  </trkpt>
  <trkpt lat="38.77583" lon="-0.11425">
    <name>TP876</name>
  </trkpt>
  <trkpt lat="38.77586" lon="-0.1142">
    <name>TP877</name>
  </trkpt>
  <trkpt lat="38.77589" lon="-0.11416">
    <name>TP878</name>
  </trkpt>
  <trkpt lat="38.77598" lon="-0.11403">
    <name>TP879</name>
  </trkpt>
  <trkpt lat="38.77602" lon="-0.11397">
    <name>TP880</name>
  </trkpt>
  <trkpt lat="38.77614" lon="-0.11379">
    <name>TP881</name>
  </trkpt>
  <trkpt lat="38.77621" lon="-0.11367">
    <name>TP882</name>
  </trkpt>
  <trkpt lat="38.77622" lon="-0.11366">
    <name>TP883</name>
  </trkpt>
  <trkpt lat="38.77624" lon="-0.11362">
    <name>TP884</name>
  </trkpt>
  <trkpt lat="38.77626" lon="-0.11358">
    <name>TP885</name>
  </trkpt>
  <trkpt lat="38.77628" lon="-0.11354">
    <name>TP886</name>
  </trkpt>
  <trkpt lat="38.7763" lon="-0.11349">
    <name>TP887</name>
  </trkpt>
  <trkpt lat="38.77632" lon="-0.11345">
    <name>TP888</name>
  </trkpt>
  <trkpt lat="38.77633" lon="-0.1134">
    <name>TP889</name>
  </trkpt>
  <trkpt lat="38.77635" lon="-0.11336">
    <name>TP890</name>
  </trkpt>
  <trkpt lat="38.77636" lon="-0.11331">
    <name>TP891</name>
  </trkpt>
  <trkpt lat="38.77638" lon="-0.11327">
    <name>TP892</name>
  </trkpt>
  <trkpt lat="38.7764" lon="-0.11323">
    <name>TP893</name>
  </trkpt>
  <trkpt lat="38.77641" lon="-0.1132">
    <name>TP894</name>
  </trkpt>
  <trkpt lat="38.77642" lon="-0.11316">
    <name>TP895</name>
  </trkpt>
  <trkpt lat="38.77644" lon="-0.11312">
    <name>TP896</name>
  </trkpt>
  <trkpt lat="38.77646" lon="-0.11308">
    <name>TP897</name>
  </trkpt>
  <trkpt lat="38.77647" lon="-0.11307">
    <name>TP898</name>
  </trkpt>
  <trkpt lat="38.77648" lon="-0.11306">
    <name>TP899</name>
  </trkpt>
  <trkpt lat="38.77651" lon="-0.11301">
    <name>TP900</name>
  </trkpt>
  <trkpt lat="38.77654" lon="-0.11296">
    <name>TP901</name>
  </trkpt>
  <trkpt lat="38.77656" lon="-0.11292">
    <name>TP902</name>
  </trkpt>
  <trkpt lat="38.77658" lon="-0.11288">
    <name>TP903</name>
  </trkpt>
  <trkpt lat="38.77661" lon="-0.11283">
    <name>TP904</name>
  </trkpt>
  <trkpt lat="38.77664" lon="-0.11278">
    <name>TP905</name>
  </trkpt>
  <trkpt lat="38.77666" lon="-0.11272">
    <name>TP906</name>
  </trkpt>
  <trkpt lat="38.77668" lon="-0.11269">
    <name>TP907</name>
  </trkpt>
  <trkpt lat="38.77668" lon="-0.11268">
    <name>TP908</name>
  </trkpt>
  <trkpt lat="38.7767" lon="-0.11264">
    <name>TP909</name>
  </trkpt>
  <trkpt lat="38.77674" lon="-0.11254">
    <name>TP910</name>
  </trkpt>
  <trkpt lat="38.77675" lon="-0.1125">
    <name>TP911</name>
  </trkpt>
  <trkpt lat="38.77676" lon="-0.11249">
    <name>TP912</name>
  </trkpt>
  <trkpt lat="38.77677" lon="-0.11246">
    <name>TP913</name>
  </trkpt>
  <trkpt lat="38.77679" lon="-0.11243">
    <name>TP914</name>
  </trkpt>
  <trkpt lat="38.77682" lon="-0.11239">
    <name>TP915</name>
  </trkpt>
  <trkpt lat="38.77684" lon="-0.11236">
    <name>TP916</name>
  </trkpt>
  <trkpt lat="38.77687" lon="-0.11233">
    <name>TP917</name>
  </trkpt>
  <trkpt lat="38.77688" lon="-0.11232">
    <name>TP918</name>
  </trkpt>
  <trkpt lat="38.7769" lon="-0.11231">
    <name>TP919</name>
  </trkpt>
  <trkpt lat="38.777" lon="-0.11222">
    <name>TP920</name>
  </trkpt>
  <trkpt lat="38.77708" lon="-0.11213">
    <name>TP921</name>
  </trkpt>
  <trkpt lat="38.77712" lon="-0.11209">
    <name>TP922</name>
  </trkpt>
  <trkpt lat="38.77712" lon="-0.11208">
    <name>TP923</name>
  </trkpt>
  <trkpt lat="38.7772" lon="-0.11198">
    <name>TP924</name>
  </trkpt>
  <trkpt lat="38.77722" lon="-0.11195">
    <name>TP925</name>
  </trkpt>
  <trkpt lat="38.77726" lon="-0.11193">
    <name>TP926</name>
  </trkpt>
  <trkpt lat="38.77729" lon="-0.11191">
    <name>TP927</name>
  </trkpt>
  <trkpt lat="38.77759" lon="-0.11175">
    <name>TP928</name>
  </trkpt>
  <trkpt lat="38.77769" lon="-0.1117">
    <name>TP929</name>
  </trkpt>
  <trkpt lat="38.77776" lon="-0.11166">
    <name>TP930</name>
  </trkpt>
  <trkpt lat="38.77783" lon="-0.11163">
    <name>TP931</name>
  </trkpt>
  <trkpt lat="38.77786" lon="-0.1116">
    <name>TP932</name>
  </trkpt>
  <trkpt lat="38.77788" lon="-0.11157">
    <name>TP933</name>
  </trkpt>
  <trkpt lat="38.77791" lon="-0.11154">
    <name>TP934</name>
  </trkpt>
  <trkpt lat="38.77793" lon="-0.1115">
    <name>TP935</name>
  </trkpt>
  <trkpt lat="38.77795" lon="-0.11146">
    <name>TP936</name>
  </trkpt>
  <trkpt lat="38.77798" lon="-0.11139">
    <name>TP937</name>
  </trkpt>
  <trkpt lat="38.778" lon="-0.11136">
    <name>TP938</name>
  </trkpt>
  <trkpt lat="38.77801" lon="-0.11133">
    <name>TP939</name>
  </trkpt>
  <trkpt lat="38.77804" lon="-0.11126">
    <name>TP940</name>
  </trkpt>
  <trkpt lat="38.77806" lon="-0.11121">
    <name>TP941</name>
  </trkpt>
  <trkpt lat="38.77807" lon="-0.11116">
    <name>TP942</name>
  </trkpt>
  <trkpt lat="38.77808" lon="-0.11114">
    <name>TP943</name>
  </trkpt>
  <trkpt lat="38.77809" lon="-0.11111">
    <name>TP944</name>
  </trkpt>
  <trkpt lat="38.77809" lon="-0.11107">
    <name>TP945</name>
  </trkpt>
  <trkpt lat="38.7781" lon="-0.11103">
    <name>TP946</name>
  </trkpt>
  <trkpt lat="38.7781" lon="-0.11101">
    <name>TP947</name>
  </trkpt>
  <trkpt lat="38.77811" lon="-0.11097">
    <name>TP948</name>
  </trkpt>
  <trkpt lat="38.77811" lon="-0.11093">
    <name>TP949</name>
  </trkpt>
  <trkpt lat="38.77812" lon="-0.11089">
    <name>TP950</name>
  </trkpt>
  <trkpt lat="38.77813" lon="-0.11082">
    <name>TP951</name>
  </trkpt>
  <trkpt lat="38.77814" lon="-0.11078">
    <name>TP952</name>
  </trkpt>
  <trkpt lat="38.77815" lon="-0.11071">
    <name>TP953</name>
  </trkpt>
  <trkpt lat="38.77817" lon="-0.11061">
    <name>TP954</name>
  </trkpt>
  <trkpt lat="38.77818" lon="-0.1106">
    <name>TP955</name>
  </trkpt>
  <trkpt lat="38.77819" lon="-0.11055">
    <name>TP956</name>
  </trkpt>
  <trkpt lat="38.7782" lon="-0.11049">
    <name>TP957</name>
  </trkpt>
  <trkpt lat="38.77821" lon="-0.11045">
    <name>TP958</name>
  </trkpt>
  <trkpt lat="38.77822" lon="-0.11042">
    <name>TP959</name>
  </trkpt>
  <trkpt lat="38.77824" lon="-0.11037">
    <name>TP960</name>
  </trkpt>
  <trkpt lat="38.77825" lon="-0.11033">
    <name>TP961</name>
  </trkpt>
  <trkpt lat="38.7783" lon="-0.11016">
    <name>TP962</name>
  </trkpt>
  <trkpt lat="38.7783033" lon="-0.1101559">
    <name>TP963</name>
  </trkpt>
  <trkpt lat="38.77831" lon="-0.11008">
    <name>TP964</name>
  </trkpt>
  <trkpt lat="38.77827" lon="-0.10989">
    <name>TP965</name>
  </trkpt>
  <trkpt lat="38.77819" lon="-0.10976">
    <name>TP966</name>
  </trkpt>
  <trkpt lat="38.77814" lon="-0.10966">
    <name>TP967</name>
  </trkpt>
  <trkpt lat="38.77812" lon="-0.10957">
    <name>TP968</name>
  </trkpt>
  <trkpt lat="38.77811" lon="-0.10945">
    <name>TP969</name>
  </trkpt>
  <trkpt lat="38.77811" lon="-0.10942">
    <name>TP970</name>
  </trkpt>
  <trkpt lat="38.77814" lon="-0.10931">
    <name>TP971</name>
  </trkpt>
  <trkpt lat="38.77827" lon="-0.10895">
    <name>TP972</name>
  </trkpt>
  <trkpt lat="38.77835" lon="-0.10883">
    <name>TP973</name>
  </trkpt>
  <trkpt lat="38.77842" lon="-0.10874">
    <name>TP974</name>
  </trkpt>
  <trkpt lat="38.7785" lon="-0.10867">
    <name>TP975</name>
  </trkpt>
  <trkpt lat="38.77858" lon="-0.10863">
    <name>TP976</name>
  </trkpt>
  <trkpt lat="38.7787" lon="-0.10859">
    <name>TP977</name>
  </trkpt>
  <trkpt lat="38.77874" lon="-0.10857">
    <name>TP978</name>
  </trkpt>
  <trkpt lat="38.77879" lon="-0.10855">
    <name>TP979</name>
  </trkpt>
  <trkpt lat="38.77898" lon="-0.10848">
    <name>TP980</name>
  </trkpt>
  <trkpt lat="38.7789754" lon="-0.1084837">
    <name>TP981</name>
  </trkpt>
  <trkpt lat="38.7794" lon="-0.10832">
    <name>TP982</name>
  </trkpt>
  <trkpt lat="38.77967" lon="-0.10821">
    <name>TP983</name>
  </trkpt>
  <trkpt lat="38.77971" lon="-0.10819">
    <name>TP984</name>
  </trkpt>
  <trkpt lat="38.77974" lon="-0.10818">
    <name>TP985</name>
  </trkpt>
  <trkpt lat="38.77976" lon="-0.10817">
    <name>TP986</name>
  </trkpt>
  <trkpt lat="38.77979" lon="-0.10815">
    <name>TP987</name>
  </trkpt>
  <trkpt lat="38.77982" lon="-0.10812">
    <name>TP988</name>
  </trkpt>
  <trkpt lat="38.77985" lon="-0.1081">
    <name>TP989</name>
  </trkpt>
  <trkpt lat="38.77988" lon="-0.10807">
    <name>TP990</name>
  </trkpt>
  <trkpt lat="38.77991" lon="-0.10804">
    <name>TP991</name>
  </trkpt>
  <trkpt lat="38.77994" lon="-0.10801">
    <name>TP992</name>
  </trkpt>
  <trkpt lat="38.77996" lon="-0.10797">
    <name>TP993</name>
  </trkpt>
  <trkpt lat="38.77998" lon="-0.10794">
    <name>TP994</name>
  </trkpt>
  <trkpt lat="38.78" lon="-0.10789">
    <name>TP995</name>
  </trkpt>
  <trkpt lat="38.78003" lon="-0.10783">
    <name>TP996</name>
  </trkpt>
  <trkpt lat="38.78005" lon="-0.10779">
    <name>TP997</name>
  </trkpt>
  <trkpt lat="38.78005" lon="-0.10777">
    <name>TP998</name>
  </trkpt>
  <trkpt lat="38.78006" lon="-0.10775">
    <name>TP999</name>
  </trkpt>
  <trkpt lat="38.78007" lon="-0.10771">
    <name>TP1000</name>
  </trkpt>
  <trkpt lat="38.78013" lon="-0.10756">
    <name>TP1001</name>
  </trkpt>
  <trkpt lat="38.7802" lon="-0.10734">
    <name>TP1002</name>
  </trkpt>
  <trkpt lat="38.78021" lon="-0.10729">
    <name>TP1003</name>
  </trkpt>
  <trkpt lat="38.78023" lon="-0.10724">
    <name>TP1004</name>
  </trkpt>
  <trkpt lat="38.78025" lon="-0.10719">
    <name>TP1005</name>
  </trkpt>
  <trkpt lat="38.78027" lon="-0.10714">
    <name>TP1006</name>
  </trkpt>
  <trkpt lat="38.7803" lon="-0.10709">
    <name>TP1007</name>
  </trkpt>
  <trkpt lat="38.78032" lon="-0.10704">
    <name>TP1008</name>
  </trkpt>
  <trkpt lat="38.78034" lon="-0.10701">
    <name>TP1009</name>
  </trkpt>
  <trkpt lat="38.78036" lon="-0.10698">
    <name>TP1010</name>
  </trkpt>
  <trkpt lat="38.78038" lon="-0.10695">
    <name>TP1011</name>
  </trkpt>
  <trkpt lat="38.7804" lon="-0.10693">
    <name>TP1012</name>
  </trkpt>
  <trkpt lat="38.78043" lon="-0.10689">
    <name>TP1013</name>
  </trkpt>
  <trkpt lat="38.78046" lon="-0.10686">
    <name>TP1014</name>
  </trkpt>
  <trkpt lat="38.78049" lon="-0.10682">
    <name>TP1015</name>
  </trkpt>
  <trkpt lat="38.78052" lon="-0.10678">
    <name>TP1016</name>
  </trkpt>
  <trkpt lat="38.78055" lon="-0.10675">
    <name>TP1017</name>
  </trkpt>
  <trkpt lat="38.78058" lon="-0.10672">
    <name>TP1018</name>
  </trkpt>
  <trkpt lat="38.78061" lon="-0.10668">
    <name>TP1019</name>
  </trkpt>
  <trkpt lat="38.78064" lon="-0.10665">
    <name>TP1020</name>
  </trkpt>
  <trkpt lat="38.78067" lon="-0.10662">
    <name>TP1021</name>
  </trkpt>
  <trkpt lat="38.78071" lon="-0.10659">
    <name>TP1022</name>
  </trkpt>
  <trkpt lat="38.78074" lon="-0.10656">
    <name>TP1023</name>
  </trkpt>
  <trkpt lat="38.78077" lon="-0.10653">
    <name>TP1024</name>
  </trkpt>
  <trkpt lat="38.78081" lon="-0.1065">
    <name>TP1025</name>
  </trkpt>
  <trkpt lat="38.78084" lon="-0.10647">
    <name>TP1026</name>
  </trkpt>
  <trkpt lat="38.7811" lon="-0.10626">
    <name>TP1027</name>
  </trkpt>
  <trkpt lat="38.78141" lon="-0.10602">
    <name>TP1028</name>
  </trkpt>
  <trkpt lat="38.78142" lon="-0.10601">
    <name>TP1029</name>
  </trkpt>
  <trkpt lat="38.78145" lon="-0.10599">
    <name>TP1030</name>
  </trkpt>
  <trkpt lat="38.78149" lon="-0.10596">
    <name>TP1031</name>
  </trkpt>
  <trkpt lat="38.78153" lon="-0.10594">
    <name>TP1032</name>
  </trkpt>
  <trkpt lat="38.78157" lon="-0.10592">
    <name>TP1033</name>
  </trkpt>
  <trkpt lat="38.7816" lon="-0.1059">
    <name>TP1034</name>
  </trkpt>
  <trkpt lat="38.78164" lon="-0.10588">
    <name>TP1035</name>
  </trkpt>
  <trkpt lat="38.78171" lon="-0.10584">
    <name>TP1036</name>
  </trkpt>
  <trkpt lat="38.78173" lon="-0.10583">
    <name>TP1037</name>
  </trkpt>
  <trkpt lat="38.78175" lon="-0.10582">
    <name>TP1038</name>
  </trkpt>
  <trkpt lat="38.78183" lon="-0.10579">
    <name>TP1039</name>
  </trkpt>
  <trkpt lat="38.78187" lon="-0.10577">
    <name>TP1040</name>
  </trkpt>
  <trkpt lat="38.78195" lon="-0.10574">
    <name>TP1041</name>
  </trkpt>
  <trkpt lat="38.78198" lon="-0.10573">
    <name>TP1042</name>
  </trkpt>
  <trkpt lat="38.78203" lon="-0.10571">
    <name>TP1043</name>
  </trkpt>
  <trkpt lat="38.78207" lon="-0.10571">
    <name>TP1044</name>
  </trkpt>
  <trkpt lat="38.7821" lon="-0.1057">
    <name>TP1045</name>
  </trkpt>
  <trkpt lat="38.78214" lon="-0.1057">
    <name>TP1046</name>
  </trkpt>
  <trkpt lat="38.78217" lon="-0.1057">
    <name>TP1047</name>
  </trkpt>
  <trkpt lat="38.78226" lon="-0.10571">
    <name>TP1048</name>
  </trkpt>
  <trkpt lat="38.7822578" lon="-0.1057114">
    <name>TP1049</name>
  </trkpt>
  <trkpt lat="38.7823" lon="-0.10572">
    <name>TP1050</name>
  </trkpt>
  <trkpt lat="38.78239" lon="-0.10576">
    <name>TP1051</name>
  </trkpt>
  <trkpt lat="38.78248" lon="-0.1058">
    <name>TP1052</name>
  </trkpt>
  <trkpt lat="38.78249" lon="-0.1058">
    <name>TP1053</name>
  </trkpt>
  <trkpt lat="38.78256" lon="-0.10581">
    <name>TP1054</name>
  </trkpt>
  <trkpt lat="38.78265" lon="-0.10579">
    <name>TP1055</name>
  </trkpt>
  <trkpt lat="38.78266" lon="-0.10578">
    <name>TP1056</name>
  </trkpt>
  <trkpt lat="38.78275" lon="-0.10573">
    <name>TP1057</name>
  </trkpt>
  <trkpt lat="38.78283" lon="-0.10566">
    <name>TP1058</name>
  </trkpt>
  <trkpt lat="38.78294" lon="-0.1055">
    <name>TP1059</name>
  </trkpt>
  <trkpt lat="38.78298" lon="-0.10539">
    <name>TP1060</name>
  </trkpt>
  <trkpt lat="38.78298" lon="-0.10528">
    <name>TP1061</name>
  </trkpt>
  <trkpt lat="38.78298" lon="-0.10522">
    <name>TP1062</name>
  </trkpt>
  <trkpt lat="38.78295" lon="-0.10502">
    <name>TP1063</name>
  </trkpt>
  <trkpt lat="38.78291" lon="-0.10484">
    <name>TP1064</name>
  </trkpt>
  <trkpt lat="38.78291" lon="-0.10483">
    <name>TP1065</name>
  </trkpt>
  <trkpt lat="38.78287" lon="-0.10465">
    <name>TP1066</name>
  </trkpt>
  <trkpt lat="38.78284" lon="-0.10441">
    <name>TP1067</name>
  </trkpt>
  <trkpt lat="38.78278" lon="-0.10396">
    <name>TP1068</name>
  </trkpt>
  <trkpt lat="38.78273" lon="-0.10371">
    <name>TP1069</name>
  </trkpt>
  <trkpt lat="38.78273" lon="-0.1037">
    <name>TP1070</name>
  </trkpt>
  <trkpt lat="38.78269" lon="-0.10362">
    <name>TP1071</name>
  </trkpt>
  <trkpt lat="38.78265" lon="-0.10355">
    <name>TP1072</name>
  </trkpt>
  <trkpt lat="38.78262" lon="-0.10353">
    <name>TP1073</name>
  </trkpt>
  <trkpt lat="38.78259" lon="-0.10351">
    <name>TP1074</name>
  </trkpt>
  <trkpt lat="38.78253" lon="-0.1035">
    <name>TP1075</name>
  </trkpt>
  <trkpt lat="38.78246" lon="-0.10349">
    <name>TP1076</name>
  </trkpt>
  <trkpt lat="38.78234" lon="-0.10351">
    <name>TP1077</name>
  </trkpt>
  <trkpt lat="38.78206" lon="-0.10356">
    <name>TP1078</name>
  </trkpt>
  <trkpt lat="38.78175" lon="-0.10362">
    <name>TP1079</name>
  </trkpt>
  <trkpt lat="38.78173" lon="-0.10363">
    <name>TP1080</name>
  </trkpt>
  <trkpt lat="38.78164" lon="-0.10367">
    <name>TP1081</name>
  </trkpt>
  <trkpt lat="38.78156" lon="-0.10371">
    <name>TP1082</name>
  </trkpt>
  <trkpt lat="38.78133" lon="-0.10381">
    <name>TP1083</name>
  </trkpt>
  <trkpt lat="38.78122" lon="-0.10386">
    <name>TP1084</name>
  </trkpt>
  <trkpt lat="38.7812215" lon="-0.1038615">
    <name>TP1085</name>
  </trkpt>
  <trkpt lat="38.78118" lon="-0.10388">
    <name>TP1086</name>
  </trkpt>
  <trkpt lat="38.78108" lon="-0.10394">
    <name>TP1087</name>
  </trkpt>
  <trkpt lat="38.78102" lon="-0.10397">
    <name>TP1088</name>
  </trkpt>
  <trkpt lat="38.78087" lon="-0.10409">
    <name>TP1089</name>
  </trkpt>
  <trkpt lat="38.78075" lon="-0.1042">
    <name>TP1090</name>
  </trkpt>
  <trkpt lat="38.78071" lon="-0.10423">
    <name>TP1091</name>
  </trkpt>
  <trkpt lat="38.78068" lon="-0.10426">
    <name>TP1092</name>
  </trkpt>
  <trkpt lat="38.78065" lon="-0.10428">
    <name>TP1093</name>
  </trkpt>
  <trkpt lat="38.78059" lon="-0.10433">
    <name>TP1094</name>
  </trkpt>
  <trkpt lat="38.78053" lon="-0.10438">
    <name>TP1095</name>
  </trkpt>
  <trkpt lat="38.7805" lon="-0.1044">
    <name>TP1096</name>
  </trkpt>
  <trkpt lat="38.78046" lon="-0.10443">
    <name>TP1097</name>
  </trkpt>
  <trkpt lat="38.78041" lon="-0.10446">
    <name>TP1098</name>
  </trkpt>
  <trkpt lat="38.78038" lon="-0.10448">
    <name>TP1099</name>
  </trkpt>
  <trkpt lat="38.78026" lon="-0.10456">
    <name>TP1100</name>
  </trkpt>
  <trkpt lat="38.78016" lon="-0.10465">
    <name>TP1101</name>
  </trkpt>
  <trkpt lat="38.78012" lon="-0.10468">
    <name>TP1102</name>
  </trkpt>
  <trkpt lat="38.78006" lon="-0.10473">
    <name>TP1103</name>
  </trkpt>
  <trkpt lat="38.78" lon="-0.10477">
    <name>TP1104</name>
  </trkpt>
  <trkpt lat="38.77997" lon="-0.10479">
    <name>TP1105</name>
  </trkpt>
  <trkpt lat="38.77989" lon="-0.10485">
    <name>TP1106</name>
  </trkpt>
  <trkpt lat="38.77985" lon="-0.10488">
    <name>TP1107</name>
  </trkpt>
  <trkpt lat="38.7798" lon="-0.10491">
    <name>TP1108</name>
  </trkpt>
  <trkpt lat="38.77968" lon="-0.10499">
    <name>TP1109</name>
  </trkpt>
  <trkpt lat="38.77959" lon="-0.10504">
    <name>TP1110</name>
  </trkpt>
  <trkpt lat="38.77958" lon="-0.10504">
    <name>TP1111</name>
  </trkpt>
  <trkpt lat="38.7795775" lon="-0.1050411">
    <name>TP1112</name>
  </trkpt>
  <trkpt lat="38.77955" lon="-0.10506">
    <name>TP1113</name>
  </trkpt>
  <trkpt lat="38.77954" lon="-0.10506">
    <name>TP1114</name>
  </trkpt>
  <trkpt lat="38.77952" lon="-0.10506">
    <name>TP1115</name>
  </trkpt>
  <trkpt lat="38.77949" lon="-0.10505">
    <name>TP1116</name>
  </trkpt>
  <trkpt lat="38.77945" lon="-0.10502">
    <name>TP1117</name>
  </trkpt>
  <trkpt lat="38.77941" lon="-0.10498">
    <name>TP1118</name>
  </trkpt>
  <trkpt lat="38.77939" lon="-0.10496">
    <name>TP1119</name>
  </trkpt>
  <trkpt lat="38.77935" lon="-0.10489">
    <name>TP1120</name>
  </trkpt>
  <trkpt lat="38.77928" lon="-0.10475">
    <name>TP1121</name>
  </trkpt>
  <trkpt lat="38.77927" lon="-0.10472">
    <name>TP1122</name>
  </trkpt>
  <trkpt lat="38.77917" lon="-0.10445">
    <name>TP1123</name>
  </trkpt>
  <trkpt lat="38.77915" lon="-0.10438">
    <name>TP1124</name>
  </trkpt>
  <trkpt lat="38.77913" lon="-0.10424">
    <name>TP1125</name>
  </trkpt>
  <trkpt lat="38.7791295" lon="-0.1042354">
    <name>TP1126</name>
  </trkpt>
  <trkpt lat="38.77911" lon="-0.10422">
    <name>TP1127</name>
  </trkpt>
  <trkpt lat="38.7791" lon="-0.10422">
    <name>TP1128</name>
  </trkpt>
  <trkpt lat="38.77908" lon="-0.10422">
    <name>TP1129</name>
  </trkpt>
  <trkpt lat="38.77907" lon="-0.10422">
    <name>TP1130</name>
  </trkpt>
  <trkpt lat="38.77906" lon="-0.10422">
    <name>TP1131</name>
  </trkpt>
  <trkpt lat="38.77904" lon="-0.10423">
    <name>TP1132</name>
  </trkpt>
  <trkpt lat="38.77902" lon="-0.10425">
    <name>TP1133</name>
  </trkpt>
  <trkpt lat="38.77897" lon="-0.10429">
    <name>TP1134</name>
  </trkpt>
  <trkpt lat="38.77891" lon="-0.10434">
    <name>TP1135</name>
  </trkpt>
  <trkpt lat="38.77884" lon="-0.10442">
    <name>TP1136</name>
  </trkpt>
  <trkpt lat="38.77883" lon="-0.10443">
    <name>TP1137</name>
  </trkpt>
  <trkpt lat="38.77868" lon="-0.10458">
    <name>TP1138</name>
  </trkpt>
  <trkpt lat="38.77858" lon="-0.10472">
    <name>TP1139</name>
  </trkpt>
  <trkpt lat="38.77848" lon="-0.10488">
    <name>TP1140</name>
  </trkpt>
  <trkpt lat="38.77842" lon="-0.10496">
    <name>TP1141</name>
  </trkpt>
  <trkpt lat="38.77839" lon="-0.10503">
    <name>TP1142</name>
  </trkpt>
  <trkpt lat="38.77838" lon="-0.10507">
    <name>TP1143</name>
  </trkpt>
  <trkpt lat="38.77836" lon="-0.10511">
    <name>TP1144</name>
  </trkpt>
  <trkpt lat="38.77834" lon="-0.10516">
    <name>TP1145</name>
  </trkpt>
  <trkpt lat="38.77832" lon="-0.10519">
    <name>TP1146</name>
  </trkpt>
  <trkpt lat="38.77829" lon="-0.10523">
    <name>TP1147</name>
  </trkpt>
  <trkpt lat="38.77827" lon="-0.10525">
    <name>TP1148</name>
  </trkpt>
  <trkpt lat="38.77825" lon="-0.10527">
    <name>TP1149</name>
  </trkpt>
  <trkpt lat="38.77819" lon="-0.10533">
    <name>TP1150</name>
  </trkpt>
  <trkpt lat="38.77813" lon="-0.10539">
    <name>TP1151</name>
  </trkpt>
  <trkpt lat="38.77807" lon="-0.10545">
    <name>TP1152</name>
  </trkpt>
  <trkpt lat="38.77802" lon="-0.10551">
    <name>TP1153</name>
  </trkpt>
  <trkpt lat="38.778" lon="-0.10554">
    <name>TP1154</name>
  </trkpt>
  <trkpt lat="38.77797" lon="-0.10557">
    <name>TP1155</name>
  </trkpt>
  <trkpt lat="38.77794" lon="-0.10558">
    <name>TP1156</name>
  </trkpt>
  <trkpt lat="38.7779" lon="-0.10559">
    <name>TP1157</name>
  </trkpt>
  <trkpt lat="38.77787" lon="-0.10558">
    <name>TP1158</name>
  </trkpt>
  <trkpt lat="38.77783" lon="-0.10555">
    <name>TP1159</name>
  </trkpt>
  <trkpt lat="38.77779" lon="-0.1055">
    <name>TP1160</name>
  </trkpt>
  <trkpt lat="38.77748" lon="-0.10514">
    <name>TP1161</name>
  </trkpt>
  <trkpt lat="38.77744" lon="-0.1051">
    <name>TP1162</name>
  </trkpt>
  <trkpt lat="38.77743" lon="-0.10509">
    <name>TP1163</name>
  </trkpt>
  <trkpt lat="38.7774" lon="-0.10507">
    <name>TP1164</name>
  </trkpt>
  <trkpt lat="38.77736" lon="-0.10506">
    <name>TP1165</name>
  </trkpt>
  <trkpt lat="38.77731" lon="-0.10505">
    <name>TP1166</name>
  </trkpt>
  <trkpt lat="38.77726" lon="-0.10506">
    <name>TP1167</name>
  </trkpt>
  <trkpt lat="38.77725" lon="-0.10507">
    <name>TP1168</name>
  </trkpt>
  <trkpt lat="38.77721" lon="-0.10509">
    <name>TP1169</name>
  </trkpt>
  <trkpt lat="38.77719" lon="-0.1051">
    <name>TP1170</name>
  </trkpt>
  <trkpt lat="38.7771945" lon="-0.1051021">
    <name>TP1171</name>
  </trkpt>
  <trkpt lat="38.7771945" lon="-0.1051021">
    <name>TP1172</name>
  </trkpt>
  <trkpt lat="38.7771945" lon="-0.1051021">
    <name>TP1173</name>
  </trkpt>
  </trkseg>
</trk>
</gpx>