<?xml version="1.0" encoding="UTF-8" standalone="no" ?>
<gpx xmlns="http://www.topografix.com/GPX/1/1" xmlns:gpxx="http://www.garmin.com/xmlschemas/GpxExtensions/v3" xmlns:gpxtpx="http://www.garmin.com/xmlschemas/TrackPointExtension/v1" creator="mapstogpx.com" version="1.1" xmlns:xsi="http://www.w3.org/2001/XMLSchema-instance" xsi:schemaLocation="http://www.topografix.com/GPX/1/1 http://www.topografix.com/GPX/1/1/gpx.xsd http://www.garmin.com/xmlschemas/GpxExtensions/v3 http://www.garmin.com/xmlschemas/GpxExtensionsv3.xsd http://www.garmin.com/xmlschemas/TrackPointExtension/v1 http://www.garmin.com/xmlschemas/TrackPointExtensionv1.xsd">
  <metadata>
    <link href="http://www.mapstogpx.com">
      <text>Sverrir Sigmundarson</text>
    </link>
    <!--desc>Map data ©2024</desc-->
    <!--copyright author="Google Inc">
    	<year>2024</year>
    	<license>https://developers.google.com/maps/terms</license>
    </copyright-->
    <!--url>https://www.google.com/maps/dir/Hostel+El+Patagonico+-+Bernardo+O'Higgins+N%C2%B0+741,+6160000+Puerto+Natales,+Natales,+Magallanes+y+la+Ant%C3%A1rtica+Chilena/Aeropuerto+Teniente+Julio+Gallardo,+Puerto+Bories,+Natales/@-51.6974703,-72.5558403,10813m/data=!3m2!1e3!4b1!4m14!4m13!1m5!1m1!1s0xbdafe81e07d2bc1f:0x9c185568056d6a95!2m2!1d-72.4996716!2d-51.72909!1m5!1m1!1s0xbdafe8a3cb468ec3:0xb8e8428fbbe08cd9!2m2!1d-72.5258355!2d-51.6707283!3e0!5m1!1e1?entry=tts&g_ep=EgoyMDI0MTIxMS4wKgBIAVAD&hl=en</url-->
    <time>2024-12-26T10:33:37Z</time>
  </metadata>
  <wpt lat="-51.72909" lon="-72.4996716">
    <name>Hostel El Patagonico - Bernardo O&apos;Higgins N° 741</name>
    <desc>Hostel El Patagonico, Bernardo O&apos;Higgins N° 741, 6160000 Puerto Natales, Natales, Magallanes y la Antártica Chilena, Chile</desc>
  </wpt>
  <wpt lat="-51.6707283" lon="-72.5258355">
    <name>Aeropuerto Teniente Julio Gallardo</name>
    <desc>Teniente Julio Gallardo Airport, Puerto Bories, Natales, Magallanes y la Antártica Chilena, Chile</desc>
  </wpt>
<trk>
  <name>Hostel El Patagonico - Bernardo O&apos;Higgins N° 741 to Aeropuerto Teniente Julio Gallardo</name>
  <number>1</number>
  <trkseg>
  <trkpt lat="-51.7289775" lon="-72.4997112">
    <name>TP001</name>
  </trkpt>
  <trkpt lat="-51.72908" lon="-72.50045">
    <name>TP002</name>
  </trkpt>
  <trkpt lat="-51.7290769" lon="-72.500447">
    <name>TP003</name>
  </trkpt>
  <trkpt lat="-51.72798" lon="-72.501">
    <name>TP004</name>
  </trkpt>
  <trkpt lat="-51.72707" lon="-72.50136">
    <name>TP005</name>
  </trkpt>
  <trkpt lat="-51.72696" lon="-72.50139">
    <name>TP006</name>
  </trkpt>
  <trkpt lat="-51.72689" lon="-72.50143">
    <name>TP007</name>
  </trkpt>
  <trkpt lat="-51.72684" lon="-72.50147">
    <name>TP008</name>
  </trkpt>
  <trkpt lat="-51.7268402" lon="-72.5014698">
    <name>TP009</name>
  </trkpt>
  <trkpt lat="-51.72681" lon="-72.5015">
    <name>TP010</name>
  </trkpt>
  <trkpt lat="-51.72674" lon="-72.50159">
    <name>TP011</name>
  </trkpt>
  <trkpt lat="-51.72659" lon="-72.50188">
    <name>TP012</name>
  </trkpt>
  <trkpt lat="-51.72642" lon="-72.50231">
    <name>TP013</name>
  </trkpt>
  <trkpt lat="-51.72634" lon="-72.50252">
    <name>TP014</name>
  </trkpt>
  <trkpt lat="-51.72592" lon="-72.50361">
    <name>TP015</name>
  </trkpt>
  <trkpt lat="-51.72546" lon="-72.50483">
    <name>TP016</name>
  </trkpt>
  <trkpt lat="-51.72509" lon="-72.50579">
    <name>TP017</name>
  </trkpt>
  <trkpt lat="-51.72507" lon="-72.50584">
    <name>TP018</name>
  </trkpt>
  <trkpt lat="-51.72505" lon="-72.50588">
    <name>TP019</name>
  </trkpt>
  <trkpt lat="-51.72498" lon="-72.50608">
    <name>TP020</name>
  </trkpt>
  <trkpt lat="-51.72488" lon="-72.50633">
    <name>TP021</name>
  </trkpt>
  <trkpt lat="-51.72485" lon="-72.50643">
    <name>TP022</name>
  </trkpt>
  <trkpt lat="-51.72479" lon="-72.50658">
    <name>TP023</name>
  </trkpt>
  <trkpt lat="-51.72469" lon="-72.50683">
    <name>TP024</name>
  </trkpt>
  <trkpt lat="-51.7246" lon="-72.50707">
    <name>TP025</name>
  </trkpt>
  <trkpt lat="-51.72451" lon="-72.50732">
    <name>TP026</name>
  </trkpt>
  <trkpt lat="-51.72431" lon="-72.50791">
    <name>TP027</name>
  </trkpt>
  <trkpt lat="-51.72428" lon="-72.50798">
    <name>TP028</name>
  </trkpt>
  <trkpt lat="-51.72407" lon="-72.50847">
    <name>TP029</name>
  </trkpt>
  <trkpt lat="-51.72384" lon="-72.50904">
    <name>TP030</name>
  </trkpt>
  <trkpt lat="-51.72373" lon="-72.50934">
    <name>TP031</name>
  </trkpt>
  <trkpt lat="-51.72359" lon="-72.50969">
    <name>TP032</name>
  </trkpt>
  <trkpt lat="-51.72349" lon="-72.50994">
    <name>TP033</name>
  </trkpt>
  <trkpt lat="-51.7234945" lon="-72.5099393">
    <name>TP034</name>
  </trkpt>
  <trkpt lat="-51.72324" lon="-72.5097">
    <name>TP035</name>
  </trkpt>
  <trkpt lat="-51.72272" lon="-72.50919">
    <name>TP036</name>
  </trkpt>
  <trkpt lat="-51.72257" lon="-72.50904">
    <name>TP037</name>
  </trkpt>
  <trkpt lat="-51.72194" lon="-72.5084">
    <name>TP038</name>
  </trkpt>
  <trkpt lat="-51.72175" lon="-72.50821">
    <name>TP039</name>
  </trkpt>
  <trkpt lat="-51.72164" lon="-72.50801">
    <name>TP040</name>
  </trkpt>
  <trkpt lat="-51.72154" lon="-72.50788">
    <name>TP041</name>
  </trkpt>
  <trkpt lat="-51.72128" lon="-72.50753">
    <name>TP042</name>
  </trkpt>
  <trkpt lat="-51.72119" lon="-72.50745">
    <name>TP043</name>
  </trkpt>
  <trkpt lat="-51.721192" lon="-72.5074494">
    <name>TP044</name>
  </trkpt>
  <trkpt lat="-51.72109" lon="-72.50735">
    <name>TP045</name>
  </trkpt>
  <trkpt lat="-51.721" lon="-72.50728">
    <name>TP046</name>
  </trkpt>
  <trkpt lat="-51.72097" lon="-72.50728">
    <name>TP047</name>
  </trkpt>
  <trkpt lat="-51.72094" lon="-72.50728">
    <name>TP048</name>
  </trkpt>
  <trkpt lat="-51.72091" lon="-72.50729">
    <name>TP049</name>
  </trkpt>
  <trkpt lat="-51.72089" lon="-72.50729">
    <name>TP050</name>
  </trkpt>
  <trkpt lat="-51.72087" lon="-72.5073">
    <name>TP051</name>
  </trkpt>
  <trkpt lat="-51.72059" lon="-72.50721">
    <name>TP052</name>
  </trkpt>
  <trkpt lat="-51.72009" lon="-72.50701">
    <name>TP053</name>
  </trkpt>
  <trkpt lat="-51.71975" lon="-72.50682">
    <name>TP054</name>
  </trkpt>
  <trkpt lat="-51.71839" lon="-72.50605">
    <name>TP055</name>
  </trkpt>
  <trkpt lat="-51.71822" lon="-72.50595">
    <name>TP056</name>
  </trkpt>
  <trkpt lat="-51.71754" lon="-72.50557">
    <name>TP057</name>
  </trkpt>
  <trkpt lat="-51.71737" lon="-72.50548">
    <name>TP058</name>
  </trkpt>
  <trkpt lat="-51.7172" lon="-72.50538">
    <name>TP059</name>
  </trkpt>
  <trkpt lat="-51.71685" lon="-72.50517">
    <name>TP060</name>
  </trkpt>
  <trkpt lat="-51.71642" lon="-72.50496">
    <name>TP061</name>
  </trkpt>
  <trkpt lat="-51.71627" lon="-72.5049">
    <name>TP062</name>
  </trkpt>
  <trkpt lat="-51.71617" lon="-72.50487">
    <name>TP063</name>
  </trkpt>
  <trkpt lat="-51.71603" lon="-72.50484">
    <name>TP064</name>
  </trkpt>
  <trkpt lat="-51.71599" lon="-72.50484">
    <name>TP065</name>
  </trkpt>
  <trkpt lat="-51.71594" lon="-72.50483">
    <name>TP066</name>
  </trkpt>
  <trkpt lat="-51.71581" lon="-72.50483">
    <name>TP067</name>
  </trkpt>
  <trkpt lat="-51.7158" lon="-72.50483">
    <name>TP068</name>
  </trkpt>
  <trkpt lat="-51.71571" lon="-72.50484">
    <name>TP069</name>
  </trkpt>
  <trkpt lat="-51.71558" lon="-72.50486">
    <name>TP070</name>
  </trkpt>
  <trkpt lat="-51.71551" lon="-72.50488">
    <name>TP071</name>
  </trkpt>
  <trkpt lat="-51.71546" lon="-72.5049">
    <name>TP072</name>
  </trkpt>
  <trkpt lat="-51.71543" lon="-72.50491">
    <name>TP073</name>
  </trkpt>
  <trkpt lat="-51.71524" lon="-72.50499">
    <name>TP074</name>
  </trkpt>
  <trkpt lat="-51.71508" lon="-72.50508">
    <name>TP075</name>
  </trkpt>
  <trkpt lat="-51.71493" lon="-72.50519">
    <name>TP076</name>
  </trkpt>
  <trkpt lat="-51.71479" lon="-72.50533">
    <name>TP077</name>
  </trkpt>
  <trkpt lat="-51.71462" lon="-72.50551">
    <name>TP078</name>
  </trkpt>
  <trkpt lat="-51.71429" lon="-72.50596">
    <name>TP079</name>
  </trkpt>
  <trkpt lat="-51.71428" lon="-72.50598">
    <name>TP080</name>
  </trkpt>
  <trkpt lat="-51.71366" lon="-72.50688">
    <name>TP081</name>
  </trkpt>
  <trkpt lat="-51.71321" lon="-72.50751">
    <name>TP082</name>
  </trkpt>
  <trkpt lat="-51.7128" lon="-72.50797">
    <name>TP083</name>
  </trkpt>
  <trkpt lat="-51.71257" lon="-72.5082">
    <name>TP084</name>
  </trkpt>
  <trkpt lat="-51.71233" lon="-72.50838">
    <name>TP085</name>
  </trkpt>
  <trkpt lat="-51.71191" lon="-72.50863">
    <name>TP086</name>
  </trkpt>
  <trkpt lat="-51.71178" lon="-72.50869">
    <name>TP087</name>
  </trkpt>
  <trkpt lat="-51.71125" lon="-72.50894">
    <name>TP088</name>
  </trkpt>
  <trkpt lat="-51.71044" lon="-72.5093">
    <name>TP089</name>
  </trkpt>
  <trkpt lat="-51.70993" lon="-72.50953">
    <name>TP090</name>
  </trkpt>
  <trkpt lat="-51.70903" lon="-72.50992">
    <name>TP091</name>
  </trkpt>
  <trkpt lat="-51.70827" lon="-72.51024">
    <name>TP092</name>
  </trkpt>
  <trkpt lat="-51.70807" lon="-72.5103">
    <name>TP093</name>
  </trkpt>
  <trkpt lat="-51.7078" lon="-72.51037">
    <name>TP094</name>
  </trkpt>
  <trkpt lat="-51.70711" lon="-72.51052">
    <name>TP095</name>
  </trkpt>
  <trkpt lat="-51.70706" lon="-72.51054">
    <name>TP096</name>
  </trkpt>
  <trkpt lat="-51.70693" lon="-72.51056">
    <name>TP097</name>
  </trkpt>
  <trkpt lat="-51.70631" lon="-72.5107">
    <name>TP098</name>
  </trkpt>
  <trkpt lat="-51.70609" lon="-72.51076">
    <name>TP099</name>
  </trkpt>
  <trkpt lat="-51.70587" lon="-72.51085">
    <name>TP100</name>
  </trkpt>
  <trkpt lat="-51.70567" lon="-72.51095">
    <name>TP101</name>
  </trkpt>
  <trkpt lat="-51.70544" lon="-72.51106">
    <name>TP102</name>
  </trkpt>
  <trkpt lat="-51.70511" lon="-72.51129">
    <name>TP103</name>
  </trkpt>
  <trkpt lat="-51.70482" lon="-72.51156">
    <name>TP104</name>
  </trkpt>
  <trkpt lat="-51.70443" lon="-72.51201">
    <name>TP105</name>
  </trkpt>
  <trkpt lat="-51.70438" lon="-72.51208">
    <name>TP106</name>
  </trkpt>
  <trkpt lat="-51.70377" lon="-72.5129">
    <name>TP107</name>
  </trkpt>
  <trkpt lat="-51.70355" lon="-72.5132">
    <name>TP108</name>
  </trkpt>
  <trkpt lat="-51.70342" lon="-72.51339">
    <name>TP109</name>
  </trkpt>
  <trkpt lat="-51.70337" lon="-72.51346">
    <name>TP110</name>
  </trkpt>
  <trkpt lat="-51.70306" lon="-72.51391">
    <name>TP111</name>
  </trkpt>
  <trkpt lat="-51.7028" lon="-72.51436">
    <name>TP112</name>
  </trkpt>
  <trkpt lat="-51.70278" lon="-72.51441">
    <name>TP113</name>
  </trkpt>
  <trkpt lat="-51.70233" lon="-72.51526">
    <name>TP114</name>
  </trkpt>
  <trkpt lat="-51.70186" lon="-72.51619">
    <name>TP115</name>
  </trkpt>
  <trkpt lat="-51.70174" lon="-72.51641">
    <name>TP116</name>
  </trkpt>
  <trkpt lat="-51.70093" lon="-72.51799">
    <name>TP117</name>
  </trkpt>
  <trkpt lat="-51.70036" lon="-72.51914">
    <name>TP118</name>
  </trkpt>
  <trkpt lat="-51.70009" lon="-72.51969">
    <name>TP119</name>
  </trkpt>
  <trkpt lat="-51.69991" lon="-72.51998">
    <name>TP120</name>
  </trkpt>
  <trkpt lat="-51.69921" lon="-72.52122">
    <name>TP121</name>
  </trkpt>
  <trkpt lat="-51.69892" lon="-72.52169">
    <name>TP122</name>
  </trkpt>
  <trkpt lat="-51.6988" lon="-72.5219">
    <name>TP123</name>
  </trkpt>
  <trkpt lat="-51.69855" lon="-72.52229">
    <name>TP124</name>
  </trkpt>
  <trkpt lat="-51.69817" lon="-72.52294">
    <name>TP125</name>
  </trkpt>
  <trkpt lat="-51.69805" lon="-72.52315">
    <name>TP126</name>
  </trkpt>
  <trkpt lat="-51.69792" lon="-72.52336">
    <name>TP127</name>
  </trkpt>
  <trkpt lat="-51.69762" lon="-72.52386">
    <name>TP128</name>
  </trkpt>
  <trkpt lat="-51.69717" lon="-72.52456">
    <name>TP129</name>
  </trkpt>
  <trkpt lat="-51.69715" lon="-72.52459">
    <name>TP130</name>
  </trkpt>
  <trkpt lat="-51.69694" lon="-72.52492">
    <name>TP131</name>
  </trkpt>
  <trkpt lat="-51.69668" lon="-72.52524">
    <name>TP132</name>
  </trkpt>
  <trkpt lat="-51.69659" lon="-72.52532">
    <name>TP133</name>
  </trkpt>
  <trkpt lat="-51.69642" lon="-72.52548">
    <name>TP134</name>
  </trkpt>
  <trkpt lat="-51.69616" lon="-72.52564">
    <name>TP135</name>
  </trkpt>
  <trkpt lat="-51.69605" lon="-72.5257">
    <name>TP136</name>
  </trkpt>
  <trkpt lat="-51.69592" lon="-72.52577">
    <name>TP137</name>
  </trkpt>
  <trkpt lat="-51.69576" lon="-72.52583">
    <name>TP138</name>
  </trkpt>
  <trkpt lat="-51.69574" lon="-72.52584">
    <name>TP139</name>
  </trkpt>
  <trkpt lat="-51.69527" lon="-72.52594">
    <name>TP140</name>
  </trkpt>
  <trkpt lat="-51.69487" lon="-72.52603">
    <name>TP141</name>
  </trkpt>
  <trkpt lat="-51.69469" lon="-72.52607">
    <name>TP142</name>
  </trkpt>
  <trkpt lat="-51.69453" lon="-72.52611">
    <name>TP143</name>
  </trkpt>
  <trkpt lat="-51.694" lon="-72.52624">
    <name>TP144</name>
  </trkpt>
  <trkpt lat="-51.69365" lon="-72.52634">
    <name>TP145</name>
  </trkpt>
  <trkpt lat="-51.69258" lon="-72.52661">
    <name>TP146</name>
  </trkpt>
  <trkpt lat="-51.6924" lon="-72.52666">
    <name>TP147</name>
  </trkpt>
  <trkpt lat="-51.69226" lon="-72.5267">
    <name>TP148</name>
  </trkpt>
  <trkpt lat="-51.69158" lon="-72.52684">
    <name>TP149</name>
  </trkpt>
  <trkpt lat="-51.69137" lon="-72.52687">
    <name>TP150</name>
  </trkpt>
  <trkpt lat="-51.6912" lon="-72.52687">
    <name>TP151</name>
  </trkpt>
  <trkpt lat="-51.69078" lon="-72.52686">
    <name>TP152</name>
  </trkpt>
  <trkpt lat="-51.69077" lon="-72.52686">
    <name>TP153</name>
  </trkpt>
  <trkpt lat="-51.69045" lon="-72.52682">
    <name>TP154</name>
  </trkpt>
  <trkpt lat="-51.69011" lon="-72.52676">
    <name>TP155</name>
  </trkpt>
  <trkpt lat="-51.68972" lon="-72.52664">
    <name>TP156</name>
  </trkpt>
  <trkpt lat="-51.68916" lon="-72.52644">
    <name>TP157</name>
  </trkpt>
  <trkpt lat="-51.68901" lon="-72.52636">
    <name>TP158</name>
  </trkpt>
  <trkpt lat="-51.68884" lon="-72.52628">
    <name>TP159</name>
  </trkpt>
  <trkpt lat="-51.68832" lon="-72.52602">
    <name>TP160</name>
  </trkpt>
  <trkpt lat="-51.68815" lon="-72.52594">
    <name>TP161</name>
  </trkpt>
  <trkpt lat="-51.68797" lon="-72.52586">
    <name>TP162</name>
  </trkpt>
  <trkpt lat="-51.68696" lon="-72.52536">
    <name>TP163</name>
  </trkpt>
  <trkpt lat="-51.68687" lon="-72.52532">
    <name>TP164</name>
  </trkpt>
  <trkpt lat="-51.68587" lon="-72.52481">
    <name>TP165</name>
  </trkpt>
  <trkpt lat="-51.68527" lon="-72.52452">
    <name>TP166</name>
  </trkpt>
  <trkpt lat="-51.68474" lon="-72.52423">
    <name>TP167</name>
  </trkpt>
  <trkpt lat="-51.68408" lon="-72.52381">
    <name>TP168</name>
  </trkpt>
  <trkpt lat="-51.68374" lon="-72.52354">
    <name>TP169</name>
  </trkpt>
  <trkpt lat="-51.68351" lon="-72.52336">
    <name>TP170</name>
  </trkpt>
  <trkpt lat="-51.68321" lon="-72.52306">
    <name>TP171</name>
  </trkpt>
  <trkpt lat="-51.6829" lon="-72.52272">
    <name>TP172</name>
  </trkpt>
  <trkpt lat="-51.68244" lon="-72.52216">
    <name>TP173</name>
  </trkpt>
  <trkpt lat="-51.68213" lon="-72.52172">
    <name>TP174</name>
  </trkpt>
  <trkpt lat="-51.68196" lon="-72.52144">
    <name>TP175</name>
  </trkpt>
  <trkpt lat="-51.68159" lon="-72.52079">
    <name>TP176</name>
  </trkpt>
  <trkpt lat="-51.68135" lon="-72.52028">
    <name>TP177</name>
  </trkpt>
  <trkpt lat="-51.68126" lon="-72.52008">
    <name>TP178</name>
  </trkpt>
  <trkpt lat="-51.68095" lon="-72.5193">
    <name>TP179</name>
  </trkpt>
  <trkpt lat="-51.68062" lon="-72.51846">
    <name>TP180</name>
  </trkpt>
  <trkpt lat="-51.68024" lon="-72.51744">
    <name>TP181</name>
  </trkpt>
  <trkpt lat="-51.67983" lon="-72.51635">
    <name>TP182</name>
  </trkpt>
  <trkpt lat="-51.67953" lon="-72.51566">
    <name>TP183</name>
  </trkpt>
  <trkpt lat="-51.67922" lon="-72.51499">
    <name>TP184</name>
  </trkpt>
  <trkpt lat="-51.67885" lon="-72.51438">
    <name>TP185</name>
  </trkpt>
  <trkpt lat="-51.67844" lon="-72.51383">
    <name>TP186</name>
  </trkpt>
  <trkpt lat="-51.6782" lon="-72.5135">
    <name>TP187</name>
  </trkpt>
  <trkpt lat="-51.67788" lon="-72.51318">
    <name>TP188</name>
  </trkpt>
  <trkpt lat="-51.67707" lon="-72.51231">
    <name>TP189</name>
  </trkpt>
  <trkpt lat="-51.67665" lon="-72.51204">
    <name>TP190</name>
  </trkpt>
  <trkpt lat="-51.67625" lon="-72.51182">
    <name>TP191</name>
  </trkpt>
  <trkpt lat="-51.67623" lon="-72.51181">
    <name>TP192</name>
  </trkpt>
  <trkpt lat="-51.67589" lon="-72.51164">
    <name>TP193</name>
  </trkpt>
  <trkpt lat="-51.67546" lon="-72.51146">
    <name>TP194</name>
  </trkpt>
  <trkpt lat="-51.67506" lon="-72.51129">
    <name>TP195</name>
  </trkpt>
  <trkpt lat="-51.67467" lon="-72.51114">
    <name>TP196</name>
  </trkpt>
  <trkpt lat="-51.67423" lon="-72.51101">
    <name>TP197</name>
  </trkpt>
  <trkpt lat="-51.67401" lon="-72.51098">
    <name>TP198</name>
  </trkpt>
  <trkpt lat="-51.67383" lon="-72.51098">
    <name>TP199</name>
  </trkpt>
  <trkpt lat="-51.67359" lon="-72.511">
    <name>TP200</name>
  </trkpt>
  <trkpt lat="-51.67335" lon="-72.51104">
    <name>TP201</name>
  </trkpt>
  <trkpt lat="-51.67311" lon="-72.51112">
    <name>TP202</name>
  </trkpt>
  <trkpt lat="-51.67286" lon="-72.51123">
    <name>TP203</name>
  </trkpt>
  <trkpt lat="-51.6727" lon="-72.51134">
    <name>TP204</name>
  </trkpt>
  <trkpt lat="-51.67256" lon="-72.51143">
    <name>TP205</name>
  </trkpt>
  <trkpt lat="-51.67252" lon="-72.51146">
    <name>TP206</name>
  </trkpt>
  <trkpt lat="-51.67239" lon="-72.51156">
    <name>TP207</name>
  </trkpt>
  <trkpt lat="-51.67235" lon="-72.51159">
    <name>TP208</name>
  </trkpt>
  <trkpt lat="-51.67219" lon="-72.51174">
    <name>TP209</name>
  </trkpt>
  <trkpt lat="-51.67206" lon="-72.51189">
    <name>TP210</name>
  </trkpt>
  <trkpt lat="-51.67189" lon="-72.51209">
    <name>TP211</name>
  </trkpt>
  <trkpt lat="-51.67167" lon="-72.51239">
    <name>TP212</name>
  </trkpt>
  <trkpt lat="-51.67153" lon="-72.51264">
    <name>TP213</name>
  </trkpt>
  <trkpt lat="-51.67143" lon="-72.51282">
    <name>TP214</name>
  </trkpt>
  <trkpt lat="-51.67134" lon="-72.51301">
    <name>TP215</name>
  </trkpt>
  <trkpt lat="-51.67124" lon="-72.51322">
    <name>TP216</name>
  </trkpt>
  <trkpt lat="-51.67113" lon="-72.51351">
    <name>TP217</name>
  </trkpt>
  <trkpt lat="-51.67102" lon="-72.5138">
    <name>TP218</name>
  </trkpt>
  <trkpt lat="-51.67093" lon="-72.51404">
    <name>TP219</name>
  </trkpt>
  <trkpt lat="-51.67087" lon="-72.5142">
    <name>TP220</name>
  </trkpt>
  <trkpt lat="-51.66985" lon="-72.51707">
    <name>TP221</name>
  </trkpt>
  <trkpt lat="-51.66911" lon="-72.51919">
    <name>TP222</name>
  </trkpt>
  <trkpt lat="-51.66849" lon="-72.52092">
    <name>TP223</name>
  </trkpt>
  <trkpt lat="-51.66838" lon="-72.52123">
    <name>TP224</name>
  </trkpt>
  <trkpt lat="-51.66835" lon="-72.52134">
    <name>TP225</name>
  </trkpt>
  <trkpt lat="-51.66588" lon="-72.52827">
    <name>TP226</name>
  </trkpt>
  <trkpt lat="-51.66587" lon="-72.52831">
    <name>TP227</name>
  </trkpt>
  <trkpt lat="-51.6658694" lon="-72.52831">
    <name>TP228</name>
  </trkpt>
  <trkpt lat="-51.66648" lon="-72.52888">
    <name>TP229</name>
  </trkpt>
  <trkpt lat="-51.66726" lon="-72.52961">
    <name>TP230</name>
  </trkpt>
  <trkpt lat="-51.6672603" lon="-72.5296086">
    <name>TP231</name>
  </trkpt>
  <trkpt lat="-51.66778" lon="-72.52816">
    <name>TP232</name>
  </trkpt>
  <trkpt lat="-51.6677762" lon="-72.5281619">
    <name>TP233</name>
  </trkpt>
  <trkpt lat="-51.6677762" lon="-72.5281619">
    <name>TP234</name>
  </trkpt>
  <trkpt lat="-51.6677762" lon="-72.5281619">
    <name>TP235</name>
  </trkpt>
  </trkseg>
</trk>
</gpx>