<?xml version="1.0" encoding="UTF-8" standalone="no" ?>
<gpx xmlns="http://www.topografix.com/GPX/1/1" xmlns:gpxx="http://www.garmin.com/xmlschemas/GpxExtensions/v3" xmlns:gpxtpx="http://www.garmin.com/xmlschemas/TrackPointExtension/v1" creator="mapstogpx.com" version="1.1" xmlns:xsi="http://www.w3.org/2001/XMLSchema-instance" xsi:schemaLocation="http://www.topografix.com/GPX/1/1 http://www.topografix.com/GPX/1/1/gpx.xsd http://www.garmin.com/xmlschemas/GpxExtensions/v3 http://www.garmin.com/xmlschemas/GpxExtensionsv3.xsd http://www.garmin.com/xmlschemas/TrackPointExtension/v1 http://www.garmin.com/xmlschemas/TrackPointExtensionv1.xsd">
  <metadata>
    <link href="http://www.mapstogpx.com">
      <text>Sverrir Sigmundarson</text>
    </link>
    <!--desc>Map data ©2025</desc-->
    <!--copyright author="Google Inc">
    	<year>2025</year>
    	<license>https://developers.google.com/maps/terms</license>
    </copyright-->
    <!--url>https://www.google.ca/maps/dir/Distrito+Arcos+Premium+Outlet/-34.5587783,-58.4499747/@-34.5701004,-58.4684716,13.24z/data=!4m10!4m9!1m5!1m1!1s0x4aabcb7b7fd341:0xd4d803156d38286c!2m2!1d-58.4277825!2d-34.5805487!1m0!3e0!5i1?entry=tts&g_ep=EgoyMDI1MDExNC4wKgBIAVAD&hl=en</url-->
    <time>2025-01-15T19:16:04Z</time>
  </metadata>
  <wpt lat="-34.5805487" lon="-58.4277825">
    <name>Distrito Arcos Premium Outlet</name>
    <desc>Distrito Arcos, Paraguay 4979, C1425BTC C1425BTA, Cdad. Autónoma de Buenos Aires, Argentina</desc>
  </wpt>
  <wpt lat="-34.5587783" lon="-58.4499747">
    <name>C1428 Cdad. Autónoma de Buenos Aires</name>
    <desc>Av. Virrey Vértiz 2035-2061, C1428 Cdad. Autónoma de Buenos Aires, Argentina</desc>
  </wpt>
<trk>
  <name>Distrito Arcos Premium Outlet to C1428 Cdad. Autónoma de Buenos Aires</name>
  <number>1</number>
  <trkseg>
  <trkpt lat="-34.5802642" lon="-58.4282117">
    <name>TP001</name>
  </trkpt>
  <trkpt lat="-34.58013" lon="-58.42808">
    <name>TP002</name>
  </trkpt>
  <trkpt lat="-34.58002" lon="-58.42798">
    <name>TP003</name>
  </trkpt>
  <trkpt lat="-34.57898" lon="-58.4271">
    <name>TP004</name>
  </trkpt>
  <trkpt lat="-34.57875" lon="-58.42691">
    <name>TP005</name>
  </trkpt>
  <trkpt lat="-34.57851" lon="-58.42672">
    <name>TP006</name>
  </trkpt>
  <trkpt lat="-34.57844" lon="-58.42666">
    <name>TP007</name>
  </trkpt>
  <trkpt lat="-34.57836" lon="-58.4266">
    <name>TP008</name>
  </trkpt>
  <trkpt lat="-34.57827" lon="-58.42656">
    <name>TP009</name>
  </trkpt>
  <trkpt lat="-34.57824" lon="-58.42655">
    <name>TP010</name>
  </trkpt>
  <trkpt lat="-34.57822" lon="-58.42656">
    <name>TP011</name>
  </trkpt>
  <trkpt lat="-34.57818" lon="-58.42656">
    <name>TP012</name>
  </trkpt>
  <trkpt lat="-34.57816" lon="-58.42656">
    <name>TP013</name>
  </trkpt>
  <trkpt lat="-34.5781582" lon="-58.4265604">
    <name>TP014</name>
  </trkpt>
  <trkpt lat="-34.57805" lon="-58.42656">
    <name>TP015</name>
  </trkpt>
  <trkpt lat="-34.57793" lon="-58.42656">
    <name>TP016</name>
  </trkpt>
  <trkpt lat="-34.57771" lon="-58.42652">
    <name>TP017</name>
  </trkpt>
  <trkpt lat="-34.57766" lon="-58.42653">
    <name>TP018</name>
  </trkpt>
  <trkpt lat="-34.57755" lon="-58.42655">
    <name>TP019</name>
  </trkpt>
  <trkpt lat="-34.57743" lon="-58.42649">
    <name>TP020</name>
  </trkpt>
  <trkpt lat="-34.57721" lon="-58.42638">
    <name>TP021</name>
  </trkpt>
  <trkpt lat="-34.57692" lon="-58.42623">
    <name>TP022</name>
  </trkpt>
  <trkpt lat="-34.57586" lon="-58.42568">
    <name>TP023</name>
  </trkpt>
  <trkpt lat="-34.57527" lon="-58.42537">
    <name>TP024</name>
  </trkpt>
  <trkpt lat="-34.57508" lon="-58.42528">
    <name>TP025</name>
  </trkpt>
  <trkpt lat="-34.57488" lon="-58.42517">
    <name>TP026</name>
  </trkpt>
  <trkpt lat="-34.57485" lon="-58.42511">
    <name>TP027</name>
  </trkpt>
  <trkpt lat="-34.57482" lon="-58.42508">
    <name>TP028</name>
  </trkpt>
  <trkpt lat="-34.57478" lon="-58.42505">
    <name>TP029</name>
  </trkpt>
  <trkpt lat="-34.57465" lon="-58.42497">
    <name>TP030</name>
  </trkpt>
  <trkpt lat="-34.57455" lon="-58.42495">
    <name>TP031</name>
  </trkpt>
  <trkpt lat="-34.57264" lon="-58.42397">
    <name>TP032</name>
  </trkpt>
  <trkpt lat="-34.57213" lon="-58.42369">
    <name>TP033</name>
  </trkpt>
  <trkpt lat="-34.57177" lon="-58.42351">
    <name>TP034</name>
  </trkpt>
  <trkpt lat="-34.57168" lon="-58.42348">
    <name>TP035</name>
  </trkpt>
  <trkpt lat="-34.57133" lon="-58.42331">
    <name>TP036</name>
  </trkpt>
  <trkpt lat="-34.5713341" lon="-58.4233123">
    <name>TP037</name>
  </trkpt>
  <trkpt lat="-34.57113" lon="-58.42321">
    <name>TP038</name>
  </trkpt>
  <trkpt lat="-34.57106" lon="-58.42319">
    <name>TP039</name>
  </trkpt>
  <trkpt lat="-34.57102" lon="-58.4233">
    <name>TP040</name>
  </trkpt>
  <trkpt lat="-34.57099" lon="-58.42339">
    <name>TP041</name>
  </trkpt>
  <trkpt lat="-34.57086" lon="-58.42378">
    <name>TP042</name>
  </trkpt>
  <trkpt lat="-34.57077" lon="-58.42406">
    <name>TP043</name>
  </trkpt>
  <trkpt lat="-34.57056" lon="-58.4245">
    <name>TP044</name>
  </trkpt>
  <trkpt lat="-34.57044" lon="-58.42474">
    <name>TP045</name>
  </trkpt>
  <trkpt lat="-34.57022" lon="-58.42513">
    <name>TP046</name>
  </trkpt>
  <trkpt lat="-34.57015" lon="-58.42525">
    <name>TP047</name>
  </trkpt>
  <trkpt lat="-34.5701" lon="-58.42533">
    <name>TP048</name>
  </trkpt>
  <trkpt lat="-34.56993" lon="-58.42561">
    <name>TP049</name>
  </trkpt>
  <trkpt lat="-34.56952" lon="-58.42629">
    <name>TP050</name>
  </trkpt>
  <trkpt lat="-34.56933" lon="-58.42664">
    <name>TP051</name>
  </trkpt>
  <trkpt lat="-34.56914" lon="-58.42696">
    <name>TP052</name>
  </trkpt>
  <trkpt lat="-34.56898" lon="-58.42725">
    <name>TP053</name>
  </trkpt>
  <trkpt lat="-34.56893" lon="-58.42733">
    <name>TP054</name>
  </trkpt>
  <trkpt lat="-34.5689" lon="-58.4274">
    <name>TP055</name>
  </trkpt>
  <trkpt lat="-34.56873" lon="-58.42769">
    <name>TP056</name>
  </trkpt>
  <trkpt lat="-34.56865" lon="-58.42783">
    <name>TP057</name>
  </trkpt>
  <trkpt lat="-34.56857" lon="-58.42796">
    <name>TP058</name>
  </trkpt>
  <trkpt lat="-34.56855" lon="-58.42799">
    <name>TP059</name>
  </trkpt>
  <trkpt lat="-34.56833" lon="-58.42838">
    <name>TP060</name>
  </trkpt>
  <trkpt lat="-34.56815" lon="-58.42868">
    <name>TP061</name>
  </trkpt>
  <trkpt lat="-34.56808" lon="-58.4288">
    <name>TP062</name>
  </trkpt>
  <trkpt lat="-34.56785" lon="-58.42921">
    <name>TP063</name>
  </trkpt>
  <trkpt lat="-34.56768" lon="-58.42949">
    <name>TP064</name>
  </trkpt>
  <trkpt lat="-34.56731" lon="-58.43011">
    <name>TP065</name>
  </trkpt>
  <trkpt lat="-34.56704" lon="-58.43058">
    <name>TP066</name>
  </trkpt>
  <trkpt lat="-34.56668" lon="-58.43121">
    <name>TP067</name>
  </trkpt>
  <trkpt lat="-34.56656" lon="-58.43142">
    <name>TP068</name>
  </trkpt>
  <trkpt lat="-34.56638" lon="-58.43173">
    <name>TP069</name>
  </trkpt>
  <trkpt lat="-34.5661" lon="-58.43219">
    <name>TP070</name>
  </trkpt>
  <trkpt lat="-34.56548" lon="-58.43327">
    <name>TP071</name>
  </trkpt>
  <trkpt lat="-34.56502" lon="-58.43401">
    <name>TP072</name>
  </trkpt>
  <trkpt lat="-34.56481" lon="-58.43438">
    <name>TP073</name>
  </trkpt>
  <trkpt lat="-34.56478" lon="-58.43442">
    <name>TP074</name>
  </trkpt>
  <trkpt lat="-34.56446" lon="-58.43498">
    <name>TP075</name>
  </trkpt>
  <trkpt lat="-34.56418" lon="-58.43545">
    <name>TP076</name>
  </trkpt>
  <trkpt lat="-34.56391" lon="-58.43593">
    <name>TP077</name>
  </trkpt>
  <trkpt lat="-34.56359" lon="-58.43639">
    <name>TP078</name>
  </trkpt>
  <trkpt lat="-34.56341" lon="-58.43667">
    <name>TP079</name>
  </trkpt>
  <trkpt lat="-34.56322" lon="-58.43706">
    <name>TP080</name>
  </trkpt>
  <trkpt lat="-34.56298" lon="-58.4377">
    <name>TP081</name>
  </trkpt>
  <trkpt lat="-34.56286" lon="-58.43808">
    <name>TP082</name>
  </trkpt>
  <trkpt lat="-34.56283" lon="-58.43822">
    <name>TP083</name>
  </trkpt>
  <trkpt lat="-34.56271" lon="-58.43884">
    <name>TP084</name>
  </trkpt>
  <trkpt lat="-34.56268" lon="-58.43897">
    <name>TP085</name>
  </trkpt>
  <trkpt lat="-34.56262" lon="-58.43941">
    <name>TP086</name>
  </trkpt>
  <trkpt lat="-34.5626" lon="-58.43953">
    <name>TP087</name>
  </trkpt>
  <trkpt lat="-34.5626039" lon="-58.4395312">
    <name>TP088</name>
  </trkpt>
  <trkpt lat="-34.56254" lon="-58.43958">
    <name>TP089</name>
  </trkpt>
  <trkpt lat="-34.56253" lon="-58.43959">
    <name>TP090</name>
  </trkpt>
  <trkpt lat="-34.56252" lon="-58.43962">
    <name>TP091</name>
  </trkpt>
  <trkpt lat="-34.56251" lon="-58.43964">
    <name>TP092</name>
  </trkpt>
  <trkpt lat="-34.5625" lon="-58.43966">
    <name>TP093</name>
  </trkpt>
  <trkpt lat="-34.5625" lon="-58.43971">
    <name>TP094</name>
  </trkpt>
  <trkpt lat="-34.56249" lon="-58.43977">
    <name>TP095</name>
  </trkpt>
  <trkpt lat="-34.56243" lon="-58.44016">
    <name>TP096</name>
  </trkpt>
  <trkpt lat="-34.56236" lon="-58.44056">
    <name>TP097</name>
  </trkpt>
  <trkpt lat="-34.56229" lon="-58.441">
    <name>TP098</name>
  </trkpt>
  <trkpt lat="-34.56223" lon="-58.4413">
    <name>TP099</name>
  </trkpt>
  <trkpt lat="-34.56212" lon="-58.44183">
    <name>TP100</name>
  </trkpt>
  <trkpt lat="-34.56204" lon="-58.44211">
    <name>TP101</name>
  </trkpt>
  <trkpt lat="-34.56194" lon="-58.4425">
    <name>TP102</name>
  </trkpt>
  <trkpt lat="-34.56181" lon="-58.4431">
    <name>TP103</name>
  </trkpt>
  <trkpt lat="-34.5617" lon="-58.44355">
    <name>TP104</name>
  </trkpt>
  <trkpt lat="-34.56167" lon="-58.4437">
    <name>TP105</name>
  </trkpt>
  <trkpt lat="-34.56162" lon="-58.44385">
    <name>TP106</name>
  </trkpt>
  <trkpt lat="-34.56157" lon="-58.44402">
    <name>TP107</name>
  </trkpt>
  <trkpt lat="-34.56152" lon="-58.44419">
    <name>TP108</name>
  </trkpt>
  <trkpt lat="-34.5615208" lon="-58.4441872">
    <name>TP109</name>
  </trkpt>
  <trkpt lat="-34.56147" lon="-58.44431">
    <name>TP110</name>
  </trkpt>
  <trkpt lat="-34.56137" lon="-58.44454">
    <name>TP111</name>
  </trkpt>
  <trkpt lat="-34.5611" lon="-58.44516">
    <name>TP112</name>
  </trkpt>
  <trkpt lat="-34.56103" lon="-58.44531">
    <name>TP113</name>
  </trkpt>
  <trkpt lat="-34.56098" lon="-58.44542">
    <name>TP114</name>
  </trkpt>
  <trkpt lat="-34.56069" lon="-58.446">
    <name>TP115</name>
  </trkpt>
  <trkpt lat="-34.56066" lon="-58.44606">
    <name>TP116</name>
  </trkpt>
  <trkpt lat="-34.56062" lon="-58.44614">
    <name>TP117</name>
  </trkpt>
  <trkpt lat="-34.56045" lon="-58.44649">
    <name>TP118</name>
  </trkpt>
  <trkpt lat="-34.5604" lon="-58.44659">
    <name>TP119</name>
  </trkpt>
  <trkpt lat="-34.56038" lon="-58.44666">
    <name>TP120</name>
  </trkpt>
  <trkpt lat="-34.56033" lon="-58.44679">
    <name>TP121</name>
  </trkpt>
  <trkpt lat="-34.56032" lon="-58.44685">
    <name>TP122</name>
  </trkpt>
  <trkpt lat="-34.56031" lon="-58.44695">
    <name>TP123</name>
  </trkpt>
  <trkpt lat="-34.56031" lon="-58.44702">
    <name>TP124</name>
  </trkpt>
  <trkpt lat="-34.56015" lon="-58.44752">
    <name>TP125</name>
  </trkpt>
  <trkpt lat="-34.56001" lon="-58.44789">
    <name>TP126</name>
  </trkpt>
  <trkpt lat="-34.55986" lon="-58.44823">
    <name>TP127</name>
  </trkpt>
  <trkpt lat="-34.55983" lon="-58.44826">
    <name>TP128</name>
  </trkpt>
  <trkpt lat="-34.55972" lon="-58.44842">
    <name>TP129</name>
  </trkpt>
  <trkpt lat="-34.55956" lon="-58.44869">
    <name>TP130</name>
  </trkpt>
  <trkpt lat="-34.55938" lon="-58.44898">
    <name>TP131</name>
  </trkpt>
  <trkpt lat="-34.5593" lon="-58.44909">
    <name>TP132</name>
  </trkpt>
  <trkpt lat="-34.55921" lon="-58.44924">
    <name>TP133</name>
  </trkpt>
  <trkpt lat="-34.55912" lon="-58.44938">
    <name>TP134</name>
  </trkpt>
  <trkpt lat="-34.55902" lon="-58.44952">
    <name>TP135</name>
  </trkpt>
  <trkpt lat="-34.55875" lon="-58.44995">
    <name>TP136</name>
  </trkpt>
  <trkpt lat="-34.5587526" lon="-58.4499509">
    <name>TP137</name>
  </trkpt>
  <trkpt lat="-34.5587526" lon="-58.4499509">
    <name>TP138</name>
  </trkpt>
  <trkpt lat="-34.5587526" lon="-58.4499509">
    <name>TP139</name>
  </trkpt>
  </trkseg>
</trk>
</gpx>