<?xml version="1.0" encoding="UTF-8" standalone="no" ?>
<gpx xmlns="http://www.topografix.com/GPX/1/1" xmlns:gpxx="http://www.garmin.com/xmlschemas/GpxExtensions/v3" xmlns:gpxtpx="http://www.garmin.com/xmlschemas/TrackPointExtension/v1" creator="mapstogpx.com" version="1.1" xmlns:xsi="http://www.w3.org/2001/XMLSchema-instance" xsi:schemaLocation="http://www.topografix.com/GPX/1/1 http://www.topografix.com/GPX/1/1/gpx.xsd http://www.garmin.com/xmlschemas/GpxExtensions/v3 http://www.garmin.com/xmlschemas/GpxExtensionsv3.xsd http://www.garmin.com/xmlschemas/TrackPointExtension/v1 http://www.garmin.com/xmlschemas/TrackPointExtensionv1.xsd">
  <metadata>
    <link href="http://www.mapstogpx.com">
      <text>Sverrir Sigmundarson</text>
    </link>
    <!--desc>Map data ©2024</desc-->
    <!--copyright author="Google Inc">
    	<year>2024</year>
    	<license>https://developers.google.com/maps/terms</license>
    </copyright-->
    <!--url>https://www.google.com/maps/dir/Viajero+Cusco+Hostel,+260+San+Andres,+Cusco+08002,+Peru/Alejandro+Velasco+Astete+International+Airport,+Av.+Velasco+Astete,+Cusco+08006,+Peru/@-13.5323845,-71.9621029,4240m/data=!3m1!1e3!4m14!4m13!1m5!1m1!1s0x916dd67457e3d6cb:0x75e1fcc6979be6c2!2m2!1d-71.978764!2d-13.5198062!1m5!1m1!1s0x916e7f4484988725:0xbc831ac018ea5aa6!2m2!1d-71.9437699!2d-13.5382019!3e0?entry=tts&g_ep=EgoyMDI0MTIxMS4wKgBIAVAD&hl=en</url-->
    <time>2024-12-19T18:39:30Z</time>
  </metadata>
  <wpt lat="-13.5198062" lon="-71.978764">
    <name>Viajero Cusco Hostel</name>
    <desc>Viajero Cusco Hostel, San Andres 260, Cusco 08002, Peru</desc>
  </wpt>
  <wpt lat="-13.5382019" lon="-71.9437699">
    <name>Alejandro Velasco Astete International Airport</name>
    <desc>Alejandro Velasco Astete International Airport, Av. Velasco Astete, Cusco 08006, Peru</desc>
  </wpt>
<trk>
  <name>Viajero Cusco Hostel to Alejandro Velasco Astete International Airport</name>
  <number>1</number>
  <trkseg>
  <trkpt lat="-13.5196222" lon="-71.9785629">
    <name>TP001</name>
  </trkpt>
  <trkpt lat="-13.51922" lon="-71.97895">
    <name>TP002</name>
  </trkpt>
  <trkpt lat="-13.5192229" lon="-71.9789494">
    <name>TP003</name>
  </trkpt>
  <trkpt lat="-13.51858" lon="-71.97822">
    <name>TP004</name>
  </trkpt>
  <trkpt lat="-13.5185811" lon="-71.978221">
    <name>TP005</name>
  </trkpt>
  <trkpt lat="-13.51936" lon="-71.97756">
    <name>TP006</name>
  </trkpt>
  <trkpt lat="-13.51969" lon="-71.97725">
    <name>TP007</name>
  </trkpt>
  <trkpt lat="-13.5199" lon="-71.97708">
    <name>TP008</name>
  </trkpt>
  <trkpt lat="-13.52043" lon="-71.97664">
    <name>TP009</name>
  </trkpt>
  <trkpt lat="-13.52065" lon="-71.97646">
    <name>TP010</name>
  </trkpt>
  <trkpt lat="-13.5206522" lon="-71.9764648">
    <name>TP011</name>
  </trkpt>
  <trkpt lat="-13.52096" lon="-71.9762">
    <name>TP012</name>
  </trkpt>
  <trkpt lat="-13.52153" lon="-71.9757">
    <name>TP013</name>
  </trkpt>
  <trkpt lat="-13.52175" lon="-71.9755">
    <name>TP014</name>
  </trkpt>
  <trkpt lat="-13.5222" lon="-71.97513">
    <name>TP015</name>
  </trkpt>
  <trkpt lat="-13.52273" lon="-71.97468">
    <name>TP016</name>
  </trkpt>
  <trkpt lat="-13.52302" lon="-71.97443">
    <name>TP017</name>
  </trkpt>
  <trkpt lat="-13.52308" lon="-71.97438">
    <name>TP018</name>
  </trkpt>
  <trkpt lat="-13.5232" lon="-71.97428">
    <name>TP019</name>
  </trkpt>
  <trkpt lat="-13.5233" lon="-71.97419">
    <name>TP020</name>
  </trkpt>
  <trkpt lat="-13.52374" lon="-71.97378">
    <name>TP021</name>
  </trkpt>
  <trkpt lat="-13.52388" lon="-71.97365">
    <name>TP022</name>
  </trkpt>
  <trkpt lat="-13.52406" lon="-71.9735">
    <name>TP023</name>
  </trkpt>
  <trkpt lat="-13.52495" lon="-71.97266">
    <name>TP024</name>
  </trkpt>
  <trkpt lat="-13.52515" lon="-71.97247">
    <name>TP025</name>
  </trkpt>
  <trkpt lat="-13.5251466" lon="-71.9724704">
    <name>TP026</name>
  </trkpt>
  <trkpt lat="-13.52522" lon="-71.97242">
    <name>TP027</name>
  </trkpt>
  <trkpt lat="-13.52532" lon="-71.97235">
    <name>TP028</name>
  </trkpt>
  <trkpt lat="-13.52534" lon="-71.97233">
    <name>TP029</name>
  </trkpt>
  <trkpt lat="-13.52565" lon="-71.97216">
    <name>TP030</name>
  </trkpt>
  <trkpt lat="-13.52642" lon="-71.97172">
    <name>TP031</name>
  </trkpt>
  <trkpt lat="-13.52669" lon="-71.97157">
    <name>TP032</name>
  </trkpt>
  <trkpt lat="-13.52691" lon="-71.97142">
    <name>TP033</name>
  </trkpt>
  <trkpt lat="-13.52695" lon="-71.97141">
    <name>TP034</name>
  </trkpt>
  <trkpt lat="-13.52698" lon="-71.9714">
    <name>TP035</name>
  </trkpt>
  <trkpt lat="-13.52701" lon="-71.97139">
    <name>TP036</name>
  </trkpt>
  <trkpt lat="-13.52708" lon="-71.97138">
    <name>TP037</name>
  </trkpt>
  <trkpt lat="-13.5270763" lon="-71.971381">
    <name>TP038</name>
  </trkpt>
  <trkpt lat="-13.52709" lon="-71.9714">
    <name>TP039</name>
  </trkpt>
  <trkpt lat="-13.5271" lon="-71.97141">
    <name>TP040</name>
  </trkpt>
  <trkpt lat="-13.52712" lon="-71.97143">
    <name>TP041</name>
  </trkpt>
  <trkpt lat="-13.52722" lon="-71.97152">
    <name>TP042</name>
  </trkpt>
  <trkpt lat="-13.52736" lon="-71.97136">
    <name>TP043</name>
  </trkpt>
  <trkpt lat="-13.52748" lon="-71.97122">
    <name>TP044</name>
  </trkpt>
  <trkpt lat="-13.52783" lon="-71.97095">
    <name>TP045</name>
  </trkpt>
  <trkpt lat="-13.52786" lon="-71.97092">
    <name>TP046</name>
  </trkpt>
  <trkpt lat="-13.52794" lon="-71.97087">
    <name>TP047</name>
  </trkpt>
  <trkpt lat="-13.52803" lon="-71.97081">
    <name>TP048</name>
  </trkpt>
  <trkpt lat="-13.52883" lon="-71.97036">
    <name>TP049</name>
  </trkpt>
  <trkpt lat="-13.5294" lon="-71.97003">
    <name>TP050</name>
  </trkpt>
  <trkpt lat="-13.53032" lon="-71.96948">
    <name>TP051</name>
  </trkpt>
  <trkpt lat="-13.53062" lon="-71.9693">
    <name>TP052</name>
  </trkpt>
  <trkpt lat="-13.53136" lon="-71.96884">
    <name>TP053</name>
  </trkpt>
  <trkpt lat="-13.53154" lon="-71.96879">
    <name>TP054</name>
  </trkpt>
  <trkpt lat="-13.5315412" lon="-71.9687913">
    <name>TP055</name>
  </trkpt>
  <trkpt lat="-13.53157" lon="-71.96879">
    <name>TP056</name>
  </trkpt>
  <trkpt lat="-13.53161" lon="-71.96879">
    <name>TP057</name>
  </trkpt>
  <trkpt lat="-13.53163" lon="-71.96879">
    <name>TP058</name>
  </trkpt>
  <trkpt lat="-13.53164" lon="-71.96879">
    <name>TP059</name>
  </trkpt>
  <trkpt lat="-13.53168" lon="-71.96878">
    <name>TP060</name>
  </trkpt>
  <trkpt lat="-13.53172" lon="-71.96878">
    <name>TP061</name>
  </trkpt>
  <trkpt lat="-13.53175" lon="-71.96876">
    <name>TP062</name>
  </trkpt>
  <trkpt lat="-13.53177" lon="-71.96876">
    <name>TP063</name>
  </trkpt>
  <trkpt lat="-13.53179" lon="-71.96875">
    <name>TP064</name>
  </trkpt>
  <trkpt lat="-13.53184" lon="-71.96873">
    <name>TP065</name>
  </trkpt>
  <trkpt lat="-13.53186" lon="-71.96871">
    <name>TP066</name>
  </trkpt>
  <trkpt lat="-13.53189" lon="-71.96868">
    <name>TP067</name>
  </trkpt>
  <trkpt lat="-13.53191" lon="-71.96866">
    <name>TP068</name>
  </trkpt>
  <trkpt lat="-13.53194" lon="-71.96863">
    <name>TP069</name>
  </trkpt>
  <trkpt lat="-13.53196" lon="-71.9686">
    <name>TP070</name>
  </trkpt>
  <trkpt lat="-13.53198" lon="-71.96857">
    <name>TP071</name>
  </trkpt>
  <trkpt lat="-13.53199" lon="-71.96854">
    <name>TP072</name>
  </trkpt>
  <trkpt lat="-13.53201" lon="-71.96851">
    <name>TP073</name>
  </trkpt>
  <trkpt lat="-13.53203" lon="-71.96845">
    <name>TP074</name>
  </trkpt>
  <trkpt lat="-13.53205" lon="-71.9684">
    <name>TP075</name>
  </trkpt>
  <trkpt lat="-13.53206" lon="-71.96834">
    <name>TP076</name>
  </trkpt>
  <trkpt lat="-13.53206" lon="-71.96828">
    <name>TP077</name>
  </trkpt>
  <trkpt lat="-13.53206" lon="-71.96818">
    <name>TP078</name>
  </trkpt>
  <trkpt lat="-13.53206" lon="-71.968">
    <name>TP079</name>
  </trkpt>
  <trkpt lat="-13.53206" lon="-71.96791">
    <name>TP080</name>
  </trkpt>
  <trkpt lat="-13.53205" lon="-71.96781">
    <name>TP081</name>
  </trkpt>
  <trkpt lat="-13.53205" lon="-71.9676">
    <name>TP082</name>
  </trkpt>
  <trkpt lat="-13.53206" lon="-71.96745">
    <name>TP083</name>
  </trkpt>
  <trkpt lat="-13.53204" lon="-71.96737">
    <name>TP084</name>
  </trkpt>
  <trkpt lat="-13.53203" lon="-71.96732">
    <name>TP085</name>
  </trkpt>
  <trkpt lat="-13.53201" lon="-71.96727">
    <name>TP086</name>
  </trkpt>
  <trkpt lat="-13.532" lon="-71.96722">
    <name>TP087</name>
  </trkpt>
  <trkpt lat="-13.53195" lon="-71.96695">
    <name>TP088</name>
  </trkpt>
  <trkpt lat="-13.5319529" lon="-71.9669477">
    <name>TP089</name>
  </trkpt>
  <trkpt lat="-13.53207" lon="-71.96696">
    <name>TP090</name>
  </trkpt>
  <trkpt lat="-13.5320661" lon="-71.9669593">
    <name>TP091</name>
  </trkpt>
  <trkpt lat="-13.5321" lon="-71.96653">
    <name>TP092</name>
  </trkpt>
  <trkpt lat="-13.53215" lon="-71.96617">
    <name>TP093</name>
  </trkpt>
  <trkpt lat="-13.53218" lon="-71.96583">
    <name>TP094</name>
  </trkpt>
  <trkpt lat="-13.53222" lon="-71.96547">
    <name>TP095</name>
  </trkpt>
  <trkpt lat="-13.53225" lon="-71.96514">
    <name>TP096</name>
  </trkpt>
  <trkpt lat="-13.53228" lon="-71.96478">
    <name>TP097</name>
  </trkpt>
  <trkpt lat="-13.53232" lon="-71.96443">
    <name>TP098</name>
  </trkpt>
  <trkpt lat="-13.53236" lon="-71.96408">
    <name>TP099</name>
  </trkpt>
  <trkpt lat="-13.53239" lon="-71.96374">
    <name>TP100</name>
  </trkpt>
  <trkpt lat="-13.53242" lon="-71.9634">
    <name>TP101</name>
  </trkpt>
  <trkpt lat="-13.53244" lon="-71.96305">
    <name>TP102</name>
  </trkpt>
  <trkpt lat="-13.53247" lon="-71.9627">
    <name>TP103</name>
  </trkpt>
  <trkpt lat="-13.5325" lon="-71.96235">
    <name>TP104</name>
  </trkpt>
  <trkpt lat="-13.53254" lon="-71.96201">
    <name>TP105</name>
  </trkpt>
  <trkpt lat="-13.53257" lon="-71.96166">
    <name>TP106</name>
  </trkpt>
  <trkpt lat="-13.53261" lon="-71.9613">
    <name>TP107</name>
  </trkpt>
  <trkpt lat="-13.53265" lon="-71.96096">
    <name>TP108</name>
  </trkpt>
  <trkpt lat="-13.5327" lon="-71.96055">
    <name>TP109</name>
  </trkpt>
  <trkpt lat="-13.53271" lon="-71.96044">
    <name>TP110</name>
  </trkpt>
  <trkpt lat="-13.53275" lon="-71.96007">
    <name>TP111</name>
  </trkpt>
  <trkpt lat="-13.5328" lon="-71.95953">
    <name>TP112</name>
  </trkpt>
  <trkpt lat="-13.53281" lon="-71.9594">
    <name>TP113</name>
  </trkpt>
  <trkpt lat="-13.53287" lon="-71.95896">
    <name>TP114</name>
  </trkpt>
  <trkpt lat="-13.53292" lon="-71.95851">
    <name>TP115</name>
  </trkpt>
  <trkpt lat="-13.53297" lon="-71.95805">
    <name>TP116</name>
  </trkpt>
  <trkpt lat="-13.533" lon="-71.9576">
    <name>TP117</name>
  </trkpt>
  <trkpt lat="-13.53305" lon="-71.95713">
    <name>TP118</name>
  </trkpt>
  <trkpt lat="-13.5331" lon="-71.95671">
    <name>TP119</name>
  </trkpt>
  <trkpt lat="-13.53313" lon="-71.95623">
    <name>TP120</name>
  </trkpt>
  <trkpt lat="-13.53318" lon="-71.95565">
    <name>TP121</name>
  </trkpt>
  <trkpt lat="-13.53318" lon="-71.95562">
    <name>TP122</name>
  </trkpt>
  <trkpt lat="-13.53324" lon="-71.95541">
    <name>TP123</name>
  </trkpt>
  <trkpt lat="-13.5332429" lon="-71.9554139">
    <name>TP124</name>
  </trkpt>
  <trkpt lat="-13.53325" lon="-71.95541">
    <name>TP125</name>
  </trkpt>
  <trkpt lat="-13.53326" lon="-71.9554">
    <name>TP126</name>
  </trkpt>
  <trkpt lat="-13.53327" lon="-71.95539">
    <name>TP127</name>
  </trkpt>
  <trkpt lat="-13.53327" lon="-71.95538">
    <name>TP128</name>
  </trkpt>
  <trkpt lat="-13.53328" lon="-71.95538">
    <name>TP129</name>
  </trkpt>
  <trkpt lat="-13.53329" lon="-71.95537">
    <name>TP130</name>
  </trkpt>
  <trkpt lat="-13.53329" lon="-71.95536">
    <name>TP131</name>
  </trkpt>
  <trkpt lat="-13.53437" lon="-71.9555">
    <name>TP132</name>
  </trkpt>
  <trkpt lat="-13.53574" lon="-71.95563">
    <name>TP133</name>
  </trkpt>
  <trkpt lat="-13.53584" lon="-71.95563">
    <name>TP134</name>
  </trkpt>
  <trkpt lat="-13.53594" lon="-71.95561">
    <name>TP135</name>
  </trkpt>
  <trkpt lat="-13.53601" lon="-71.95559">
    <name>TP136</name>
  </trkpt>
  <trkpt lat="-13.53609" lon="-71.95556">
    <name>TP137</name>
  </trkpt>
  <trkpt lat="-13.53617" lon="-71.95551">
    <name>TP138</name>
  </trkpt>
  <trkpt lat="-13.53628" lon="-71.95544">
    <name>TP139</name>
  </trkpt>
  <trkpt lat="-13.53637" lon="-71.95534">
    <name>TP140</name>
  </trkpt>
  <trkpt lat="-13.53644" lon="-71.95522">
    <name>TP141</name>
  </trkpt>
  <trkpt lat="-13.5365" lon="-71.95512">
    <name>TP142</name>
  </trkpt>
  <trkpt lat="-13.53655" lon="-71.95498">
    <name>TP143</name>
  </trkpt>
  <trkpt lat="-13.53664" lon="-71.95464">
    <name>TP144</name>
  </trkpt>
  <trkpt lat="-13.53669" lon="-71.95447">
    <name>TP145</name>
  </trkpt>
  <trkpt lat="-13.53677" lon="-71.95405">
    <name>TP146</name>
  </trkpt>
  <trkpt lat="-13.53686" lon="-71.95366">
    <name>TP147</name>
  </trkpt>
  <trkpt lat="-13.53696" lon="-71.95325">
    <name>TP148</name>
  </trkpt>
  <trkpt lat="-13.53708" lon="-71.95281">
    <name>TP149</name>
  </trkpt>
  <trkpt lat="-13.53719" lon="-71.95236">
    <name>TP150</name>
  </trkpt>
  <trkpt lat="-13.53727" lon="-71.95203">
    <name>TP151</name>
  </trkpt>
  <trkpt lat="-13.5373" lon="-71.9519">
    <name>TP152</name>
  </trkpt>
  <trkpt lat="-13.53737" lon="-71.95158">
    <name>TP153</name>
  </trkpt>
  <trkpt lat="-13.53741" lon="-71.95144">
    <name>TP154</name>
  </trkpt>
  <trkpt lat="-13.53749" lon="-71.95109">
    <name>TP155</name>
  </trkpt>
  <trkpt lat="-13.53757" lon="-71.95075">
    <name>TP156</name>
  </trkpt>
  <trkpt lat="-13.53762" lon="-71.95058">
    <name>TP157</name>
  </trkpt>
  <trkpt lat="-13.5377" lon="-71.95026">
    <name>TP158</name>
  </trkpt>
  <trkpt lat="-13.53788" lon="-71.94954">
    <name>TP159</name>
  </trkpt>
  <trkpt lat="-13.53788" lon="-71.94953">
    <name>TP160</name>
  </trkpt>
  <trkpt lat="-13.53804" lon="-71.94894">
    <name>TP161</name>
  </trkpt>
  <trkpt lat="-13.53809" lon="-71.94871">
    <name>TP162</name>
  </trkpt>
  <trkpt lat="-13.53813" lon="-71.94852">
    <name>TP163</name>
  </trkpt>
  <trkpt lat="-13.53821" lon="-71.94821">
    <name>TP164</name>
  </trkpt>
  <trkpt lat="-13.53838" lon="-71.94754">
    <name>TP165</name>
  </trkpt>
  <trkpt lat="-13.53853" lon="-71.94694">
    <name>TP166</name>
  </trkpt>
  <trkpt lat="-13.53868" lon="-71.94632">
    <name>TP167</name>
  </trkpt>
  <trkpt lat="-13.53884" lon="-71.94567">
    <name>TP168</name>
  </trkpt>
  <trkpt lat="-13.53888" lon="-71.94535">
    <name>TP169</name>
  </trkpt>
  <trkpt lat="-13.53888" lon="-71.94533">
    <name>TP170</name>
  </trkpt>
  <trkpt lat="-13.53895" lon="-71.94496">
    <name>TP171</name>
  </trkpt>
  <trkpt lat="-13.53898" lon="-71.9448">
    <name>TP172</name>
  </trkpt>
  <trkpt lat="-13.539" lon="-71.94469">
    <name>TP173</name>
  </trkpt>
  <trkpt lat="-13.53907" lon="-71.94429">
    <name>TP174</name>
  </trkpt>
  <trkpt lat="-13.53907" lon="-71.94417">
    <name>TP175</name>
  </trkpt>
  <trkpt lat="-13.53912" lon="-71.94377">
    <name>TP176</name>
  </trkpt>
  <trkpt lat="-13.53913" lon="-71.94363">
    <name>TP177</name>
  </trkpt>
  <trkpt lat="-13.53916" lon="-71.9432">
    <name>TP178</name>
  </trkpt>
  <trkpt lat="-13.53917" lon="-71.94308">
    <name>TP179</name>
  </trkpt>
  <trkpt lat="-13.53918" lon="-71.94301">
    <name>TP180</name>
  </trkpt>
  <trkpt lat="-13.5391787" lon="-71.9430091">
    <name>TP181</name>
  </trkpt>
  <trkpt lat="-13.53898" lon="-71.94298">
    <name>TP182</name>
  </trkpt>
  <trkpt lat="-13.53865" lon="-71.94294">
    <name>TP183</name>
  </trkpt>
  <trkpt lat="-13.53862" lon="-71.94294">
    <name>TP184</name>
  </trkpt>
  <trkpt lat="-13.5386" lon="-71.94294">
    <name>TP185</name>
  </trkpt>
  <trkpt lat="-13.53859" lon="-71.94294">
    <name>TP186</name>
  </trkpt>
  <trkpt lat="-13.53858" lon="-71.94294">
    <name>TP187</name>
  </trkpt>
  <trkpt lat="-13.53857" lon="-71.94295">
    <name>TP188</name>
  </trkpt>
  <trkpt lat="-13.53855" lon="-71.94296">
    <name>TP189</name>
  </trkpt>
  <trkpt lat="-13.53853" lon="-71.94297">
    <name>TP190</name>
  </trkpt>
  <trkpt lat="-13.53853" lon="-71.94298">
    <name>TP191</name>
  </trkpt>
  <trkpt lat="-13.53852" lon="-71.94299">
    <name>TP192</name>
  </trkpt>
  <trkpt lat="-13.53851" lon="-71.94306">
    <name>TP193</name>
  </trkpt>
  <trkpt lat="-13.53851" lon="-71.94314">
    <name>TP194</name>
  </trkpt>
  <trkpt lat="-13.5385" lon="-71.94326">
    <name>TP195</name>
  </trkpt>
  <trkpt lat="-13.53842" lon="-71.9438">
    <name>TP196</name>
  </trkpt>
  <trkpt lat="-13.5384238" lon="-71.9438014">
    <name>TP197</name>
  </trkpt>
  <trkpt lat="-13.5384238" lon="-71.9438014">
    <name>TP198</name>
  </trkpt>
  <trkpt lat="-13.5384238" lon="-71.9438014">
    <name>TP199</name>
  </trkpt>
  </trkseg>
</trk>
</gpx>