<?xml version="1.0" encoding="UTF-8" standalone="no" ?>
<gpx xmlns="http://www.topografix.com/GPX/1/1" xmlns:gpxx="http://www.garmin.com/xmlschemas/GpxExtensions/v3" xmlns:gpxtpx="http://www.garmin.com/xmlschemas/TrackPointExtension/v1" creator="mapstogpx.com" version="1.1" xmlns:xsi="http://www.w3.org/2001/XMLSchema-instance" xsi:schemaLocation="http://www.topografix.com/GPX/1/1 http://www.topografix.com/GPX/1/1/gpx.xsd http://www.garmin.com/xmlschemas/GpxExtensions/v3 http://www.garmin.com/xmlschemas/GpxExtensionsv3.xsd http://www.garmin.com/xmlschemas/TrackPointExtension/v1 http://www.garmin.com/xmlschemas/TrackPointExtensionv1.xsd">
  <metadata>
    <link href="http://www.mapstogpx.com">
      <text>Sverrir Sigmundarson</text>
    </link>
    <!--desc>Map data ©2025 Google</desc-->
    <!--copyright author="Google Inc">
    	<year>2025</year>
    	<license>https://developers.google.com/maps/terms</license>
    </copyright-->
    <!--url>https://www.google.com/maps/dir/Schnann+32,+6574+Schnann/47.1273686,10.263346/@47.132978,10.2611218,2501m/data=!3m1!1e3!4m9!4m8!1m5!1m1!1s0x479cb9c7b053f6cf:0x7b0cc7d6dad8fc19!2m2!1d10.3799353!2d47.1527211!1m0!3e0?entry=tts&g_ep=EgoyMDI1MDEyOS4xKgBIAVAD&hl=en</url-->
    <time>2025-02-03T21:53:24Z</time>
  </metadata>
  <wpt lat="47.1527211" lon="10.3799353">
    <name>Schnann 32</name>
    <desc>Schnann 32, 6574 Schnann, Austria</desc>
  </wpt>
  <wpt lat="47.1273686" lon="10.263346">
    <name>6580 St. Anton am Arlberg</name>
    <desc>Alte Arlbergstraße 5-1, 6580 St. Anton am Arlberg, Austria</desc>
  </wpt>
<trk>
  <name>Schnann 32 to 6580 St. Anton am Arlberg</name>
  <number>1</number>
  <trkseg>
  <trkpt lat="47.152734" lon="10.3797693">
    <name>TP001</name>
  </trkpt>
  <trkpt lat="47.15264" lon="10.37975">
    <name>TP002</name>
  </trkpt>
  <trkpt lat="47.1526" lon="10.37974">
    <name>TP003</name>
  </trkpt>
  <trkpt lat="47.15243" lon="10.37974">
    <name>TP004</name>
  </trkpt>
  <trkpt lat="47.15235" lon="10.37978">
    <name>TP005</name>
  </trkpt>
  <trkpt lat="47.15229" lon="10.37983">
    <name>TP006</name>
  </trkpt>
  <trkpt lat="47.15227" lon="10.37984">
    <name>TP007</name>
  </trkpt>
  <trkpt lat="47.15217" lon="10.37992">
    <name>TP008</name>
  </trkpt>
  <trkpt lat="47.1521682" lon="10.3799192">
    <name>TP009</name>
  </trkpt>
  <trkpt lat="47.15216" lon="10.37957">
    <name>TP010</name>
  </trkpt>
  <trkpt lat="47.15216" lon="10.37943">
    <name>TP011</name>
  </trkpt>
  <trkpt lat="47.15216" lon="10.37927">
    <name>TP012</name>
  </trkpt>
  <trkpt lat="47.15216" lon="10.37903">
    <name>TP013</name>
  </trkpt>
  <trkpt lat="47.15217" lon="10.37884">
    <name>TP014</name>
  </trkpt>
  <trkpt lat="47.15219" lon="10.37861">
    <name>TP015</name>
  </trkpt>
  <trkpt lat="47.15219" lon="10.37859">
    <name>TP016</name>
  </trkpt>
  <trkpt lat="47.15224" lon="10.37809">
    <name>TP017</name>
  </trkpt>
  <trkpt lat="47.1523" lon="10.37754">
    <name>TP018</name>
  </trkpt>
  <trkpt lat="47.15233" lon="10.37727">
    <name>TP019</name>
  </trkpt>
  <trkpt lat="47.15236" lon="10.37706">
    <name>TP020</name>
  </trkpt>
  <trkpt lat="47.1524" lon="10.37675">
    <name>TP021</name>
  </trkpt>
  <trkpt lat="47.15242" lon="10.37667">
    <name>TP022</name>
  </trkpt>
  <trkpt lat="47.15246" lon="10.37654">
    <name>TP023</name>
  </trkpt>
  <trkpt lat="47.15252" lon="10.37637">
    <name>TP024</name>
  </trkpt>
  <trkpt lat="47.15253" lon="10.37636">
    <name>TP025</name>
  </trkpt>
  <trkpt lat="47.15261" lon="10.37619">
    <name>TP026</name>
  </trkpt>
  <trkpt lat="47.15265" lon="10.3761">
    <name>TP027</name>
  </trkpt>
  <trkpt lat="47.1529" lon="10.37554">
    <name>TP028</name>
  </trkpt>
  <trkpt lat="47.15305" lon="10.37523">
    <name>TP029</name>
  </trkpt>
  <trkpt lat="47.15306" lon="10.37521">
    <name>TP030</name>
  </trkpt>
  <trkpt lat="47.15315" lon="10.37501">
    <name>TP031</name>
  </trkpt>
  <trkpt lat="47.15317" lon="10.37495">
    <name>TP032</name>
  </trkpt>
  <trkpt lat="47.15322" lon="10.37483">
    <name>TP033</name>
  </trkpt>
  <trkpt lat="47.15323" lon="10.37476">
    <name>TP034</name>
  </trkpt>
  <trkpt lat="47.15326" lon="10.37464">
    <name>TP035</name>
  </trkpt>
  <trkpt lat="47.15327" lon="10.37458">
    <name>TP036</name>
  </trkpt>
  <trkpt lat="47.15328" lon="10.37453">
    <name>TP037</name>
  </trkpt>
  <trkpt lat="47.15328" lon="10.3745">
    <name>TP038</name>
  </trkpt>
  <trkpt lat="47.15329" lon="10.3744">
    <name>TP039</name>
  </trkpt>
  <trkpt lat="47.15329" lon="10.37433">
    <name>TP040</name>
  </trkpt>
  <trkpt lat="47.15329" lon="10.37431">
    <name>TP041</name>
  </trkpt>
  <trkpt lat="47.15328" lon="10.37426">
    <name>TP042</name>
  </trkpt>
  <trkpt lat="47.15328" lon="10.37422">
    <name>TP043</name>
  </trkpt>
  <trkpt lat="47.15328" lon="10.37416">
    <name>TP044</name>
  </trkpt>
  <trkpt lat="47.15325" lon="10.37405">
    <name>TP045</name>
  </trkpt>
  <trkpt lat="47.15324" lon="10.37396">
    <name>TP046</name>
  </trkpt>
  <trkpt lat="47.15321" lon="10.3738">
    <name>TP047</name>
  </trkpt>
  <trkpt lat="47.15319" lon="10.37371">
    <name>TP048</name>
  </trkpt>
  <trkpt lat="47.15313" lon="10.37346">
    <name>TP049</name>
  </trkpt>
  <trkpt lat="47.1531" lon="10.37333">
    <name>TP050</name>
  </trkpt>
  <trkpt lat="47.15309" lon="10.37327">
    <name>TP051</name>
  </trkpt>
  <trkpt lat="47.15309" lon="10.37326">
    <name>TP052</name>
  </trkpt>
  <trkpt lat="47.15307" lon="10.37321">
    <name>TP053</name>
  </trkpt>
  <trkpt lat="47.15302" lon="10.3731">
    <name>TP054</name>
  </trkpt>
  <trkpt lat="47.153" lon="10.37306">
    <name>TP055</name>
  </trkpt>
  <trkpt lat="47.15298" lon="10.37304">
    <name>TP056</name>
  </trkpt>
  <trkpt lat="47.15295" lon="10.37302">
    <name>TP057</name>
  </trkpt>
  <trkpt lat="47.15291" lon="10.373">
    <name>TP058</name>
  </trkpt>
  <trkpt lat="47.1529078" lon="10.3729986">
    <name>TP059</name>
  </trkpt>
  <trkpt lat="47.1529" lon="10.37275">
    <name>TP060</name>
  </trkpt>
  <trkpt lat="47.15289" lon="10.37263">
    <name>TP061</name>
  </trkpt>
  <trkpt lat="47.15287" lon="10.37246">
    <name>TP062</name>
  </trkpt>
  <trkpt lat="47.15284" lon="10.37226">
    <name>TP063</name>
  </trkpt>
  <trkpt lat="47.15283" lon="10.37216">
    <name>TP064</name>
  </trkpt>
  <trkpt lat="47.15281" lon="10.37206">
    <name>TP065</name>
  </trkpt>
  <trkpt lat="47.1528" lon="10.37201">
    <name>TP066</name>
  </trkpt>
  <trkpt lat="47.15279" lon="10.37195">
    <name>TP067</name>
  </trkpt>
  <trkpt lat="47.15277" lon="10.37184">
    <name>TP068</name>
  </trkpt>
  <trkpt lat="47.15274" lon="10.37172">
    <name>TP069</name>
  </trkpt>
  <trkpt lat="47.15269" lon="10.37147">
    <name>TP070</name>
  </trkpt>
  <trkpt lat="47.15242" lon="10.37021">
    <name>TP071</name>
  </trkpt>
  <trkpt lat="47.152" lon="10.36829">
    <name>TP072</name>
  </trkpt>
  <trkpt lat="47.15198" lon="10.3682">
    <name>TP073</name>
  </trkpt>
  <trkpt lat="47.15195" lon="10.36804">
    <name>TP074</name>
  </trkpt>
  <trkpt lat="47.15193" lon="10.36794">
    <name>TP075</name>
  </trkpt>
  <trkpt lat="47.15152" lon="10.36611">
    <name>TP076</name>
  </trkpt>
  <trkpt lat="47.15142" lon="10.36564">
    <name>TP077</name>
  </trkpt>
  <trkpt lat="47.15115" lon="10.36442">
    <name>TP078</name>
  </trkpt>
  <trkpt lat="47.15109" lon="10.36413">
    <name>TP079</name>
  </trkpt>
  <trkpt lat="47.15103" lon="10.36384">
    <name>TP080</name>
  </trkpt>
  <trkpt lat="47.151" lon="10.3637">
    <name>TP081</name>
  </trkpt>
  <trkpt lat="47.15097" lon="10.36355">
    <name>TP082</name>
  </trkpt>
  <trkpt lat="47.15097" lon="10.36351">
    <name>TP083</name>
  </trkpt>
  <trkpt lat="47.15096" lon="10.36344">
    <name>TP084</name>
  </trkpt>
  <trkpt lat="47.15095" lon="10.36341">
    <name>TP085</name>
  </trkpt>
  <trkpt lat="47.15095" lon="10.36338">
    <name>TP086</name>
  </trkpt>
  <trkpt lat="47.15094" lon="10.36327">
    <name>TP087</name>
  </trkpt>
  <trkpt lat="47.15094" lon="10.36313">
    <name>TP088</name>
  </trkpt>
  <trkpt lat="47.15094" lon="10.36301">
    <name>TP089</name>
  </trkpt>
  <trkpt lat="47.15095" lon="10.36291">
    <name>TP090</name>
  </trkpt>
  <trkpt lat="47.15095" lon="10.36282">
    <name>TP091</name>
  </trkpt>
  <trkpt lat="47.15096" lon="10.36274">
    <name>TP092</name>
  </trkpt>
  <trkpt lat="47.15096" lon="10.36268">
    <name>TP093</name>
  </trkpt>
  <trkpt lat="47.15097" lon="10.36262">
    <name>TP094</name>
  </trkpt>
  <trkpt lat="47.15098" lon="10.36256">
    <name>TP095</name>
  </trkpt>
  <trkpt lat="47.15099" lon="10.36249">
    <name>TP096</name>
  </trkpt>
  <trkpt lat="47.151" lon="10.36242">
    <name>TP097</name>
  </trkpt>
  <trkpt lat="47.15102" lon="10.36235">
    <name>TP098</name>
  </trkpt>
  <trkpt lat="47.15104" lon="10.36228">
    <name>TP099</name>
  </trkpt>
  <trkpt lat="47.15106" lon="10.36219">
    <name>TP100</name>
  </trkpt>
  <trkpt lat="47.15108" lon="10.36211">
    <name>TP101</name>
  </trkpt>
  <trkpt lat="47.15111" lon="10.36202">
    <name>TP102</name>
  </trkpt>
  <trkpt lat="47.15114" lon="10.36193">
    <name>TP103</name>
  </trkpt>
  <trkpt lat="47.15116" lon="10.36185">
    <name>TP104</name>
  </trkpt>
  <trkpt lat="47.15119" lon="10.36176">
    <name>TP105</name>
  </trkpt>
  <trkpt lat="47.15122" lon="10.36168">
    <name>TP106</name>
  </trkpt>
  <trkpt lat="47.15124" lon="10.36159">
    <name>TP107</name>
  </trkpt>
  <trkpt lat="47.15127" lon="10.36151">
    <name>TP108</name>
  </trkpt>
  <trkpt lat="47.1513" lon="10.36142">
    <name>TP109</name>
  </trkpt>
  <trkpt lat="47.15132" lon="10.36133">
    <name>TP110</name>
  </trkpt>
  <trkpt lat="47.15135" lon="10.36124">
    <name>TP111</name>
  </trkpt>
  <trkpt lat="47.15138" lon="10.36115">
    <name>TP112</name>
  </trkpt>
  <trkpt lat="47.15141" lon="10.36107">
    <name>TP113</name>
  </trkpt>
  <trkpt lat="47.15144" lon="10.36097">
    <name>TP114</name>
  </trkpt>
  <trkpt lat="47.15146" lon="10.36088">
    <name>TP115</name>
  </trkpt>
  <trkpt lat="47.15149" lon="10.36079">
    <name>TP116</name>
  </trkpt>
  <trkpt lat="47.15152" lon="10.3607">
    <name>TP117</name>
  </trkpt>
  <trkpt lat="47.15155" lon="10.36061">
    <name>TP118</name>
  </trkpt>
  <trkpt lat="47.15158" lon="10.36052">
    <name>TP119</name>
  </trkpt>
  <trkpt lat="47.15161" lon="10.36043">
    <name>TP120</name>
  </trkpt>
  <trkpt lat="47.15164" lon="10.36034">
    <name>TP121</name>
  </trkpt>
  <trkpt lat="47.15167" lon="10.36025">
    <name>TP122</name>
  </trkpt>
  <trkpt lat="47.1517" lon="10.36016">
    <name>TP123</name>
  </trkpt>
  <trkpt lat="47.15172" lon="10.36008">
    <name>TP124</name>
  </trkpt>
  <trkpt lat="47.15174" lon="10.36001">
    <name>TP125</name>
  </trkpt>
  <trkpt lat="47.15182" lon="10.35976">
    <name>TP126</name>
  </trkpt>
  <trkpt lat="47.15204" lon="10.35906">
    <name>TP127</name>
  </trkpt>
  <trkpt lat="47.15213" lon="10.35871">
    <name>TP128</name>
  </trkpt>
  <trkpt lat="47.15217" lon="10.35853">
    <name>TP129</name>
  </trkpt>
  <trkpt lat="47.15219" lon="10.35833">
    <name>TP130</name>
  </trkpt>
  <trkpt lat="47.15221" lon="10.35816">
    <name>TP131</name>
  </trkpt>
  <trkpt lat="47.15222" lon="10.35804">
    <name>TP132</name>
  </trkpt>
  <trkpt lat="47.15222" lon="10.35798">
    <name>TP133</name>
  </trkpt>
  <trkpt lat="47.15222" lon="10.35797">
    <name>TP134</name>
  </trkpt>
  <trkpt lat="47.1522" lon="10.35776">
    <name>TP135</name>
  </trkpt>
  <trkpt lat="47.15219" lon="10.35758">
    <name>TP136</name>
  </trkpt>
  <trkpt lat="47.15218" lon="10.35749">
    <name>TP137</name>
  </trkpt>
  <trkpt lat="47.15215" lon="10.35723">
    <name>TP138</name>
  </trkpt>
  <trkpt lat="47.15215" lon="10.35719">
    <name>TP139</name>
  </trkpt>
  <trkpt lat="47.15204" lon="10.35648">
    <name>TP140</name>
  </trkpt>
  <trkpt lat="47.15199" lon="10.35615">
    <name>TP141</name>
  </trkpt>
  <trkpt lat="47.15195" lon="10.35589">
    <name>TP142</name>
  </trkpt>
  <trkpt lat="47.15188" lon="10.35548">
    <name>TP143</name>
  </trkpt>
  <trkpt lat="47.15185" lon="10.35536">
    <name>TP144</name>
  </trkpt>
  <trkpt lat="47.15181" lon="10.35524">
    <name>TP145</name>
  </trkpt>
  <trkpt lat="47.15175" lon="10.35513">
    <name>TP146</name>
  </trkpt>
  <trkpt lat="47.15168" lon="10.35501">
    <name>TP147</name>
  </trkpt>
  <trkpt lat="47.15146" lon="10.35474">
    <name>TP148</name>
  </trkpt>
  <trkpt lat="47.15139" lon="10.35467">
    <name>TP149</name>
  </trkpt>
  <trkpt lat="47.15124" lon="10.35452">
    <name>TP150</name>
  </trkpt>
  <trkpt lat="47.15102" lon="10.3543">
    <name>TP151</name>
  </trkpt>
  <trkpt lat="47.15095" lon="10.3542">
    <name>TP152</name>
  </trkpt>
  <trkpt lat="47.15082" lon="10.35402">
    <name>TP153</name>
  </trkpt>
  <trkpt lat="47.15081" lon="10.354">
    <name>TP154</name>
  </trkpt>
  <trkpt lat="47.15071" lon="10.35382">
    <name>TP155</name>
  </trkpt>
  <trkpt lat="47.15068" lon="10.35378">
    <name>TP156</name>
  </trkpt>
  <trkpt lat="47.15056" lon="10.35358">
    <name>TP157</name>
  </trkpt>
  <trkpt lat="47.15054" lon="10.35353">
    <name>TP158</name>
  </trkpt>
  <trkpt lat="47.1503" lon="10.35295">
    <name>TP159</name>
  </trkpt>
  <trkpt lat="47.15023" lon="10.35271">
    <name>TP160</name>
  </trkpt>
  <trkpt lat="47.15012" lon="10.35239">
    <name>TP161</name>
  </trkpt>
  <trkpt lat="47.15003" lon="10.35197">
    <name>TP162</name>
  </trkpt>
  <trkpt lat="47.15001" lon="10.3519">
    <name>TP163</name>
  </trkpt>
  <trkpt lat="47.14998" lon="10.35172">
    <name>TP164</name>
  </trkpt>
  <trkpt lat="47.1499" lon="10.35135">
    <name>TP165</name>
  </trkpt>
  <trkpt lat="47.14989" lon="10.35121">
    <name>TP166</name>
  </trkpt>
  <trkpt lat="47.14986" lon="10.35095">
    <name>TP167</name>
  </trkpt>
  <trkpt lat="47.14984" lon="10.35073">
    <name>TP168</name>
  </trkpt>
  <trkpt lat="47.14983" lon="10.35068">
    <name>TP169</name>
  </trkpt>
  <trkpt lat="47.14982" lon="10.35042">
    <name>TP170</name>
  </trkpt>
  <trkpt lat="47.14981" lon="10.3502">
    <name>TP171</name>
  </trkpt>
  <trkpt lat="47.14981" lon="10.34989">
    <name>TP172</name>
  </trkpt>
  <trkpt lat="47.1498" lon="10.34963">
    <name>TP173</name>
  </trkpt>
  <trkpt lat="47.1498" lon="10.34953">
    <name>TP174</name>
  </trkpt>
  <trkpt lat="47.1498" lon="10.34936">
    <name>TP175</name>
  </trkpt>
  <trkpt lat="47.14979" lon="10.3491">
    <name>TP176</name>
  </trkpt>
  <trkpt lat="47.14978" lon="10.34883">
    <name>TP177</name>
  </trkpt>
  <trkpt lat="47.14977" lon="10.34858">
    <name>TP178</name>
  </trkpt>
  <trkpt lat="47.14977" lon="10.34853">
    <name>TP179</name>
  </trkpt>
  <trkpt lat="47.14977" lon="10.34837">
    <name>TP180</name>
  </trkpt>
  <trkpt lat="47.1497665" lon="10.348369">
    <name>TP181</name>
  </trkpt>
  <trkpt lat="47.14976" lon="10.3483">
    <name>TP182</name>
  </trkpt>
  <trkpt lat="47.14972" lon="10.34803">
    <name>TP183</name>
  </trkpt>
  <trkpt lat="47.1497" lon="10.3479">
    <name>TP184</name>
  </trkpt>
  <trkpt lat="47.14965" lon="10.34765">
    <name>TP185</name>
  </trkpt>
  <trkpt lat="47.14962" lon="10.34749">
    <name>TP186</name>
  </trkpt>
  <trkpt lat="47.14927" lon="10.34651">
    <name>TP187</name>
  </trkpt>
  <trkpt lat="47.14919" lon="10.34627">
    <name>TP188</name>
  </trkpt>
  <trkpt lat="47.14894" lon="10.34557">
    <name>TP189</name>
  </trkpt>
  <trkpt lat="47.14878" lon="10.34509">
    <name>TP190</name>
  </trkpt>
  <trkpt lat="47.14871" lon="10.34486">
    <name>TP191</name>
  </trkpt>
  <trkpt lat="47.14857" lon="10.34444">
    <name>TP192</name>
  </trkpt>
  <trkpt lat="47.14841" lon="10.34398">
    <name>TP193</name>
  </trkpt>
  <trkpt lat="47.14832" lon="10.34375">
    <name>TP194</name>
  </trkpt>
  <trkpt lat="47.14829" lon="10.34365">
    <name>TP195</name>
  </trkpt>
  <trkpt lat="47.14818" lon="10.34327">
    <name>TP196</name>
  </trkpt>
  <trkpt lat="47.14811" lon="10.34302">
    <name>TP197</name>
  </trkpt>
  <trkpt lat="47.14809" lon="10.34297">
    <name>TP198</name>
  </trkpt>
  <trkpt lat="47.14797" lon="10.34254">
    <name>TP199</name>
  </trkpt>
  <trkpt lat="47.14777" lon="10.3418">
    <name>TP200</name>
  </trkpt>
  <trkpt lat="47.14774" lon="10.34169">
    <name>TP201</name>
  </trkpt>
  <trkpt lat="47.14769" lon="10.34149">
    <name>TP202</name>
  </trkpt>
  <trkpt lat="47.14768" lon="10.34145">
    <name>TP203</name>
  </trkpt>
  <trkpt lat="47.14761" lon="10.3412">
    <name>TP204</name>
  </trkpt>
  <trkpt lat="47.14758" lon="10.3411">
    <name>TP205</name>
  </trkpt>
  <trkpt lat="47.14744" lon="10.34056">
    <name>TP206</name>
  </trkpt>
  <trkpt lat="47.14739" lon="10.34034">
    <name>TP207</name>
  </trkpt>
  <trkpt lat="47.14737" lon="10.34019">
    <name>TP208</name>
  </trkpt>
  <trkpt lat="47.14735" lon="10.33997">
    <name>TP209</name>
  </trkpt>
  <trkpt lat="47.14735" lon="10.33987">
    <name>TP210</name>
  </trkpt>
  <trkpt lat="47.14734" lon="10.33973">
    <name>TP211</name>
  </trkpt>
  <trkpt lat="47.14736" lon="10.33953">
    <name>TP212</name>
  </trkpt>
  <trkpt lat="47.14738" lon="10.33937">
    <name>TP213</name>
  </trkpt>
  <trkpt lat="47.14742" lon="10.33918">
    <name>TP214</name>
  </trkpt>
  <trkpt lat="47.14748" lon="10.33899">
    <name>TP215</name>
  </trkpt>
  <trkpt lat="47.14761" lon="10.33862">
    <name>TP216</name>
  </trkpt>
  <trkpt lat="47.14768" lon="10.33844">
    <name>TP217</name>
  </trkpt>
  <trkpt lat="47.14768" lon="10.33843">
    <name>TP218</name>
  </trkpt>
  <trkpt lat="47.1477" lon="10.3384">
    <name>TP219</name>
  </trkpt>
  <trkpt lat="47.14775" lon="10.33826">
    <name>TP220</name>
  </trkpt>
  <trkpt lat="47.14786" lon="10.33795">
    <name>TP221</name>
  </trkpt>
  <trkpt lat="47.1478624" lon="10.3379516">
    <name>TP222</name>
  </trkpt>
  <trkpt lat="47.14792" lon="10.33776">
    <name>TP223</name>
  </trkpt>
  <trkpt lat="47.14796" lon="10.33756">
    <name>TP224</name>
  </trkpt>
  <trkpt lat="47.14797" lon="10.33751">
    <name>TP225</name>
  </trkpt>
  <trkpt lat="47.148" lon="10.33737">
    <name>TP226</name>
  </trkpt>
  <trkpt lat="47.14801" lon="10.33725">
    <name>TP227</name>
  </trkpt>
  <trkpt lat="47.14802" lon="10.33719">
    <name>TP228</name>
  </trkpt>
  <trkpt lat="47.14803" lon="10.33672">
    <name>TP229</name>
  </trkpt>
  <trkpt lat="47.14804" lon="10.33619">
    <name>TP230</name>
  </trkpt>
  <trkpt lat="47.1480416" lon="10.3361917">
    <name>TP231</name>
  </trkpt>
  <trkpt lat="47.14804" lon="10.33608">
    <name>TP232</name>
  </trkpt>
  <trkpt lat="47.14806" lon="10.33555">
    <name>TP233</name>
  </trkpt>
  <trkpt lat="47.14807" lon="10.33528">
    <name>TP234</name>
  </trkpt>
  <trkpt lat="47.14808" lon="10.33476">
    <name>TP235</name>
  </trkpt>
  <trkpt lat="47.14809" lon="10.33449">
    <name>TP236</name>
  </trkpt>
  <trkpt lat="47.1481" lon="10.33393">
    <name>TP237</name>
  </trkpt>
  <trkpt lat="47.1481" lon="10.33363">
    <name>TP238</name>
  </trkpt>
  <trkpt lat="47.14809" lon="10.3334">
    <name>TP239</name>
  </trkpt>
  <trkpt lat="47.14804" lon="10.33306">
    <name>TP240</name>
  </trkpt>
  <trkpt lat="47.1479" lon="10.33214">
    <name>TP241</name>
  </trkpt>
  <trkpt lat="47.14786" lon="10.33188">
    <name>TP242</name>
  </trkpt>
  <trkpt lat="47.14785" lon="10.3318">
    <name>TP243</name>
  </trkpt>
  <trkpt lat="47.14782" lon="10.33163">
    <name>TP244</name>
  </trkpt>
  <trkpt lat="47.14775" lon="10.33111">
    <name>TP245</name>
  </trkpt>
  <trkpt lat="47.14775" lon="10.33105">
    <name>TP246</name>
  </trkpt>
  <trkpt lat="47.1477" lon="10.33056">
    <name>TP247</name>
  </trkpt>
  <trkpt lat="47.14763" lon="10.3298">
    <name>TP248</name>
  </trkpt>
  <trkpt lat="47.1476" lon="10.32939">
    <name>TP249</name>
  </trkpt>
  <trkpt lat="47.14759" lon="10.32924">
    <name>TP250</name>
  </trkpt>
  <trkpt lat="47.14758" lon="10.32918">
    <name>TP251</name>
  </trkpt>
  <trkpt lat="47.14755" lon="10.32901">
    <name>TP252</name>
  </trkpt>
  <trkpt lat="47.14754" lon="10.32895">
    <name>TP253</name>
  </trkpt>
  <trkpt lat="47.14749" lon="10.32876">
    <name>TP254</name>
  </trkpt>
  <trkpt lat="47.14748" lon="10.32872">
    <name>TP255</name>
  </trkpt>
  <trkpt lat="47.14742" lon="10.32852">
    <name>TP256</name>
  </trkpt>
  <trkpt lat="47.14741" lon="10.32849">
    <name>TP257</name>
  </trkpt>
  <trkpt lat="47.14733" lon="10.3283">
    <name>TP258</name>
  </trkpt>
  <trkpt lat="47.14732" lon="10.32828">
    <name>TP259</name>
  </trkpt>
  <trkpt lat="47.14719" lon="10.328">
    <name>TP260</name>
  </trkpt>
  <trkpt lat="47.14711" lon="10.32788">
    <name>TP261</name>
  </trkpt>
  <trkpt lat="47.14707" lon="10.32781">
    <name>TP262</name>
  </trkpt>
  <trkpt lat="47.14698" lon="10.3277">
    <name>TP263</name>
  </trkpt>
  <trkpt lat="47.14695" lon="10.32766">
    <name>TP264</name>
  </trkpt>
  <trkpt lat="47.14681" lon="10.32751">
    <name>TP265</name>
  </trkpt>
  <trkpt lat="47.14659" lon="10.32738">
    <name>TP266</name>
  </trkpt>
  <trkpt lat="47.14638" lon="10.32726">
    <name>TP267</name>
  </trkpt>
  <trkpt lat="47.14632" lon="10.32723">
    <name>TP268</name>
  </trkpt>
  <trkpt lat="47.14615" lon="10.32716">
    <name>TP269</name>
  </trkpt>
  <trkpt lat="47.14613" lon="10.32715">
    <name>TP270</name>
  </trkpt>
  <trkpt lat="47.14605" lon="10.32712">
    <name>TP271</name>
  </trkpt>
  <trkpt lat="47.1458" lon="10.32701">
    <name>TP272</name>
  </trkpt>
  <trkpt lat="47.14563" lon="10.32694">
    <name>TP273</name>
  </trkpt>
  <trkpt lat="47.14546" lon="10.32687">
    <name>TP274</name>
  </trkpt>
  <trkpt lat="47.14528" lon="10.32679">
    <name>TP275</name>
  </trkpt>
  <trkpt lat="47.14514" lon="10.32671">
    <name>TP276</name>
  </trkpt>
  <trkpt lat="47.14498" lon="10.32661">
    <name>TP277</name>
  </trkpt>
  <trkpt lat="47.14493" lon="10.32657">
    <name>TP278</name>
  </trkpt>
  <trkpt lat="47.1448" lon="10.32647">
    <name>TP279</name>
  </trkpt>
  <trkpt lat="47.14461" lon="10.3263">
    <name>TP280</name>
  </trkpt>
  <trkpt lat="47.14427" lon="10.3259">
    <name>TP281</name>
  </trkpt>
  <trkpt lat="47.14397" lon="10.32544">
    <name>TP282</name>
  </trkpt>
  <trkpt lat="47.14395" lon="10.32541">
    <name>TP283</name>
  </trkpt>
  <trkpt lat="47.14384" lon="10.3252">
    <name>TP284</name>
  </trkpt>
  <trkpt lat="47.14374" lon="10.325">
    <name>TP285</name>
  </trkpt>
  <trkpt lat="47.14362" lon="10.3247">
    <name>TP286</name>
  </trkpt>
  <trkpt lat="47.14355" lon="10.32443">
    <name>TP287</name>
  </trkpt>
  <trkpt lat="47.1435" lon="10.32418">
    <name>TP288</name>
  </trkpt>
  <trkpt lat="47.14347" lon="10.32399">
    <name>TP289</name>
  </trkpt>
  <trkpt lat="47.14345" lon="10.32371">
    <name>TP290</name>
  </trkpt>
  <trkpt lat="47.14346" lon="10.32322">
    <name>TP291</name>
  </trkpt>
  <trkpt lat="47.14347" lon="10.32296">
    <name>TP292</name>
  </trkpt>
  <trkpt lat="47.14347" lon="10.32293">
    <name>TP293</name>
  </trkpt>
  <trkpt lat="47.14349" lon="10.32078">
    <name>TP294</name>
  </trkpt>
  <trkpt lat="47.14351" lon="10.31978">
    <name>TP295</name>
  </trkpt>
  <trkpt lat="47.14353" lon="10.31863">
    <name>TP296</name>
  </trkpt>
  <trkpt lat="47.14354" lon="10.31837">
    <name>TP297</name>
  </trkpt>
  <trkpt lat="47.14354" lon="10.3181">
    <name>TP298</name>
  </trkpt>
  <trkpt lat="47.14356" lon="10.31678">
    <name>TP299</name>
  </trkpt>
  <trkpt lat="47.14358" lon="10.31572">
    <name>TP300</name>
  </trkpt>
  <trkpt lat="47.1436" lon="10.31466">
    <name>TP301</name>
  </trkpt>
  <trkpt lat="47.14361" lon="10.31418">
    <name>TP302</name>
  </trkpt>
  <trkpt lat="47.14362" lon="10.31392">
    <name>TP303</name>
  </trkpt>
  <trkpt lat="47.14364" lon="10.31335">
    <name>TP304</name>
  </trkpt>
  <trkpt lat="47.14365" lon="10.31315">
    <name>TP305</name>
  </trkpt>
  <trkpt lat="47.1436493" lon="10.3131535">
    <name>TP306</name>
  </trkpt>
  <trkpt lat="47.14365" lon="10.31302">
    <name>TP307</name>
  </trkpt>
  <trkpt lat="47.14363" lon="10.31261">
    <name>TP308</name>
  </trkpt>
  <trkpt lat="47.14358" lon="10.31203">
    <name>TP309</name>
  </trkpt>
  <trkpt lat="47.14357" lon="10.31193">
    <name>TP310</name>
  </trkpt>
  <trkpt lat="47.14354" lon="10.31166">
    <name>TP311</name>
  </trkpt>
  <trkpt lat="47.14352" lon="10.31151">
    <name>TP312</name>
  </trkpt>
  <trkpt lat="47.14352" lon="10.3115">
    <name>TP313</name>
  </trkpt>
  <trkpt lat="47.1435" lon="10.3114">
    <name>TP314</name>
  </trkpt>
  <trkpt lat="47.14348" lon="10.31127">
    <name>TP315</name>
  </trkpt>
  <trkpt lat="47.14346" lon="10.31116">
    <name>TP316</name>
  </trkpt>
  <trkpt lat="47.14344" lon="10.31101">
    <name>TP317</name>
  </trkpt>
  <trkpt lat="47.14336" lon="10.3105">
    <name>TP318</name>
  </trkpt>
  <trkpt lat="47.14309" lon="10.30871">
    <name>TP319</name>
  </trkpt>
  <trkpt lat="47.14307" lon="10.30859">
    <name>TP320</name>
  </trkpt>
  <trkpt lat="47.14291" lon="10.30757">
    <name>TP321</name>
  </trkpt>
  <trkpt lat="47.14289" lon="10.3075">
    <name>TP322</name>
  </trkpt>
  <trkpt lat="47.14288" lon="10.3074">
    <name>TP323</name>
  </trkpt>
  <trkpt lat="47.14271" lon="10.30647">
    <name>TP324</name>
  </trkpt>
  <trkpt lat="47.14248" lon="10.3052">
    <name>TP325</name>
  </trkpt>
  <trkpt lat="47.14231" lon="10.30425">
    <name>TP326</name>
  </trkpt>
  <trkpt lat="47.14217" lon="10.3031">
    <name>TP327</name>
  </trkpt>
  <trkpt lat="47.14214" lon="10.30285">
    <name>TP328</name>
  </trkpt>
  <trkpt lat="47.1421" lon="10.30245">
    <name>TP329</name>
  </trkpt>
  <trkpt lat="47.14209" lon="10.30233">
    <name>TP330</name>
  </trkpt>
  <trkpt lat="47.14208" lon="10.3022">
    <name>TP331</name>
  </trkpt>
  <trkpt lat="47.14204" lon="10.3017">
    <name>TP332</name>
  </trkpt>
  <trkpt lat="47.14201" lon="10.30141">
    <name>TP333</name>
  </trkpt>
  <trkpt lat="47.142" lon="10.30134">
    <name>TP334</name>
  </trkpt>
  <trkpt lat="47.14197" lon="10.30097">
    <name>TP335</name>
  </trkpt>
  <trkpt lat="47.14192" lon="10.3005">
    <name>TP336</name>
  </trkpt>
  <trkpt lat="47.14191" lon="10.30036">
    <name>TP337</name>
  </trkpt>
  <trkpt lat="47.14188" lon="10.29981">
    <name>TP338</name>
  </trkpt>
  <trkpt lat="47.14186" lon="10.29948">
    <name>TP339</name>
  </trkpt>
  <trkpt lat="47.14186" lon="10.29943">
    <name>TP340</name>
  </trkpt>
  <trkpt lat="47.14184" lon="10.29917">
    <name>TP341</name>
  </trkpt>
  <trkpt lat="47.14181" lon="10.2988">
    <name>TP342</name>
  </trkpt>
  <trkpt lat="47.14179" lon="10.29843">
    <name>TP343</name>
  </trkpt>
  <trkpt lat="47.14178" lon="10.29836">
    <name>TP344</name>
  </trkpt>
  <trkpt lat="47.14178" lon="10.29829">
    <name>TP345</name>
  </trkpt>
  <trkpt lat="47.14176" lon="10.29804">
    <name>TP346</name>
  </trkpt>
  <trkpt lat="47.14173" lon="10.29772">
    <name>TP347</name>
  </trkpt>
  <trkpt lat="47.1417" lon="10.29748">
    <name>TP348</name>
  </trkpt>
  <trkpt lat="47.14165" lon="10.2971">
    <name>TP349</name>
  </trkpt>
  <trkpt lat="47.1416" lon="10.29675">
    <name>TP350</name>
  </trkpt>
  <trkpt lat="47.14156" lon="10.29647">
    <name>TP351</name>
  </trkpt>
  <trkpt lat="47.14154" lon="10.29634">
    <name>TP352</name>
  </trkpt>
  <trkpt lat="47.14154" lon="10.29628">
    <name>TP353</name>
  </trkpt>
  <trkpt lat="47.14153" lon="10.29621">
    <name>TP354</name>
  </trkpt>
  <trkpt lat="47.14151" lon="10.29606">
    <name>TP355</name>
  </trkpt>
  <trkpt lat="47.1415" lon="10.29602">
    <name>TP356</name>
  </trkpt>
  <trkpt lat="47.14149" lon="10.29595">
    <name>TP357</name>
  </trkpt>
  <trkpt lat="47.14147" lon="10.29582">
    <name>TP358</name>
  </trkpt>
  <trkpt lat="47.14146" lon="10.29571">
    <name>TP359</name>
  </trkpt>
  <trkpt lat="47.14141" lon="10.29544">
    <name>TP360</name>
  </trkpt>
  <trkpt lat="47.14139" lon="10.29531">
    <name>TP361</name>
  </trkpt>
  <trkpt lat="47.14138" lon="10.29526">
    <name>TP362</name>
  </trkpt>
  <trkpt lat="47.14138" lon="10.29525">
    <name>TP363</name>
  </trkpt>
  <trkpt lat="47.14136" lon="10.29518">
    <name>TP364</name>
  </trkpt>
  <trkpt lat="47.14134" lon="10.29506">
    <name>TP365</name>
  </trkpt>
  <trkpt lat="47.14131" lon="10.29492">
    <name>TP366</name>
  </trkpt>
  <trkpt lat="47.14129" lon="10.2948">
    <name>TP367</name>
  </trkpt>
  <trkpt lat="47.14122" lon="10.29448">
    <name>TP368</name>
  </trkpt>
  <trkpt lat="47.14107" lon="10.2939">
    <name>TP369</name>
  </trkpt>
  <trkpt lat="47.14099" lon="10.2936">
    <name>TP370</name>
  </trkpt>
  <trkpt lat="47.14098" lon="10.29357">
    <name>TP371</name>
  </trkpt>
  <trkpt lat="47.14096" lon="10.29351">
    <name>TP372</name>
  </trkpt>
  <trkpt lat="47.14094" lon="10.29344">
    <name>TP373</name>
  </trkpt>
  <trkpt lat="47.14091" lon="10.29324">
    <name>TP374</name>
  </trkpt>
  <trkpt lat="47.14084" lon="10.29295">
    <name>TP375</name>
  </trkpt>
  <trkpt lat="47.14079" lon="10.29272">
    <name>TP376</name>
  </trkpt>
  <trkpt lat="47.14073" lon="10.29244">
    <name>TP377</name>
  </trkpt>
  <trkpt lat="47.14068" lon="10.29217">
    <name>TP378</name>
  </trkpt>
  <trkpt lat="47.1406" lon="10.29169">
    <name>TP379</name>
  </trkpt>
  <trkpt lat="47.14059" lon="10.2916">
    <name>TP380</name>
  </trkpt>
  <trkpt lat="47.14054" lon="10.29128">
    <name>TP381</name>
  </trkpt>
  <trkpt lat="47.14053" lon="10.29122">
    <name>TP382</name>
  </trkpt>
  <trkpt lat="47.14046" lon="10.29086">
    <name>TP383</name>
  </trkpt>
  <trkpt lat="47.1404" lon="10.29059">
    <name>TP384</name>
  </trkpt>
  <trkpt lat="47.14033" lon="10.29027">
    <name>TP385</name>
  </trkpt>
  <trkpt lat="47.14025" lon="10.28998">
    <name>TP386</name>
  </trkpt>
  <trkpt lat="47.14021" lon="10.28981">
    <name>TP387</name>
  </trkpt>
  <trkpt lat="47.1402" lon="10.28978">
    <name>TP388</name>
  </trkpt>
  <trkpt lat="47.14012" lon="10.28954">
    <name>TP389</name>
  </trkpt>
  <trkpt lat="47.14" lon="10.28917">
    <name>TP390</name>
  </trkpt>
  <trkpt lat="47.13997" lon="10.28911">
    <name>TP391</name>
  </trkpt>
  <trkpt lat="47.13989" lon="10.28886">
    <name>TP392</name>
  </trkpt>
  <trkpt lat="47.13986" lon="10.28877">
    <name>TP393</name>
  </trkpt>
  <trkpt lat="47.13971" lon="10.28829">
    <name>TP394</name>
  </trkpt>
  <trkpt lat="47.13963" lon="10.28802">
    <name>TP395</name>
  </trkpt>
  <trkpt lat="47.13955" lon="10.28769">
    <name>TP396</name>
  </trkpt>
  <trkpt lat="47.13931" lon="10.28696">
    <name>TP397</name>
  </trkpt>
  <trkpt lat="47.1392" lon="10.28655">
    <name>TP398</name>
  </trkpt>
  <trkpt lat="47.13917" lon="10.28648">
    <name>TP399</name>
  </trkpt>
  <trkpt lat="47.13898" lon="10.2858">
    <name>TP400</name>
  </trkpt>
  <trkpt lat="47.13875" lon="10.28503">
    <name>TP401</name>
  </trkpt>
  <trkpt lat="47.13874" lon="10.28501">
    <name>TP402</name>
  </trkpt>
  <trkpt lat="47.13871" lon="10.28494">
    <name>TP403</name>
  </trkpt>
  <trkpt lat="47.13868" lon="10.28486">
    <name>TP404</name>
  </trkpt>
  <trkpt lat="47.13865" lon="10.28478">
    <name>TP405</name>
  </trkpt>
  <trkpt lat="47.1386" lon="10.2847">
    <name>TP406</name>
  </trkpt>
  <trkpt lat="47.13855" lon="10.28461">
    <name>TP407</name>
  </trkpt>
  <trkpt lat="47.13846" lon="10.28447">
    <name>TP408</name>
  </trkpt>
  <trkpt lat="47.13837" lon="10.28437">
    <name>TP409</name>
  </trkpt>
  <trkpt lat="47.13832" lon="10.28431">
    <name>TP410</name>
  </trkpt>
  <trkpt lat="47.13827" lon="10.28426">
    <name>TP411</name>
  </trkpt>
  <trkpt lat="47.13813" lon="10.2841">
    <name>TP412</name>
  </trkpt>
  <trkpt lat="47.13802" lon="10.28396">
    <name>TP413</name>
  </trkpt>
  <trkpt lat="47.13792" lon="10.28375">
    <name>TP414</name>
  </trkpt>
  <trkpt lat="47.13789" lon="10.2837">
    <name>TP415</name>
  </trkpt>
  <trkpt lat="47.13781" lon="10.28354">
    <name>TP416</name>
  </trkpt>
  <trkpt lat="47.13772" lon="10.28334">
    <name>TP417</name>
  </trkpt>
  <trkpt lat="47.13765" lon="10.28322">
    <name>TP418</name>
  </trkpt>
  <trkpt lat="47.13759" lon="10.28314">
    <name>TP419</name>
  </trkpt>
  <trkpt lat="47.13759" lon="10.28313">
    <name>TP420</name>
  </trkpt>
  <trkpt lat="47.13756" lon="10.28309">
    <name>TP421</name>
  </trkpt>
  <trkpt lat="47.13751" lon="10.28303">
    <name>TP422</name>
  </trkpt>
  <trkpt lat="47.13745" lon="10.28296">
    <name>TP423</name>
  </trkpt>
  <trkpt lat="47.13738" lon="10.28291">
    <name>TP424</name>
  </trkpt>
  <trkpt lat="47.13732" lon="10.28286">
    <name>TP425</name>
  </trkpt>
  <trkpt lat="47.13722" lon="10.2828">
    <name>TP426</name>
  </trkpt>
  <trkpt lat="47.13706" lon="10.28276">
    <name>TP427</name>
  </trkpt>
  <trkpt lat="47.13693" lon="10.28273">
    <name>TP428</name>
  </trkpt>
  <trkpt lat="47.13676" lon="10.28269">
    <name>TP429</name>
  </trkpt>
  <trkpt lat="47.13665" lon="10.28267">
    <name>TP430</name>
  </trkpt>
  <trkpt lat="47.13645" lon="10.28263">
    <name>TP431</name>
  </trkpt>
  <trkpt lat="47.13625" lon="10.2826">
    <name>TP432</name>
  </trkpt>
  <trkpt lat="47.13618" lon="10.28258">
    <name>TP433</name>
  </trkpt>
  <trkpt lat="47.13615" lon="10.28257">
    <name>TP434</name>
  </trkpt>
  <trkpt lat="47.13605" lon="10.28251">
    <name>TP435</name>
  </trkpt>
  <trkpt lat="47.13601" lon="10.28248">
    <name>TP436</name>
  </trkpt>
  <trkpt lat="47.13596" lon="10.28245">
    <name>TP437</name>
  </trkpt>
  <trkpt lat="47.1359" lon="10.28239">
    <name>TP438</name>
  </trkpt>
  <trkpt lat="47.13586" lon="10.28236">
    <name>TP439</name>
  </trkpt>
  <trkpt lat="47.13578" lon="10.28226">
    <name>TP440</name>
  </trkpt>
  <trkpt lat="47.13572" lon="10.28218">
    <name>TP441</name>
  </trkpt>
  <trkpt lat="47.13563" lon="10.28204">
    <name>TP442</name>
  </trkpt>
  <trkpt lat="47.13555" lon="10.28186">
    <name>TP443</name>
  </trkpt>
  <trkpt lat="47.13549" lon="10.28172">
    <name>TP444</name>
  </trkpt>
  <trkpt lat="47.13541" lon="10.28145">
    <name>TP445</name>
  </trkpt>
  <trkpt lat="47.13538" lon="10.28128">
    <name>TP446</name>
  </trkpt>
  <trkpt lat="47.13536" lon="10.28115">
    <name>TP447</name>
  </trkpt>
  <trkpt lat="47.13534" lon="10.28096">
    <name>TP448</name>
  </trkpt>
  <trkpt lat="47.13534" lon="10.28085">
    <name>TP449</name>
  </trkpt>
  <trkpt lat="47.13535" lon="10.28064">
    <name>TP450</name>
  </trkpt>
  <trkpt lat="47.13537" lon="10.28025">
    <name>TP451</name>
  </trkpt>
  <trkpt lat="47.13549" lon="10.27906">
    <name>TP452</name>
  </trkpt>
  <trkpt lat="47.13552" lon="10.27899">
    <name>TP453</name>
  </trkpt>
  <trkpt lat="47.13554" lon="10.27873">
    <name>TP454</name>
  </trkpt>
  <trkpt lat="47.13555" lon="10.27855">
    <name>TP455</name>
  </trkpt>
  <trkpt lat="47.13557" lon="10.27832">
    <name>TP456</name>
  </trkpt>
  <trkpt lat="47.13558" lon="10.278">
    <name>TP457</name>
  </trkpt>
  <trkpt lat="47.13557" lon="10.27773">
    <name>TP458</name>
  </trkpt>
  <trkpt lat="47.13556" lon="10.27755">
    <name>TP459</name>
  </trkpt>
  <trkpt lat="47.13552" lon="10.27726">
    <name>TP460</name>
  </trkpt>
  <trkpt lat="47.13549" lon="10.27705">
    <name>TP461</name>
  </trkpt>
  <trkpt lat="47.13542" lon="10.27675">
    <name>TP462</name>
  </trkpt>
  <trkpt lat="47.13534" lon="10.27646">
    <name>TP463</name>
  </trkpt>
  <trkpt lat="47.13525" lon="10.27622">
    <name>TP464</name>
  </trkpt>
  <trkpt lat="47.13518" lon="10.27605">
    <name>TP465</name>
  </trkpt>
  <trkpt lat="47.13509" lon="10.27587">
    <name>TP466</name>
  </trkpt>
  <trkpt lat="47.13498" lon="10.27567">
    <name>TP467</name>
  </trkpt>
  <trkpt lat="47.13484" lon="10.27547">
    <name>TP468</name>
  </trkpt>
  <trkpt lat="47.13474" lon="10.27533">
    <name>TP469</name>
  </trkpt>
  <trkpt lat="47.13467" lon="10.2753">
    <name>TP470</name>
  </trkpt>
  <trkpt lat="47.13465" lon="10.2753">
    <name>TP471</name>
  </trkpt>
  <trkpt lat="47.13455" lon="10.27519">
    <name>TP472</name>
  </trkpt>
  <trkpt lat="47.13451" lon="10.27515">
    <name>TP473</name>
  </trkpt>
  <trkpt lat="47.13443" lon="10.27508">
    <name>TP474</name>
  </trkpt>
  <trkpt lat="47.13419" lon="10.27491">
    <name>TP475</name>
  </trkpt>
  <trkpt lat="47.13418" lon="10.27491">
    <name>TP476</name>
  </trkpt>
  <trkpt lat="47.1338" lon="10.27469">
    <name>TP477</name>
  </trkpt>
  <trkpt lat="47.13374" lon="10.27466">
    <name>TP478</name>
  </trkpt>
  <trkpt lat="47.13351" lon="10.27451">
    <name>TP479</name>
  </trkpt>
  <trkpt lat="47.13347" lon="10.27449">
    <name>TP480</name>
  </trkpt>
  <trkpt lat="47.13331" lon="10.27439">
    <name>TP481</name>
  </trkpt>
  <trkpt lat="47.13325" lon="10.27435">
    <name>TP482</name>
  </trkpt>
  <trkpt lat="47.13322" lon="10.27433">
    <name>TP483</name>
  </trkpt>
  <trkpt lat="47.13301" lon="10.2742">
    <name>TP484</name>
  </trkpt>
  <trkpt lat="47.13273" lon="10.27401">
    <name>TP485</name>
  </trkpt>
  <trkpt lat="47.13257" lon="10.27387">
    <name>TP486</name>
  </trkpt>
  <trkpt lat="47.13247" lon="10.27377">
    <name>TP487</name>
  </trkpt>
  <trkpt lat="47.13231" lon="10.27362">
    <name>TP488</name>
  </trkpt>
  <trkpt lat="47.13215" lon="10.27345">
    <name>TP489</name>
  </trkpt>
  <trkpt lat="47.13206" lon="10.27334">
    <name>TP490</name>
  </trkpt>
  <trkpt lat="47.13185" lon="10.27307">
    <name>TP491</name>
  </trkpt>
  <trkpt lat="47.13173" lon="10.2729">
    <name>TP492</name>
  </trkpt>
  <trkpt lat="47.13167" lon="10.27281">
    <name>TP493</name>
  </trkpt>
  <trkpt lat="47.13166" lon="10.27278">
    <name>TP494</name>
  </trkpt>
  <trkpt lat="47.13158" lon="10.27255">
    <name>TP495</name>
  </trkpt>
  <trkpt lat="47.13158" lon="10.27253">
    <name>TP496</name>
  </trkpt>
  <trkpt lat="47.13158" lon="10.27251">
    <name>TP497</name>
  </trkpt>
  <trkpt lat="47.13158" lon="10.2725">
    <name>TP498</name>
  </trkpt>
  <trkpt lat="47.13158" lon="10.27248">
    <name>TP499</name>
  </trkpt>
  <trkpt lat="47.13158" lon="10.27247">
    <name>TP500</name>
  </trkpt>
  <trkpt lat="47.13158" lon="10.27245">
    <name>TP501</name>
  </trkpt>
  <trkpt lat="47.13158" lon="10.27244">
    <name>TP502</name>
  </trkpt>
  <trkpt lat="47.13157" lon="10.27242">
    <name>TP503</name>
  </trkpt>
  <trkpt lat="47.13157" lon="10.27241">
    <name>TP504</name>
  </trkpt>
  <trkpt lat="47.13156" lon="10.27239">
    <name>TP505</name>
  </trkpt>
  <trkpt lat="47.13156" lon="10.27238">
    <name>TP506</name>
  </trkpt>
  <trkpt lat="47.13155" lon="10.27237">
    <name>TP507</name>
  </trkpt>
  <trkpt lat="47.13155" lon="10.27236">
    <name>TP508</name>
  </trkpt>
  <trkpt lat="47.13154" lon="10.27235">
    <name>TP509</name>
  </trkpt>
  <trkpt lat="47.13153" lon="10.27234">
    <name>TP510</name>
  </trkpt>
  <trkpt lat="47.13152" lon="10.27233">
    <name>TP511</name>
  </trkpt>
  <trkpt lat="47.13151" lon="10.27232">
    <name>TP512</name>
  </trkpt>
  <trkpt lat="47.13151" lon="10.27231">
    <name>TP513</name>
  </trkpt>
  <trkpt lat="47.1315" lon="10.2723">
    <name>TP514</name>
  </trkpt>
  <trkpt lat="47.13149" lon="10.2723">
    <name>TP515</name>
  </trkpt>
  <trkpt lat="47.13148" lon="10.27229">
    <name>TP516</name>
  </trkpt>
  <trkpt lat="47.13147" lon="10.27229">
    <name>TP517</name>
  </trkpt>
  <trkpt lat="47.13146" lon="10.27228">
    <name>TP518</name>
  </trkpt>
  <trkpt lat="47.13145" lon="10.27228">
    <name>TP519</name>
  </trkpt>
  <trkpt lat="47.13144" lon="10.27228">
    <name>TP520</name>
  </trkpt>
  <trkpt lat="47.13142" lon="10.27228">
    <name>TP521</name>
  </trkpt>
  <trkpt lat="47.13126" lon="10.27211">
    <name>TP522</name>
  </trkpt>
  <trkpt lat="47.13121" lon="10.27198">
    <name>TP523</name>
  </trkpt>
  <trkpt lat="47.1309" lon="10.27129">
    <name>TP524</name>
  </trkpt>
  <trkpt lat="47.13069" lon="10.27086">
    <name>TP525</name>
  </trkpt>
  <trkpt lat="47.13069" lon="10.27085">
    <name>TP526</name>
  </trkpt>
  <trkpt lat="47.13067" lon="10.27082">
    <name>TP527</name>
  </trkpt>
  <trkpt lat="47.13027" lon="10.27">
    <name>TP528</name>
  </trkpt>
  <trkpt lat="47.13021" lon="10.26989">
    <name>TP529</name>
  </trkpt>
  <trkpt lat="47.1301" lon="10.26965">
    <name>TP530</name>
  </trkpt>
  <trkpt lat="47.12998" lon="10.26942">
    <name>TP531</name>
  </trkpt>
  <trkpt lat="47.12984" lon="10.26914">
    <name>TP532</name>
  </trkpt>
  <trkpt lat="47.1298" lon="10.26909">
    <name>TP533</name>
  </trkpt>
  <trkpt lat="47.12977" lon="10.26903">
    <name>TP534</name>
  </trkpt>
  <trkpt lat="47.12974" lon="10.26898">
    <name>TP535</name>
  </trkpt>
  <trkpt lat="47.12956" lon="10.26869">
    <name>TP536</name>
  </trkpt>
  <trkpt lat="47.12932" lon="10.2683">
    <name>TP537</name>
  </trkpt>
  <trkpt lat="47.12925" lon="10.26817">
    <name>TP538</name>
  </trkpt>
  <trkpt lat="47.12909" lon="10.26791">
    <name>TP539</name>
  </trkpt>
  <trkpt lat="47.12902" lon="10.2678">
    <name>TP540</name>
  </trkpt>
  <trkpt lat="47.12885" lon="10.26754">
    <name>TP541</name>
  </trkpt>
  <trkpt lat="47.12866" lon="10.26725">
    <name>TP542</name>
  </trkpt>
  <trkpt lat="47.12842" lon="10.2669">
    <name>TP543</name>
  </trkpt>
  <trkpt lat="47.12815" lon="10.26651">
    <name>TP544</name>
  </trkpt>
  <trkpt lat="47.12802" lon="10.26631">
    <name>TP545</name>
  </trkpt>
  <trkpt lat="47.12798" lon="10.26626">
    <name>TP546</name>
  </trkpt>
  <trkpt lat="47.12783" lon="10.26604">
    <name>TP547</name>
  </trkpt>
  <trkpt lat="47.12769" lon="10.26583">
    <name>TP548</name>
  </trkpt>
  <trkpt lat="47.1276" lon="10.26569">
    <name>TP549</name>
  </trkpt>
  <trkpt lat="47.12749" lon="10.26551">
    <name>TP550</name>
  </trkpt>
  <trkpt lat="47.12739" lon="10.26535">
    <name>TP551</name>
  </trkpt>
  <trkpt lat="47.12729" lon="10.26516">
    <name>TP552</name>
  </trkpt>
  <trkpt lat="47.12708" lon="10.26475">
    <name>TP553</name>
  </trkpt>
  <trkpt lat="47.12707" lon="10.2647">
    <name>TP554</name>
  </trkpt>
  <trkpt lat="47.12706" lon="10.26468">
    <name>TP555</name>
  </trkpt>
  <trkpt lat="47.12702" lon="10.26462">
    <name>TP556</name>
  </trkpt>
  <trkpt lat="47.12698" lon="10.26458">
    <name>TP557</name>
  </trkpt>
  <trkpt lat="47.1269" lon="10.26451">
    <name>TP558</name>
  </trkpt>
  <trkpt lat="47.126902" lon="10.2645109">
    <name>TP559</name>
  </trkpt>
  <trkpt lat="47.1269" lon="10.2645">
    <name>TP560</name>
  </trkpt>
  <trkpt lat="47.12689" lon="10.26449">
    <name>TP561</name>
  </trkpt>
  <trkpt lat="47.12689" lon="10.26448">
    <name>TP562</name>
  </trkpt>
  <trkpt lat="47.12688" lon="10.26447">
    <name>TP563</name>
  </trkpt>
  <trkpt lat="47.12688" lon="10.26446">
    <name>TP564</name>
  </trkpt>
  <trkpt lat="47.12687" lon="10.26446">
    <name>TP565</name>
  </trkpt>
  <trkpt lat="47.12686" lon="10.26444">
    <name>TP566</name>
  </trkpt>
  <trkpt lat="47.12685" lon="10.26434">
    <name>TP567</name>
  </trkpt>
  <trkpt lat="47.12684" lon="10.26427">
    <name>TP568</name>
  </trkpt>
  <trkpt lat="47.12682" lon="10.26418">
    <name>TP569</name>
  </trkpt>
  <trkpt lat="47.12681" lon="10.26414">
    <name>TP570</name>
  </trkpt>
  <trkpt lat="47.12681" lon="10.26412">
    <name>TP571</name>
  </trkpt>
  <trkpt lat="47.12676" lon="10.26396">
    <name>TP572</name>
  </trkpt>
  <trkpt lat="47.12673" lon="10.26382">
    <name>TP573</name>
  </trkpt>
  <trkpt lat="47.12673" lon="10.26377">
    <name>TP574</name>
  </trkpt>
  <trkpt lat="47.12672" lon="10.2637">
    <name>TP575</name>
  </trkpt>
  <trkpt lat="47.12672" lon="10.26364">
    <name>TP576</name>
  </trkpt>
  <trkpt lat="47.12672" lon="10.26359">
    <name>TP577</name>
  </trkpt>
  <trkpt lat="47.12674" lon="10.26353">
    <name>TP578</name>
  </trkpt>
  <trkpt lat="47.12676" lon="10.26347">
    <name>TP579</name>
  </trkpt>
  <trkpt lat="47.12679" lon="10.26343">
    <name>TP580</name>
  </trkpt>
  <trkpt lat="47.12682" lon="10.26341">
    <name>TP581</name>
  </trkpt>
  <trkpt lat="47.12685" lon="10.26339">
    <name>TP582</name>
  </trkpt>
  <trkpt lat="47.12688" lon="10.26339">
    <name>TP583</name>
  </trkpt>
  <trkpt lat="47.12691" lon="10.26339">
    <name>TP584</name>
  </trkpt>
  <trkpt lat="47.12699" lon="10.26342">
    <name>TP585</name>
  </trkpt>
  <trkpt lat="47.12702" lon="10.26345">
    <name>TP586</name>
  </trkpt>
  <trkpt lat="47.12719" lon="10.26359">
    <name>TP587</name>
  </trkpt>
  <trkpt lat="47.12723" lon="10.26361">
    <name>TP588</name>
  </trkpt>
  <trkpt lat="47.12726" lon="10.26363">
    <name>TP589</name>
  </trkpt>
  <trkpt lat="47.12729" lon="10.26364">
    <name>TP590</name>
  </trkpt>
  <trkpt lat="47.1272923" lon="10.2636354">
    <name>TP591</name>
  </trkpt>
  <trkpt lat="47.1273" lon="10.26365">
    <name>TP592</name>
  </trkpt>
  <trkpt lat="47.1273" lon="10.26366">
    <name>TP593</name>
  </trkpt>
  <trkpt lat="47.1273" lon="10.26367">
    <name>TP594</name>
  </trkpt>
  <trkpt lat="47.12731" lon="10.26368">
    <name>TP595</name>
  </trkpt>
  <trkpt lat="47.12731" lon="10.26369">
    <name>TP596</name>
  </trkpt>
  <trkpt lat="47.12732" lon="10.2637">
    <name>TP597</name>
  </trkpt>
  <trkpt lat="47.12732" lon="10.26371">
    <name>TP598</name>
  </trkpt>
  <trkpt lat="47.12733" lon="10.26371">
    <name>TP599</name>
  </trkpt>
  <trkpt lat="47.12733" lon="10.26372">
    <name>TP600</name>
  </trkpt>
  <trkpt lat="47.12734" lon="10.26372">
    <name>TP601</name>
  </trkpt>
  <trkpt lat="47.12734" lon="10.26373">
    <name>TP602</name>
  </trkpt>
  <trkpt lat="47.12735" lon="10.26373">
    <name>TP603</name>
  </trkpt>
  <trkpt lat="47.12735" lon="10.26374">
    <name>TP604</name>
  </trkpt>
  <trkpt lat="47.12736" lon="10.26374">
    <name>TP605</name>
  </trkpt>
  <trkpt lat="47.12737" lon="10.26375">
    <name>TP606</name>
  </trkpt>
  <trkpt lat="47.12738" lon="10.26375">
    <name>TP607</name>
  </trkpt>
  <trkpt lat="47.12739" lon="10.26375">
    <name>TP608</name>
  </trkpt>
  <trkpt lat="47.1274" lon="10.26375">
    <name>TP609</name>
  </trkpt>
  <trkpt lat="47.12741" lon="10.26375">
    <name>TP610</name>
  </trkpt>
  <trkpt lat="47.12742" lon="10.26375">
    <name>TP611</name>
  </trkpt>
  <trkpt lat="47.12743" lon="10.26375">
    <name>TP612</name>
  </trkpt>
  <trkpt lat="47.12744" lon="10.26375">
    <name>TP613</name>
  </trkpt>
  <trkpt lat="47.12744" lon="10.26374">
    <name>TP614</name>
  </trkpt>
  <trkpt lat="47.12745" lon="10.26374">
    <name>TP615</name>
  </trkpt>
  <trkpt lat="47.12746" lon="10.26373">
    <name>TP616</name>
  </trkpt>
  <trkpt lat="47.12747" lon="10.26373">
    <name>TP617</name>
  </trkpt>
  <trkpt lat="47.12747" lon="10.26372">
    <name>TP618</name>
  </trkpt>
  <trkpt lat="47.12748" lon="10.26372">
    <name>TP619</name>
  </trkpt>
  <trkpt lat="47.12748" lon="10.26371">
    <name>TP620</name>
  </trkpt>
  <trkpt lat="47.12749" lon="10.2637">
    <name>TP621</name>
  </trkpt>
  <trkpt lat="47.1275" lon="10.26369">
    <name>TP622</name>
  </trkpt>
  <trkpt lat="47.1275" lon="10.26368">
    <name>TP623</name>
  </trkpt>
  <trkpt lat="47.1275" lon="10.26367">
    <name>TP624</name>
  </trkpt>
  <trkpt lat="47.12751" lon="10.26366">
    <name>TP625</name>
  </trkpt>
  <trkpt lat="47.12751" lon="10.26365">
    <name>TP626</name>
  </trkpt>
  <trkpt lat="47.12751" lon="10.26364">
    <name>TP627</name>
  </trkpt>
  <trkpt lat="47.12751" lon="10.26363">
    <name>TP628</name>
  </trkpt>
  <trkpt lat="47.12752" lon="10.26362">
    <name>TP629</name>
  </trkpt>
  <trkpt lat="47.12752" lon="10.26361">
    <name>TP630</name>
  </trkpt>
  <trkpt lat="47.12752" lon="10.2636">
    <name>TP631</name>
  </trkpt>
  <trkpt lat="47.12752" lon="10.26359">
    <name>TP632</name>
  </trkpt>
  <trkpt lat="47.12751" lon="10.26358">
    <name>TP633</name>
  </trkpt>
  <trkpt lat="47.12751" lon="10.26357">
    <name>TP634</name>
  </trkpt>
  <trkpt lat="47.12751" lon="10.26356">
    <name>TP635</name>
  </trkpt>
  <trkpt lat="47.12751" lon="10.26355">
    <name>TP636</name>
  </trkpt>
  <trkpt lat="47.12751" lon="10.26354">
    <name>TP637</name>
  </trkpt>
  <trkpt lat="47.1275" lon="10.26353">
    <name>TP638</name>
  </trkpt>
  <trkpt lat="47.1275" lon="10.26352">
    <name>TP639</name>
  </trkpt>
  <trkpt lat="47.12749" lon="10.26351">
    <name>TP640</name>
  </trkpt>
  <trkpt lat="47.12749" lon="10.2635">
    <name>TP641</name>
  </trkpt>
  <trkpt lat="47.12748" lon="10.2635">
    <name>TP642</name>
  </trkpt>
  <trkpt lat="47.12748" lon="10.26349">
    <name>TP643</name>
  </trkpt>
  <trkpt lat="47.12747" lon="10.26348">
    <name>TP644</name>
  </trkpt>
  <trkpt lat="47.12746" lon="10.26348">
    <name>TP645</name>
  </trkpt>
  <trkpt lat="47.12746" lon="10.26347">
    <name>TP646</name>
  </trkpt>
  <trkpt lat="47.12745" lon="10.26347">
    <name>TP647</name>
  </trkpt>
  <trkpt lat="47.12745" lon="10.26346">
    <name>TP648</name>
  </trkpt>
  <trkpt lat="47.12744" lon="10.26346">
    <name>TP649</name>
  </trkpt>
  <trkpt lat="47.12743" lon="10.26345">
    <name>TP650</name>
  </trkpt>
  <trkpt lat="47.12742" lon="10.26345">
    <name>TP651</name>
  </trkpt>
  <trkpt lat="47.12741" lon="10.26345">
    <name>TP652</name>
  </trkpt>
  <trkpt lat="47.1274" lon="10.26334">
    <name>TP653</name>
  </trkpt>
  <trkpt lat="47.1273954" lon="10.2633398">
    <name>TP654</name>
  </trkpt>
  <trkpt lat="47.1273954" lon="10.2633398">
    <name>TP655</name>
  </trkpt>
  <trkpt lat="47.1273954" lon="10.2633398">
    <name>TP656</name>
  </trkpt>
  </trkseg>
</trk>
</gpx>