<?xml version="1.0" encoding="UTF-8" standalone="no" ?>
<gpx xmlns="http://www.topografix.com/GPX/1/1" xmlns:gpxx="http://www.garmin.com/xmlschemas/GpxExtensions/v3" xmlns:gpxtpx="http://www.garmin.com/xmlschemas/TrackPointExtension/v1" creator="mapstogpx.com" version="1.1" xmlns:xsi="http://www.w3.org/2001/XMLSchema-instance" xsi:schemaLocation="http://www.topografix.com/GPX/1/1 http://www.topografix.com/GPX/1/1/gpx.xsd http://www.garmin.com/xmlschemas/GpxExtensions/v3 http://www.garmin.com/xmlschemas/GpxExtensionsv3.xsd http://www.garmin.com/xmlschemas/TrackPointExtension/v1 http://www.garmin.com/xmlschemas/TrackPointExtensionv1.xsd">
  <metadata>
    <link href="http://www.mapstogpx.com">
      <text>Sverrir Sigmundarson</text>
    </link>
    <!--desc>Map data ©2024 Google</desc-->
    <!--copyright author="Google Inc">
    	<year>2024</year>
    	<license>https://developers.google.com/maps/terms</license>
    </copyright-->
    <!--url>https://www.google.com/maps/dir/37.6518838,-119.0361274/37.6524962,-119.0352952/Shady+Rst+Pk+Rd,+Mammoth+Lakes,+CA+93546,+USA/@37.6514825,-119.0342642,12438m/data=!3m2!1e3!4b1!4m10!4m9!1m0!1m0!1m5!1m1!1s0x80960e7f288c921f:0x2a7f0267c59870b8!2m2!1d-118.9500321!2d37.6537675!3e0!5m1!1e1?entry=tts&g_ep=EgoyMDI0MTEwNi4wKgBIAVAD&hl=en</url-->
    <time>2024-11-09T13:00:28Z</time>
  </metadata>
  <wpt lat="37.6518838" lon="-119.0361274">
    <name>Mammoth Lakes</name>
    <desc>CA-203, Mammoth Lakes, CA 93546, USA</desc>
  </wpt>
  <wpt lat="37.6524962" lon="-119.0352952">
    <name>Mammoth Lakes</name>
    <desc>CA-203, Mammoth Lakes, CA 93546, USA</desc>
  </wpt>
  <wpt lat="37.6537675" lon="-118.9500321">
    <name>Shady Rst Pk Rd</name>
    <desc>Shady Rst Pk Rd, Mammoth Lakes, CA 93546, USA</desc>
  </wpt>
<trk>
  <name>Mammoth Lakes to Shady Rst Pk Rd</name>
  <number>1</number>
  <trkseg>
  <trkpt lat="37.6518645" lon="-119.0360972">
    <name>TP001</name>
  </trkpt>
  <trkpt lat="37.652" lon="-119.03596">
    <name>TP002</name>
  </trkpt>
  <trkpt lat="37.65205" lon="-119.03591">
    <name>TP003</name>
  </trkpt>
  <trkpt lat="37.65208" lon="-119.03588">
    <name>TP004</name>
  </trkpt>
  <trkpt lat="37.65214" lon="-119.03581">
    <name>TP005</name>
  </trkpt>
  <trkpt lat="37.6522" lon="-119.03575">
    <name>TP006</name>
  </trkpt>
  <trkpt lat="37.65232" lon="-119.03564">
    <name>TP007</name>
  </trkpt>
  <trkpt lat="37.65242" lon="-119.03554">
    <name>TP008</name>
  </trkpt>
  <trkpt lat="37.65256" lon="-119.03541">
    <name>TP009</name>
  </trkpt>
  <trkpt lat="37.6525642" lon="-119.0354073">
    <name>TP010</name>
  </trkpt>
  <trkpt lat="37.6525642" lon="-119.0354073">
    <name>TP011</name>
  </trkpt>
  <trkpt lat="37.65272" lon="-119.03526">
    <name>TP012</name>
  </trkpt>
  <trkpt lat="37.6528" lon="-119.03519">
    <name>TP013</name>
  </trkpt>
  <trkpt lat="37.65283" lon="-119.03516">
    <name>TP014</name>
  </trkpt>
  <trkpt lat="37.65286" lon="-119.03513">
    <name>TP015</name>
  </trkpt>
  <trkpt lat="37.65296" lon="-119.03503">
    <name>TP016</name>
  </trkpt>
  <trkpt lat="37.6531" lon="-119.03491">
    <name>TP017</name>
  </trkpt>
  <trkpt lat="37.65321" lon="-119.0348">
    <name>TP018</name>
  </trkpt>
  <trkpt lat="37.65337" lon="-119.03465">
    <name>TP019</name>
  </trkpt>
  <trkpt lat="37.65348" lon="-119.03455">
    <name>TP020</name>
  </trkpt>
  <trkpt lat="37.65359" lon="-119.03442">
    <name>TP021</name>
  </trkpt>
  <trkpt lat="37.65372" lon="-119.03427">
    <name>TP022</name>
  </trkpt>
  <trkpt lat="37.65379" lon="-119.03417">
    <name>TP023</name>
  </trkpt>
  <trkpt lat="37.65382" lon="-119.03411">
    <name>TP024</name>
  </trkpt>
  <trkpt lat="37.65384" lon="-119.03407">
    <name>TP025</name>
  </trkpt>
  <trkpt lat="37.65387" lon="-119.034">
    <name>TP026</name>
  </trkpt>
  <trkpt lat="37.6539" lon="-119.03395">
    <name>TP027</name>
  </trkpt>
  <trkpt lat="37.65396" lon="-119.03381">
    <name>TP028</name>
  </trkpt>
  <trkpt lat="37.65401" lon="-119.03368">
    <name>TP029</name>
  </trkpt>
  <trkpt lat="37.6541" lon="-119.03338">
    <name>TP030</name>
  </trkpt>
  <trkpt lat="37.65424" lon="-119.03293">
    <name>TP031</name>
  </trkpt>
  <trkpt lat="37.65426" lon="-119.03286">
    <name>TP032</name>
  </trkpt>
  <trkpt lat="37.65428" lon="-119.0328">
    <name>TP033</name>
  </trkpt>
  <trkpt lat="37.65429" lon="-119.03275">
    <name>TP034</name>
  </trkpt>
  <trkpt lat="37.65434" lon="-119.0326">
    <name>TP035</name>
  </trkpt>
  <trkpt lat="37.65441" lon="-119.03237">
    <name>TP036</name>
  </trkpt>
  <trkpt lat="37.65442" lon="-119.03232">
    <name>TP037</name>
  </trkpt>
  <trkpt lat="37.65444" lon="-119.03226">
    <name>TP038</name>
  </trkpt>
  <trkpt lat="37.65462" lon="-119.03165">
    <name>TP039</name>
  </trkpt>
  <trkpt lat="37.65468" lon="-119.03141">
    <name>TP040</name>
  </trkpt>
  <trkpt lat="37.65471" lon="-119.03122">
    <name>TP041</name>
  </trkpt>
  <trkpt lat="37.65473" lon="-119.03109">
    <name>TP042</name>
  </trkpt>
  <trkpt lat="37.65474" lon="-119.03096">
    <name>TP043</name>
  </trkpt>
  <trkpt lat="37.65474" lon="-119.0309">
    <name>TP044</name>
  </trkpt>
  <trkpt lat="37.65474" lon="-119.03081">
    <name>TP045</name>
  </trkpt>
  <trkpt lat="37.65474" lon="-119.03069">
    <name>TP046</name>
  </trkpt>
  <trkpt lat="37.65472" lon="-119.03053">
    <name>TP047</name>
  </trkpt>
  <trkpt lat="37.6547" lon="-119.03038">
    <name>TP048</name>
  </trkpt>
  <trkpt lat="37.65467" lon="-119.03027">
    <name>TP049</name>
  </trkpt>
  <trkpt lat="37.65464" lon="-119.03011">
    <name>TP050</name>
  </trkpt>
  <trkpt lat="37.65461" lon="-119.03001">
    <name>TP051</name>
  </trkpt>
  <trkpt lat="37.65459" lon="-119.0299">
    <name>TP052</name>
  </trkpt>
  <trkpt lat="37.65456" lon="-119.02979">
    <name>TP053</name>
  </trkpt>
  <trkpt lat="37.65454" lon="-119.02971">
    <name>TP054</name>
  </trkpt>
  <trkpt lat="37.65448" lon="-119.02948">
    <name>TP055</name>
  </trkpt>
  <trkpt lat="37.65445" lon="-119.02938">
    <name>TP056</name>
  </trkpt>
  <trkpt lat="37.6544" lon="-119.02925">
    <name>TP057</name>
  </trkpt>
  <trkpt lat="37.65435" lon="-119.02911">
    <name>TP058</name>
  </trkpt>
  <trkpt lat="37.65427" lon="-119.02895">
    <name>TP059</name>
  </trkpt>
  <trkpt lat="37.6542" lon="-119.02884">
    <name>TP060</name>
  </trkpt>
  <trkpt lat="37.65416" lon="-119.02879">
    <name>TP061</name>
  </trkpt>
  <trkpt lat="37.65415" lon="-119.02877">
    <name>TP062</name>
  </trkpt>
  <trkpt lat="37.65404" lon="-119.02864">
    <name>TP063</name>
  </trkpt>
  <trkpt lat="37.65389" lon="-119.0285">
    <name>TP064</name>
  </trkpt>
  <trkpt lat="37.65373" lon="-119.02837">
    <name>TP065</name>
  </trkpt>
  <trkpt lat="37.65334" lon="-119.0281">
    <name>TP066</name>
  </trkpt>
  <trkpt lat="37.65318" lon="-119.02799">
    <name>TP067</name>
  </trkpt>
  <trkpt lat="37.65311" lon="-119.02793">
    <name>TP068</name>
  </trkpt>
  <trkpt lat="37.65304" lon="-119.02786">
    <name>TP069</name>
  </trkpt>
  <trkpt lat="37.65296" lon="-119.0278">
    <name>TP070</name>
  </trkpt>
  <trkpt lat="37.65291" lon="-119.02775">
    <name>TP071</name>
  </trkpt>
  <trkpt lat="37.65281" lon="-119.02767">
    <name>TP072</name>
  </trkpt>
  <trkpt lat="37.6527" lon="-119.02755">
    <name>TP073</name>
  </trkpt>
  <trkpt lat="37.65268" lon="-119.02752">
    <name>TP074</name>
  </trkpt>
  <trkpt lat="37.65262" lon="-119.02747">
    <name>TP075</name>
  </trkpt>
  <trkpt lat="37.65249" lon="-119.02731">
    <name>TP076</name>
  </trkpt>
  <trkpt lat="37.65242" lon="-119.02721">
    <name>TP077</name>
  </trkpt>
  <trkpt lat="37.65237" lon="-119.02715">
    <name>TP078</name>
  </trkpt>
  <trkpt lat="37.6523" lon="-119.02703">
    <name>TP079</name>
  </trkpt>
  <trkpt lat="37.65228" lon="-119.02699">
    <name>TP080</name>
  </trkpt>
  <trkpt lat="37.6522" lon="-119.02685">
    <name>TP081</name>
  </trkpt>
  <trkpt lat="37.65219" lon="-119.02683">
    <name>TP082</name>
  </trkpt>
  <trkpt lat="37.65211" lon="-119.02665">
    <name>TP083</name>
  </trkpt>
  <trkpt lat="37.6521" lon="-119.02665">
    <name>TP084</name>
  </trkpt>
  <trkpt lat="37.65205" lon="-119.02652">
    <name>TP085</name>
  </trkpt>
  <trkpt lat="37.65198" lon="-119.02633">
    <name>TP086</name>
  </trkpt>
  <trkpt lat="37.65187" lon="-119.026">
    <name>TP087</name>
  </trkpt>
  <trkpt lat="37.65183" lon="-119.02586">
    <name>TP088</name>
  </trkpt>
  <trkpt lat="37.6518" lon="-119.02579">
    <name>TP089</name>
  </trkpt>
  <trkpt lat="37.65176" lon="-119.02567">
    <name>TP090</name>
  </trkpt>
  <trkpt lat="37.65173" lon="-119.02558">
    <name>TP091</name>
  </trkpt>
  <trkpt lat="37.6517" lon="-119.02548">
    <name>TP092</name>
  </trkpt>
  <trkpt lat="37.65166" lon="-119.02537">
    <name>TP093</name>
  </trkpt>
  <trkpt lat="37.65166" lon="-119.02536">
    <name>TP094</name>
  </trkpt>
  <trkpt lat="37.65158" lon="-119.02518">
    <name>TP095</name>
  </trkpt>
  <trkpt lat="37.65158" lon="-119.02517">
    <name>TP096</name>
  </trkpt>
  <trkpt lat="37.65151" lon="-119.02503">
    <name>TP097</name>
  </trkpt>
  <trkpt lat="37.65148" lon="-119.02497">
    <name>TP098</name>
  </trkpt>
  <trkpt lat="37.65146" lon="-119.02492">
    <name>TP099</name>
  </trkpt>
  <trkpt lat="37.65137" lon="-119.02475">
    <name>TP100</name>
  </trkpt>
  <trkpt lat="37.65117" lon="-119.02442">
    <name>TP101</name>
  </trkpt>
  <trkpt lat="37.65109" lon="-119.02428">
    <name>TP102</name>
  </trkpt>
  <trkpt lat="37.65105" lon="-119.02421">
    <name>TP103</name>
  </trkpt>
  <trkpt lat="37.65096" lon="-119.02405">
    <name>TP104</name>
  </trkpt>
  <trkpt lat="37.65094" lon="-119.02402">
    <name>TP105</name>
  </trkpt>
  <trkpt lat="37.65089" lon="-119.02392">
    <name>TP106</name>
  </trkpt>
  <trkpt lat="37.65084" lon="-119.02384">
    <name>TP107</name>
  </trkpt>
  <trkpt lat="37.65081" lon="-119.02379">
    <name>TP108</name>
  </trkpt>
  <trkpt lat="37.65068" lon="-119.02356">
    <name>TP109</name>
  </trkpt>
  <trkpt lat="37.6506" lon="-119.02343">
    <name>TP110</name>
  </trkpt>
  <trkpt lat="37.65054" lon="-119.02331">
    <name>TP111</name>
  </trkpt>
  <trkpt lat="37.65052" lon="-119.02329">
    <name>TP112</name>
  </trkpt>
  <trkpt lat="37.65047" lon="-119.02319">
    <name>TP113</name>
  </trkpt>
  <trkpt lat="37.65035" lon="-119.02299">
    <name>TP114</name>
  </trkpt>
  <trkpt lat="37.65033" lon="-119.02295">
    <name>TP115</name>
  </trkpt>
  <trkpt lat="37.65023" lon="-119.02278">
    <name>TP116</name>
  </trkpt>
  <trkpt lat="37.65021" lon="-119.02274">
    <name>TP117</name>
  </trkpt>
  <trkpt lat="37.65014" lon="-119.02261">
    <name>TP118</name>
  </trkpt>
  <trkpt lat="37.65012" lon="-119.02257">
    <name>TP119</name>
  </trkpt>
  <trkpt lat="37.65009" lon="-119.02251">
    <name>TP120</name>
  </trkpt>
  <trkpt lat="37.65004" lon="-119.02238">
    <name>TP121</name>
  </trkpt>
  <trkpt lat="37.64998" lon="-119.02223">
    <name>TP122</name>
  </trkpt>
  <trkpt lat="37.64996" lon="-119.02217">
    <name>TP123</name>
  </trkpt>
  <trkpt lat="37.64996" lon="-119.02214">
    <name>TP124</name>
  </trkpt>
  <trkpt lat="37.64994" lon="-119.02208">
    <name>TP125</name>
  </trkpt>
  <trkpt lat="37.64991" lon="-119.02195">
    <name>TP126</name>
  </trkpt>
  <trkpt lat="37.6499" lon="-119.02193">
    <name>TP127</name>
  </trkpt>
  <trkpt lat="37.64985" lon="-119.02157">
    <name>TP128</name>
  </trkpt>
  <trkpt lat="37.64983" lon="-119.0214">
    <name>TP129</name>
  </trkpt>
  <trkpt lat="37.64982" lon="-119.02128">
    <name>TP130</name>
  </trkpt>
  <trkpt lat="37.64982" lon="-119.02125">
    <name>TP131</name>
  </trkpt>
  <trkpt lat="37.64981" lon="-119.02118">
    <name>TP132</name>
  </trkpt>
  <trkpt lat="37.64979" lon="-119.02083">
    <name>TP133</name>
  </trkpt>
  <trkpt lat="37.64979" lon="-119.0208">
    <name>TP134</name>
  </trkpt>
  <trkpt lat="37.64978" lon="-119.02067">
    <name>TP135</name>
  </trkpt>
  <trkpt lat="37.64976" lon="-119.02037">
    <name>TP136</name>
  </trkpt>
  <trkpt lat="37.64975" lon="-119.0203">
    <name>TP137</name>
  </trkpt>
  <trkpt lat="37.64974" lon="-119.02001">
    <name>TP138</name>
  </trkpt>
  <trkpt lat="37.64972" lon="-119.01969">
    <name>TP139</name>
  </trkpt>
  <trkpt lat="37.64971" lon="-119.01967">
    <name>TP140</name>
  </trkpt>
  <trkpt lat="37.64971" lon="-119.01963">
    <name>TP141</name>
  </trkpt>
  <trkpt lat="37.6497" lon="-119.01947">
    <name>TP142</name>
  </trkpt>
  <trkpt lat="37.64969" lon="-119.01927">
    <name>TP143</name>
  </trkpt>
  <trkpt lat="37.64969" lon="-119.01924">
    <name>TP144</name>
  </trkpt>
  <trkpt lat="37.64969" lon="-119.01921">
    <name>TP145</name>
  </trkpt>
  <trkpt lat="37.64968" lon="-119.01901">
    <name>TP146</name>
  </trkpt>
  <trkpt lat="37.64968" lon="-119.01899">
    <name>TP147</name>
  </trkpt>
  <trkpt lat="37.64966" lon="-119.01856">
    <name>TP148</name>
  </trkpt>
  <trkpt lat="37.64966" lon="-119.01853">
    <name>TP149</name>
  </trkpt>
  <trkpt lat="37.64965" lon="-119.0185">
    <name>TP150</name>
  </trkpt>
  <trkpt lat="37.64962" lon="-119.01766">
    <name>TP151</name>
  </trkpt>
  <trkpt lat="37.6496" lon="-119.01694">
    <name>TP152</name>
  </trkpt>
  <trkpt lat="37.64959" lon="-119.01663">
    <name>TP153</name>
  </trkpt>
  <trkpt lat="37.64957" lon="-119.01629">
    <name>TP154</name>
  </trkpt>
  <trkpt lat="37.64954" lon="-119.01613">
    <name>TP155</name>
  </trkpt>
  <trkpt lat="37.64952" lon="-119.01601">
    <name>TP156</name>
  </trkpt>
  <trkpt lat="37.64949" lon="-119.0159">
    <name>TP157</name>
  </trkpt>
  <trkpt lat="37.64945" lon="-119.01577">
    <name>TP158</name>
  </trkpt>
  <trkpt lat="37.64941" lon="-119.01566">
    <name>TP159</name>
  </trkpt>
  <trkpt lat="37.64938" lon="-119.01558">
    <name>TP160</name>
  </trkpt>
  <trkpt lat="37.64937" lon="-119.01557">
    <name>TP161</name>
  </trkpt>
  <trkpt lat="37.64931" lon="-119.01545">
    <name>TP162</name>
  </trkpt>
  <trkpt lat="37.64926" lon="-119.01534">
    <name>TP163</name>
  </trkpt>
  <trkpt lat="37.64918" lon="-119.0152">
    <name>TP164</name>
  </trkpt>
  <trkpt lat="37.64908" lon="-119.01503">
    <name>TP165</name>
  </trkpt>
  <trkpt lat="37.64899" lon="-119.01487">
    <name>TP166</name>
  </trkpt>
  <trkpt lat="37.64891" lon="-119.01469">
    <name>TP167</name>
  </trkpt>
  <trkpt lat="37.64885" lon="-119.01455">
    <name>TP168</name>
  </trkpt>
  <trkpt lat="37.64882" lon="-119.01444">
    <name>TP169</name>
  </trkpt>
  <trkpt lat="37.64875" lon="-119.0142">
    <name>TP170</name>
  </trkpt>
  <trkpt lat="37.64874" lon="-119.01418">
    <name>TP171</name>
  </trkpt>
  <trkpt lat="37.64872" lon="-119.01407">
    <name>TP172</name>
  </trkpt>
  <trkpt lat="37.6487" lon="-119.01398">
    <name>TP173</name>
  </trkpt>
  <trkpt lat="37.64869" lon="-119.01393">
    <name>TP174</name>
  </trkpt>
  <trkpt lat="37.64866" lon="-119.01377">
    <name>TP175</name>
  </trkpt>
  <trkpt lat="37.64864" lon="-119.01356">
    <name>TP176</name>
  </trkpt>
  <trkpt lat="37.64863" lon="-119.01343">
    <name>TP177</name>
  </trkpt>
  <trkpt lat="37.64862" lon="-119.01317">
    <name>TP178</name>
  </trkpt>
  <trkpt lat="37.64863" lon="-119.01304">
    <name>TP179</name>
  </trkpt>
  <trkpt lat="37.64865" lon="-119.01286">
    <name>TP180</name>
  </trkpt>
  <trkpt lat="37.64869" lon="-119.01268">
    <name>TP181</name>
  </trkpt>
  <trkpt lat="37.64873" lon="-119.01251">
    <name>TP182</name>
  </trkpt>
  <trkpt lat="37.64876" lon="-119.01242">
    <name>TP183</name>
  </trkpt>
  <trkpt lat="37.64883" lon="-119.01223">
    <name>TP184</name>
  </trkpt>
  <trkpt lat="37.64883" lon="-119.01221">
    <name>TP185</name>
  </trkpt>
  <trkpt lat="37.6489" lon="-119.01203">
    <name>TP186</name>
  </trkpt>
  <trkpt lat="37.64899" lon="-119.01186">
    <name>TP187</name>
  </trkpt>
  <trkpt lat="37.64908" lon="-119.01172">
    <name>TP188</name>
  </trkpt>
  <trkpt lat="37.64918" lon="-119.01158">
    <name>TP189</name>
  </trkpt>
  <trkpt lat="37.64925" lon="-119.01149">
    <name>TP190</name>
  </trkpt>
  <trkpt lat="37.64942" lon="-119.01133">
    <name>TP191</name>
  </trkpt>
  <trkpt lat="37.64946" lon="-119.0113">
    <name>TP192</name>
  </trkpt>
  <trkpt lat="37.64955" lon="-119.01121">
    <name>TP193</name>
  </trkpt>
  <trkpt lat="37.64964" lon="-119.01114">
    <name>TP194</name>
  </trkpt>
  <trkpt lat="37.64982" lon="-119.01099">
    <name>TP195</name>
  </trkpt>
  <trkpt lat="37.65" lon="-119.01084">
    <name>TP196</name>
  </trkpt>
  <trkpt lat="37.65021" lon="-119.01068">
    <name>TP197</name>
  </trkpt>
  <trkpt lat="37.65035" lon="-119.01056">
    <name>TP198</name>
  </trkpt>
  <trkpt lat="37.65045" lon="-119.01048">
    <name>TP199</name>
  </trkpt>
  <trkpt lat="37.65052" lon="-119.0104">
    <name>TP200</name>
  </trkpt>
  <trkpt lat="37.65058" lon="-119.01032">
    <name>TP201</name>
  </trkpt>
  <trkpt lat="37.65063" lon="-119.01025">
    <name>TP202</name>
  </trkpt>
  <trkpt lat="37.65071" lon="-119.01011">
    <name>TP203</name>
  </trkpt>
  <trkpt lat="37.65074" lon="-119.01001">
    <name>TP204</name>
  </trkpt>
  <trkpt lat="37.65076" lon="-119.00994">
    <name>TP205</name>
  </trkpt>
  <trkpt lat="37.65079" lon="-119.00983">
    <name>TP206</name>
  </trkpt>
  <trkpt lat="37.65081" lon="-119.00972">
    <name>TP207</name>
  </trkpt>
  <trkpt lat="37.65083" lon="-119.00958">
    <name>TP208</name>
  </trkpt>
  <trkpt lat="37.65084" lon="-119.0094">
    <name>TP209</name>
  </trkpt>
  <trkpt lat="37.65084" lon="-119.00926">
    <name>TP210</name>
  </trkpt>
  <trkpt lat="37.65084" lon="-119.00923">
    <name>TP211</name>
  </trkpt>
  <trkpt lat="37.65084" lon="-119.00911">
    <name>TP212</name>
  </trkpt>
  <trkpt lat="37.65083" lon="-119.009">
    <name>TP213</name>
  </trkpt>
  <trkpt lat="37.65083" lon="-119.0089">
    <name>TP214</name>
  </trkpt>
  <trkpt lat="37.65081" lon="-119.00857">
    <name>TP215</name>
  </trkpt>
  <trkpt lat="37.65078" lon="-119.00815">
    <name>TP216</name>
  </trkpt>
  <trkpt lat="37.65077" lon="-119.008">
    <name>TP217</name>
  </trkpt>
  <trkpt lat="37.65077" lon="-119.00774">
    <name>TP218</name>
  </trkpt>
  <trkpt lat="37.65078" lon="-119.00741">
    <name>TP219</name>
  </trkpt>
  <trkpt lat="37.6508" lon="-119.00726">
    <name>TP220</name>
  </trkpt>
  <trkpt lat="37.65085" lon="-119.00704">
    <name>TP221</name>
  </trkpt>
  <trkpt lat="37.65089" lon="-119.00687">
    <name>TP222</name>
  </trkpt>
  <trkpt lat="37.65096" lon="-119.00666">
    <name>TP223</name>
  </trkpt>
  <trkpt lat="37.65103" lon="-119.00643">
    <name>TP224</name>
  </trkpt>
  <trkpt lat="37.65104" lon="-119.0064">
    <name>TP225</name>
  </trkpt>
  <trkpt lat="37.65109" lon="-119.00626">
    <name>TP226</name>
  </trkpt>
  <trkpt lat="37.65114" lon="-119.00611">
    <name>TP227</name>
  </trkpt>
  <trkpt lat="37.65118" lon="-119.00598">
    <name>TP228</name>
  </trkpt>
  <trkpt lat="37.65119" lon="-119.00594">
    <name>TP229</name>
  </trkpt>
  <trkpt lat="37.65124" lon="-119.00576">
    <name>TP230</name>
  </trkpt>
  <trkpt lat="37.65128" lon="-119.00562">
    <name>TP231</name>
  </trkpt>
  <trkpt lat="37.65128" lon="-119.00555">
    <name>TP232</name>
  </trkpt>
  <trkpt lat="37.65129" lon="-119.00545">
    <name>TP233</name>
  </trkpt>
  <trkpt lat="37.65129" lon="-119.00532">
    <name>TP234</name>
  </trkpt>
  <trkpt lat="37.65129" lon="-119.00531">
    <name>TP235</name>
  </trkpt>
  <trkpt lat="37.65128" lon="-119.00518">
    <name>TP236</name>
  </trkpt>
  <trkpt lat="37.65125" lon="-119.00504">
    <name>TP237</name>
  </trkpt>
  <trkpt lat="37.65121" lon="-119.00493">
    <name>TP238</name>
  </trkpt>
  <trkpt lat="37.65118" lon="-119.00485">
    <name>TP239</name>
  </trkpt>
  <trkpt lat="37.65113" lon="-119.00477">
    <name>TP240</name>
  </trkpt>
  <trkpt lat="37.65106" lon="-119.00466">
    <name>TP241</name>
  </trkpt>
  <trkpt lat="37.65094" lon="-119.00451">
    <name>TP242</name>
  </trkpt>
  <trkpt lat="37.65083" lon="-119.00438">
    <name>TP243</name>
  </trkpt>
  <trkpt lat="37.65072" lon="-119.00426">
    <name>TP244</name>
  </trkpt>
  <trkpt lat="37.65058" lon="-119.00409">
    <name>TP245</name>
  </trkpt>
  <trkpt lat="37.65057" lon="-119.00408">
    <name>TP246</name>
  </trkpt>
  <trkpt lat="37.65052" lon="-119.004">
    <name>TP247</name>
  </trkpt>
  <trkpt lat="37.65047" lon="-119.00393">
    <name>TP248</name>
  </trkpt>
  <trkpt lat="37.65043" lon="-119.00384">
    <name>TP249</name>
  </trkpt>
  <trkpt lat="37.6504" lon="-119.00375">
    <name>TP250</name>
  </trkpt>
  <trkpt lat="37.65037" lon="-119.00365">
    <name>TP251</name>
  </trkpt>
  <trkpt lat="37.65035" lon="-119.00352">
    <name>TP252</name>
  </trkpt>
  <trkpt lat="37.65035" lon="-119.00342">
    <name>TP253</name>
  </trkpt>
  <trkpt lat="37.65036" lon="-119.00335">
    <name>TP254</name>
  </trkpt>
  <trkpt lat="37.65039" lon="-119.0032">
    <name>TP255</name>
  </trkpt>
  <trkpt lat="37.65044" lon="-119.00303">
    <name>TP256</name>
  </trkpt>
  <trkpt lat="37.65051" lon="-119.00286">
    <name>TP257</name>
  </trkpt>
  <trkpt lat="37.6506" lon="-119.00267">
    <name>TP258</name>
  </trkpt>
  <trkpt lat="37.6507" lon="-119.0025">
    <name>TP259</name>
  </trkpt>
  <trkpt lat="37.65072" lon="-119.00246">
    <name>TP260</name>
  </trkpt>
  <trkpt lat="37.65083" lon="-119.00228">
    <name>TP261</name>
  </trkpt>
  <trkpt lat="37.65089" lon="-119.00218">
    <name>TP262</name>
  </trkpt>
  <trkpt lat="37.65114" lon="-119.00177">
    <name>TP263</name>
  </trkpt>
  <trkpt lat="37.65116" lon="-119.00174">
    <name>TP264</name>
  </trkpt>
  <trkpt lat="37.65138" lon="-119.00137">
    <name>TP265</name>
  </trkpt>
  <trkpt lat="37.65143" lon="-119.00127">
    <name>TP266</name>
  </trkpt>
  <trkpt lat="37.65145" lon="-119.00119">
    <name>TP267</name>
  </trkpt>
  <trkpt lat="37.65147" lon="-119.00113">
    <name>TP268</name>
  </trkpt>
  <trkpt lat="37.65149" lon="-119.00106">
    <name>TP269</name>
  </trkpt>
  <trkpt lat="37.6515" lon="-119.00097">
    <name>TP270</name>
  </trkpt>
  <trkpt lat="37.6515" lon="-119.0009">
    <name>TP271</name>
  </trkpt>
  <trkpt lat="37.65149" lon="-119.00082">
    <name>TP272</name>
  </trkpt>
  <trkpt lat="37.65148" lon="-119.00075">
    <name>TP273</name>
  </trkpt>
  <trkpt lat="37.65148" lon="-119.00073">
    <name>TP274</name>
  </trkpt>
  <trkpt lat="37.65146" lon="-119.00069">
    <name>TP275</name>
  </trkpt>
  <trkpt lat="37.65144" lon="-119.00063">
    <name>TP276</name>
  </trkpt>
  <trkpt lat="37.65141" lon="-119.00055">
    <name>TP277</name>
  </trkpt>
  <trkpt lat="37.65134" lon="-119.00042">
    <name>TP278</name>
  </trkpt>
  <trkpt lat="37.65127" lon="-119.00035">
    <name>TP279</name>
  </trkpt>
  <trkpt lat="37.65119" lon="-119.00026">
    <name>TP280</name>
  </trkpt>
  <trkpt lat="37.65111" lon="-119.0002">
    <name>TP281</name>
  </trkpt>
  <trkpt lat="37.65098" lon="-119.0001">
    <name>TP282</name>
  </trkpt>
  <trkpt lat="37.65087" lon="-119.00003">
    <name>TP283</name>
  </trkpt>
  <trkpt lat="37.65076" lon="-118.99995">
    <name>TP284</name>
  </trkpt>
  <trkpt lat="37.65067" lon="-118.99989">
    <name>TP285</name>
  </trkpt>
  <trkpt lat="37.6506" lon="-118.99983">
    <name>TP286</name>
  </trkpt>
  <trkpt lat="37.65053" lon="-118.99978">
    <name>TP287</name>
  </trkpt>
  <trkpt lat="37.65046" lon="-118.99972">
    <name>TP288</name>
  </trkpt>
  <trkpt lat="37.65041" lon="-118.99967">
    <name>TP289</name>
  </trkpt>
  <trkpt lat="37.65034" lon="-118.99961">
    <name>TP290</name>
  </trkpt>
  <trkpt lat="37.65029" lon="-118.99955">
    <name>TP291</name>
  </trkpt>
  <trkpt lat="37.65023" lon="-118.99947">
    <name>TP292</name>
  </trkpt>
  <trkpt lat="37.65019" lon="-118.99941">
    <name>TP293</name>
  </trkpt>
  <trkpt lat="37.65014" lon="-118.99936">
    <name>TP294</name>
  </trkpt>
  <trkpt lat="37.65007" lon="-118.99922">
    <name>TP295</name>
  </trkpt>
  <trkpt lat="37.65001" lon="-118.99907">
    <name>TP296</name>
  </trkpt>
  <trkpt lat="37.64997" lon="-118.99891">
    <name>TP297</name>
  </trkpt>
  <trkpt lat="37.64994" lon="-118.99878">
    <name>TP298</name>
  </trkpt>
  <trkpt lat="37.64992" lon="-118.99867">
    <name>TP299</name>
  </trkpt>
  <trkpt lat="37.6499" lon="-118.99854">
    <name>TP300</name>
  </trkpt>
  <trkpt lat="37.64989" lon="-118.99843">
    <name>TP301</name>
  </trkpt>
  <trkpt lat="37.64989" lon="-118.99837">
    <name>TP302</name>
  </trkpt>
  <trkpt lat="37.64989" lon="-118.99832">
    <name>TP303</name>
  </trkpt>
  <trkpt lat="37.64989" lon="-118.99826">
    <name>TP304</name>
  </trkpt>
  <trkpt lat="37.64991" lon="-118.99817">
    <name>TP305</name>
  </trkpt>
  <trkpt lat="37.64992" lon="-118.99808">
    <name>TP306</name>
  </trkpt>
  <trkpt lat="37.64994" lon="-118.99802">
    <name>TP307</name>
  </trkpt>
  <trkpt lat="37.64997" lon="-118.99794">
    <name>TP308</name>
  </trkpt>
  <trkpt lat="37.65" lon="-118.99786">
    <name>TP309</name>
  </trkpt>
  <trkpt lat="37.65007" lon="-118.99772">
    <name>TP310</name>
  </trkpt>
  <trkpt lat="37.65018" lon="-118.99758">
    <name>TP311</name>
  </trkpt>
  <trkpt lat="37.65029" lon="-118.99747">
    <name>TP312</name>
  </trkpt>
  <trkpt lat="37.65045" lon="-118.99731">
    <name>TP313</name>
  </trkpt>
  <trkpt lat="37.65063" lon="-118.99717">
    <name>TP314</name>
  </trkpt>
  <trkpt lat="37.65075" lon="-118.9971">
    <name>TP315</name>
  </trkpt>
  <trkpt lat="37.65079" lon="-118.99708">
    <name>TP316</name>
  </trkpt>
  <trkpt lat="37.65082" lon="-118.99707">
    <name>TP317</name>
  </trkpt>
  <trkpt lat="37.65089" lon="-118.99705">
    <name>TP318</name>
  </trkpt>
  <trkpt lat="37.65102" lon="-118.99705">
    <name>TP319</name>
  </trkpt>
  <trkpt lat="37.65117" lon="-118.99705">
    <name>TP320</name>
  </trkpt>
  <trkpt lat="37.65137" lon="-118.99705">
    <name>TP321</name>
  </trkpt>
  <trkpt lat="37.65149" lon="-118.99705">
    <name>TP322</name>
  </trkpt>
  <trkpt lat="37.65151" lon="-118.99704">
    <name>TP323</name>
  </trkpt>
  <trkpt lat="37.65166" lon="-118.99702">
    <name>TP324</name>
  </trkpt>
  <trkpt lat="37.65182" lon="-118.99696">
    <name>TP325</name>
  </trkpt>
  <trkpt lat="37.65199" lon="-118.99688">
    <name>TP326</name>
  </trkpt>
  <trkpt lat="37.65203" lon="-118.99686">
    <name>TP327</name>
  </trkpt>
  <trkpt lat="37.65218" lon="-118.99677">
    <name>TP328</name>
  </trkpt>
  <trkpt lat="37.65219" lon="-118.99677">
    <name>TP329</name>
  </trkpt>
  <trkpt lat="37.65242" lon="-118.99662">
    <name>TP330</name>
  </trkpt>
  <trkpt lat="37.6525" lon="-118.99657">
    <name>TP331</name>
  </trkpt>
  <trkpt lat="37.65259" lon="-118.9965">
    <name>TP332</name>
  </trkpt>
  <trkpt lat="37.65267" lon="-118.99641">
    <name>TP333</name>
  </trkpt>
  <trkpt lat="37.65275" lon="-118.99631">
    <name>TP334</name>
  </trkpt>
  <trkpt lat="37.65278" lon="-118.99627">
    <name>TP335</name>
  </trkpt>
  <trkpt lat="37.65282" lon="-118.9962">
    <name>TP336</name>
  </trkpt>
  <trkpt lat="37.65289" lon="-118.99609">
    <name>TP337</name>
  </trkpt>
  <trkpt lat="37.65294" lon="-118.99599">
    <name>TP338</name>
  </trkpt>
  <trkpt lat="37.65309" lon="-118.99564">
    <name>TP339</name>
  </trkpt>
  <trkpt lat="37.6532" lon="-118.99534">
    <name>TP340</name>
  </trkpt>
  <trkpt lat="37.65338" lon="-118.995">
    <name>TP341</name>
  </trkpt>
  <trkpt lat="37.65348" lon="-118.99485">
    <name>TP342</name>
  </trkpt>
  <trkpt lat="37.65352" lon="-118.99481">
    <name>TP343</name>
  </trkpt>
  <trkpt lat="37.65356" lon="-118.99477">
    <name>TP344</name>
  </trkpt>
  <trkpt lat="37.65361" lon="-118.99474">
    <name>TP345</name>
  </trkpt>
  <trkpt lat="37.65366" lon="-118.99472">
    <name>TP346</name>
  </trkpt>
  <trkpt lat="37.6537" lon="-118.99471">
    <name>TP347</name>
  </trkpt>
  <trkpt lat="37.65376" lon="-118.99469">
    <name>TP348</name>
  </trkpt>
  <trkpt lat="37.65382" lon="-118.99469">
    <name>TP349</name>
  </trkpt>
  <trkpt lat="37.65389" lon="-118.9947">
    <name>TP350</name>
  </trkpt>
  <trkpt lat="37.65397" lon="-118.99472">
    <name>TP351</name>
  </trkpt>
  <trkpt lat="37.65404" lon="-118.99474">
    <name>TP352</name>
  </trkpt>
  <trkpt lat="37.65409" lon="-118.99477">
    <name>TP353</name>
  </trkpt>
  <trkpt lat="37.65414" lon="-118.9948">
    <name>TP354</name>
  </trkpt>
  <trkpt lat="37.65417" lon="-118.99483">
    <name>TP355</name>
  </trkpt>
  <trkpt lat="37.65418" lon="-118.99485">
    <name>TP356</name>
  </trkpt>
  <trkpt lat="37.65424" lon="-118.9949">
    <name>TP357</name>
  </trkpt>
  <trkpt lat="37.65428" lon="-118.99495">
    <name>TP358</name>
  </trkpt>
  <trkpt lat="37.65431" lon="-118.995">
    <name>TP359</name>
  </trkpt>
  <trkpt lat="37.65433" lon="-118.99506">
    <name>TP360</name>
  </trkpt>
  <trkpt lat="37.65436" lon="-118.99514">
    <name>TP361</name>
  </trkpt>
  <trkpt lat="37.65437" lon="-118.9952">
    <name>TP362</name>
  </trkpt>
  <trkpt lat="37.65437" lon="-118.99521">
    <name>TP363</name>
  </trkpt>
  <trkpt lat="37.65439" lon="-118.99529">
    <name>TP364</name>
  </trkpt>
  <trkpt lat="37.6544" lon="-118.99537">
    <name>TP365</name>
  </trkpt>
  <trkpt lat="37.6544" lon="-118.99542">
    <name>TP366</name>
  </trkpt>
  <trkpt lat="37.65441" lon="-118.99562">
    <name>TP367</name>
  </trkpt>
  <trkpt lat="37.65442" lon="-118.99565">
    <name>TP368</name>
  </trkpt>
  <trkpt lat="37.65443" lon="-118.99582">
    <name>TP369</name>
  </trkpt>
  <trkpt lat="37.65445" lon="-118.99589">
    <name>TP370</name>
  </trkpt>
  <trkpt lat="37.65446" lon="-118.99594">
    <name>TP371</name>
  </trkpt>
  <trkpt lat="37.6545" lon="-118.99604">
    <name>TP372</name>
  </trkpt>
  <trkpt lat="37.65452" lon="-118.99609">
    <name>TP373</name>
  </trkpt>
  <trkpt lat="37.65456" lon="-118.99615">
    <name>TP374</name>
  </trkpt>
  <trkpt lat="37.65461" lon="-118.99621">
    <name>TP375</name>
  </trkpt>
  <trkpt lat="37.65464" lon="-118.99623">
    <name>TP376</name>
  </trkpt>
  <trkpt lat="37.65468" lon="-118.99627">
    <name>TP377</name>
  </trkpt>
  <trkpt lat="37.65472" lon="-118.99629">
    <name>TP378</name>
  </trkpt>
  <trkpt lat="37.65477" lon="-118.99631">
    <name>TP379</name>
  </trkpt>
  <trkpt lat="37.65481" lon="-118.99633">
    <name>TP380</name>
  </trkpt>
  <trkpt lat="37.65484" lon="-118.99634">
    <name>TP381</name>
  </trkpt>
  <trkpt lat="37.65492" lon="-118.99635">
    <name>TP382</name>
  </trkpt>
  <trkpt lat="37.65501" lon="-118.99635">
    <name>TP383</name>
  </trkpt>
  <trkpt lat="37.65514" lon="-118.99633">
    <name>TP384</name>
  </trkpt>
  <trkpt lat="37.65527" lon="-118.9963">
    <name>TP385</name>
  </trkpt>
  <trkpt lat="37.65533" lon="-118.99628">
    <name>TP386</name>
  </trkpt>
  <trkpt lat="37.65541" lon="-118.99624">
    <name>TP387</name>
  </trkpt>
  <trkpt lat="37.65551" lon="-118.99617">
    <name>TP388</name>
  </trkpt>
  <trkpt lat="37.65559" lon="-118.99611">
    <name>TP389</name>
  </trkpt>
  <trkpt lat="37.65565" lon="-118.99605">
    <name>TP390</name>
  </trkpt>
  <trkpt lat="37.65572" lon="-118.99595">
    <name>TP391</name>
  </trkpt>
  <trkpt lat="37.65577" lon="-118.99587">
    <name>TP392</name>
  </trkpt>
  <trkpt lat="37.65581" lon="-118.99578">
    <name>TP393</name>
  </trkpt>
  <trkpt lat="37.65582" lon="-118.99572">
    <name>TP394</name>
  </trkpt>
  <trkpt lat="37.65585" lon="-118.9956">
    <name>TP395</name>
  </trkpt>
  <trkpt lat="37.65585" lon="-118.99558">
    <name>TP396</name>
  </trkpt>
  <trkpt lat="37.65586" lon="-118.99551">
    <name>TP397</name>
  </trkpt>
  <trkpt lat="37.65587" lon="-118.99542">
    <name>TP398</name>
  </trkpt>
  <trkpt lat="37.65587" lon="-118.99528">
    <name>TP399</name>
  </trkpt>
  <trkpt lat="37.65586" lon="-118.99505">
    <name>TP400</name>
  </trkpt>
  <trkpt lat="37.65584" lon="-118.9947">
    <name>TP401</name>
  </trkpt>
  <trkpt lat="37.65585" lon="-118.99441">
    <name>TP402</name>
  </trkpt>
  <trkpt lat="37.65587" lon="-118.99425">
    <name>TP403</name>
  </trkpt>
  <trkpt lat="37.65589" lon="-118.9942">
    <name>TP404</name>
  </trkpt>
  <trkpt lat="37.65594" lon="-118.99403">
    <name>TP405</name>
  </trkpt>
  <trkpt lat="37.65595" lon="-118.99399">
    <name>TP406</name>
  </trkpt>
  <trkpt lat="37.65605" lon="-118.99371">
    <name>TP407</name>
  </trkpt>
  <trkpt lat="37.6561" lon="-118.99358">
    <name>TP408</name>
  </trkpt>
  <trkpt lat="37.65616" lon="-118.99338">
    <name>TP409</name>
  </trkpt>
  <trkpt lat="37.65619" lon="-118.99325">
    <name>TP410</name>
  </trkpt>
  <trkpt lat="37.6562" lon="-118.99314">
    <name>TP411</name>
  </trkpt>
  <trkpt lat="37.65621" lon="-118.99304">
    <name>TP412</name>
  </trkpt>
  <trkpt lat="37.6562" lon="-118.99288">
    <name>TP413</name>
  </trkpt>
  <trkpt lat="37.65617" lon="-118.99275">
    <name>TP414</name>
  </trkpt>
  <trkpt lat="37.65611" lon="-118.99263">
    <name>TP415</name>
  </trkpt>
  <trkpt lat="37.65604" lon="-118.99254">
    <name>TP416</name>
  </trkpt>
  <trkpt lat="37.65594" lon="-118.99246">
    <name>TP417</name>
  </trkpt>
  <trkpt lat="37.65581" lon="-118.99238">
    <name>TP418</name>
  </trkpt>
  <trkpt lat="37.6558" lon="-118.99238">
    <name>TP419</name>
  </trkpt>
  <trkpt lat="37.65533" lon="-118.9921">
    <name>TP420</name>
  </trkpt>
  <trkpt lat="37.65514" lon="-118.99199">
    <name>TP421</name>
  </trkpt>
  <trkpt lat="37.65498" lon="-118.99188">
    <name>TP422</name>
  </trkpt>
  <trkpt lat="37.65474" lon="-118.99167">
    <name>TP423</name>
  </trkpt>
  <trkpt lat="37.65443" lon="-118.99139">
    <name>TP424</name>
  </trkpt>
  <trkpt lat="37.6542" lon="-118.99114">
    <name>TP425</name>
  </trkpt>
  <trkpt lat="37.6541" lon="-118.99098">
    <name>TP426</name>
  </trkpt>
  <trkpt lat="37.65404" lon="-118.99088">
    <name>TP427</name>
  </trkpt>
  <trkpt lat="37.65404" lon="-118.99087">
    <name>TP428</name>
  </trkpt>
  <trkpt lat="37.65402" lon="-118.99083">
    <name>TP429</name>
  </trkpt>
  <trkpt lat="37.65397" lon="-118.99067">
    <name>TP430</name>
  </trkpt>
  <trkpt lat="37.65396" lon="-118.99066">
    <name>TP431</name>
  </trkpt>
  <trkpt lat="37.65391" lon="-118.99042">
    <name>TP432</name>
  </trkpt>
  <trkpt lat="37.65389" lon="-118.99022">
    <name>TP433</name>
  </trkpt>
  <trkpt lat="37.65384" lon="-118.98973">
    <name>TP434</name>
  </trkpt>
  <trkpt lat="37.65381" lon="-118.98933">
    <name>TP435</name>
  </trkpt>
  <trkpt lat="37.65381" lon="-118.98931">
    <name>TP436</name>
  </trkpt>
  <trkpt lat="37.6538" lon="-118.9891">
    <name>TP437</name>
  </trkpt>
  <trkpt lat="37.65379" lon="-118.98909">
    <name>TP438</name>
  </trkpt>
  <trkpt lat="37.65378" lon="-118.98882">
    <name>TP439</name>
  </trkpt>
  <trkpt lat="37.65378" lon="-118.9885">
    <name>TP440</name>
  </trkpt>
  <trkpt lat="37.6538" lon="-118.98831">
    <name>TP441</name>
  </trkpt>
  <trkpt lat="37.65384" lon="-118.98799">
    <name>TP442</name>
  </trkpt>
  <trkpt lat="37.6539" lon="-118.98762">
    <name>TP443</name>
  </trkpt>
  <trkpt lat="37.65393" lon="-118.98726">
    <name>TP444</name>
  </trkpt>
  <trkpt lat="37.65393" lon="-118.98706">
    <name>TP445</name>
  </trkpt>
  <trkpt lat="37.65393" lon="-118.98685">
    <name>TP446</name>
  </trkpt>
  <trkpt lat="37.65393" lon="-118.98683">
    <name>TP447</name>
  </trkpt>
  <trkpt lat="37.65392" lon="-118.98667">
    <name>TP448</name>
  </trkpt>
  <trkpt lat="37.65389" lon="-118.98647">
    <name>TP449</name>
  </trkpt>
  <trkpt lat="37.65385" lon="-118.98626">
    <name>TP450</name>
  </trkpt>
  <trkpt lat="37.65379" lon="-118.98607">
    <name>TP451</name>
  </trkpt>
  <trkpt lat="37.65375" lon="-118.98596">
    <name>TP452</name>
  </trkpt>
  <trkpt lat="37.6537" lon="-118.98584">
    <name>TP453</name>
  </trkpt>
  <trkpt lat="37.65369" lon="-118.98582">
    <name>TP454</name>
  </trkpt>
  <trkpt lat="37.65367" lon="-118.98577">
    <name>TP455</name>
  </trkpt>
  <trkpt lat="37.65365" lon="-118.98574">
    <name>TP456</name>
  </trkpt>
  <trkpt lat="37.65361" lon="-118.98565">
    <name>TP457</name>
  </trkpt>
  <trkpt lat="37.65345" lon="-118.9854">
    <name>TP458</name>
  </trkpt>
  <trkpt lat="37.65333" lon="-118.98525">
    <name>TP459</name>
  </trkpt>
  <trkpt lat="37.65327" lon="-118.98519">
    <name>TP460</name>
  </trkpt>
  <trkpt lat="37.6532" lon="-118.98513">
    <name>TP461</name>
  </trkpt>
  <trkpt lat="37.65314" lon="-118.9851">
    <name>TP462</name>
  </trkpt>
  <trkpt lat="37.65308" lon="-118.98507">
    <name>TP463</name>
  </trkpt>
  <trkpt lat="37.653" lon="-118.98503">
    <name>TP464</name>
  </trkpt>
  <trkpt lat="37.65293" lon="-118.98501">
    <name>TP465</name>
  </trkpt>
  <trkpt lat="37.65283" lon="-118.98499">
    <name>TP466</name>
  </trkpt>
  <trkpt lat="37.65279" lon="-118.98498">
    <name>TP467</name>
  </trkpt>
  <trkpt lat="37.65265" lon="-118.98497">
    <name>TP468</name>
  </trkpt>
  <trkpt lat="37.65253" lon="-118.98496">
    <name>TP469</name>
  </trkpt>
  <trkpt lat="37.65212" lon="-118.98497">
    <name>TP470</name>
  </trkpt>
  <trkpt lat="37.65204" lon="-118.98498">
    <name>TP471</name>
  </trkpt>
  <trkpt lat="37.65197" lon="-118.98498">
    <name>TP472</name>
  </trkpt>
  <trkpt lat="37.65186" lon="-118.98497">
    <name>TP473</name>
  </trkpt>
  <trkpt lat="37.65184" lon="-118.98497">
    <name>TP474</name>
  </trkpt>
  <trkpt lat="37.65165" lon="-118.98497">
    <name>TP475</name>
  </trkpt>
  <trkpt lat="37.65164" lon="-118.98497">
    <name>TP476</name>
  </trkpt>
  <trkpt lat="37.65148" lon="-118.98497">
    <name>TP477</name>
  </trkpt>
  <trkpt lat="37.65133" lon="-118.98494">
    <name>TP478</name>
  </trkpt>
  <trkpt lat="37.65117" lon="-118.98488">
    <name>TP479</name>
  </trkpt>
  <trkpt lat="37.65097" lon="-118.98482">
    <name>TP480</name>
  </trkpt>
  <trkpt lat="37.65064" lon="-118.98471">
    <name>TP481</name>
  </trkpt>
  <trkpt lat="37.65054" lon="-118.98467">
    <name>TP482</name>
  </trkpt>
  <trkpt lat="37.65046" lon="-118.98463">
    <name>TP483</name>
  </trkpt>
  <trkpt lat="37.65036" lon="-118.98459">
    <name>TP484</name>
  </trkpt>
  <trkpt lat="37.65027" lon="-118.98454">
    <name>TP485</name>
  </trkpt>
  <trkpt lat="37.65026" lon="-118.98454">
    <name>TP486</name>
  </trkpt>
  <trkpt lat="37.65016" lon="-118.98445">
    <name>TP487</name>
  </trkpt>
  <trkpt lat="37.65009" lon="-118.98438">
    <name>TP488</name>
  </trkpt>
  <trkpt lat="37.65004" lon="-118.98431">
    <name>TP489</name>
  </trkpt>
  <trkpt lat="37.65001" lon="-118.98427">
    <name>TP490</name>
  </trkpt>
  <trkpt lat="37.64992" lon="-118.98413">
    <name>TP491</name>
  </trkpt>
  <trkpt lat="37.64988" lon="-118.98407">
    <name>TP492</name>
  </trkpt>
  <trkpt lat="37.6497" lon="-118.98375">
    <name>TP493</name>
  </trkpt>
  <trkpt lat="37.64961" lon="-118.98361">
    <name>TP494</name>
  </trkpt>
  <trkpt lat="37.64958" lon="-118.98356">
    <name>TP495</name>
  </trkpt>
  <trkpt lat="37.64953" lon="-118.9835">
    <name>TP496</name>
  </trkpt>
  <trkpt lat="37.64947" lon="-118.98343">
    <name>TP497</name>
  </trkpt>
  <trkpt lat="37.64942" lon="-118.98338">
    <name>TP498</name>
  </trkpt>
  <trkpt lat="37.64935" lon="-118.98334">
    <name>TP499</name>
  </trkpt>
  <trkpt lat="37.64929" lon="-118.9833">
    <name>TP500</name>
  </trkpt>
  <trkpt lat="37.64916" lon="-118.98326">
    <name>TP501</name>
  </trkpt>
  <trkpt lat="37.64908" lon="-118.98325">
    <name>TP502</name>
  </trkpt>
  <trkpt lat="37.64892" lon="-118.98324">
    <name>TP503</name>
  </trkpt>
  <trkpt lat="37.64879" lon="-118.98323">
    <name>TP504</name>
  </trkpt>
  <trkpt lat="37.64859" lon="-118.98321">
    <name>TP505</name>
  </trkpt>
  <trkpt lat="37.64857" lon="-118.9832">
    <name>TP506</name>
  </trkpt>
  <trkpt lat="37.64854" lon="-118.9832">
    <name>TP507</name>
  </trkpt>
  <trkpt lat="37.64848" lon="-118.98319">
    <name>TP508</name>
  </trkpt>
  <trkpt lat="37.6484" lon="-118.98317">
    <name>TP509</name>
  </trkpt>
  <trkpt lat="37.6483967" lon="-118.9831678">
    <name>TP510</name>
  </trkpt>
  <trkpt lat="37.64844" lon="-118.98295">
    <name>TP511</name>
  </trkpt>
  <trkpt lat="37.64848" lon="-118.98269">
    <name>TP512</name>
  </trkpt>
  <trkpt lat="37.64851" lon="-118.98252">
    <name>TP513</name>
  </trkpt>
  <trkpt lat="37.64852" lon="-118.98242">
    <name>TP514</name>
  </trkpt>
  <trkpt lat="37.64852" lon="-118.98241">
    <name>TP515</name>
  </trkpt>
  <trkpt lat="37.64854" lon="-118.98218">
    <name>TP516</name>
  </trkpt>
  <trkpt lat="37.64856" lon="-118.98197">
    <name>TP517</name>
  </trkpt>
  <trkpt lat="37.64858" lon="-118.98147">
    <name>TP518</name>
  </trkpt>
  <trkpt lat="37.6486" lon="-118.98122">
    <name>TP519</name>
  </trkpt>
  <trkpt lat="37.64871" lon="-118.97977">
    <name>TP520</name>
  </trkpt>
  <trkpt lat="37.64872" lon="-118.97959">
    <name>TP521</name>
  </trkpt>
  <trkpt lat="37.64875" lon="-118.97912">
    <name>TP522</name>
  </trkpt>
  <trkpt lat="37.6488" lon="-118.97746">
    <name>TP523</name>
  </trkpt>
  <trkpt lat="37.6488" lon="-118.97672">
    <name>TP524</name>
  </trkpt>
  <trkpt lat="37.64877" lon="-118.97612">
    <name>TP525</name>
  </trkpt>
  <trkpt lat="37.64876" lon="-118.97605">
    <name>TP526</name>
  </trkpt>
  <trkpt lat="37.64876" lon="-118.97594">
    <name>TP527</name>
  </trkpt>
  <trkpt lat="37.64873" lon="-118.97549">
    <name>TP528</name>
  </trkpt>
  <trkpt lat="37.64872" lon="-118.9753">
    <name>TP529</name>
  </trkpt>
  <trkpt lat="37.64864" lon="-118.97458">
    <name>TP530</name>
  </trkpt>
  <trkpt lat="37.64861" lon="-118.9743">
    <name>TP531</name>
  </trkpt>
  <trkpt lat="37.64853" lon="-118.97382">
    <name>TP532</name>
  </trkpt>
  <trkpt lat="37.6485" lon="-118.97359">
    <name>TP533</name>
  </trkpt>
  <trkpt lat="37.64847" lon="-118.97345">
    <name>TP534</name>
  </trkpt>
  <trkpt lat="37.64833" lon="-118.97276">
    <name>TP535</name>
  </trkpt>
  <trkpt lat="37.64829" lon="-118.97256">
    <name>TP536</name>
  </trkpt>
  <trkpt lat="37.64824" lon="-118.97234">
    <name>TP537</name>
  </trkpt>
  <trkpt lat="37.64816" lon="-118.97194">
    <name>TP538</name>
  </trkpt>
  <trkpt lat="37.64804" lon="-118.9714">
    <name>TP539</name>
  </trkpt>
  <trkpt lat="37.64771" lon="-118.96982">
    <name>TP540</name>
  </trkpt>
  <trkpt lat="37.64767" lon="-118.96964">
    <name>TP541</name>
  </trkpt>
  <trkpt lat="37.64745" lon="-118.96863">
    <name>TP542</name>
  </trkpt>
  <trkpt lat="37.64741" lon="-118.96847">
    <name>TP543</name>
  </trkpt>
  <trkpt lat="37.64733" lon="-118.96808">
    <name>TP544</name>
  </trkpt>
  <trkpt lat="37.64721" lon="-118.9675">
    <name>TP545</name>
  </trkpt>
  <trkpt lat="37.64718" lon="-118.96739">
    <name>TP546</name>
  </trkpt>
  <trkpt lat="37.64714" lon="-118.9672">
    <name>TP547</name>
  </trkpt>
  <trkpt lat="37.64709" lon="-118.96699">
    <name>TP548</name>
  </trkpt>
  <trkpt lat="37.647" lon="-118.96659">
    <name>TP549</name>
  </trkpt>
  <trkpt lat="37.64699" lon="-118.96651">
    <name>TP550</name>
  </trkpt>
  <trkpt lat="37.64695" lon="-118.96635">
    <name>TP551</name>
  </trkpt>
  <trkpt lat="37.64686" lon="-118.96584">
    <name>TP552</name>
  </trkpt>
  <trkpt lat="37.64684" lon="-118.9657">
    <name>TP553</name>
  </trkpt>
  <trkpt lat="37.64678" lon="-118.96533">
    <name>TP554</name>
  </trkpt>
  <trkpt lat="37.64672" lon="-118.96481">
    <name>TP555</name>
  </trkpt>
  <trkpt lat="37.64672" lon="-118.96476">
    <name>TP556</name>
  </trkpt>
  <trkpt lat="37.64668" lon="-118.96445">
    <name>TP557</name>
  </trkpt>
  <trkpt lat="37.64666" lon="-118.9643">
    <name>TP558</name>
  </trkpt>
  <trkpt lat="37.64663" lon="-118.96391">
    <name>TP559</name>
  </trkpt>
  <trkpt lat="37.6466342" lon="-118.9639051">
    <name>TP560</name>
  </trkpt>
  <trkpt lat="37.64676" lon="-118.9639">
    <name>TP561</name>
  </trkpt>
  <trkpt lat="37.64688" lon="-118.96385">
    <name>TP562</name>
  </trkpt>
  <trkpt lat="37.64706" lon="-118.96379">
    <name>TP563</name>
  </trkpt>
  <trkpt lat="37.64742" lon="-118.96364">
    <name>TP564</name>
  </trkpt>
  <trkpt lat="37.64748" lon="-118.96362">
    <name>TP565</name>
  </trkpt>
  <trkpt lat="37.64775" lon="-118.96351">
    <name>TP566</name>
  </trkpt>
  <trkpt lat="37.64803" lon="-118.96342">
    <name>TP567</name>
  </trkpt>
  <trkpt lat="37.64829" lon="-118.9632">
    <name>TP568</name>
  </trkpt>
  <trkpt lat="37.64848" lon="-118.9631">
    <name>TP569</name>
  </trkpt>
  <trkpt lat="37.64852" lon="-118.96308">
    <name>TP570</name>
  </trkpt>
  <trkpt lat="37.64889" lon="-118.96285">
    <name>TP571</name>
  </trkpt>
  <trkpt lat="37.64892" lon="-118.96283">
    <name>TP572</name>
  </trkpt>
  <trkpt lat="37.64896" lon="-118.96279">
    <name>TP573</name>
  </trkpt>
  <trkpt lat="37.64912" lon="-118.96267">
    <name>TP574</name>
  </trkpt>
  <trkpt lat="37.64914" lon="-118.96266">
    <name>TP575</name>
  </trkpt>
  <trkpt lat="37.64933" lon="-118.96252">
    <name>TP576</name>
  </trkpt>
  <trkpt lat="37.64935" lon="-118.9625">
    <name>TP577</name>
  </trkpt>
  <trkpt lat="37.64942" lon="-118.96244">
    <name>TP578</name>
  </trkpt>
  <trkpt lat="37.64969" lon="-118.96219">
    <name>TP579</name>
  </trkpt>
  <trkpt lat="37.64971" lon="-118.96217">
    <name>TP580</name>
  </trkpt>
  <trkpt lat="37.64979" lon="-118.9621">
    <name>TP581</name>
  </trkpt>
  <trkpt lat="37.64986" lon="-118.96203">
    <name>TP582</name>
  </trkpt>
  <trkpt lat="37.64993" lon="-118.96196">
    <name>TP583</name>
  </trkpt>
  <trkpt lat="37.64999" lon="-118.96189">
    <name>TP584</name>
  </trkpt>
  <trkpt lat="37.65013" lon="-118.96173">
    <name>TP585</name>
  </trkpt>
  <trkpt lat="37.65021" lon="-118.96164">
    <name>TP586</name>
  </trkpt>
  <trkpt lat="37.65026" lon="-118.96158">
    <name>TP587</name>
  </trkpt>
  <trkpt lat="37.65032" lon="-118.9615">
    <name>TP588</name>
  </trkpt>
  <trkpt lat="37.65034" lon="-118.96148">
    <name>TP589</name>
  </trkpt>
  <trkpt lat="37.65035" lon="-118.96146">
    <name>TP590</name>
  </trkpt>
  <trkpt lat="37.65038" lon="-118.96141">
    <name>TP591</name>
  </trkpt>
  <trkpt lat="37.65048" lon="-118.96128">
    <name>TP592</name>
  </trkpt>
  <trkpt lat="37.65069" lon="-118.96094">
    <name>TP593</name>
  </trkpt>
  <trkpt lat="37.65087" lon="-118.96065">
    <name>TP594</name>
  </trkpt>
  <trkpt lat="37.65095" lon="-118.96051">
    <name>TP595</name>
  </trkpt>
  <trkpt lat="37.65113" lon="-118.9602">
    <name>TP596</name>
  </trkpt>
  <trkpt lat="37.65133" lon="-118.95991">
    <name>TP597</name>
  </trkpt>
  <trkpt lat="37.65136" lon="-118.95988">
    <name>TP598</name>
  </trkpt>
  <trkpt lat="37.65149" lon="-118.95971">
    <name>TP599</name>
  </trkpt>
  <trkpt lat="37.65163" lon="-118.95952">
    <name>TP600</name>
  </trkpt>
  <trkpt lat="37.65185" lon="-118.95921">
    <name>TP601</name>
  </trkpt>
  <trkpt lat="37.65197" lon="-118.95904">
    <name>TP602</name>
  </trkpt>
  <trkpt lat="37.65209" lon="-118.95887">
    <name>TP603</name>
  </trkpt>
  <trkpt lat="37.6521" lon="-118.95885">
    <name>TP604</name>
  </trkpt>
  <trkpt lat="37.6522" lon="-118.95869">
    <name>TP605</name>
  </trkpt>
  <trkpt lat="37.65231" lon="-118.9585">
    <name>TP606</name>
  </trkpt>
  <trkpt lat="37.65237" lon="-118.95838">
    <name>TP607</name>
  </trkpt>
  <trkpt lat="37.65247" lon="-118.95811">
    <name>TP608</name>
  </trkpt>
  <trkpt lat="37.65255" lon="-118.9579">
    <name>TP609</name>
  </trkpt>
  <trkpt lat="37.65259" lon="-118.95782">
    <name>TP610</name>
  </trkpt>
  <trkpt lat="37.65263" lon="-118.95774">
    <name>TP611</name>
  </trkpt>
  <trkpt lat="37.65265" lon="-118.95771">
    <name>TP612</name>
  </trkpt>
  <trkpt lat="37.6527" lon="-118.95764">
    <name>TP613</name>
  </trkpt>
  <trkpt lat="37.65277" lon="-118.95754">
    <name>TP614</name>
  </trkpt>
  <trkpt lat="37.6529" lon="-118.95738">
    <name>TP615</name>
  </trkpt>
  <trkpt lat="37.65302" lon="-118.95722">
    <name>TP616</name>
  </trkpt>
  <trkpt lat="37.65311" lon="-118.95711">
    <name>TP617</name>
  </trkpt>
  <trkpt lat="37.65315" lon="-118.95706">
    <name>TP618</name>
  </trkpt>
  <trkpt lat="37.6532" lon="-118.95702">
    <name>TP619</name>
  </trkpt>
  <trkpt lat="37.65323" lon="-118.95699">
    <name>TP620</name>
  </trkpt>
  <trkpt lat="37.65324" lon="-118.95698">
    <name>TP621</name>
  </trkpt>
  <trkpt lat="37.65327" lon="-118.95696">
    <name>TP622</name>
  </trkpt>
  <trkpt lat="37.65336" lon="-118.95688">
    <name>TP623</name>
  </trkpt>
  <trkpt lat="37.65362" lon="-118.95672">
    <name>TP624</name>
  </trkpt>
  <trkpt lat="37.653618" lon="-118.956721">
    <name>TP625</name>
  </trkpt>
  <trkpt lat="37.65363" lon="-118.95661">
    <name>TP626</name>
  </trkpt>
  <trkpt lat="37.65368" lon="-118.95624">
    <name>TP627</name>
  </trkpt>
  <trkpt lat="37.6537" lon="-118.95617">
    <name>TP628</name>
  </trkpt>
  <trkpt lat="37.65374" lon="-118.95595">
    <name>TP629</name>
  </trkpt>
  <trkpt lat="37.65376" lon="-118.95587">
    <name>TP630</name>
  </trkpt>
  <trkpt lat="37.6538" lon="-118.95573">
    <name>TP631</name>
  </trkpt>
  <trkpt lat="37.65384" lon="-118.95556">
    <name>TP632</name>
  </trkpt>
  <trkpt lat="37.65386" lon="-118.95552">
    <name>TP633</name>
  </trkpt>
  <trkpt lat="37.65399" lon="-118.95515">
    <name>TP634</name>
  </trkpt>
  <trkpt lat="37.65404" lon="-118.95491">
    <name>TP635</name>
  </trkpt>
  <trkpt lat="37.65405" lon="-118.95488">
    <name>TP636</name>
  </trkpt>
  <trkpt lat="37.65409" lon="-118.95466">
    <name>TP637</name>
  </trkpt>
  <trkpt lat="37.65412" lon="-118.95444">
    <name>TP638</name>
  </trkpt>
  <trkpt lat="37.65412" lon="-118.95443">
    <name>TP639</name>
  </trkpt>
  <trkpt lat="37.65412" lon="-118.95428">
    <name>TP640</name>
  </trkpt>
  <trkpt lat="37.65412" lon="-118.95421">
    <name>TP641</name>
  </trkpt>
  <trkpt lat="37.65411" lon="-118.95414">
    <name>TP642</name>
  </trkpt>
  <trkpt lat="37.65409" lon="-118.95399">
    <name>TP643</name>
  </trkpt>
  <trkpt lat="37.65408" lon="-118.95393">
    <name>TP644</name>
  </trkpt>
  <trkpt lat="37.65403" lon="-118.95377">
    <name>TP645</name>
  </trkpt>
  <trkpt lat="37.65396" lon="-118.95356">
    <name>TP646</name>
  </trkpt>
  <trkpt lat="37.65392" lon="-118.95342">
    <name>TP647</name>
  </trkpt>
  <trkpt lat="37.65378" lon="-118.9528">
    <name>TP648</name>
  </trkpt>
  <trkpt lat="37.65375" lon="-118.9527">
    <name>TP649</name>
  </trkpt>
  <trkpt lat="37.65368" lon="-118.9525">
    <name>TP650</name>
  </trkpt>
  <trkpt lat="37.65368" lon="-118.95248">
    <name>TP651</name>
  </trkpt>
  <trkpt lat="37.65367" lon="-118.95237">
    <name>TP652</name>
  </trkpt>
  <trkpt lat="37.65367" lon="-118.95216">
    <name>TP653</name>
  </trkpt>
  <trkpt lat="37.65367" lon="-118.95197">
    <name>TP654</name>
  </trkpt>
  <trkpt lat="37.65367" lon="-118.9518">
    <name>TP655</name>
  </trkpt>
  <trkpt lat="37.65367" lon="-118.95173">
    <name>TP656</name>
  </trkpt>
  <trkpt lat="37.65368" lon="-118.95158">
    <name>TP657</name>
  </trkpt>
  <trkpt lat="37.65369" lon="-118.95135">
    <name>TP658</name>
  </trkpt>
  <trkpt lat="37.65371" lon="-118.9509">
    <name>TP659</name>
  </trkpt>
  <trkpt lat="37.65374" lon="-118.95042">
    <name>TP660</name>
  </trkpt>
  <trkpt lat="37.65377" lon="-118.95003">
    <name>TP661</name>
  </trkpt>
  <trkpt lat="37.6537675" lon="-118.9500321">
    <name>TP662</name>
  </trkpt>
  <trkpt lat="37.6537675" lon="-118.9500321">
    <name>TP663</name>
  </trkpt>
  <trkpt lat="37.6537675" lon="-118.9500321">
    <name>TP664</name>
  </trkpt>
  </trkseg>
</trk>
</gpx>