<?xml version="1.0" encoding="UTF-8" standalone="no" ?>
<gpx xmlns="http://www.topografix.com/GPX/1/1" xmlns:gpxx="http://www.garmin.com/xmlschemas/GpxExtensions/v3" xmlns:gpxtpx="http://www.garmin.com/xmlschemas/TrackPointExtension/v1" creator="mapstogpx.com" version="1.1" xmlns:xsi="http://www.w3.org/2001/XMLSchema-instance" xsi:schemaLocation="http://www.topografix.com/GPX/1/1 http://www.topografix.com/GPX/1/1/gpx.xsd http://www.garmin.com/xmlschemas/GpxExtensions/v3 http://www.garmin.com/xmlschemas/GpxExtensionsv3.xsd http://www.garmin.com/xmlschemas/TrackPointExtension/v1 http://www.garmin.com/xmlschemas/TrackPointExtensionv1.xsd">
  <metadata>
    <link href="http://www.mapstogpx.com">
      <text>Sverrir Sigmundarson</text>
    </link>
    <!--desc>Map data ©2025 Google</desc-->
    <!--copyright author="Google Inc">
    	<year>2025</year>
    	<license>https://developers.google.com/maps/terms</license>
    </copyright-->
    <!--url>https://www.google.ca/maps/dir/Godoy+Cruz/Magallanes+841/@-34.6235591,-58.425055,12.98z/data=!4m68!4m67!1m55!1m1!1s0x95bcb58fe15453c1:0xe3a1fae44f4836c6!2m2!1d-58.428881!2d-34.5827971!3m4!1m2!1d-58.4223944!2d-34.5807385!3s0x95bcb5836f181039:0xab285fa188acc169!3m4!1m2!1d-58.4165787!2d-34.5847493!3s0x95bcb57f76639eb7:0x203f75cbb15efb5e!3m4!1m2!1d-58.4134228!2d-34.5928663!3s0x95bcca86c0f8581b:0xa09c32b5312ffa66!3m4!1m2!1d-58.4100926!2d-34.5994132!3s0x95bcca8e92f956d3:0x21e7694c1578eafc!3m4!1m2!1d-58.4073815!2d-34.6006499!3s0x95bcca8de96db2b7:0xc474bb9246b51cd2!3m4!1m2!1d-58.3918679!2d-34.6007654!3s0x95bccac0795b182b:0x76b79082f8491b48!3m4!1m2!1d-58.3851704!2d-34.603349!3s0x95bccac67062d86f:0x179af9ecf378d235!3m4!1m2!1d-58.3844864!2d-34.6038786!3s0x95bccac5dd595589:0x36c8aa2c4d706b38!3m4!1m2!1d-58.3809651!2d-34.6040528!3s0x95bccacf1089f39b:0xf099c34ba928f5b8!3m4!1m2!1d-58.375077!2d-34.607162!3s0x95bccad2433825b3:0x23a7a7946dd83ce9!1m5!1m1!1s0x95a334b06774d6c9:0x865da6320dea9bda!2m2!1d-58.3616631!2d-34.6394026!2m3!6e0!7e2!8j1736978400!3e0?entry=tts&g_ep=EgoyMDI1MDExNC4wKgBIAVAD&hl=en</url-->
    <time>2025-01-15T19:09:40Z</time>
  </metadata>
  <wpt lat="-34.5827971" lon="-58.428881">
    <name>Godoy Cruz</name>
    <desc>Godoy Cruz, Cdad. Autónoma de Buenos Aires, Argentina</desc>
  </wpt>
  <wpt lat="-34.6394026" lon="-58.3616631">
    <name>Magallanes 841</name>
    <desc>Magallanes 841, C1166ACB Cdad. Autónoma de Buenos Aires, Argentina</desc>
  </wpt>
<trk>
  <name>Godoy Cruz to Magallanes 841</name>
  <number>1</number>
  <trkseg>
  <trkpt lat="-34.5827971" lon="-58.428881">
    <name>TP001</name>
  </trkpt>
  <trkpt lat="-34.58179" lon="-58.42801">
    <name>TP002</name>
  </trkpt>
  <trkpt lat="-34.58121" lon="-58.42749">
    <name>TP003</name>
  </trkpt>
  <trkpt lat="-34.58098" lon="-58.42727">
    <name>TP004</name>
  </trkpt>
  <trkpt lat="-34.5808" lon="-58.42713">
    <name>TP005</name>
  </trkpt>
  <trkpt lat="-34.58073" lon="-58.42706">
    <name>TP006</name>
  </trkpt>
  <trkpt lat="-34.58067" lon="-58.42701">
    <name>TP007</name>
  </trkpt>
  <trkpt lat="-34.57996" lon="-58.42639">
    <name>TP008</name>
  </trkpt>
  <trkpt lat="-34.57973" lon="-58.4262">
    <name>TP009</name>
  </trkpt>
  <trkpt lat="-34.57956" lon="-58.42605">
    <name>TP010</name>
  </trkpt>
  <trkpt lat="-34.5795" lon="-58.426">
    <name>TP011</name>
  </trkpt>
  <trkpt lat="-34.57949" lon="-58.426">
    <name>TP012</name>
  </trkpt>
  <trkpt lat="-34.57875" lon="-58.42534">
    <name>TP013</name>
  </trkpt>
  <trkpt lat="-34.5787485" lon="-58.4253427">
    <name>TP014</name>
  </trkpt>
  <trkpt lat="-34.57934" lon="-58.42444">
    <name>TP015</name>
  </trkpt>
  <trkpt lat="-34.57989" lon="-58.42365">
    <name>TP016</name>
  </trkpt>
  <trkpt lat="-34.58059" lon="-58.42264">
    <name>TP017</name>
  </trkpt>
  <trkpt lat="-34.58063" lon="-58.42256">
    <name>TP018</name>
  </trkpt>
  <trkpt lat="-34.5808" lon="-58.4223">
    <name>TP019</name>
  </trkpt>
  <trkpt lat="-34.58116" lon="-58.42175">
    <name>TP020</name>
  </trkpt>
  <trkpt lat="-34.58119" lon="-58.42168">
    <name>TP021</name>
  </trkpt>
  <trkpt lat="-34.58136" lon="-58.42143">
    <name>TP022</name>
  </trkpt>
  <trkpt lat="-34.58145" lon="-58.42129">
    <name>TP023</name>
  </trkpt>
  <trkpt lat="-34.58158" lon="-58.42108">
    <name>TP024</name>
  </trkpt>
  <trkpt lat="-34.58173" lon="-58.42086">
    <name>TP025</name>
  </trkpt>
  <trkpt lat="-34.58179" lon="-58.42086">
    <name>TP026</name>
  </trkpt>
  <trkpt lat="-34.5818" lon="-58.42086">
    <name>TP027</name>
  </trkpt>
  <trkpt lat="-34.58181" lon="-58.42085">
    <name>TP028</name>
  </trkpt>
  <trkpt lat="-34.58188" lon="-58.42078">
    <name>TP029</name>
  </trkpt>
  <trkpt lat="-34.58194" lon="-58.4207">
    <name>TP030</name>
  </trkpt>
  <trkpt lat="-34.58199" lon="-58.42062">
    <name>TP031</name>
  </trkpt>
  <trkpt lat="-34.58212" lon="-58.42046">
    <name>TP032</name>
  </trkpt>
  <trkpt lat="-34.58223" lon="-58.42031">
    <name>TP033</name>
  </trkpt>
  <trkpt lat="-34.5823" lon="-58.42015">
    <name>TP034</name>
  </trkpt>
  <trkpt lat="-34.58231" lon="-58.42012">
    <name>TP035</name>
  </trkpt>
  <trkpt lat="-34.58232" lon="-58.42008">
    <name>TP036</name>
  </trkpt>
  <trkpt lat="-34.58297" lon="-58.41914">
    <name>TP037</name>
  </trkpt>
  <trkpt lat="-34.58357" lon="-58.41825">
    <name>TP038</name>
  </trkpt>
  <trkpt lat="-34.5843" lon="-58.41722">
    <name>TP039</name>
  </trkpt>
  <trkpt lat="-34.58438" lon="-58.41712">
    <name>TP040</name>
  </trkpt>
  <trkpt lat="-34.58453" lon="-58.41691">
    <name>TP041</name>
  </trkpt>
  <trkpt lat="-34.58464" lon="-58.41674">
    <name>TP042</name>
  </trkpt>
  <trkpt lat="-34.58499" lon="-58.41622">
    <name>TP043</name>
  </trkpt>
  <trkpt lat="-34.58516" lon="-58.41596">
    <name>TP044</name>
  </trkpt>
  <trkpt lat="-34.5854" lon="-58.41552">
    <name>TP045</name>
  </trkpt>
  <trkpt lat="-34.58576" lon="-58.41499">
    <name>TP046</name>
  </trkpt>
  <trkpt lat="-34.58639" lon="-58.41405">
    <name>TP047</name>
  </trkpt>
  <trkpt lat="-34.58698" lon="-58.41321">
    <name>TP048</name>
  </trkpt>
  <trkpt lat="-34.58755" lon="-58.41231">
    <name>TP049</name>
  </trkpt>
  <trkpt lat="-34.58804" lon="-58.41155">
    <name>TP050</name>
  </trkpt>
  <trkpt lat="-34.58839" lon="-58.41104">
    <name>TP051</name>
  </trkpt>
  <trkpt lat="-34.58899" lon="-58.4101">
    <name>TP052</name>
  </trkpt>
  <trkpt lat="-34.588986" lon="-58.4101025">
    <name>TP053</name>
  </trkpt>
  <trkpt lat="-34.58966" lon="-58.41065">
    <name>TP054</name>
  </trkpt>
  <trkpt lat="-34.59023" lon="-58.4111">
    <name>TP055</name>
  </trkpt>
  <trkpt lat="-34.59038" lon="-58.4112">
    <name>TP056</name>
  </trkpt>
  <trkpt lat="-34.59054" lon="-58.41134">
    <name>TP057</name>
  </trkpt>
  <trkpt lat="-34.59109" lon="-58.41186">
    <name>TP058</name>
  </trkpt>
  <trkpt lat="-34.59112" lon="-58.41189">
    <name>TP059</name>
  </trkpt>
  <trkpt lat="-34.59123" lon="-58.41198">
    <name>TP060</name>
  </trkpt>
  <trkpt lat="-34.59151" lon="-58.41224">
    <name>TP061</name>
  </trkpt>
  <trkpt lat="-34.59167" lon="-58.41239">
    <name>TP062</name>
  </trkpt>
  <trkpt lat="-34.59174" lon="-58.41245">
    <name>TP063</name>
  </trkpt>
  <trkpt lat="-34.59179" lon="-58.41249">
    <name>TP064</name>
  </trkpt>
  <trkpt lat="-34.59216" lon="-58.41282">
    <name>TP065</name>
  </trkpt>
  <trkpt lat="-34.59228" lon="-58.41294">
    <name>TP066</name>
  </trkpt>
  <trkpt lat="-34.59303" lon="-58.41356">
    <name>TP067</name>
  </trkpt>
  <trkpt lat="-34.5930264" lon="-58.4135552">
    <name>TP068</name>
  </trkpt>
  <trkpt lat="-34.59342" lon="-58.41307">
    <name>TP069</name>
  </trkpt>
  <trkpt lat="-34.59364" lon="-58.4128">
    <name>TP070</name>
  </trkpt>
  <trkpt lat="-34.59369" lon="-58.41275">
    <name>TP071</name>
  </trkpt>
  <trkpt lat="-34.59406" lon="-58.41225">
    <name>TP072</name>
  </trkpt>
  <trkpt lat="-34.594064" lon="-58.412249">
    <name>TP073</name>
  </trkpt>
  <trkpt lat="-34.59455" lon="-58.41258">
    <name>TP074</name>
  </trkpt>
  <trkpt lat="-34.59459" lon="-58.41261">
    <name>TP075</name>
  </trkpt>
  <trkpt lat="-34.59463" lon="-58.41263">
    <name>TP076</name>
  </trkpt>
  <trkpt lat="-34.59468" lon="-58.41264">
    <name>TP077</name>
  </trkpt>
  <trkpt lat="-34.59475" lon="-58.41264">
    <name>TP078</name>
  </trkpt>
  <trkpt lat="-34.59523" lon="-58.41265">
    <name>TP079</name>
  </trkpt>
  <trkpt lat="-34.59532" lon="-58.41266">
    <name>TP080</name>
  </trkpt>
  <trkpt lat="-34.59542" lon="-58.41268">
    <name>TP081</name>
  </trkpt>
  <trkpt lat="-34.5956" lon="-58.41271">
    <name>TP082</name>
  </trkpt>
  <trkpt lat="-34.59568" lon="-58.41273">
    <name>TP083</name>
  </trkpt>
  <trkpt lat="-34.59579" lon="-58.41276">
    <name>TP084</name>
  </trkpt>
  <trkpt lat="-34.59681" lon="-58.413">
    <name>TP085</name>
  </trkpt>
  <trkpt lat="-34.5973" lon="-58.41311">
    <name>TP086</name>
  </trkpt>
  <trkpt lat="-34.59794" lon="-58.41326">
    <name>TP087</name>
  </trkpt>
  <trkpt lat="-34.59817" lon="-58.41331">
    <name>TP088</name>
  </trkpt>
  <trkpt lat="-34.59832" lon="-58.41334">
    <name>TP089</name>
  </trkpt>
  <trkpt lat="-34.59905" lon="-58.41352">
    <name>TP090</name>
  </trkpt>
  <trkpt lat="-34.59913" lon="-58.41354">
    <name>TP091</name>
  </trkpt>
  <trkpt lat="-34.59919" lon="-58.41355">
    <name>TP092</name>
  </trkpt>
  <trkpt lat="-34.5991922" lon="-58.4135496">
    <name>TP093</name>
  </trkpt>
  <trkpt lat="-34.59928" lon="-58.41214">
    <name>TP094</name>
  </trkpt>
  <trkpt lat="-34.59932" lon="-58.41144">
    <name>TP095</name>
  </trkpt>
  <trkpt lat="-34.59937" lon="-58.4106">
    <name>TP096</name>
  </trkpt>
  <trkpt lat="-34.59944" lon="-58.40973">
    <name>TP097</name>
  </trkpt>
  <trkpt lat="-34.59947" lon="-58.40931">
    <name>TP098</name>
  </trkpt>
  <trkpt lat="-34.59951" lon="-58.40871">
    <name>TP099</name>
  </trkpt>
  <trkpt lat="-34.59957" lon="-58.40769">
    <name>TP100</name>
  </trkpt>
  <trkpt lat="-34.59959" lon="-58.40735">
    <name>TP101</name>
  </trkpt>
  <trkpt lat="-34.59959" lon="-58.4072">
    <name>TP102</name>
  </trkpt>
  <trkpt lat="-34.5995883" lon="-58.4071965">
    <name>TP103</name>
  </trkpt>
  <trkpt lat="-34.59969" lon="-58.40724">
    <name>TP104</name>
  </trkpt>
  <trkpt lat="-34.59994" lon="-58.40732">
    <name>TP105</name>
  </trkpt>
  <trkpt lat="-34.60063" lon="-58.40758">
    <name>TP106</name>
  </trkpt>
  <trkpt lat="-34.6006268" lon="-58.4075774">
    <name>TP107</name>
  </trkpt>
  <trkpt lat="-34.60064" lon="-58.4075">
    <name>TP108</name>
  </trkpt>
  <trkpt lat="-34.60065" lon="-58.40742">
    <name>TP109</name>
  </trkpt>
  <trkpt lat="-34.60066" lon="-58.40722">
    <name>TP110</name>
  </trkpt>
  <trkpt lat="-34.6007" lon="-58.40666">
    <name>TP111</name>
  </trkpt>
  <trkpt lat="-34.60078" lon="-58.40573">
    <name>TP112</name>
  </trkpt>
  <trkpt lat="-34.60078" lon="-58.40563">
    <name>TP113</name>
  </trkpt>
  <trkpt lat="-34.60087" lon="-58.40448">
    <name>TP114</name>
  </trkpt>
  <trkpt lat="-34.6009" lon="-58.40405">
    <name>TP115</name>
  </trkpt>
  <trkpt lat="-34.60092" lon="-58.40383">
    <name>TP116</name>
  </trkpt>
  <trkpt lat="-34.60096" lon="-58.40344">
    <name>TP117</name>
  </trkpt>
  <trkpt lat="-34.60105" lon="-58.40238">
    <name>TP118</name>
  </trkpt>
  <trkpt lat="-34.60115" lon="-58.40099">
    <name>TP119</name>
  </trkpt>
  <trkpt lat="-34.60113" lon="-58.40034">
    <name>TP120</name>
  </trkpt>
  <trkpt lat="-34.60111" lon="-58.39994">
    <name>TP121</name>
  </trkpt>
  <trkpt lat="-34.60111" lon="-58.39982">
    <name>TP122</name>
  </trkpt>
  <trkpt lat="-34.6011" lon="-58.39959">
    <name>TP123</name>
  </trkpt>
  <trkpt lat="-34.60109" lon="-58.39946">
    <name>TP124</name>
  </trkpt>
  <trkpt lat="-34.60107" lon="-58.39904">
    <name>TP125</name>
  </trkpt>
  <trkpt lat="-34.60107" lon="-58.39882">
    <name>TP126</name>
  </trkpt>
  <trkpt lat="-34.60106" lon="-58.39874">
    <name>TP127</name>
  </trkpt>
  <trkpt lat="-34.60106" lon="-58.39864">
    <name>TP128</name>
  </trkpt>
  <trkpt lat="-34.60105" lon="-58.39852">
    <name>TP129</name>
  </trkpt>
  <trkpt lat="-34.60103" lon="-58.39796">
    <name>TP130</name>
  </trkpt>
  <trkpt lat="-34.60103" lon="-58.39767">
    <name>TP131</name>
  </trkpt>
  <trkpt lat="-34.60102" lon="-58.39708">
    <name>TP132</name>
  </trkpt>
  <trkpt lat="-34.60099" lon="-58.39665">
    <name>TP133</name>
  </trkpt>
  <trkpt lat="-34.60098" lon="-58.39644">
    <name>TP134</name>
  </trkpt>
  <trkpt lat="-34.60098" lon="-58.39643">
    <name>TP135</name>
  </trkpt>
  <trkpt lat="-34.60092" lon="-58.39566">
    <name>TP136</name>
  </trkpt>
  <trkpt lat="-34.60089" lon="-58.395">
    <name>TP137</name>
  </trkpt>
  <trkpt lat="-34.60089" lon="-58.39488">
    <name>TP138</name>
  </trkpt>
  <trkpt lat="-34.60088" lon="-58.39459">
    <name>TP139</name>
  </trkpt>
  <trkpt lat="-34.60085" lon="-58.39421">
    <name>TP140</name>
  </trkpt>
  <trkpt lat="-34.60082" lon="-58.39348">
    <name>TP141</name>
  </trkpt>
  <trkpt lat="-34.60082" lon="-58.39318">
    <name>TP142</name>
  </trkpt>
  <trkpt lat="-34.60082" lon="-58.39307">
    <name>TP143</name>
  </trkpt>
  <trkpt lat="-34.60081" lon="-58.39297">
    <name>TP144</name>
  </trkpt>
  <trkpt lat="-34.6008" lon="-58.39276">
    <name>TP145</name>
  </trkpt>
  <trkpt lat="-34.60079" lon="-58.39242">
    <name>TP146</name>
  </trkpt>
  <trkpt lat="-34.60076" lon="-58.39168">
    <name>TP147</name>
  </trkpt>
  <trkpt lat="-34.60075" lon="-58.39152">
    <name>TP148</name>
  </trkpt>
  <trkpt lat="-34.60074" lon="-58.39143">
    <name>TP149</name>
  </trkpt>
  <trkpt lat="-34.60073" lon="-58.39099">
    <name>TP150</name>
  </trkpt>
  <trkpt lat="-34.60072" lon="-58.39089">
    <name>TP151</name>
  </trkpt>
  <trkpt lat="-34.60071" lon="-58.39066">
    <name>TP152</name>
  </trkpt>
  <trkpt lat="-34.60071" lon="-58.39">
    <name>TP153</name>
  </trkpt>
  <trkpt lat="-34.6007" lon="-58.3896">
    <name>TP154</name>
  </trkpt>
  <trkpt lat="-34.6007" lon="-58.38948">
    <name>TP155</name>
  </trkpt>
  <trkpt lat="-34.60063" lon="-58.38808">
    <name>TP156</name>
  </trkpt>
  <trkpt lat="-34.6006" lon="-58.38744">
    <name>TP157</name>
  </trkpt>
  <trkpt lat="-34.60057" lon="-58.38672">
    <name>TP158</name>
  </trkpt>
  <trkpt lat="-34.60053" lon="-58.38598">
    <name>TP159</name>
  </trkpt>
  <trkpt lat="-34.6005" lon="-58.38535">
    <name>TP160</name>
  </trkpt>
  <trkpt lat="-34.6005014" lon="-58.3853503">
    <name>TP161</name>
  </trkpt>
  <trkpt lat="-34.60075" lon="-58.3853">
    <name>TP162</name>
  </trkpt>
  <trkpt lat="-34.60119" lon="-58.38528">
    <name>TP163</name>
  </trkpt>
  <trkpt lat="-34.60142" lon="-58.38527">
    <name>TP164</name>
  </trkpt>
  <trkpt lat="-34.60159" lon="-58.38528">
    <name>TP165</name>
  </trkpt>
  <trkpt lat="-34.60177" lon="-58.38524">
    <name>TP166</name>
  </trkpt>
  <trkpt lat="-34.60258" lon="-58.3852">
    <name>TP167</name>
  </trkpt>
  <trkpt lat="-34.60267" lon="-58.3852">
    <name>TP168</name>
  </trkpt>
  <trkpt lat="-34.60274" lon="-58.38521">
    <name>TP169</name>
  </trkpt>
  <trkpt lat="-34.60281" lon="-58.38521">
    <name>TP170</name>
  </trkpt>
  <trkpt lat="-34.60285" lon="-58.38521">
    <name>TP171</name>
  </trkpt>
  <trkpt lat="-34.60313" lon="-58.38519">
    <name>TP172</name>
  </trkpt>
  <trkpt lat="-34.60326" lon="-58.38518">
    <name>TP173</name>
  </trkpt>
  <trkpt lat="-34.60335" lon="-58.38517">
    <name>TP174</name>
  </trkpt>
  <trkpt lat="-34.60349" lon="-58.38516">
    <name>TP175</name>
  </trkpt>
  <trkpt lat="-34.60391" lon="-58.38513">
    <name>TP176</name>
  </trkpt>
  <trkpt lat="-34.6039062" lon="-58.3851311">
    <name>TP177</name>
  </trkpt>
  <trkpt lat="-34.60387" lon="-58.38435">
    <name>TP178</name>
  </trkpt>
  <trkpt lat="-34.60386" lon="-58.38396">
    <name>TP179</name>
  </trkpt>
  <trkpt lat="-34.60384" lon="-58.38371">
    <name>TP180</name>
  </trkpt>
  <trkpt lat="-34.60381" lon="-58.3833">
    <name>TP181</name>
  </trkpt>
  <trkpt lat="-34.60377" lon="-58.38249">
    <name>TP182</name>
  </trkpt>
  <trkpt lat="-34.6037667" lon="-58.38249">
    <name>TP183</name>
  </trkpt>
  <trkpt lat="-34.60379" lon="-58.38229">
    <name>TP184</name>
  </trkpt>
  <trkpt lat="-34.60381" lon="-58.38212">
    <name>TP185</name>
  </trkpt>
  <trkpt lat="-34.60382" lon="-58.382">
    <name>TP186</name>
  </trkpt>
  <trkpt lat="-34.60382" lon="-58.38196">
    <name>TP187</name>
  </trkpt>
  <trkpt lat="-34.60383" lon="-58.38191">
    <name>TP188</name>
  </trkpt>
  <trkpt lat="-34.60384" lon="-58.38182">
    <name>TP189</name>
  </trkpt>
  <trkpt lat="-34.60384" lon="-58.38162">
    <name>TP190</name>
  </trkpt>
  <trkpt lat="-34.60382" lon="-58.38155">
    <name>TP191</name>
  </trkpt>
  <trkpt lat="-34.60388" lon="-58.38128">
    <name>TP192</name>
  </trkpt>
  <trkpt lat="-34.60389" lon="-58.38123">
    <name>TP193</name>
  </trkpt>
  <trkpt lat="-34.60392" lon="-58.38112">
    <name>TP194</name>
  </trkpt>
  <trkpt lat="-34.60394" lon="-58.38107">
    <name>TP195</name>
  </trkpt>
  <trkpt lat="-34.60396" lon="-58.38104">
    <name>TP196</name>
  </trkpt>
  <trkpt lat="-34.60399" lon="-58.38102">
    <name>TP197</name>
  </trkpt>
  <trkpt lat="-34.604" lon="-58.38101">
    <name>TP198</name>
  </trkpt>
  <trkpt lat="-34.60402" lon="-58.38099">
    <name>TP199</name>
  </trkpt>
  <trkpt lat="-34.60405" lon="-58.38097">
    <name>TP200</name>
  </trkpt>
  <trkpt lat="-34.60422" lon="-58.38066">
    <name>TP201</name>
  </trkpt>
  <trkpt lat="-34.60437" lon="-58.38036">
    <name>TP202</name>
  </trkpt>
  <trkpt lat="-34.60458" lon="-58.37999">
    <name>TP203</name>
  </trkpt>
  <trkpt lat="-34.60486" lon="-58.37939">
    <name>TP204</name>
  </trkpt>
  <trkpt lat="-34.60497" lon="-58.37918">
    <name>TP205</name>
  </trkpt>
  <trkpt lat="-34.60509" lon="-58.37894">
    <name>TP206</name>
  </trkpt>
  <trkpt lat="-34.60545" lon="-58.37826">
    <name>TP207</name>
  </trkpt>
  <trkpt lat="-34.60561" lon="-58.37797">
    <name>TP208</name>
  </trkpt>
  <trkpt lat="-34.60589" lon="-58.37745">
    <name>TP209</name>
  </trkpt>
  <trkpt lat="-34.60608" lon="-58.37712">
    <name>TP210</name>
  </trkpt>
  <trkpt lat="-34.60614" lon="-58.37701">
    <name>TP211</name>
  </trkpt>
  <trkpt lat="-34.6064" lon="-58.37652">
    <name>TP212</name>
  </trkpt>
  <trkpt lat="-34.60663" lon="-58.37612">
    <name>TP213</name>
  </trkpt>
  <trkpt lat="-34.6069" lon="-58.37559">
    <name>TP214</name>
  </trkpt>
  <trkpt lat="-34.60716" lon="-58.37508">
    <name>TP215</name>
  </trkpt>
  <trkpt lat="-34.60727" lon="-58.37487">
    <name>TP216</name>
  </trkpt>
  <trkpt lat="-34.6074" lon="-58.37463">
    <name>TP217</name>
  </trkpt>
  <trkpt lat="-34.60768" lon="-58.3741">
    <name>TP218</name>
  </trkpt>
  <trkpt lat="-34.60778" lon="-58.3739">
    <name>TP219</name>
  </trkpt>
  <trkpt lat="-34.6078" lon="-58.37385">
    <name>TP220</name>
  </trkpt>
  <trkpt lat="-34.60787" lon="-58.37373">
    <name>TP221</name>
  </trkpt>
  <trkpt lat="-34.60798" lon="-58.37357">
    <name>TP222</name>
  </trkpt>
  <trkpt lat="-34.6079776" lon="-58.3735712">
    <name>TP223</name>
  </trkpt>
  <trkpt lat="-34.60816" lon="-58.37352">
    <name>TP224</name>
  </trkpt>
  <trkpt lat="-34.60819" lon="-58.37351">
    <name>TP225</name>
  </trkpt>
  <trkpt lat="-34.60826" lon="-58.37347">
    <name>TP226</name>
  </trkpt>
  <trkpt lat="-34.60831" lon="-58.37347">
    <name>TP227</name>
  </trkpt>
  <trkpt lat="-34.60837" lon="-58.37347">
    <name>TP228</name>
  </trkpt>
  <trkpt lat="-34.60842" lon="-58.37347">
    <name>TP229</name>
  </trkpt>
  <trkpt lat="-34.60845" lon="-58.37346">
    <name>TP230</name>
  </trkpt>
  <trkpt lat="-34.60855" lon="-58.37346">
    <name>TP231</name>
  </trkpt>
  <trkpt lat="-34.60869" lon="-58.37343">
    <name>TP232</name>
  </trkpt>
  <trkpt lat="-34.6086857" lon="-58.3734328">
    <name>TP233</name>
  </trkpt>
  <trkpt lat="-34.60883" lon="-58.37329">
    <name>TP234</name>
  </trkpt>
  <trkpt lat="-34.60898" lon="-58.3731">
    <name>TP235</name>
  </trkpt>
  <trkpt lat="-34.6089836" lon="-58.3730968">
    <name>TP236</name>
  </trkpt>
  <trkpt lat="-34.60897" lon="-58.37234">
    <name>TP237</name>
  </trkpt>
  <trkpt lat="-34.60897" lon="-58.3723">
    <name>TP238</name>
  </trkpt>
  <trkpt lat="-34.60896" lon="-58.37217">
    <name>TP239</name>
  </trkpt>
  <trkpt lat="-34.60895" lon="-58.37213">
    <name>TP240</name>
  </trkpt>
  <trkpt lat="-34.60892" lon="-58.37174">
    <name>TP241</name>
  </trkpt>
  <trkpt lat="-34.60891" lon="-58.37158">
    <name>TP242</name>
  </trkpt>
  <trkpt lat="-34.6089" lon="-58.37146">
    <name>TP243</name>
  </trkpt>
  <trkpt lat="-34.60888" lon="-58.3712">
    <name>TP244</name>
  </trkpt>
  <trkpt lat="-34.60887" lon="-58.37098">
    <name>TP245</name>
  </trkpt>
  <trkpt lat="-34.60887" lon="-58.37088">
    <name>TP246</name>
  </trkpt>
  <trkpt lat="-34.60882" lon="-58.37007">
    <name>TP247</name>
  </trkpt>
  <trkpt lat="-34.60881" lon="-58.36978">
    <name>TP248</name>
  </trkpt>
  <trkpt lat="-34.60881" lon="-58.36976">
    <name>TP249</name>
  </trkpt>
  <trkpt lat="-34.60881" lon="-58.36974">
    <name>TP250</name>
  </trkpt>
  <trkpt lat="-34.60882" lon="-58.36972">
    <name>TP251</name>
  </trkpt>
  <trkpt lat="-34.60882" lon="-58.36969">
    <name>TP252</name>
  </trkpt>
  <trkpt lat="-34.60883" lon="-58.36966">
    <name>TP253</name>
  </trkpt>
  <trkpt lat="-34.60885" lon="-58.36964">
    <name>TP254</name>
  </trkpt>
  <trkpt lat="-34.6088459" lon="-58.369641">
    <name>TP255</name>
  </trkpt>
  <trkpt lat="-34.60935" lon="-58.36965">
    <name>TP256</name>
  </trkpt>
  <trkpt lat="-34.60948" lon="-58.36965">
    <name>TP257</name>
  </trkpt>
  <trkpt lat="-34.60964" lon="-58.36966">
    <name>TP258</name>
  </trkpt>
  <trkpt lat="-34.60976" lon="-58.36965">
    <name>TP259</name>
  </trkpt>
  <trkpt lat="-34.60978" lon="-58.36965">
    <name>TP260</name>
  </trkpt>
  <trkpt lat="-34.60985" lon="-58.36964">
    <name>TP261</name>
  </trkpt>
  <trkpt lat="-34.61" lon="-58.36962">
    <name>TP262</name>
  </trkpt>
  <trkpt lat="-34.61015" lon="-58.36962">
    <name>TP263</name>
  </trkpt>
  <trkpt lat="-34.61034" lon="-58.36961">
    <name>TP264</name>
  </trkpt>
  <trkpt lat="-34.61092" lon="-58.36958">
    <name>TP265</name>
  </trkpt>
  <trkpt lat="-34.61099" lon="-58.36957">
    <name>TP266</name>
  </trkpt>
  <trkpt lat="-34.61116" lon="-58.36956">
    <name>TP267</name>
  </trkpt>
  <trkpt lat="-34.61151" lon="-58.36955">
    <name>TP268</name>
  </trkpt>
  <trkpt lat="-34.61154" lon="-58.36956">
    <name>TP269</name>
  </trkpt>
  <trkpt lat="-34.61186" lon="-58.36956">
    <name>TP270</name>
  </trkpt>
  <trkpt lat="-34.61219" lon="-58.36955">
    <name>TP271</name>
  </trkpt>
  <trkpt lat="-34.61232" lon="-58.36956">
    <name>TP272</name>
  </trkpt>
  <trkpt lat="-34.61273" lon="-58.36954">
    <name>TP273</name>
  </trkpt>
  <trkpt lat="-34.61341" lon="-58.36952">
    <name>TP274</name>
  </trkpt>
  <trkpt lat="-34.61361" lon="-58.36951">
    <name>TP275</name>
  </trkpt>
  <trkpt lat="-34.61383" lon="-58.36951">
    <name>TP276</name>
  </trkpt>
  <trkpt lat="-34.61435" lon="-58.36949">
    <name>TP277</name>
  </trkpt>
  <trkpt lat="-34.61477" lon="-58.36946">
    <name>TP278</name>
  </trkpt>
  <trkpt lat="-34.61532" lon="-58.36945">
    <name>TP279</name>
  </trkpt>
  <trkpt lat="-34.61574" lon="-58.36945">
    <name>TP280</name>
  </trkpt>
  <trkpt lat="-34.61584" lon="-58.36943">
    <name>TP281</name>
  </trkpt>
  <trkpt lat="-34.61652" lon="-58.36942">
    <name>TP282</name>
  </trkpt>
  <trkpt lat="-34.61657" lon="-58.36942">
    <name>TP283</name>
  </trkpt>
  <trkpt lat="-34.61663" lon="-58.36943">
    <name>TP284</name>
  </trkpt>
  <trkpt lat="-34.61686" lon="-58.36942">
    <name>TP285</name>
  </trkpt>
  <trkpt lat="-34.61696" lon="-58.36942">
    <name>TP286</name>
  </trkpt>
  <trkpt lat="-34.6171" lon="-58.36945">
    <name>TP287</name>
  </trkpt>
  <trkpt lat="-34.61759" lon="-58.36949">
    <name>TP288</name>
  </trkpt>
  <trkpt lat="-34.61776" lon="-58.3695">
    <name>TP289</name>
  </trkpt>
  <trkpt lat="-34.61786" lon="-58.36948">
    <name>TP290</name>
  </trkpt>
  <trkpt lat="-34.61817" lon="-58.36936">
    <name>TP291</name>
  </trkpt>
  <trkpt lat="-34.61836" lon="-58.36927">
    <name>TP292</name>
  </trkpt>
  <trkpt lat="-34.61845" lon="-58.36926">
    <name>TP293</name>
  </trkpt>
  <trkpt lat="-34.61874" lon="-58.36914">
    <name>TP294</name>
  </trkpt>
  <trkpt lat="-34.61895" lon="-58.36906">
    <name>TP295</name>
  </trkpt>
  <trkpt lat="-34.61905" lon="-58.36903">
    <name>TP296</name>
  </trkpt>
  <trkpt lat="-34.61917" lon="-58.36897">
    <name>TP297</name>
  </trkpt>
  <trkpt lat="-34.61981" lon="-58.36876">
    <name>TP298</name>
  </trkpt>
  <trkpt lat="-34.61993" lon="-58.36872">
    <name>TP299</name>
  </trkpt>
  <trkpt lat="-34.62012" lon="-58.36867">
    <name>TP300</name>
  </trkpt>
  <trkpt lat="-34.62023" lon="-58.36864">
    <name>TP301</name>
  </trkpt>
  <trkpt lat="-34.62026" lon="-58.36863">
    <name>TP302</name>
  </trkpt>
  <trkpt lat="-34.62039" lon="-58.36858">
    <name>TP303</name>
  </trkpt>
  <trkpt lat="-34.6206" lon="-58.36855">
    <name>TP304</name>
  </trkpt>
  <trkpt lat="-34.6207" lon="-58.36852">
    <name>TP305</name>
  </trkpt>
  <trkpt lat="-34.62076" lon="-58.36851">
    <name>TP306</name>
  </trkpt>
  <trkpt lat="-34.62169" lon="-58.36841">
    <name>TP307</name>
  </trkpt>
  <trkpt lat="-34.62201" lon="-58.36837">
    <name>TP308</name>
  </trkpt>
  <trkpt lat="-34.62204" lon="-58.36837">
    <name>TP309</name>
  </trkpt>
  <trkpt lat="-34.62208" lon="-58.36837">
    <name>TP310</name>
  </trkpt>
  <trkpt lat="-34.62264" lon="-58.36831">
    <name>TP311</name>
  </trkpt>
  <trkpt lat="-34.62283" lon="-58.36829">
    <name>TP312</name>
  </trkpt>
  <trkpt lat="-34.62304" lon="-58.36825">
    <name>TP313</name>
  </trkpt>
  <trkpt lat="-34.62348" lon="-58.36818">
    <name>TP314</name>
  </trkpt>
  <trkpt lat="-34.62407" lon="-58.36813">
    <name>TP315</name>
  </trkpt>
  <trkpt lat="-34.62445" lon="-58.36812">
    <name>TP316</name>
  </trkpt>
  <trkpt lat="-34.62488" lon="-58.36812">
    <name>TP317</name>
  </trkpt>
  <trkpt lat="-34.62521" lon="-58.36809">
    <name>TP318</name>
  </trkpt>
  <trkpt lat="-34.62538" lon="-58.36808">
    <name>TP319</name>
  </trkpt>
  <trkpt lat="-34.62621" lon="-58.36809">
    <name>TP320</name>
  </trkpt>
  <trkpt lat="-34.62644" lon="-58.36808">
    <name>TP321</name>
  </trkpt>
  <trkpt lat="-34.62684" lon="-58.36808">
    <name>TP322</name>
  </trkpt>
  <trkpt lat="-34.62691" lon="-58.36808">
    <name>TP323</name>
  </trkpt>
  <trkpt lat="-34.627" lon="-58.36808">
    <name>TP324</name>
  </trkpt>
  <trkpt lat="-34.62714" lon="-58.36809">
    <name>TP325</name>
  </trkpt>
  <trkpt lat="-34.6271362" lon="-58.3680904">
    <name>TP326</name>
  </trkpt>
  <trkpt lat="-34.62723" lon="-58.36806">
    <name>TP327</name>
  </trkpt>
  <trkpt lat="-34.62729" lon="-58.36803">
    <name>TP328</name>
  </trkpt>
  <trkpt lat="-34.62738" lon="-58.36797">
    <name>TP329</name>
  </trkpt>
  <trkpt lat="-34.62744" lon="-58.36793">
    <name>TP330</name>
  </trkpt>
  <trkpt lat="-34.6275" lon="-58.36785">
    <name>TP331</name>
  </trkpt>
  <trkpt lat="-34.62752" lon="-58.36783">
    <name>TP332</name>
  </trkpt>
  <trkpt lat="-34.62755" lon="-58.36778">
    <name>TP333</name>
  </trkpt>
  <trkpt lat="-34.62765" lon="-58.36762">
    <name>TP334</name>
  </trkpt>
  <trkpt lat="-34.62776" lon="-58.36746">
    <name>TP335</name>
  </trkpt>
  <trkpt lat="-34.62786" lon="-58.36732">
    <name>TP336</name>
  </trkpt>
  <trkpt lat="-34.62807" lon="-58.36695">
    <name>TP337</name>
  </trkpt>
  <trkpt lat="-34.62829" lon="-58.36662">
    <name>TP338</name>
  </trkpt>
  <trkpt lat="-34.62835" lon="-58.3665">
    <name>TP339</name>
  </trkpt>
  <trkpt lat="-34.62846" lon="-58.36634">
    <name>TP340</name>
  </trkpt>
  <trkpt lat="-34.62858" lon="-58.36615">
    <name>TP341</name>
  </trkpt>
  <trkpt lat="-34.62864" lon="-58.36606">
    <name>TP342</name>
  </trkpt>
  <trkpt lat="-34.6288" lon="-58.36583">
    <name>TP343</name>
  </trkpt>
  <trkpt lat="-34.62889" lon="-58.36571">
    <name>TP344</name>
  </trkpt>
  <trkpt lat="-34.62901" lon="-58.36554">
    <name>TP345</name>
  </trkpt>
  <trkpt lat="-34.62916" lon="-58.36531">
    <name>TP346</name>
  </trkpt>
  <trkpt lat="-34.62931" lon="-58.36509">
    <name>TP347</name>
  </trkpt>
  <trkpt lat="-34.62946" lon="-58.36485">
    <name>TP348</name>
  </trkpt>
  <trkpt lat="-34.62952" lon="-58.36477">
    <name>TP349</name>
  </trkpt>
  <trkpt lat="-34.62996" lon="-58.36415">
    <name>TP350</name>
  </trkpt>
  <trkpt lat="-34.63044" lon="-58.36339">
    <name>TP351</name>
  </trkpt>
  <trkpt lat="-34.63107" lon="-58.36242">
    <name>TP352</name>
  </trkpt>
  <trkpt lat="-34.63113" lon="-58.36232">
    <name>TP353</name>
  </trkpt>
  <trkpt lat="-34.63118" lon="-58.36224">
    <name>TP354</name>
  </trkpt>
  <trkpt lat="-34.63157" lon="-58.36163">
    <name>TP355</name>
  </trkpt>
  <trkpt lat="-34.63198" lon="-58.36097">
    <name>TP356</name>
  </trkpt>
  <trkpt lat="-34.63201" lon="-58.3609">
    <name>TP357</name>
  </trkpt>
  <trkpt lat="-34.63204" lon="-58.36086">
    <name>TP358</name>
  </trkpt>
  <trkpt lat="-34.6321" lon="-58.36077">
    <name>TP359</name>
  </trkpt>
  <trkpt lat="-34.63285" lon="-58.36035">
    <name>TP360</name>
  </trkpt>
  <trkpt lat="-34.63305" lon="-58.36023">
    <name>TP361</name>
  </trkpt>
  <trkpt lat="-34.6334" lon="-58.36">
    <name>TP362</name>
  </trkpt>
  <trkpt lat="-34.63364" lon="-58.35986">
    <name>TP363</name>
  </trkpt>
  <trkpt lat="-34.63369" lon="-58.35984">
    <name>TP364</name>
  </trkpt>
  <trkpt lat="-34.63373" lon="-58.35983">
    <name>TP365</name>
  </trkpt>
  <trkpt lat="-34.63389" lon="-58.35975">
    <name>TP366</name>
  </trkpt>
  <trkpt lat="-34.63413" lon="-58.3596">
    <name>TP367</name>
  </trkpt>
  <trkpt lat="-34.6345" lon="-58.35938">
    <name>TP368</name>
  </trkpt>
  <trkpt lat="-34.63474" lon="-58.35924">
    <name>TP369</name>
  </trkpt>
  <trkpt lat="-34.63487" lon="-58.35917">
    <name>TP370</name>
  </trkpt>
  <trkpt lat="-34.63496" lon="-58.3591">
    <name>TP371</name>
  </trkpt>
  <trkpt lat="-34.63501" lon="-58.35908">
    <name>TP372</name>
  </trkpt>
  <trkpt lat="-34.63516" lon="-58.35898">
    <name>TP373</name>
  </trkpt>
  <trkpt lat="-34.63521" lon="-58.35898">
    <name>TP374</name>
  </trkpt>
  <trkpt lat="-34.63524" lon="-58.35898">
    <name>TP375</name>
  </trkpt>
  <trkpt lat="-34.63527" lon="-58.35897">
    <name>TP376</name>
  </trkpt>
  <trkpt lat="-34.63534" lon="-58.35895">
    <name>TP377</name>
  </trkpt>
  <trkpt lat="-34.63597" lon="-58.35856">
    <name>TP378</name>
  </trkpt>
  <trkpt lat="-34.63615" lon="-58.35845">
    <name>TP379</name>
  </trkpt>
  <trkpt lat="-34.63698" lon="-58.35797">
    <name>TP380</name>
  </trkpt>
  <trkpt lat="-34.6369757" lon="-58.3579716">
    <name>TP381</name>
  </trkpt>
  <trkpt lat="-34.63748" lon="-58.35923">
    <name>TP382</name>
  </trkpt>
  <trkpt lat="-34.63753" lon="-58.35938">
    <name>TP383</name>
  </trkpt>
  <trkpt lat="-34.63767" lon="-58.35971">
    <name>TP384</name>
  </trkpt>
  <trkpt lat="-34.6379" lon="-58.3603">
    <name>TP385</name>
  </trkpt>
  <trkpt lat="-34.63811" lon="-58.36081">
    <name>TP386</name>
  </trkpt>
  <trkpt lat="-34.63862" lon="-58.36208">
    <name>TP387</name>
  </trkpt>
  <trkpt lat="-34.63867" lon="-58.36223">
    <name>TP388</name>
  </trkpt>
  <trkpt lat="-34.638674" lon="-58.3622334">
    <name>TP389</name>
  </trkpt>
  <trkpt lat="-34.6394" lon="-58.36181">
    <name>TP390</name>
  </trkpt>
  <trkpt lat="-34.6393973" lon="-58.3618088">
    <name>TP391</name>
  </trkpt>
  <trkpt lat="-34.6393973" lon="-58.3618088">
    <name>TP392</name>
  </trkpt>
  <trkpt lat="-34.6393973" lon="-58.3618088">
    <name>TP393</name>
  </trkpt>
  </trkseg>
</trk>
</gpx>