<?xml version="1.0" encoding="UTF-8" standalone="no" ?>
<gpx xmlns="http://www.topografix.com/GPX/1/1" xmlns:gpxx="http://www.garmin.com/xmlschemas/GpxExtensions/v3" xmlns:gpxtpx="http://www.garmin.com/xmlschemas/TrackPointExtension/v1" creator="mapstogpx.com" version="1.1" xmlns:xsi="http://www.w3.org/2001/XMLSchema-instance" xsi:schemaLocation="http://www.topografix.com/GPX/1/1 http://www.topografix.com/GPX/1/1/gpx.xsd http://www.garmin.com/xmlschemas/GpxExtensions/v3 http://www.garmin.com/xmlschemas/GpxExtensionsv3.xsd http://www.garmin.com/xmlschemas/TrackPointExtension/v1 http://www.garmin.com/xmlschemas/TrackPointExtensionv1.xsd">
  <metadata>
    <link href="http://www.mapstogpx.com">
      <text>Sverrir Sigmundarson</text>
    </link>
    <!--desc>Map data ©2025 Google</desc-->
    <!--copyright author="Google Inc">
    	<year>2025</year>
    	<license>https://developers.google.com/maps/terms</license>
    </copyright-->
    <!--url>https://www.google.ca/maps/dir/-34.5572618,-58.4114209/-34.58139,+-58.42729/Ezeiza+International+Airport+(EZE),+AU+Tte.+Gral.+Pablo+Riccheri+Km+33,5,+B1802+Ezeiza,+Provincia+de+Buenos+Aires,+Argentina/@-34.6864351,-58.637132,11z/data=!3m1!4b1!4m13!4m12!1m0!1m3!2m2!1d-58.42729!2d-34.58139!1m5!1m1!1s0x95bcd0f4e2dea557:0xf19b6f81d441cc3b!2m2!1d-58.5372424!2d-34.8164701!3e0?entry=tts&g_ep=EgoyMDI1MDExNC4wKgBIAVAD&hl=en</url-->
    <time>2025-01-15T18:41:30Z</time>
  </metadata>
  <wpt lat="-34.5572618" lon="-58.4114209">
    <name>Av. Costanera Rafael Obligado</name>
    <desc>Pizza zën, Av. Costanera Rafael Obligado, C1425 Cdad. Autónoma de Buenos Aires, Argentina</desc>
  </wpt>
  <wpt lat="-34.5813496" lon="-58.4273826">
    <name>Godoy Cruz</name>
    <desc>Godoy Cruz, C1414 Cdad. Autónoma de Buenos Aires, Argentina</desc>
  </wpt>
  <wpt lat="-34.8164701" lon="-58.5372424">
    <name>Ezeiza International Airport (EZE)</name>
    <desc>Ezeiza International Airport, AU Tte. Gral. Pablo Riccheri Km 33,5, B1802 Ezeiza, Provincia de Buenos Aires, Argentina</desc>
  </wpt>
<trk>
  <name>Av. Costanera Rafael Obligado to Ezeiza International Airport (EZE)</name>
  <number>1</number>
  <trkseg>
  <trkpt lat="-34.5572274" lon="-58.4113855">
    <name>TP001</name>
  </trkpt>
  <trkpt lat="-34.55749" lon="-58.41101">
    <name>TP002</name>
  </trkpt>
  <trkpt lat="-34.55791" lon="-58.41051">
    <name>TP003</name>
  </trkpt>
  <trkpt lat="-34.55852" lon="-58.40975">
    <name>TP004</name>
  </trkpt>
  <trkpt lat="-34.55873" lon="-58.4095">
    <name>TP005</name>
  </trkpt>
  <trkpt lat="-34.55894" lon="-58.40926">
    <name>TP006</name>
  </trkpt>
  <trkpt lat="-34.55935" lon="-58.40883">
    <name>TP007</name>
  </trkpt>
  <trkpt lat="-34.55946" lon="-58.4087">
    <name>TP008</name>
  </trkpt>
  <trkpt lat="-34.55975" lon="-58.40843">
    <name>TP009</name>
  </trkpt>
  <trkpt lat="-34.5602" lon="-58.40799">
    <name>TP010</name>
  </trkpt>
  <trkpt lat="-34.56039" lon="-58.4078">
    <name>TP011</name>
  </trkpt>
  <trkpt lat="-34.5607" lon="-58.40748">
    <name>TP012</name>
  </trkpt>
  <trkpt lat="-34.56077" lon="-58.40734">
    <name>TP013</name>
  </trkpt>
  <trkpt lat="-34.56125" lon="-58.40689">
    <name>TP014</name>
  </trkpt>
  <trkpt lat="-34.56138" lon="-58.40676">
    <name>TP015</name>
  </trkpt>
  <trkpt lat="-34.56161" lon="-58.40652">
    <name>TP016</name>
  </trkpt>
  <trkpt lat="-34.56249" lon="-58.40557">
    <name>TP017</name>
  </trkpt>
  <trkpt lat="-34.56271" lon="-58.40534">
    <name>TP018</name>
  </trkpt>
  <trkpt lat="-34.56298" lon="-58.40504">
    <name>TP019</name>
  </trkpt>
  <trkpt lat="-34.56331" lon="-58.40469">
    <name>TP020</name>
  </trkpt>
  <trkpt lat="-34.56336" lon="-58.40464">
    <name>TP021</name>
  </trkpt>
  <trkpt lat="-34.56367" lon="-58.40431">
    <name>TP022</name>
  </trkpt>
  <trkpt lat="-34.5637" lon="-58.40426">
    <name>TP023</name>
  </trkpt>
  <trkpt lat="-34.56374" lon="-58.40421">
    <name>TP024</name>
  </trkpt>
  <trkpt lat="-34.5638" lon="-58.40413">
    <name>TP025</name>
  </trkpt>
  <trkpt lat="-34.56386" lon="-58.40405">
    <name>TP026</name>
  </trkpt>
  <trkpt lat="-34.56392" lon="-58.40395">
    <name>TP027</name>
  </trkpt>
  <trkpt lat="-34.56399" lon="-58.40382">
    <name>TP028</name>
  </trkpt>
  <trkpt lat="-34.56419" lon="-58.40344">
    <name>TP029</name>
  </trkpt>
  <trkpt lat="-34.56435" lon="-58.40314">
    <name>TP030</name>
  </trkpt>
  <trkpt lat="-34.56451" lon="-58.40284">
    <name>TP031</name>
  </trkpt>
  <trkpt lat="-34.56457" lon="-58.40271">
    <name>TP032</name>
  </trkpt>
  <trkpt lat="-34.56464" lon="-58.40257">
    <name>TP033</name>
  </trkpt>
  <trkpt lat="-34.56471" lon="-58.40244">
    <name>TP034</name>
  </trkpt>
  <trkpt lat="-34.56476" lon="-58.40235">
    <name>TP035</name>
  </trkpt>
  <trkpt lat="-34.56484" lon="-58.40224">
    <name>TP036</name>
  </trkpt>
  <trkpt lat="-34.56492" lon="-58.40212">
    <name>TP037</name>
  </trkpt>
  <trkpt lat="-34.565" lon="-58.40201">
    <name>TP038</name>
  </trkpt>
  <trkpt lat="-34.56505" lon="-58.40195">
    <name>TP039</name>
  </trkpt>
  <trkpt lat="-34.56509" lon="-58.4019">
    <name>TP040</name>
  </trkpt>
  <trkpt lat="-34.56514" lon="-58.40185">
    <name>TP041</name>
  </trkpt>
  <trkpt lat="-34.56519" lon="-58.40181">
    <name>TP042</name>
  </trkpt>
  <trkpt lat="-34.56529" lon="-58.40172">
    <name>TP043</name>
  </trkpt>
  <trkpt lat="-34.56538" lon="-58.40164">
    <name>TP044</name>
  </trkpt>
  <trkpt lat="-34.56547" lon="-58.40156">
    <name>TP045</name>
  </trkpt>
  <trkpt lat="-34.56557" lon="-58.40149">
    <name>TP046</name>
  </trkpt>
  <trkpt lat="-34.56566" lon="-58.40142">
    <name>TP047</name>
  </trkpt>
  <trkpt lat="-34.56578" lon="-58.40134">
    <name>TP048</name>
  </trkpt>
  <trkpt lat="-34.56588" lon="-58.40128">
    <name>TP049</name>
  </trkpt>
  <trkpt lat="-34.56597" lon="-58.40123">
    <name>TP050</name>
  </trkpt>
  <trkpt lat="-34.56607" lon="-58.40119">
    <name>TP051</name>
  </trkpt>
  <trkpt lat="-34.56615" lon="-58.40115">
    <name>TP052</name>
  </trkpt>
  <trkpt lat="-34.56624" lon="-58.40111">
    <name>TP053</name>
  </trkpt>
  <trkpt lat="-34.5663" lon="-58.40109">
    <name>TP054</name>
  </trkpt>
  <trkpt lat="-34.56639" lon="-58.40106">
    <name>TP055</name>
  </trkpt>
  <trkpt lat="-34.56649" lon="-58.40103">
    <name>TP056</name>
  </trkpt>
  <trkpt lat="-34.56658" lon="-58.40102">
    <name>TP057</name>
  </trkpt>
  <trkpt lat="-34.56679" lon="-58.401">
    <name>TP058</name>
  </trkpt>
  <trkpt lat="-34.56693" lon="-58.40099">
    <name>TP059</name>
  </trkpt>
  <trkpt lat="-34.56745" lon="-58.40098">
    <name>TP060</name>
  </trkpt>
  <trkpt lat="-34.56752" lon="-58.40103">
    <name>TP061</name>
  </trkpt>
  <trkpt lat="-34.56753" lon="-58.40103">
    <name>TP062</name>
  </trkpt>
  <trkpt lat="-34.56763" lon="-58.40103">
    <name>TP063</name>
  </trkpt>
  <trkpt lat="-34.56769" lon="-58.40104">
    <name>TP064</name>
  </trkpt>
  <trkpt lat="-34.56775" lon="-58.40107">
    <name>TP065</name>
  </trkpt>
  <trkpt lat="-34.56781" lon="-58.4011">
    <name>TP066</name>
  </trkpt>
  <trkpt lat="-34.56787" lon="-58.40115">
    <name>TP067</name>
  </trkpt>
  <trkpt lat="-34.56797" lon="-58.40123">
    <name>TP068</name>
  </trkpt>
  <trkpt lat="-34.567972" lon="-58.4012347">
    <name>TP069</name>
  </trkpt>
  <trkpt lat="-34.56802" lon="-58.40133">
    <name>TP070</name>
  </trkpt>
  <trkpt lat="-34.56801" lon="-58.40145">
    <name>TP071</name>
  </trkpt>
  <trkpt lat="-34.568" lon="-58.40154">
    <name>TP072</name>
  </trkpt>
  <trkpt lat="-34.56799" lon="-58.40163">
    <name>TP073</name>
  </trkpt>
  <trkpt lat="-34.56795" lon="-58.40181">
    <name>TP074</name>
  </trkpt>
  <trkpt lat="-34.56791" lon="-58.40203">
    <name>TP075</name>
  </trkpt>
  <trkpt lat="-34.56788" lon="-58.40216">
    <name>TP076</name>
  </trkpt>
  <trkpt lat="-34.56788" lon="-58.40219">
    <name>TP077</name>
  </trkpt>
  <trkpt lat="-34.56789" lon="-58.40231">
    <name>TP078</name>
  </trkpt>
  <trkpt lat="-34.56785" lon="-58.40262">
    <name>TP079</name>
  </trkpt>
  <trkpt lat="-34.56776" lon="-58.4032">
    <name>TP080</name>
  </trkpt>
  <trkpt lat="-34.56771" lon="-58.40345">
    <name>TP081</name>
  </trkpt>
  <trkpt lat="-34.56763" lon="-58.40377">
    <name>TP082</name>
  </trkpt>
  <trkpt lat="-34.56756" lon="-58.40402">
    <name>TP083</name>
  </trkpt>
  <trkpt lat="-34.5675" lon="-58.40424">
    <name>TP084</name>
  </trkpt>
  <trkpt lat="-34.56744" lon="-58.40442">
    <name>TP085</name>
  </trkpt>
  <trkpt lat="-34.56735" lon="-58.40466">
    <name>TP086</name>
  </trkpt>
  <trkpt lat="-34.56727" lon="-58.40483">
    <name>TP087</name>
  </trkpt>
  <trkpt lat="-34.56706" lon="-58.40528">
    <name>TP088</name>
  </trkpt>
  <trkpt lat="-34.56675" lon="-58.40592">
    <name>TP089</name>
  </trkpt>
  <trkpt lat="-34.56667" lon="-58.40612">
    <name>TP090</name>
  </trkpt>
  <trkpt lat="-34.56663" lon="-58.40622">
    <name>TP091</name>
  </trkpt>
  <trkpt lat="-34.5666" lon="-58.40633">
    <name>TP092</name>
  </trkpt>
  <trkpt lat="-34.56658" lon="-58.40643">
    <name>TP093</name>
  </trkpt>
  <trkpt lat="-34.56657" lon="-58.40652">
    <name>TP094</name>
  </trkpt>
  <trkpt lat="-34.56657" lon="-58.4066">
    <name>TP095</name>
  </trkpt>
  <trkpt lat="-34.56657" lon="-58.40672">
    <name>TP096</name>
  </trkpt>
  <trkpt lat="-34.56658" lon="-58.40682">
    <name>TP097</name>
  </trkpt>
  <trkpt lat="-34.56659" lon="-58.4069">
    <name>TP098</name>
  </trkpt>
  <trkpt lat="-34.56661" lon="-58.40698">
    <name>TP099</name>
  </trkpt>
  <trkpt lat="-34.56663" lon="-58.40707">
    <name>TP100</name>
  </trkpt>
  <trkpt lat="-34.56667" lon="-58.40718">
    <name>TP101</name>
  </trkpt>
  <trkpt lat="-34.56671" lon="-58.40728">
    <name>TP102</name>
  </trkpt>
  <trkpt lat="-34.56676" lon="-58.40738">
    <name>TP103</name>
  </trkpt>
  <trkpt lat="-34.56681" lon="-58.40747">
    <name>TP104</name>
  </trkpt>
  <trkpt lat="-34.56687" lon="-58.40756">
    <name>TP105</name>
  </trkpt>
  <trkpt lat="-34.56692" lon="-58.40762">
    <name>TP106</name>
  </trkpt>
  <trkpt lat="-34.56754" lon="-58.40814">
    <name>TP107</name>
  </trkpt>
  <trkpt lat="-34.56762" lon="-58.40819">
    <name>TP108</name>
  </trkpt>
  <trkpt lat="-34.5677" lon="-58.40825">
    <name>TP109</name>
  </trkpt>
  <trkpt lat="-34.56812" lon="-58.40861">
    <name>TP110</name>
  </trkpt>
  <trkpt lat="-34.56847" lon="-58.40891">
    <name>TP111</name>
  </trkpt>
  <trkpt lat="-34.56873" lon="-58.40918">
    <name>TP112</name>
  </trkpt>
  <trkpt lat="-34.56887" lon="-58.40932">
    <name>TP113</name>
  </trkpt>
  <trkpt lat="-34.56894" lon="-58.40941">
    <name>TP114</name>
  </trkpt>
  <trkpt lat="-34.56897" lon="-58.40944">
    <name>TP115</name>
  </trkpt>
  <trkpt lat="-34.5691" lon="-58.40955">
    <name>TP116</name>
  </trkpt>
  <trkpt lat="-34.56937" lon="-58.40981">
    <name>TP117</name>
  </trkpt>
  <trkpt lat="-34.5696" lon="-58.41003">
    <name>TP118</name>
  </trkpt>
  <trkpt lat="-34.57024" lon="-58.41064">
    <name>TP119</name>
  </trkpt>
  <trkpt lat="-34.5707" lon="-58.41107">
    <name>TP120</name>
  </trkpt>
  <trkpt lat="-34.57086" lon="-58.41122">
    <name>TP121</name>
  </trkpt>
  <trkpt lat="-34.57097" lon="-58.41132">
    <name>TP122</name>
  </trkpt>
  <trkpt lat="-34.5709668" lon="-58.4113179">
    <name>TP123</name>
  </trkpt>
  <trkpt lat="-34.57112" lon="-58.41143">
    <name>TP124</name>
  </trkpt>
  <trkpt lat="-34.57122" lon="-58.41149">
    <name>TP125</name>
  </trkpt>
  <trkpt lat="-34.57128" lon="-58.41152">
    <name>TP126</name>
  </trkpt>
  <trkpt lat="-34.57137" lon="-58.41154">
    <name>TP127</name>
  </trkpt>
  <trkpt lat="-34.57152" lon="-58.41159">
    <name>TP128</name>
  </trkpt>
  <trkpt lat="-34.5716" lon="-58.41163">
    <name>TP129</name>
  </trkpt>
  <trkpt lat="-34.57166" lon="-58.41168">
    <name>TP130</name>
  </trkpt>
  <trkpt lat="-34.57173" lon="-58.41173">
    <name>TP131</name>
  </trkpt>
  <trkpt lat="-34.57178" lon="-58.41177">
    <name>TP132</name>
  </trkpt>
  <trkpt lat="-34.57183" lon="-58.41182">
    <name>TP133</name>
  </trkpt>
  <trkpt lat="-34.57212" lon="-58.41226">
    <name>TP134</name>
  </trkpt>
  <trkpt lat="-34.57221" lon="-58.41234">
    <name>TP135</name>
  </trkpt>
  <trkpt lat="-34.57237" lon="-58.41251">
    <name>TP136</name>
  </trkpt>
  <trkpt lat="-34.57241" lon="-58.41255">
    <name>TP137</name>
  </trkpt>
  <trkpt lat="-34.57243" lon="-58.41258">
    <name>TP138</name>
  </trkpt>
  <trkpt lat="-34.57244" lon="-58.41259">
    <name>TP139</name>
  </trkpt>
  <trkpt lat="-34.57249" lon="-58.41274">
    <name>TP140</name>
  </trkpt>
  <trkpt lat="-34.57268" lon="-58.41291">
    <name>TP141</name>
  </trkpt>
  <trkpt lat="-34.57309" lon="-58.41329">
    <name>TP142</name>
  </trkpt>
  <trkpt lat="-34.57371" lon="-58.41387">
    <name>TP143</name>
  </trkpt>
  <trkpt lat="-34.57402" lon="-58.41416">
    <name>TP144</name>
  </trkpt>
  <trkpt lat="-34.57426" lon="-58.41439">
    <name>TP145</name>
  </trkpt>
  <trkpt lat="-34.5742564" lon="-58.4143897">
    <name>TP146</name>
  </trkpt>
  <trkpt lat="-34.57427" lon="-58.41445">
    <name>TP147</name>
  </trkpt>
  <trkpt lat="-34.57431" lon="-58.41452">
    <name>TP148</name>
  </trkpt>
  <trkpt lat="-34.57436" lon="-58.4146">
    <name>TP149</name>
  </trkpt>
  <trkpt lat="-34.57439" lon="-58.41464">
    <name>TP150</name>
  </trkpt>
  <trkpt lat="-34.57441" lon="-58.41469">
    <name>TP151</name>
  </trkpt>
  <trkpt lat="-34.57444" lon="-58.41473">
    <name>TP152</name>
  </trkpt>
  <trkpt lat="-34.57452" lon="-58.41487">
    <name>TP153</name>
  </trkpt>
  <trkpt lat="-34.57463" lon="-58.41504">
    <name>TP154</name>
  </trkpt>
  <trkpt lat="-34.5746326" lon="-58.4150407">
    <name>TP155</name>
  </trkpt>
  <trkpt lat="-34.57463" lon="-58.41505">
    <name>TP156</name>
  </trkpt>
  <trkpt lat="-34.57463" lon="-58.41506">
    <name>TP157</name>
  </trkpt>
  <trkpt lat="-34.57463" lon="-58.41507">
    <name>TP158</name>
  </trkpt>
  <trkpt lat="-34.57464" lon="-58.41508">
    <name>TP159</name>
  </trkpt>
  <trkpt lat="-34.57464" lon="-58.4151">
    <name>TP160</name>
  </trkpt>
  <trkpt lat="-34.57464" lon="-58.41511">
    <name>TP161</name>
  </trkpt>
  <trkpt lat="-34.57464" lon="-58.41512">
    <name>TP162</name>
  </trkpt>
  <trkpt lat="-34.57464" lon="-58.41513">
    <name>TP163</name>
  </trkpt>
  <trkpt lat="-34.57464" lon="-58.41514">
    <name>TP164</name>
  </trkpt>
  <trkpt lat="-34.57464" lon="-58.41515">
    <name>TP165</name>
  </trkpt>
  <trkpt lat="-34.57464" lon="-58.41516">
    <name>TP166</name>
  </trkpt>
  <trkpt lat="-34.57465" lon="-58.41516">
    <name>TP167</name>
  </trkpt>
  <trkpt lat="-34.57465" lon="-58.41517">
    <name>TP168</name>
  </trkpt>
  <trkpt lat="-34.57465" lon="-58.41518">
    <name>TP169</name>
  </trkpt>
  <trkpt lat="-34.57465" lon="-58.41519">
    <name>TP170</name>
  </trkpt>
  <trkpt lat="-34.57465" lon="-58.4152">
    <name>TP171</name>
  </trkpt>
  <trkpt lat="-34.57466" lon="-58.41524">
    <name>TP172</name>
  </trkpt>
  <trkpt lat="-34.57468" lon="-58.41527">
    <name>TP173</name>
  </trkpt>
  <trkpt lat="-34.57469" lon="-58.41531">
    <name>TP174</name>
  </trkpt>
  <trkpt lat="-34.57471" lon="-58.41533">
    <name>TP175</name>
  </trkpt>
  <trkpt lat="-34.57473" lon="-58.41536">
    <name>TP176</name>
  </trkpt>
  <trkpt lat="-34.57475" lon="-58.41538">
    <name>TP177</name>
  </trkpt>
  <trkpt lat="-34.57478" lon="-58.4154">
    <name>TP178</name>
  </trkpt>
  <trkpt lat="-34.5748" lon="-58.41542">
    <name>TP179</name>
  </trkpt>
  <trkpt lat="-34.57483" lon="-58.41543">
    <name>TP180</name>
  </trkpt>
  <trkpt lat="-34.57486" lon="-58.41544">
    <name>TP181</name>
  </trkpt>
  <trkpt lat="-34.57489" lon="-58.41544">
    <name>TP182</name>
  </trkpt>
  <trkpt lat="-34.57492" lon="-58.41544">
    <name>TP183</name>
  </trkpt>
  <trkpt lat="-34.57495" lon="-58.41544">
    <name>TP184</name>
  </trkpt>
  <trkpt lat="-34.57498" lon="-58.41543">
    <name>TP185</name>
  </trkpt>
  <trkpt lat="-34.57499" lon="-58.41543">
    <name>TP186</name>
  </trkpt>
  <trkpt lat="-34.575" lon="-58.41542">
    <name>TP187</name>
  </trkpt>
  <trkpt lat="-34.57501" lon="-58.41542">
    <name>TP188</name>
  </trkpt>
  <trkpt lat="-34.57502" lon="-58.41542">
    <name>TP189</name>
  </trkpt>
  <trkpt lat="-34.57502" lon="-58.41541">
    <name>TP190</name>
  </trkpt>
  <trkpt lat="-34.57503" lon="-58.41541">
    <name>TP191</name>
  </trkpt>
  <trkpt lat="-34.57504" lon="-58.4154">
    <name>TP192</name>
  </trkpt>
  <trkpt lat="-34.57505" lon="-58.41539">
    <name>TP193</name>
  </trkpt>
  <trkpt lat="-34.5752" lon="-58.41546">
    <name>TP194</name>
  </trkpt>
  <trkpt lat="-34.57528" lon="-58.41549">
    <name>TP195</name>
  </trkpt>
  <trkpt lat="-34.5753" lon="-58.4155">
    <name>TP196</name>
  </trkpt>
  <trkpt lat="-34.57547" lon="-58.41562">
    <name>TP197</name>
  </trkpt>
  <trkpt lat="-34.5756" lon="-58.41575">
    <name>TP198</name>
  </trkpt>
  <trkpt lat="-34.57602" lon="-58.41614">
    <name>TP199</name>
  </trkpt>
  <trkpt lat="-34.57636" lon="-58.41645">
    <name>TP200</name>
  </trkpt>
  <trkpt lat="-34.57686" lon="-58.41692">
    <name>TP201</name>
  </trkpt>
  <trkpt lat="-34.57713" lon="-58.41715">
    <name>TP202</name>
  </trkpt>
  <trkpt lat="-34.57724" lon="-58.41722">
    <name>TP203</name>
  </trkpt>
  <trkpt lat="-34.57735" lon="-58.41731">
    <name>TP204</name>
  </trkpt>
  <trkpt lat="-34.57751" lon="-58.41748">
    <name>TP205</name>
  </trkpt>
  <trkpt lat="-34.57758" lon="-58.41755">
    <name>TP206</name>
  </trkpt>
  <trkpt lat="-34.57771" lon="-58.41766">
    <name>TP207</name>
  </trkpt>
  <trkpt lat="-34.5778" lon="-58.41774">
    <name>TP208</name>
  </trkpt>
  <trkpt lat="-34.57794" lon="-58.41787">
    <name>TP209</name>
  </trkpt>
  <trkpt lat="-34.57851" lon="-58.41844">
    <name>TP210</name>
  </trkpt>
  <trkpt lat="-34.57874" lon="-58.41865">
    <name>TP211</name>
  </trkpt>
  <trkpt lat="-34.5789" lon="-58.4188">
    <name>TP212</name>
  </trkpt>
  <trkpt lat="-34.579" lon="-58.4189">
    <name>TP213</name>
  </trkpt>
  <trkpt lat="-34.57906" lon="-58.41896">
    <name>TP214</name>
  </trkpt>
  <trkpt lat="-34.57911" lon="-58.41901">
    <name>TP215</name>
  </trkpt>
  <trkpt lat="-34.57928" lon="-58.41917">
    <name>TP216</name>
  </trkpt>
  <trkpt lat="-34.57937" lon="-58.41925">
    <name>TP217</name>
  </trkpt>
  <trkpt lat="-34.57968" lon="-58.41954">
    <name>TP218</name>
  </trkpt>
  <trkpt lat="-34.58036" lon="-58.42019">
    <name>TP219</name>
  </trkpt>
  <trkpt lat="-34.58068" lon="-58.42049">
    <name>TP220</name>
  </trkpt>
  <trkpt lat="-34.58076" lon="-58.42074">
    <name>TP221</name>
  </trkpt>
  <trkpt lat="-34.580757" lon="-58.420744">
    <name>TP222</name>
  </trkpt>
  <trkpt lat="-34.58072" lon="-58.42086">
    <name>TP223</name>
  </trkpt>
  <trkpt lat="-34.5807" lon="-58.42092">
    <name>TP224</name>
  </trkpt>
  <trkpt lat="-34.58068" lon="-58.42102">
    <name>TP225</name>
  </trkpt>
  <trkpt lat="-34.58067" lon="-58.42109">
    <name>TP226</name>
  </trkpt>
  <trkpt lat="-34.58066" lon="-58.42117">
    <name>TP227</name>
  </trkpt>
  <trkpt lat="-34.58066" lon="-58.42123">
    <name>TP228</name>
  </trkpt>
  <trkpt lat="-34.58067" lon="-58.42131">
    <name>TP229</name>
  </trkpt>
  <trkpt lat="-34.58068" lon="-58.4214">
    <name>TP230</name>
  </trkpt>
  <trkpt lat="-34.5806786" lon="-58.4213999">
    <name>TP231</name>
  </trkpt>
  <trkpt lat="-34.58072" lon="-58.42155">
    <name>TP232</name>
  </trkpt>
  <trkpt lat="-34.58073" lon="-58.42162">
    <name>TP233</name>
  </trkpt>
  <trkpt lat="-34.58073" lon="-58.42166">
    <name>TP234</name>
  </trkpt>
  <trkpt lat="-34.58073" lon="-58.4217">
    <name>TP235</name>
  </trkpt>
  <trkpt lat="-34.58072" lon="-58.42174">
    <name>TP236</name>
  </trkpt>
  <trkpt lat="-34.58071" lon="-58.42178">
    <name>TP237</name>
  </trkpt>
  <trkpt lat="-34.58069" lon="-58.42182">
    <name>TP238</name>
  </trkpt>
  <trkpt lat="-34.58064" lon="-58.4219">
    <name>TP239</name>
  </trkpt>
  <trkpt lat="-34.58052" lon="-58.4221">
    <name>TP240</name>
  </trkpt>
  <trkpt lat="-34.58034" lon="-58.42235">
    <name>TP241</name>
  </trkpt>
  <trkpt lat="-34.57984" lon="-58.42313">
    <name>TP242</name>
  </trkpt>
  <trkpt lat="-34.57965" lon="-58.42344">
    <name>TP243</name>
  </trkpt>
  <trkpt lat="-34.5796517" lon="-58.423436">
    <name>TP244</name>
  </trkpt>
  <trkpt lat="-34.57976" lon="-58.42353">
    <name>TP245</name>
  </trkpt>
  <trkpt lat="-34.57989" lon="-58.42365">
    <name>TP246</name>
  </trkpt>
  <trkpt lat="-34.58032" lon="-58.42401">
    <name>TP247</name>
  </trkpt>
  <trkpt lat="-34.58079" lon="-58.42442">
    <name>TP248</name>
  </trkpt>
  <trkpt lat="-34.58094" lon="-58.42454">
    <name>TP249</name>
  </trkpt>
  <trkpt lat="-34.58185" lon="-58.42536">
    <name>TP250</name>
  </trkpt>
  <trkpt lat="-34.58195" lon="-58.42544">
    <name>TP251</name>
  </trkpt>
  <trkpt lat="-34.583" lon="-58.42639">
    <name>TP252</name>
  </trkpt>
  <trkpt lat="-34.5830027" lon="-58.4263934">
    <name>TP253</name>
  </trkpt>
  <trkpt lat="-34.58291" lon="-58.42653">
    <name>TP254</name>
  </trkpt>
  <trkpt lat="-34.58241" lon="-58.42719">
    <name>TP255</name>
  </trkpt>
  <trkpt lat="-34.58179" lon="-58.42801">
    <name>TP256</name>
  </trkpt>
  <trkpt lat="-34.5817911" lon="-58.4280052">
    <name>TP257</name>
  </trkpt>
  <trkpt lat="-34.58126" lon="-58.42753">
    <name>TP258</name>
  </trkpt>
  <trkpt lat="-34.5812603" lon="-58.4275295">
    <name>TP259</name>
  </trkpt>
  <trkpt lat="-34.5812603" lon="-58.4275295">
    <name>TP260</name>
  </trkpt>
  <trkpt lat="-34.58121" lon="-58.42749">
    <name>TP261</name>
  </trkpt>
  <trkpt lat="-34.58098" lon="-58.42727">
    <name>TP262</name>
  </trkpt>
  <trkpt lat="-34.5808" lon="-58.42713">
    <name>TP263</name>
  </trkpt>
  <trkpt lat="-34.58073" lon="-58.42706">
    <name>TP264</name>
  </trkpt>
  <trkpt lat="-34.58067" lon="-58.42701">
    <name>TP265</name>
  </trkpt>
  <trkpt lat="-34.57996" lon="-58.42639">
    <name>TP266</name>
  </trkpt>
  <trkpt lat="-34.57973" lon="-58.4262">
    <name>TP267</name>
  </trkpt>
  <trkpt lat="-34.5797285" lon="-58.4261974">
    <name>TP268</name>
  </trkpt>
  <trkpt lat="-34.58034" lon="-58.42535">
    <name>TP269</name>
  </trkpt>
  <trkpt lat="-34.5803448" lon="-58.4253453">
    <name>TP270</name>
  </trkpt>
  <trkpt lat="-34.58134" lon="-58.42624">
    <name>TP271</name>
  </trkpt>
  <trkpt lat="-34.5822" lon="-58.42698">
    <name>TP272</name>
  </trkpt>
  <trkpt lat="-34.58238" lon="-58.42714">
    <name>TP273</name>
  </trkpt>
  <trkpt lat="-34.58241" lon="-58.42719">
    <name>TP274</name>
  </trkpt>
  <trkpt lat="-34.5824078" lon="-58.4271892">
    <name>TP275</name>
  </trkpt>
  <trkpt lat="-34.58291" lon="-58.42653">
    <name>TP276</name>
  </trkpt>
  <trkpt lat="-34.583" lon="-58.42639">
    <name>TP277</name>
  </trkpt>
  <trkpt lat="-34.5833" lon="-58.42603">
    <name>TP278</name>
  </trkpt>
  <trkpt lat="-34.58393" lon="-58.42519">
    <name>TP279</name>
  </trkpt>
  <trkpt lat="-34.58465" lon="-58.42424">
    <name>TP280</name>
  </trkpt>
  <trkpt lat="-34.58541" lon="-58.42324">
    <name>TP281</name>
  </trkpt>
  <trkpt lat="-34.58614" lon="-58.4223">
    <name>TP282</name>
  </trkpt>
  <trkpt lat="-34.58694" lon="-58.42125">
    <name>TP283</name>
  </trkpt>
  <trkpt lat="-34.58777" lon="-58.42017">
    <name>TP284</name>
  </trkpt>
  <trkpt lat="-34.58814" lon="-58.4197">
    <name>TP285</name>
  </trkpt>
  <trkpt lat="-34.5884" lon="-58.41939">
    <name>TP286</name>
  </trkpt>
  <trkpt lat="-34.58906" lon="-58.41858">
    <name>TP287</name>
  </trkpt>
  <trkpt lat="-34.58946" lon="-58.41806">
    <name>TP288</name>
  </trkpt>
  <trkpt lat="-34.58962" lon="-58.41785">
    <name>TP289</name>
  </trkpt>
  <trkpt lat="-34.589616" lon="-58.4178544">
    <name>TP290</name>
  </trkpt>
  <trkpt lat="-34.58963" lon="-58.41814">
    <name>TP291</name>
  </trkpt>
  <trkpt lat="-34.5896309" lon="-58.4181427">
    <name>TP292</name>
  </trkpt>
  <trkpt lat="-34.58993" lon="-58.41837">
    <name>TP293</name>
  </trkpt>
  <trkpt lat="-34.59079" lon="-58.41903">
    <name>TP294</name>
  </trkpt>
  <trkpt lat="-34.59085" lon="-58.41906">
    <name>TP295</name>
  </trkpt>
  <trkpt lat="-34.59088" lon="-58.41907">
    <name>TP296</name>
  </trkpt>
  <trkpt lat="-34.59092" lon="-58.41908">
    <name>TP297</name>
  </trkpt>
  <trkpt lat="-34.59101" lon="-58.4191">
    <name>TP298</name>
  </trkpt>
  <trkpt lat="-34.59155" lon="-58.41919">
    <name>TP299</name>
  </trkpt>
  <trkpt lat="-34.59165" lon="-58.4192">
    <name>TP300</name>
  </trkpt>
  <trkpt lat="-34.59196" lon="-58.41921">
    <name>TP301</name>
  </trkpt>
  <trkpt lat="-34.59219" lon="-58.41925">
    <name>TP302</name>
  </trkpt>
  <trkpt lat="-34.59241" lon="-58.41929">
    <name>TP303</name>
  </trkpt>
  <trkpt lat="-34.59276" lon="-58.41935">
    <name>TP304</name>
  </trkpt>
  <trkpt lat="-34.59368" lon="-58.4195">
    <name>TP305</name>
  </trkpt>
  <trkpt lat="-34.59413" lon="-58.41958">
    <name>TP306</name>
  </trkpt>
  <trkpt lat="-34.59428" lon="-58.4196">
    <name>TP307</name>
  </trkpt>
  <trkpt lat="-34.59519" lon="-58.41976">
    <name>TP308</name>
  </trkpt>
  <trkpt lat="-34.5953" lon="-58.41977">
    <name>TP309</name>
  </trkpt>
  <trkpt lat="-34.59541" lon="-58.41979">
    <name>TP310</name>
  </trkpt>
  <trkpt lat="-34.59649" lon="-58.41998">
    <name>TP311</name>
  </trkpt>
  <trkpt lat="-34.59705" lon="-58.42007">
    <name>TP312</name>
  </trkpt>
  <trkpt lat="-34.59716" lon="-58.42009">
    <name>TP313</name>
  </trkpt>
  <trkpt lat="-34.59739" lon="-58.42013">
    <name>TP314</name>
  </trkpt>
  <trkpt lat="-34.59758" lon="-58.42016">
    <name>TP315</name>
  </trkpt>
  <trkpt lat="-34.59763" lon="-58.42016">
    <name>TP316</name>
  </trkpt>
  <trkpt lat="-34.59776" lon="-58.42017">
    <name>TP317</name>
  </trkpt>
  <trkpt lat="-34.59797" lon="-58.4202">
    <name>TP318</name>
  </trkpt>
  <trkpt lat="-34.59815" lon="-58.42022">
    <name>TP319</name>
  </trkpt>
  <trkpt lat="-34.59838" lon="-58.42026">
    <name>TP320</name>
  </trkpt>
  <trkpt lat="-34.59866" lon="-58.42032">
    <name>TP321</name>
  </trkpt>
  <trkpt lat="-34.59891" lon="-58.42035">
    <name>TP322</name>
  </trkpt>
  <trkpt lat="-34.59953" lon="-58.42045">
    <name>TP323</name>
  </trkpt>
  <trkpt lat="-34.59968" lon="-58.42047">
    <name>TP324</name>
  </trkpt>
  <trkpt lat="-34.60004" lon="-58.42051">
    <name>TP325</name>
  </trkpt>
  <trkpt lat="-34.6003" lon="-58.42054">
    <name>TP326</name>
  </trkpt>
  <trkpt lat="-34.60071" lon="-58.4206">
    <name>TP327</name>
  </trkpt>
  <trkpt lat="-34.60078" lon="-58.42063">
    <name>TP328</name>
  </trkpt>
  <trkpt lat="-34.60086" lon="-58.42064">
    <name>TP329</name>
  </trkpt>
  <trkpt lat="-34.60108" lon="-58.42067">
    <name>TP330</name>
  </trkpt>
  <trkpt lat="-34.60123" lon="-58.4207">
    <name>TP331</name>
  </trkpt>
  <trkpt lat="-34.60153" lon="-58.42075">
    <name>TP332</name>
  </trkpt>
  <trkpt lat="-34.60173" lon="-58.42078">
    <name>TP333</name>
  </trkpt>
  <trkpt lat="-34.60191" lon="-58.42079">
    <name>TP334</name>
  </trkpt>
  <trkpt lat="-34.60317" lon="-58.42094">
    <name>TP335</name>
  </trkpt>
  <trkpt lat="-34.60381" lon="-58.42105">
    <name>TP336</name>
  </trkpt>
  <trkpt lat="-34.60401" lon="-58.42107">
    <name>TP337</name>
  </trkpt>
  <trkpt lat="-34.60413" lon="-58.42109">
    <name>TP338</name>
  </trkpt>
  <trkpt lat="-34.60491" lon="-58.4212">
    <name>TP339</name>
  </trkpt>
  <trkpt lat="-34.60601" lon="-58.42129">
    <name>TP340</name>
  </trkpt>
  <trkpt lat="-34.60667" lon="-58.42136">
    <name>TP341</name>
  </trkpt>
  <trkpt lat="-34.60724" lon="-58.42142">
    <name>TP342</name>
  </trkpt>
  <trkpt lat="-34.60855" lon="-58.42151">
    <name>TP343</name>
  </trkpt>
  <trkpt lat="-34.60866" lon="-58.4215">
    <name>TP344</name>
  </trkpt>
  <trkpt lat="-34.60884" lon="-58.42147">
    <name>TP345</name>
  </trkpt>
  <trkpt lat="-34.60909" lon="-58.42143">
    <name>TP346</name>
  </trkpt>
  <trkpt lat="-34.60967" lon="-58.42132">
    <name>TP347</name>
  </trkpt>
  <trkpt lat="-34.60972" lon="-58.42132">
    <name>TP348</name>
  </trkpt>
  <trkpt lat="-34.60982" lon="-58.42131">
    <name>TP349</name>
  </trkpt>
  <trkpt lat="-34.60988" lon="-58.42129">
    <name>TP350</name>
  </trkpt>
  <trkpt lat="-34.60999" lon="-58.42128">
    <name>TP351</name>
  </trkpt>
  <trkpt lat="-34.61002" lon="-58.42127">
    <name>TP352</name>
  </trkpt>
  <trkpt lat="-34.61082" lon="-58.42115">
    <name>TP353</name>
  </trkpt>
  <trkpt lat="-34.6111" lon="-58.42111">
    <name>TP354</name>
  </trkpt>
  <trkpt lat="-34.61146" lon="-58.42105">
    <name>TP355</name>
  </trkpt>
  <trkpt lat="-34.6114617" lon="-58.421048">
    <name>TP356</name>
  </trkpt>
  <trkpt lat="-34.61153" lon="-58.42123">
    <name>TP357</name>
  </trkpt>
  <trkpt lat="-34.61205" lon="-58.42239">
    <name>TP358</name>
  </trkpt>
  <trkpt lat="-34.61211" lon="-58.42255">
    <name>TP359</name>
  </trkpt>
  <trkpt lat="-34.61233" lon="-58.42305">
    <name>TP360</name>
  </trkpt>
  <trkpt lat="-34.6126" lon="-58.42363">
    <name>TP361</name>
  </trkpt>
  <trkpt lat="-34.61319" lon="-58.42493">
    <name>TP362</name>
  </trkpt>
  <trkpt lat="-34.61325" lon="-58.42508">
    <name>TP363</name>
  </trkpt>
  <trkpt lat="-34.61373" lon="-58.42617">
    <name>TP364</name>
  </trkpt>
  <trkpt lat="-34.61407" lon="-58.42693">
    <name>TP365</name>
  </trkpt>
  <trkpt lat="-34.61412" lon="-58.42705">
    <name>TP366</name>
  </trkpt>
  <trkpt lat="-34.61417" lon="-58.42717">
    <name>TP367</name>
  </trkpt>
  <trkpt lat="-34.61425" lon="-58.42737">
    <name>TP368</name>
  </trkpt>
  <trkpt lat="-34.6143" lon="-58.42747">
    <name>TP369</name>
  </trkpt>
  <trkpt lat="-34.61433" lon="-58.42754">
    <name>TP370</name>
  </trkpt>
  <trkpt lat="-34.61439" lon="-58.42762">
    <name>TP371</name>
  </trkpt>
  <trkpt lat="-34.61482" lon="-58.42863">
    <name>TP372</name>
  </trkpt>
  <trkpt lat="-34.61484" lon="-58.42868">
    <name>TP373</name>
  </trkpt>
  <trkpt lat="-34.61488" lon="-58.42875">
    <name>TP374</name>
  </trkpt>
  <trkpt lat="-34.61506" lon="-58.42916">
    <name>TP375</name>
  </trkpt>
  <trkpt lat="-34.61512" lon="-58.42928">
    <name>TP376</name>
  </trkpt>
  <trkpt lat="-34.6151176" lon="-58.4292771">
    <name>TP377</name>
  </trkpt>
  <trkpt lat="-34.61521" lon="-58.42924">
    <name>TP378</name>
  </trkpt>
  <trkpt lat="-34.61523" lon="-58.42923">
    <name>TP379</name>
  </trkpt>
  <trkpt lat="-34.61527" lon="-58.42922">
    <name>TP380</name>
  </trkpt>
  <trkpt lat="-34.61538" lon="-58.42926">
    <name>TP381</name>
  </trkpt>
  <trkpt lat="-34.61557" lon="-58.42922">
    <name>TP382</name>
  </trkpt>
  <trkpt lat="-34.61586" lon="-58.42915">
    <name>TP383</name>
  </trkpt>
  <trkpt lat="-34.61719" lon="-58.42885">
    <name>TP384</name>
  </trkpt>
  <trkpt lat="-34.61833" lon="-58.42859">
    <name>TP385</name>
  </trkpt>
  <trkpt lat="-34.61869" lon="-58.42852">
    <name>TP386</name>
  </trkpt>
  <trkpt lat="-34.6189" lon="-58.42848">
    <name>TP387</name>
  </trkpt>
  <trkpt lat="-34.61942" lon="-58.42836">
    <name>TP388</name>
  </trkpt>
  <trkpt lat="-34.62066" lon="-58.42814">
    <name>TP389</name>
  </trkpt>
  <trkpt lat="-34.62079" lon="-58.42812">
    <name>TP390</name>
  </trkpt>
  <trkpt lat="-34.62124" lon="-58.42802">
    <name>TP391</name>
  </trkpt>
  <trkpt lat="-34.62129" lon="-58.42801">
    <name>TP392</name>
  </trkpt>
  <trkpt lat="-34.62135" lon="-58.428">
    <name>TP393</name>
  </trkpt>
  <trkpt lat="-34.62143" lon="-58.42798">
    <name>TP394</name>
  </trkpt>
  <trkpt lat="-34.6219" lon="-58.42789">
    <name>TP395</name>
  </trkpt>
  <trkpt lat="-34.62207" lon="-58.42787">
    <name>TP396</name>
  </trkpt>
  <trkpt lat="-34.62361" lon="-58.42756">
    <name>TP397</name>
  </trkpt>
  <trkpt lat="-34.62377" lon="-58.42753">
    <name>TP398</name>
  </trkpt>
  <trkpt lat="-34.62427" lon="-58.42742">
    <name>TP399</name>
  </trkpt>
  <trkpt lat="-34.62498" lon="-58.42729">
    <name>TP400</name>
  </trkpt>
  <trkpt lat="-34.6251" lon="-58.42727">
    <name>TP401</name>
  </trkpt>
  <trkpt lat="-34.62517" lon="-58.42725">
    <name>TP402</name>
  </trkpt>
  <trkpt lat="-34.62574" lon="-58.42712">
    <name>TP403</name>
  </trkpt>
  <trkpt lat="-34.62608" lon="-58.42704">
    <name>TP404</name>
  </trkpt>
  <trkpt lat="-34.62624" lon="-58.42699">
    <name>TP405</name>
  </trkpt>
  <trkpt lat="-34.62659" lon="-58.42691">
    <name>TP406</name>
  </trkpt>
  <trkpt lat="-34.62664" lon="-58.4269">
    <name>TP407</name>
  </trkpt>
  <trkpt lat="-34.62701" lon="-58.42681">
    <name>TP408</name>
  </trkpt>
  <trkpt lat="-34.62726" lon="-58.42675">
    <name>TP409</name>
  </trkpt>
  <trkpt lat="-34.62742" lon="-58.42672">
    <name>TP410</name>
  </trkpt>
  <trkpt lat="-34.62808" lon="-58.42657">
    <name>TP411</name>
  </trkpt>
  <trkpt lat="-34.6283" lon="-58.42653">
    <name>TP412</name>
  </trkpt>
  <trkpt lat="-34.6283004" lon="-58.426526">
    <name>TP413</name>
  </trkpt>
  <trkpt lat="-34.62834" lon="-58.42678">
    <name>TP414</name>
  </trkpt>
  <trkpt lat="-34.6285" lon="-58.42788">
    <name>TP415</name>
  </trkpt>
  <trkpt lat="-34.62872" lon="-58.42934">
    <name>TP416</name>
  </trkpt>
  <trkpt lat="-34.62891" lon="-58.43065">
    <name>TP417</name>
  </trkpt>
  <trkpt lat="-34.6289139" lon="-58.4306488">
    <name>TP418</name>
  </trkpt>
  <trkpt lat="-34.62908" lon="-58.4306">
    <name>TP419</name>
  </trkpt>
  <trkpt lat="-34.62922" lon="-58.43057">
    <name>TP420</name>
  </trkpt>
  <trkpt lat="-34.6292178" lon="-58.4305737">
    <name>TP421</name>
  </trkpt>
  <trkpt lat="-34.62929" lon="-58.431">
    <name>TP422</name>
  </trkpt>
  <trkpt lat="-34.62941" lon="-58.43181">
    <name>TP423</name>
  </trkpt>
  <trkpt lat="-34.62944" lon="-58.43196">
    <name>TP424</name>
  </trkpt>
  <trkpt lat="-34.62945" lon="-58.43202">
    <name>TP425</name>
  </trkpt>
  <trkpt lat="-34.62946" lon="-58.43212">
    <name>TP426</name>
  </trkpt>
  <trkpt lat="-34.62951" lon="-58.4324">
    <name>TP427</name>
  </trkpt>
  <trkpt lat="-34.62955" lon="-58.43264">
    <name>TP428</name>
  </trkpt>
  <trkpt lat="-34.62959" lon="-58.43278">
    <name>TP429</name>
  </trkpt>
  <trkpt lat="-34.62962" lon="-58.43291">
    <name>TP430</name>
  </trkpt>
  <trkpt lat="-34.62963" lon="-58.43293">
    <name>TP431</name>
  </trkpt>
  <trkpt lat="-34.62967" lon="-58.43297">
    <name>TP432</name>
  </trkpt>
  <trkpt lat="-34.62972" lon="-58.43301">
    <name>TP433</name>
  </trkpt>
  <trkpt lat="-34.6297211" lon="-58.4330129">
    <name>TP434</name>
  </trkpt>
  <trkpt lat="-34.6298" lon="-58.43359">
    <name>TP435</name>
  </trkpt>
  <trkpt lat="-34.6299" lon="-58.43427">
    <name>TP436</name>
  </trkpt>
  <trkpt lat="-34.62991" lon="-58.43433">
    <name>TP437</name>
  </trkpt>
  <trkpt lat="-34.62993" lon="-58.4344">
    <name>TP438</name>
  </trkpt>
  <trkpt lat="-34.62994" lon="-58.43446">
    <name>TP439</name>
  </trkpt>
  <trkpt lat="-34.62994" lon="-58.43452">
    <name>TP440</name>
  </trkpt>
  <trkpt lat="-34.62995" lon="-58.43456">
    <name>TP441</name>
  </trkpt>
  <trkpt lat="-34.62997" lon="-58.4347">
    <name>TP442</name>
  </trkpt>
  <trkpt lat="-34.62999" lon="-58.43485">
    <name>TP443</name>
  </trkpt>
  <trkpt lat="-34.63002" lon="-58.43499">
    <name>TP444</name>
  </trkpt>
  <trkpt lat="-34.63004" lon="-58.43514">
    <name>TP445</name>
  </trkpt>
  <trkpt lat="-34.63006" lon="-58.43524">
    <name>TP446</name>
  </trkpt>
  <trkpt lat="-34.63008" lon="-58.43534">
    <name>TP447</name>
  </trkpt>
  <trkpt lat="-34.63015" lon="-58.43586">
    <name>TP448</name>
  </trkpt>
  <trkpt lat="-34.63019" lon="-58.43613">
    <name>TP449</name>
  </trkpt>
  <trkpt lat="-34.63026" lon="-58.43665">
    <name>TP450</name>
  </trkpt>
  <trkpt lat="-34.63028" lon="-58.43676">
    <name>TP451</name>
  </trkpt>
  <trkpt lat="-34.63029" lon="-58.43687">
    <name>TP452</name>
  </trkpt>
  <trkpt lat="-34.63036" lon="-58.43729">
    <name>TP453</name>
  </trkpt>
  <trkpt lat="-34.6304" lon="-58.43754">
    <name>TP454</name>
  </trkpt>
  <trkpt lat="-34.6305" lon="-58.43792">
    <name>TP455</name>
  </trkpt>
  <trkpt lat="-34.6306" lon="-58.43823">
    <name>TP456</name>
  </trkpt>
  <trkpt lat="-34.63064" lon="-58.43834">
    <name>TP457</name>
  </trkpt>
  <trkpt lat="-34.63068" lon="-58.43846">
    <name>TP458</name>
  </trkpt>
  <trkpt lat="-34.63076" lon="-58.43865">
    <name>TP459</name>
  </trkpt>
  <trkpt lat="-34.63088" lon="-58.43893">
    <name>TP460</name>
  </trkpt>
  <trkpt lat="-34.63095" lon="-58.43907">
    <name>TP461</name>
  </trkpt>
  <trkpt lat="-34.63101" lon="-58.43918">
    <name>TP462</name>
  </trkpt>
  <trkpt lat="-34.63103" lon="-58.43923">
    <name>TP463</name>
  </trkpt>
  <trkpt lat="-34.63106" lon="-58.43927">
    <name>TP464</name>
  </trkpt>
  <trkpt lat="-34.63114" lon="-58.43942">
    <name>TP465</name>
  </trkpt>
  <trkpt lat="-34.63117" lon="-58.43947">
    <name>TP466</name>
  </trkpt>
  <trkpt lat="-34.6312" lon="-58.43953">
    <name>TP467</name>
  </trkpt>
  <trkpt lat="-34.63124" lon="-58.43959">
    <name>TP468</name>
  </trkpt>
  <trkpt lat="-34.63128" lon="-58.43966">
    <name>TP469</name>
  </trkpt>
  <trkpt lat="-34.6313" lon="-58.43969">
    <name>TP470</name>
  </trkpt>
  <trkpt lat="-34.63132" lon="-58.43972">
    <name>TP471</name>
  </trkpt>
  <trkpt lat="-34.63141" lon="-58.43986">
    <name>TP472</name>
  </trkpt>
  <trkpt lat="-34.63143" lon="-58.43989">
    <name>TP473</name>
  </trkpt>
  <trkpt lat="-34.63145" lon="-58.43993">
    <name>TP474</name>
  </trkpt>
  <trkpt lat="-34.63151" lon="-58.44002">
    <name>TP475</name>
  </trkpt>
  <trkpt lat="-34.63156" lon="-58.44012">
    <name>TP476</name>
  </trkpt>
  <trkpt lat="-34.63166" lon="-58.44027">
    <name>TP477</name>
  </trkpt>
  <trkpt lat="-34.63177" lon="-58.44045">
    <name>TP478</name>
  </trkpt>
  <trkpt lat="-34.63183" lon="-58.44057">
    <name>TP479</name>
  </trkpt>
  <trkpt lat="-34.63193" lon="-58.44073">
    <name>TP480</name>
  </trkpt>
  <trkpt lat="-34.63221" lon="-58.44123">
    <name>TP481</name>
  </trkpt>
  <trkpt lat="-34.63228" lon="-58.44136">
    <name>TP482</name>
  </trkpt>
  <trkpt lat="-34.63235" lon="-58.44148">
    <name>TP483</name>
  </trkpt>
  <trkpt lat="-34.63244" lon="-58.44163">
    <name>TP484</name>
  </trkpt>
  <trkpt lat="-34.63262" lon="-58.44193">
    <name>TP485</name>
  </trkpt>
  <trkpt lat="-34.63298" lon="-58.44253">
    <name>TP486</name>
  </trkpt>
  <trkpt lat="-34.63307" lon="-58.44268">
    <name>TP487</name>
  </trkpt>
  <trkpt lat="-34.63318" lon="-58.44284">
    <name>TP488</name>
  </trkpt>
  <trkpt lat="-34.63321" lon="-58.44289">
    <name>TP489</name>
  </trkpt>
  <trkpt lat="-34.63323" lon="-58.44292">
    <name>TP490</name>
  </trkpt>
  <trkpt lat="-34.63326" lon="-58.44298">
    <name>TP491</name>
  </trkpt>
  <trkpt lat="-34.63336" lon="-58.44312">
    <name>TP492</name>
  </trkpt>
  <trkpt lat="-34.63356" lon="-58.44341">
    <name>TP493</name>
  </trkpt>
  <trkpt lat="-34.63375" lon="-58.44369">
    <name>TP494</name>
  </trkpt>
  <trkpt lat="-34.63394" lon="-58.44398">
    <name>TP495</name>
  </trkpt>
  <trkpt lat="-34.63414" lon="-58.44427">
    <name>TP496</name>
  </trkpt>
  <trkpt lat="-34.63432" lon="-58.44453">
    <name>TP497</name>
  </trkpt>
  <trkpt lat="-34.63434" lon="-58.44456">
    <name>TP498</name>
  </trkpt>
  <trkpt lat="-34.63437" lon="-58.44461">
    <name>TP499</name>
  </trkpt>
  <trkpt lat="-34.63455" lon="-58.44487">
    <name>TP500</name>
  </trkpt>
  <trkpt lat="-34.63474" lon="-58.44515">
    <name>TP501</name>
  </trkpt>
  <trkpt lat="-34.63482" lon="-58.44527">
    <name>TP502</name>
  </trkpt>
  <trkpt lat="-34.63492" lon="-58.44541">
    <name>TP503</name>
  </trkpt>
  <trkpt lat="-34.63522" lon="-58.44583">
    <name>TP504</name>
  </trkpt>
  <trkpt lat="-34.63551" lon="-58.4463">
    <name>TP505</name>
  </trkpt>
  <trkpt lat="-34.63555" lon="-58.44637">
    <name>TP506</name>
  </trkpt>
  <trkpt lat="-34.63559" lon="-58.44644">
    <name>TP507</name>
  </trkpt>
  <trkpt lat="-34.63568" lon="-58.44658">
    <name>TP508</name>
  </trkpt>
  <trkpt lat="-34.63576" lon="-58.44674">
    <name>TP509</name>
  </trkpt>
  <trkpt lat="-34.63584" lon="-58.44691">
    <name>TP510</name>
  </trkpt>
  <trkpt lat="-34.63591" lon="-58.44706">
    <name>TP511</name>
  </trkpt>
  <trkpt lat="-34.63598" lon="-58.44723">
    <name>TP512</name>
  </trkpt>
  <trkpt lat="-34.63604" lon="-58.44738">
    <name>TP513</name>
  </trkpt>
  <trkpt lat="-34.6361" lon="-58.44757">
    <name>TP514</name>
  </trkpt>
  <trkpt lat="-34.63613" lon="-58.44769">
    <name>TP515</name>
  </trkpt>
  <trkpt lat="-34.63616" lon="-58.44776">
    <name>TP516</name>
  </trkpt>
  <trkpt lat="-34.63619" lon="-58.4479">
    <name>TP517</name>
  </trkpt>
  <trkpt lat="-34.63623" lon="-58.44808">
    <name>TP518</name>
  </trkpt>
  <trkpt lat="-34.63626" lon="-58.44826">
    <name>TP519</name>
  </trkpt>
  <trkpt lat="-34.63629" lon="-58.44841">
    <name>TP520</name>
  </trkpt>
  <trkpt lat="-34.63631" lon="-58.44864">
    <name>TP521</name>
  </trkpt>
  <trkpt lat="-34.63632" lon="-58.44881">
    <name>TP522</name>
  </trkpt>
  <trkpt lat="-34.63633" lon="-58.44902">
    <name>TP523</name>
  </trkpt>
  <trkpt lat="-34.63634" lon="-58.44934">
    <name>TP524</name>
  </trkpt>
  <trkpt lat="-34.63634" lon="-58.44956">
    <name>TP525</name>
  </trkpt>
  <trkpt lat="-34.63632" lon="-58.44995">
    <name>TP526</name>
  </trkpt>
  <trkpt lat="-34.6363" lon="-58.45048">
    <name>TP527</name>
  </trkpt>
  <trkpt lat="-34.6363" lon="-58.45063">
    <name>TP528</name>
  </trkpt>
  <trkpt lat="-34.63629" lon="-58.45084">
    <name>TP529</name>
  </trkpt>
  <trkpt lat="-34.63629" lon="-58.45105">
    <name>TP530</name>
  </trkpt>
  <trkpt lat="-34.63629" lon="-58.45124">
    <name>TP531</name>
  </trkpt>
  <trkpt lat="-34.63629" lon="-58.45145">
    <name>TP532</name>
  </trkpt>
  <trkpt lat="-34.63629" lon="-58.45166">
    <name>TP533</name>
  </trkpt>
  <trkpt lat="-34.6363" lon="-58.45178">
    <name>TP534</name>
  </trkpt>
  <trkpt lat="-34.63631" lon="-58.45191">
    <name>TP535</name>
  </trkpt>
  <trkpt lat="-34.63632" lon="-58.45205">
    <name>TP536</name>
  </trkpt>
  <trkpt lat="-34.63634" lon="-58.45219">
    <name>TP537</name>
  </trkpt>
  <trkpt lat="-34.63636" lon="-58.45232">
    <name>TP538</name>
  </trkpt>
  <trkpt lat="-34.63639" lon="-58.45247">
    <name>TP539</name>
  </trkpt>
  <trkpt lat="-34.63644" lon="-58.45272">
    <name>TP540</name>
  </trkpt>
  <trkpt lat="-34.63648" lon="-58.45287">
    <name>TP541</name>
  </trkpt>
  <trkpt lat="-34.63653" lon="-58.45304">
    <name>TP542</name>
  </trkpt>
  <trkpt lat="-34.63659" lon="-58.4532">
    <name>TP543</name>
  </trkpt>
  <trkpt lat="-34.63664" lon="-58.45338">
    <name>TP544</name>
  </trkpt>
  <trkpt lat="-34.63667" lon="-58.45345">
    <name>TP545</name>
  </trkpt>
  <trkpt lat="-34.63671" lon="-58.45354">
    <name>TP546</name>
  </trkpt>
  <trkpt lat="-34.63678" lon="-58.45369">
    <name>TP547</name>
  </trkpt>
  <trkpt lat="-34.63685" lon="-58.45384">
    <name>TP548</name>
  </trkpt>
  <trkpt lat="-34.637" lon="-58.4541">
    <name>TP549</name>
  </trkpt>
  <trkpt lat="-34.63711" lon="-58.45431">
    <name>TP550</name>
  </trkpt>
  <trkpt lat="-34.63731" lon="-58.45463">
    <name>TP551</name>
  </trkpt>
  <trkpt lat="-34.6374" lon="-58.45479">
    <name>TP552</name>
  </trkpt>
  <trkpt lat="-34.6375" lon="-58.45494">
    <name>TP553</name>
  </trkpt>
  <trkpt lat="-34.63763" lon="-58.45516">
    <name>TP554</name>
  </trkpt>
  <trkpt lat="-34.63794" lon="-58.45564">
    <name>TP555</name>
  </trkpt>
  <trkpt lat="-34.63799" lon="-58.45572">
    <name>TP556</name>
  </trkpt>
  <trkpt lat="-34.63812" lon="-58.4559">
    <name>TP557</name>
  </trkpt>
  <trkpt lat="-34.63829" lon="-58.45615">
    <name>TP558</name>
  </trkpt>
  <trkpt lat="-34.63835" lon="-58.45621">
    <name>TP559</name>
  </trkpt>
  <trkpt lat="-34.63855" lon="-58.45647">
    <name>TP560</name>
  </trkpt>
  <trkpt lat="-34.63885" lon="-58.45682">
    <name>TP561</name>
  </trkpt>
  <trkpt lat="-34.63906" lon="-58.45708">
    <name>TP562</name>
  </trkpt>
  <trkpt lat="-34.63915" lon="-58.45718">
    <name>TP563</name>
  </trkpt>
  <trkpt lat="-34.63923" lon="-58.45728">
    <name>TP564</name>
  </trkpt>
  <trkpt lat="-34.63931" lon="-58.45738">
    <name>TP565</name>
  </trkpt>
  <trkpt lat="-34.63957" lon="-58.45769">
    <name>TP566</name>
  </trkpt>
  <trkpt lat="-34.63983" lon="-58.45799">
    <name>TP567</name>
  </trkpt>
  <trkpt lat="-34.64027" lon="-58.45859">
    <name>TP568</name>
  </trkpt>
  <trkpt lat="-34.64055" lon="-58.45897">
    <name>TP569</name>
  </trkpt>
  <trkpt lat="-34.64066" lon="-58.45913">
    <name>TP570</name>
  </trkpt>
  <trkpt lat="-34.64079" lon="-58.4593">
    <name>TP571</name>
  </trkpt>
  <trkpt lat="-34.6408" lon="-58.45932">
    <name>TP572</name>
  </trkpt>
  <trkpt lat="-34.64081" lon="-58.45933">
    <name>TP573</name>
  </trkpt>
  <trkpt lat="-34.64103" lon="-58.45964">
    <name>TP574</name>
  </trkpt>
  <trkpt lat="-34.64107" lon="-58.4597">
    <name>TP575</name>
  </trkpt>
  <trkpt lat="-34.64147" lon="-58.46028">
    <name>TP576</name>
  </trkpt>
  <trkpt lat="-34.64167" lon="-58.46056">
    <name>TP577</name>
  </trkpt>
  <trkpt lat="-34.6419" lon="-58.46083">
    <name>TP578</name>
  </trkpt>
  <trkpt lat="-34.64213" lon="-58.46107">
    <name>TP579</name>
  </trkpt>
  <trkpt lat="-34.64237" lon="-58.46131">
    <name>TP580</name>
  </trkpt>
  <trkpt lat="-34.64261" lon="-58.4615">
    <name>TP581</name>
  </trkpt>
  <trkpt lat="-34.64277" lon="-58.46163">
    <name>TP582</name>
  </trkpt>
  <trkpt lat="-34.64283" lon="-58.46167">
    <name>TP583</name>
  </trkpt>
  <trkpt lat="-34.64296" lon="-58.46176">
    <name>TP584</name>
  </trkpt>
  <trkpt lat="-34.64313" lon="-58.46186">
    <name>TP585</name>
  </trkpt>
  <trkpt lat="-34.64335" lon="-58.46199">
    <name>TP586</name>
  </trkpt>
  <trkpt lat="-34.6435" lon="-58.46207">
    <name>TP587</name>
  </trkpt>
  <trkpt lat="-34.64359" lon="-58.46211">
    <name>TP588</name>
  </trkpt>
  <trkpt lat="-34.64378" lon="-58.46219">
    <name>TP589</name>
  </trkpt>
  <trkpt lat="-34.64422" lon="-58.46235">
    <name>TP590</name>
  </trkpt>
  <trkpt lat="-34.64437" lon="-58.4624">
    <name>TP591</name>
  </trkpt>
  <trkpt lat="-34.64457" lon="-58.46247">
    <name>TP592</name>
  </trkpt>
  <trkpt lat="-34.64477" lon="-58.46254">
    <name>TP593</name>
  </trkpt>
  <trkpt lat="-34.64494" lon="-58.4626">
    <name>TP594</name>
  </trkpt>
  <trkpt lat="-34.64511" lon="-58.46266">
    <name>TP595</name>
  </trkpt>
  <trkpt lat="-34.64516" lon="-58.46268">
    <name>TP596</name>
  </trkpt>
  <trkpt lat="-34.64543" lon="-58.46278">
    <name>TP597</name>
  </trkpt>
  <trkpt lat="-34.64591" lon="-58.46301">
    <name>TP598</name>
  </trkpt>
  <trkpt lat="-34.6459091" lon="-58.4630076">
    <name>TP599</name>
  </trkpt>
  <trkpt lat="-34.64595" lon="-58.463">
    <name>TP600</name>
  </trkpt>
  <trkpt lat="-34.64603" lon="-58.463">
    <name>TP601</name>
  </trkpt>
  <trkpt lat="-34.64609" lon="-58.46303">
    <name>TP602</name>
  </trkpt>
  <trkpt lat="-34.64615" lon="-58.46306">
    <name>TP603</name>
  </trkpt>
  <trkpt lat="-34.64627" lon="-58.46313">
    <name>TP604</name>
  </trkpt>
  <trkpt lat="-34.64637" lon="-58.46318">
    <name>TP605</name>
  </trkpt>
  <trkpt lat="-34.64643" lon="-58.46323">
    <name>TP606</name>
  </trkpt>
  <trkpt lat="-34.64654" lon="-58.46329">
    <name>TP607</name>
  </trkpt>
  <trkpt lat="-34.64675" lon="-58.46344">
    <name>TP608</name>
  </trkpt>
  <trkpt lat="-34.64695" lon="-58.4636">
    <name>TP609</name>
  </trkpt>
  <trkpt lat="-34.64734" lon="-58.4639">
    <name>TP610</name>
  </trkpt>
  <trkpt lat="-34.6476" lon="-58.46412">
    <name>TP611</name>
  </trkpt>
  <trkpt lat="-34.64787" lon="-58.46435">
    <name>TP612</name>
  </trkpt>
  <trkpt lat="-34.64801" lon="-58.46446">
    <name>TP613</name>
  </trkpt>
  <trkpt lat="-34.64814" lon="-58.46457">
    <name>TP614</name>
  </trkpt>
  <trkpt lat="-34.64818" lon="-58.46462">
    <name>TP615</name>
  </trkpt>
  <trkpt lat="-34.64824" lon="-58.46467">
    <name>TP616</name>
  </trkpt>
  <trkpt lat="-34.64879" lon="-58.46501">
    <name>TP617</name>
  </trkpt>
  <trkpt lat="-34.64889" lon="-58.46506">
    <name>TP618</name>
  </trkpt>
  <trkpt lat="-34.64894" lon="-58.4651">
    <name>TP619</name>
  </trkpt>
  <trkpt lat="-34.649" lon="-58.46515">
    <name>TP620</name>
  </trkpt>
  <trkpt lat="-34.64912" lon="-58.46525">
    <name>TP621</name>
  </trkpt>
  <trkpt lat="-34.64917" lon="-58.46532">
    <name>TP622</name>
  </trkpt>
  <trkpt lat="-34.64926" lon="-58.4654">
    <name>TP623</name>
  </trkpt>
  <trkpt lat="-34.64941" lon="-58.46555">
    <name>TP624</name>
  </trkpt>
  <trkpt lat="-34.64944" lon="-58.46557">
    <name>TP625</name>
  </trkpt>
  <trkpt lat="-34.6497" lon="-58.46579">
    <name>TP626</name>
  </trkpt>
  <trkpt lat="-34.64975" lon="-58.46584">
    <name>TP627</name>
  </trkpt>
  <trkpt lat="-34.64981" lon="-58.46589">
    <name>TP628</name>
  </trkpt>
  <trkpt lat="-34.64981" lon="-58.4659">
    <name>TP629</name>
  </trkpt>
  <trkpt lat="-34.64989" lon="-58.46598">
    <name>TP630</name>
  </trkpt>
  <trkpt lat="-34.64994" lon="-58.46602">
    <name>TP631</name>
  </trkpt>
  <trkpt lat="-34.64998" lon="-58.46605">
    <name>TP632</name>
  </trkpt>
  <trkpt lat="-34.65019" lon="-58.46622">
    <name>TP633</name>
  </trkpt>
  <trkpt lat="-34.65026" lon="-58.46628">
    <name>TP634</name>
  </trkpt>
  <trkpt lat="-34.65034" lon="-58.46635">
    <name>TP635</name>
  </trkpt>
  <trkpt lat="-34.65048" lon="-58.46647">
    <name>TP636</name>
  </trkpt>
  <trkpt lat="-34.65094" lon="-58.46682">
    <name>TP637</name>
  </trkpt>
  <trkpt lat="-34.65116" lon="-58.46699">
    <name>TP638</name>
  </trkpt>
  <trkpt lat="-34.65135" lon="-58.46713">
    <name>TP639</name>
  </trkpt>
  <trkpt lat="-34.65153" lon="-58.46726">
    <name>TP640</name>
  </trkpt>
  <trkpt lat="-34.65186" lon="-58.46746">
    <name>TP641</name>
  </trkpt>
  <trkpt lat="-34.65206" lon="-58.46758">
    <name>TP642</name>
  </trkpt>
  <trkpt lat="-34.65208" lon="-58.46759">
    <name>TP643</name>
  </trkpt>
  <trkpt lat="-34.65222" lon="-58.46768">
    <name>TP644</name>
  </trkpt>
  <trkpt lat="-34.65246" lon="-58.46783">
    <name>TP645</name>
  </trkpt>
  <trkpt lat="-34.65276" lon="-58.46801">
    <name>TP646</name>
  </trkpt>
  <trkpt lat="-34.65324" lon="-58.46829">
    <name>TP647</name>
  </trkpt>
  <trkpt lat="-34.6532375" lon="-58.4682918">
    <name>TP648</name>
  </trkpt>
  <trkpt lat="-34.65407" lon="-58.46871">
    <name>TP649</name>
  </trkpt>
  <trkpt lat="-34.6543" lon="-58.46882">
    <name>TP650</name>
  </trkpt>
  <trkpt lat="-34.65472" lon="-58.46902">
    <name>TP651</name>
  </trkpt>
  <trkpt lat="-34.65492" lon="-58.46911">
    <name>TP652</name>
  </trkpt>
  <trkpt lat="-34.6552" lon="-58.46924">
    <name>TP653</name>
  </trkpt>
  <trkpt lat="-34.65592" lon="-58.46955">
    <name>TP654</name>
  </trkpt>
  <trkpt lat="-34.65618" lon="-58.46966">
    <name>TP655</name>
  </trkpt>
  <trkpt lat="-34.65634" lon="-58.46973">
    <name>TP656</name>
  </trkpt>
  <trkpt lat="-34.65651" lon="-58.46981">
    <name>TP657</name>
  </trkpt>
  <trkpt lat="-34.65664" lon="-58.46988">
    <name>TP658</name>
  </trkpt>
  <trkpt lat="-34.65683" lon="-58.46998">
    <name>TP659</name>
  </trkpt>
  <trkpt lat="-34.65692" lon="-58.47002">
    <name>TP660</name>
  </trkpt>
  <trkpt lat="-34.65709" lon="-58.47011">
    <name>TP661</name>
  </trkpt>
  <trkpt lat="-34.6571" lon="-58.47012">
    <name>TP662</name>
  </trkpt>
  <trkpt lat="-34.65741" lon="-58.47029">
    <name>TP663</name>
  </trkpt>
  <trkpt lat="-34.65801" lon="-58.47056">
    <name>TP664</name>
  </trkpt>
  <trkpt lat="-34.65802" lon="-58.47057">
    <name>TP665</name>
  </trkpt>
  <trkpt lat="-34.65811" lon="-58.47061">
    <name>TP666</name>
  </trkpt>
  <trkpt lat="-34.65884" lon="-58.47094">
    <name>TP667</name>
  </trkpt>
  <trkpt lat="-34.65912" lon="-58.47108">
    <name>TP668</name>
  </trkpt>
  <trkpt lat="-34.65955" lon="-58.47125">
    <name>TP669</name>
  </trkpt>
  <trkpt lat="-34.65976" lon="-58.47134">
    <name>TP670</name>
  </trkpt>
  <trkpt lat="-34.66029" lon="-58.47153">
    <name>TP671</name>
  </trkpt>
  <trkpt lat="-34.66046" lon="-58.47159">
    <name>TP672</name>
  </trkpt>
  <trkpt lat="-34.66121" lon="-58.47192">
    <name>TP673</name>
  </trkpt>
  <trkpt lat="-34.66127" lon="-58.47195">
    <name>TP674</name>
  </trkpt>
  <trkpt lat="-34.66149" lon="-58.47204">
    <name>TP675</name>
  </trkpt>
  <trkpt lat="-34.66212" lon="-58.47233">
    <name>TP676</name>
  </trkpt>
  <trkpt lat="-34.66242" lon="-58.47246">
    <name>TP677</name>
  </trkpt>
  <trkpt lat="-34.66258" lon="-58.47253">
    <name>TP678</name>
  </trkpt>
  <trkpt lat="-34.66275" lon="-58.47261">
    <name>TP679</name>
  </trkpt>
  <trkpt lat="-34.66288" lon="-58.47266">
    <name>TP680</name>
  </trkpt>
  <trkpt lat="-34.66301" lon="-58.47272">
    <name>TP681</name>
  </trkpt>
  <trkpt lat="-34.66319" lon="-58.47281">
    <name>TP682</name>
  </trkpt>
  <trkpt lat="-34.66335" lon="-58.47287">
    <name>TP683</name>
  </trkpt>
  <trkpt lat="-34.66353" lon="-58.47296">
    <name>TP684</name>
  </trkpt>
  <trkpt lat="-34.66371" lon="-58.47303">
    <name>TP685</name>
  </trkpt>
  <trkpt lat="-34.66384" lon="-58.47309">
    <name>TP686</name>
  </trkpt>
  <trkpt lat="-34.66392" lon="-58.47312">
    <name>TP687</name>
  </trkpt>
  <trkpt lat="-34.66399" lon="-58.47315">
    <name>TP688</name>
  </trkpt>
  <trkpt lat="-34.6644" lon="-58.47334">
    <name>TP689</name>
  </trkpt>
  <trkpt lat="-34.66464" lon="-58.47344">
    <name>TP690</name>
  </trkpt>
  <trkpt lat="-34.66473" lon="-58.47348">
    <name>TP691</name>
  </trkpt>
  <trkpt lat="-34.66481" lon="-58.47352">
    <name>TP692</name>
  </trkpt>
  <trkpt lat="-34.66491" lon="-58.47356">
    <name>TP693</name>
  </trkpt>
  <trkpt lat="-34.66569" lon="-58.47392">
    <name>TP694</name>
  </trkpt>
  <trkpt lat="-34.66605" lon="-58.47408">
    <name>TP695</name>
  </trkpt>
  <trkpt lat="-34.6662" lon="-58.47415">
    <name>TP696</name>
  </trkpt>
  <trkpt lat="-34.66635" lon="-58.47423">
    <name>TP697</name>
  </trkpt>
  <trkpt lat="-34.66653" lon="-58.47431">
    <name>TP698</name>
  </trkpt>
  <trkpt lat="-34.66674" lon="-58.47441">
    <name>TP699</name>
  </trkpt>
  <trkpt lat="-34.66705" lon="-58.47457">
    <name>TP700</name>
  </trkpt>
  <trkpt lat="-34.66707" lon="-58.47458">
    <name>TP701</name>
  </trkpt>
  <trkpt lat="-34.66742" lon="-58.47474">
    <name>TP702</name>
  </trkpt>
  <trkpt lat="-34.66782" lon="-58.47493">
    <name>TP703</name>
  </trkpt>
  <trkpt lat="-34.66788" lon="-58.47497">
    <name>TP704</name>
  </trkpt>
  <trkpt lat="-34.66874" lon="-58.47536">
    <name>TP705</name>
  </trkpt>
  <trkpt lat="-34.66882" lon="-58.47539">
    <name>TP706</name>
  </trkpt>
  <trkpt lat="-34.66903" lon="-58.47549">
    <name>TP707</name>
  </trkpt>
  <trkpt lat="-34.66925" lon="-58.47557">
    <name>TP708</name>
  </trkpt>
  <trkpt lat="-34.6696" lon="-58.47571">
    <name>TP709</name>
  </trkpt>
  <trkpt lat="-34.66965" lon="-58.47573">
    <name>TP710</name>
  </trkpt>
  <trkpt lat="-34.66974" lon="-58.47577">
    <name>TP711</name>
  </trkpt>
  <trkpt lat="-34.66984" lon="-58.47581">
    <name>TP712</name>
  </trkpt>
  <trkpt lat="-34.67022" lon="-58.47594">
    <name>TP713</name>
  </trkpt>
  <trkpt lat="-34.67104" lon="-58.47628">
    <name>TP714</name>
  </trkpt>
  <trkpt lat="-34.67227" lon="-58.47684">
    <name>TP715</name>
  </trkpt>
  <trkpt lat="-34.67243" lon="-58.47691">
    <name>TP716</name>
  </trkpt>
  <trkpt lat="-34.67267" lon="-58.47702">
    <name>TP717</name>
  </trkpt>
  <trkpt lat="-34.67308" lon="-58.4772">
    <name>TP718</name>
  </trkpt>
  <trkpt lat="-34.67322" lon="-58.47726">
    <name>TP719</name>
  </trkpt>
  <trkpt lat="-34.6734" lon="-58.47734">
    <name>TP720</name>
  </trkpt>
  <trkpt lat="-34.67358" lon="-58.47742">
    <name>TP721</name>
  </trkpt>
  <trkpt lat="-34.67382" lon="-58.47752">
    <name>TP722</name>
  </trkpt>
  <trkpt lat="-34.674" lon="-58.4776">
    <name>TP723</name>
  </trkpt>
  <trkpt lat="-34.6743" lon="-58.47772">
    <name>TP724</name>
  </trkpt>
  <trkpt lat="-34.67456" lon="-58.47784">
    <name>TP725</name>
  </trkpt>
  <trkpt lat="-34.67496" lon="-58.478">
    <name>TP726</name>
  </trkpt>
  <trkpt lat="-34.67503" lon="-58.47803">
    <name>TP727</name>
  </trkpt>
  <trkpt lat="-34.67508" lon="-58.47805">
    <name>TP728</name>
  </trkpt>
  <trkpt lat="-34.67531" lon="-58.47816">
    <name>TP729</name>
  </trkpt>
  <trkpt lat="-34.67534" lon="-58.47818">
    <name>TP730</name>
  </trkpt>
  <trkpt lat="-34.67587" lon="-58.47845">
    <name>TP731</name>
  </trkpt>
  <trkpt lat="-34.67599" lon="-58.47851">
    <name>TP732</name>
  </trkpt>
  <trkpt lat="-34.67622" lon="-58.47863">
    <name>TP733</name>
  </trkpt>
  <trkpt lat="-34.67643" lon="-58.47872">
    <name>TP734</name>
  </trkpt>
  <trkpt lat="-34.67693" lon="-58.47896">
    <name>TP735</name>
  </trkpt>
  <trkpt lat="-34.67701" lon="-58.47899">
    <name>TP736</name>
  </trkpt>
  <trkpt lat="-34.67709" lon="-58.47903">
    <name>TP737</name>
  </trkpt>
  <trkpt lat="-34.6777" lon="-58.4793">
    <name>TP738</name>
  </trkpt>
  <trkpt lat="-34.67771" lon="-58.47931">
    <name>TP739</name>
  </trkpt>
  <trkpt lat="-34.67778" lon="-58.47934">
    <name>TP740</name>
  </trkpt>
  <trkpt lat="-34.67814" lon="-58.47949">
    <name>TP741</name>
  </trkpt>
  <trkpt lat="-34.67834" lon="-58.47958">
    <name>TP742</name>
  </trkpt>
  <trkpt lat="-34.67843" lon="-58.47961">
    <name>TP743</name>
  </trkpt>
  <trkpt lat="-34.67859" lon="-58.47967">
    <name>TP744</name>
  </trkpt>
  <trkpt lat="-34.67866" lon="-58.4797">
    <name>TP745</name>
  </trkpt>
  <trkpt lat="-34.67891" lon="-58.47979">
    <name>TP746</name>
  </trkpt>
  <trkpt lat="-34.67935" lon="-58.47996">
    <name>TP747</name>
  </trkpt>
  <trkpt lat="-34.67969" lon="-58.4801">
    <name>TP748</name>
  </trkpt>
  <trkpt lat="-34.68012" lon="-58.48029">
    <name>TP749</name>
  </trkpt>
  <trkpt lat="-34.68052" lon="-58.48046">
    <name>TP750</name>
  </trkpt>
  <trkpt lat="-34.68074" lon="-58.48055">
    <name>TP751</name>
  </trkpt>
  <trkpt lat="-34.68095" lon="-58.48064">
    <name>TP752</name>
  </trkpt>
  <trkpt lat="-34.68108" lon="-58.4807">
    <name>TP753</name>
  </trkpt>
  <trkpt lat="-34.68123" lon="-58.48077">
    <name>TP754</name>
  </trkpt>
  <trkpt lat="-34.68126" lon="-58.48078">
    <name>TP755</name>
  </trkpt>
  <trkpt lat="-34.68148" lon="-58.48088">
    <name>TP756</name>
  </trkpt>
  <trkpt lat="-34.68157" lon="-58.48092">
    <name>TP757</name>
  </trkpt>
  <trkpt lat="-34.68162" lon="-58.48094">
    <name>TP758</name>
  </trkpt>
  <trkpt lat="-34.68169" lon="-58.48097">
    <name>TP759</name>
  </trkpt>
  <trkpt lat="-34.68177" lon="-58.48102">
    <name>TP760</name>
  </trkpt>
  <trkpt lat="-34.68184" lon="-58.48106">
    <name>TP761</name>
  </trkpt>
  <trkpt lat="-34.68185" lon="-58.48106">
    <name>TP762</name>
  </trkpt>
  <trkpt lat="-34.68189" lon="-58.48108">
    <name>TP763</name>
  </trkpt>
  <trkpt lat="-34.68193" lon="-58.48111">
    <name>TP764</name>
  </trkpt>
  <trkpt lat="-34.68201" lon="-58.48115">
    <name>TP765</name>
  </trkpt>
  <trkpt lat="-34.68212" lon="-58.48122">
    <name>TP766</name>
  </trkpt>
  <trkpt lat="-34.68216" lon="-58.48127">
    <name>TP767</name>
  </trkpt>
  <trkpt lat="-34.68237" lon="-58.48138">
    <name>TP768</name>
  </trkpt>
  <trkpt lat="-34.68271" lon="-58.48165">
    <name>TP769</name>
  </trkpt>
  <trkpt lat="-34.6829" lon="-58.48182">
    <name>TP770</name>
  </trkpt>
  <trkpt lat="-34.68323" lon="-58.48216">
    <name>TP771</name>
  </trkpt>
  <trkpt lat="-34.68329" lon="-58.48222">
    <name>TP772</name>
  </trkpt>
  <trkpt lat="-34.68342" lon="-58.48235">
    <name>TP773</name>
  </trkpt>
  <trkpt lat="-34.68362" lon="-58.48255">
    <name>TP774</name>
  </trkpt>
  <trkpt lat="-34.68379" lon="-58.48272">
    <name>TP775</name>
  </trkpt>
  <trkpt lat="-34.68396" lon="-58.48289">
    <name>TP776</name>
  </trkpt>
  <trkpt lat="-34.68421" lon="-58.48313">
    <name>TP777</name>
  </trkpt>
  <trkpt lat="-34.68435" lon="-58.48327">
    <name>TP778</name>
  </trkpt>
  <trkpt lat="-34.68461" lon="-58.4835">
    <name>TP779</name>
  </trkpt>
  <trkpt lat="-34.68495" lon="-58.4838">
    <name>TP780</name>
  </trkpt>
  <trkpt lat="-34.68514" lon="-58.48396">
    <name>TP781</name>
  </trkpt>
  <trkpt lat="-34.68525" lon="-58.48405">
    <name>TP782</name>
  </trkpt>
  <trkpt lat="-34.68536" lon="-58.48414">
    <name>TP783</name>
  </trkpt>
  <trkpt lat="-34.68548" lon="-58.48423">
    <name>TP784</name>
  </trkpt>
  <trkpt lat="-34.68553" lon="-58.48428">
    <name>TP785</name>
  </trkpt>
  <trkpt lat="-34.68569" lon="-58.48441">
    <name>TP786</name>
  </trkpt>
  <trkpt lat="-34.68614" lon="-58.48478">
    <name>TP787</name>
  </trkpt>
  <trkpt lat="-34.68643" lon="-58.48502">
    <name>TP788</name>
  </trkpt>
  <trkpt lat="-34.68668" lon="-58.48524">
    <name>TP789</name>
  </trkpt>
  <trkpt lat="-34.68672" lon="-58.48526">
    <name>TP790</name>
  </trkpt>
  <trkpt lat="-34.68683" lon="-58.48535">
    <name>TP791</name>
  </trkpt>
  <trkpt lat="-34.68694" lon="-58.48545">
    <name>TP792</name>
  </trkpt>
  <trkpt lat="-34.68697" lon="-58.48548">
    <name>TP793</name>
  </trkpt>
  <trkpt lat="-34.68711" lon="-58.48558">
    <name>TP794</name>
  </trkpt>
  <trkpt lat="-34.68797" lon="-58.4863">
    <name>TP795</name>
  </trkpt>
  <trkpt lat="-34.68802" lon="-58.48635">
    <name>TP796</name>
  </trkpt>
  <trkpt lat="-34.6880245" lon="-58.486351">
    <name>TP797</name>
  </trkpt>
  <trkpt lat="-34.68812" lon="-58.48643">
    <name>TP798</name>
  </trkpt>
  <trkpt lat="-34.68822" lon="-58.48653">
    <name>TP799</name>
  </trkpt>
  <trkpt lat="-34.68823" lon="-58.48653">
    <name>TP800</name>
  </trkpt>
  <trkpt lat="-34.68828" lon="-58.48658">
    <name>TP801</name>
  </trkpt>
  <trkpt lat="-34.68834" lon="-58.48663">
    <name>TP802</name>
  </trkpt>
  <trkpt lat="-34.68858" lon="-58.48683">
    <name>TP803</name>
  </trkpt>
  <trkpt lat="-34.68901" lon="-58.48719">
    <name>TP804</name>
  </trkpt>
  <trkpt lat="-34.68911" lon="-58.48728">
    <name>TP805</name>
  </trkpt>
  <trkpt lat="-34.689111" lon="-58.4872776">
    <name>TP806</name>
  </trkpt>
  <trkpt lat="-34.68918" lon="-58.48731">
    <name>TP807</name>
  </trkpt>
  <trkpt lat="-34.68925" lon="-58.48735">
    <name>TP808</name>
  </trkpt>
  <trkpt lat="-34.68934" lon="-58.48743">
    <name>TP809</name>
  </trkpt>
  <trkpt lat="-34.68952" lon="-58.48757">
    <name>TP810</name>
  </trkpt>
  <trkpt lat="-34.6901" lon="-58.48807">
    <name>TP811</name>
  </trkpt>
  <trkpt lat="-34.69053" lon="-58.48844">
    <name>TP812</name>
  </trkpt>
  <trkpt lat="-34.6908" lon="-58.48868">
    <name>TP813</name>
  </trkpt>
  <trkpt lat="-34.69193" lon="-58.4896">
    <name>TP814</name>
  </trkpt>
  <trkpt lat="-34.69247" lon="-58.49006">
    <name>TP815</name>
  </trkpt>
  <trkpt lat="-34.69307" lon="-58.49053">
    <name>TP816</name>
  </trkpt>
  <trkpt lat="-34.69333" lon="-58.49073">
    <name>TP817</name>
  </trkpt>
  <trkpt lat="-34.69381" lon="-58.49111">
    <name>TP818</name>
  </trkpt>
  <trkpt lat="-34.69465" lon="-58.49182">
    <name>TP819</name>
  </trkpt>
  <trkpt lat="-34.69508" lon="-58.49219">
    <name>TP820</name>
  </trkpt>
  <trkpt lat="-34.69511" lon="-58.49222">
    <name>TP821</name>
  </trkpt>
  <trkpt lat="-34.69558" lon="-58.49264">
    <name>TP822</name>
  </trkpt>
  <trkpt lat="-34.69581" lon="-58.49287">
    <name>TP823</name>
  </trkpt>
  <trkpt lat="-34.69593" lon="-58.49297">
    <name>TP824</name>
  </trkpt>
  <trkpt lat="-34.69603" lon="-58.49307">
    <name>TP825</name>
  </trkpt>
  <trkpt lat="-34.69611" lon="-58.4932">
    <name>TP826</name>
  </trkpt>
  <trkpt lat="-34.6963" lon="-58.49341">
    <name>TP827</name>
  </trkpt>
  <trkpt lat="-34.69645" lon="-58.49359">
    <name>TP828</name>
  </trkpt>
  <trkpt lat="-34.69647" lon="-58.49362">
    <name>TP829</name>
  </trkpt>
  <trkpt lat="-34.69651" lon="-58.49366">
    <name>TP830</name>
  </trkpt>
  <trkpt lat="-34.6966" lon="-58.49379">
    <name>TP831</name>
  </trkpt>
  <trkpt lat="-34.69667" lon="-58.49387">
    <name>TP832</name>
  </trkpt>
  <trkpt lat="-34.69672" lon="-58.49393">
    <name>TP833</name>
  </trkpt>
  <trkpt lat="-34.69705" lon="-58.49435">
    <name>TP834</name>
  </trkpt>
  <trkpt lat="-34.69715" lon="-58.49449">
    <name>TP835</name>
  </trkpt>
  <trkpt lat="-34.69726" lon="-58.49462">
    <name>TP836</name>
  </trkpt>
  <trkpt lat="-34.69739" lon="-58.49479">
    <name>TP837</name>
  </trkpt>
  <trkpt lat="-34.69763" lon="-58.49509">
    <name>TP838</name>
  </trkpt>
  <trkpt lat="-34.69783" lon="-58.49536">
    <name>TP839</name>
  </trkpt>
  <trkpt lat="-34.69809" lon="-58.49566">
    <name>TP840</name>
  </trkpt>
  <trkpt lat="-34.69876" lon="-58.49628">
    <name>TP841</name>
  </trkpt>
  <trkpt lat="-34.69878" lon="-58.4963">
    <name>TP842</name>
  </trkpt>
  <trkpt lat="-34.69957" lon="-58.49686">
    <name>TP843</name>
  </trkpt>
  <trkpt lat="-34.69975" lon="-58.49693">
    <name>TP844</name>
  </trkpt>
  <trkpt lat="-34.70016" lon="-58.49712">
    <name>TP845</name>
  </trkpt>
  <trkpt lat="-34.70043" lon="-58.49721">
    <name>TP846</name>
  </trkpt>
  <trkpt lat="-34.70108" lon="-58.49755">
    <name>TP847</name>
  </trkpt>
  <trkpt lat="-34.70118" lon="-58.49761">
    <name>TP848</name>
  </trkpt>
  <trkpt lat="-34.70132" lon="-58.49768">
    <name>TP849</name>
  </trkpt>
  <trkpt lat="-34.70157" lon="-58.49781">
    <name>TP850</name>
  </trkpt>
  <trkpt lat="-34.70181" lon="-58.49795">
    <name>TP851</name>
  </trkpt>
  <trkpt lat="-34.702" lon="-58.49808">
    <name>TP852</name>
  </trkpt>
  <trkpt lat="-34.70219" lon="-58.49821">
    <name>TP853</name>
  </trkpt>
  <trkpt lat="-34.70289" lon="-58.49872">
    <name>TP854</name>
  </trkpt>
  <trkpt lat="-34.70295" lon="-58.49876">
    <name>TP855</name>
  </trkpt>
  <trkpt lat="-34.70308" lon="-58.49888">
    <name>TP856</name>
  </trkpt>
  <trkpt lat="-34.70323" lon="-58.49901">
    <name>TP857</name>
  </trkpt>
  <trkpt lat="-34.70339" lon="-58.49915">
    <name>TP858</name>
  </trkpt>
  <trkpt lat="-34.70342" lon="-58.49917">
    <name>TP859</name>
  </trkpt>
  <trkpt lat="-34.70379" lon="-58.49947">
    <name>TP860</name>
  </trkpt>
  <trkpt lat="-34.70422" lon="-58.49981">
    <name>TP861</name>
  </trkpt>
  <trkpt lat="-34.70472" lon="-58.50023">
    <name>TP862</name>
  </trkpt>
  <trkpt lat="-34.70521" lon="-58.50062">
    <name>TP863</name>
  </trkpt>
  <trkpt lat="-34.70536" lon="-58.50074">
    <name>TP864</name>
  </trkpt>
  <trkpt lat="-34.70553" lon="-58.50088">
    <name>TP865</name>
  </trkpt>
  <trkpt lat="-34.70611" lon="-58.50136">
    <name>TP866</name>
  </trkpt>
  <trkpt lat="-34.70658" lon="-58.50175">
    <name>TP867</name>
  </trkpt>
  <trkpt lat="-34.70745" lon="-58.50246">
    <name>TP868</name>
  </trkpt>
  <trkpt lat="-34.7077" lon="-58.50267">
    <name>TP869</name>
  </trkpt>
  <trkpt lat="-34.70805" lon="-58.50296">
    <name>TP870</name>
  </trkpt>
  <trkpt lat="-34.70841" lon="-58.50325">
    <name>TP871</name>
  </trkpt>
  <trkpt lat="-34.70936" lon="-58.50406">
    <name>TP872</name>
  </trkpt>
  <trkpt lat="-34.70952" lon="-58.5042">
    <name>TP873</name>
  </trkpt>
  <trkpt lat="-34.7096" lon="-58.50426">
    <name>TP874</name>
  </trkpt>
  <trkpt lat="-34.70973" lon="-58.50438">
    <name>TP875</name>
  </trkpt>
  <trkpt lat="-34.70988" lon="-58.5045">
    <name>TP876</name>
  </trkpt>
  <trkpt lat="-34.71022" lon="-58.50478">
    <name>TP877</name>
  </trkpt>
  <trkpt lat="-34.71043" lon="-58.50496">
    <name>TP878</name>
  </trkpt>
  <trkpt lat="-34.71063" lon="-58.50515">
    <name>TP879</name>
  </trkpt>
  <trkpt lat="-34.71068" lon="-58.50519">
    <name>TP880</name>
  </trkpt>
  <trkpt lat="-34.71073" lon="-58.50522">
    <name>TP881</name>
  </trkpt>
  <trkpt lat="-34.71128" lon="-58.50568">
    <name>TP882</name>
  </trkpt>
  <trkpt lat="-34.71136" lon="-58.50575">
    <name>TP883</name>
  </trkpt>
  <trkpt lat="-34.71169" lon="-58.50603">
    <name>TP884</name>
  </trkpt>
  <trkpt lat="-34.71305" lon="-58.50711">
    <name>TP885</name>
  </trkpt>
  <trkpt lat="-34.71337" lon="-58.50737">
    <name>TP886</name>
  </trkpt>
  <trkpt lat="-34.71369" lon="-58.50762">
    <name>TP887</name>
  </trkpt>
  <trkpt lat="-34.7142" lon="-58.508">
    <name>TP888</name>
  </trkpt>
  <trkpt lat="-34.71427" lon="-58.50805">
    <name>TP889</name>
  </trkpt>
  <trkpt lat="-34.71492" lon="-58.50854">
    <name>TP890</name>
  </trkpt>
  <trkpt lat="-34.71508" lon="-58.50865">
    <name>TP891</name>
  </trkpt>
  <trkpt lat="-34.71525" lon="-58.50877">
    <name>TP892</name>
  </trkpt>
  <trkpt lat="-34.71535" lon="-58.50884">
    <name>TP893</name>
  </trkpt>
  <trkpt lat="-34.71545" lon="-58.50892">
    <name>TP894</name>
  </trkpt>
  <trkpt lat="-34.71632" lon="-58.50955">
    <name>TP895</name>
  </trkpt>
  <trkpt lat="-34.71653" lon="-58.50971">
    <name>TP896</name>
  </trkpt>
  <trkpt lat="-34.717" lon="-58.51002">
    <name>TP897</name>
  </trkpt>
  <trkpt lat="-34.71877" lon="-58.51123">
    <name>TP898</name>
  </trkpt>
  <trkpt lat="-34.71885" lon="-58.51129">
    <name>TP899</name>
  </trkpt>
  <trkpt lat="-34.71918" lon="-58.51151">
    <name>TP900</name>
  </trkpt>
  <trkpt lat="-34.71949" lon="-58.51171">
    <name>TP901</name>
  </trkpt>
  <trkpt lat="-34.71979" lon="-58.51191">
    <name>TP902</name>
  </trkpt>
  <trkpt lat="-34.72036" lon="-58.51226">
    <name>TP903</name>
  </trkpt>
  <trkpt lat="-34.72103" lon="-58.51267">
    <name>TP904</name>
  </trkpt>
  <trkpt lat="-34.72159" lon="-58.51299">
    <name>TP905</name>
  </trkpt>
  <trkpt lat="-34.72172" lon="-58.51307">
    <name>TP906</name>
  </trkpt>
  <trkpt lat="-34.72184" lon="-58.51315">
    <name>TP907</name>
  </trkpt>
  <trkpt lat="-34.72209" lon="-58.5133">
    <name>TP908</name>
  </trkpt>
  <trkpt lat="-34.72274" lon="-58.51368">
    <name>TP909</name>
  </trkpt>
  <trkpt lat="-34.723" lon="-58.51382">
    <name>TP910</name>
  </trkpt>
  <trkpt lat="-34.72307" lon="-58.51386">
    <name>TP911</name>
  </trkpt>
  <trkpt lat="-34.72313" lon="-58.51389">
    <name>TP912</name>
  </trkpt>
  <trkpt lat="-34.72315" lon="-58.5139">
    <name>TP913</name>
  </trkpt>
  <trkpt lat="-34.72323" lon="-58.51395">
    <name>TP914</name>
  </trkpt>
  <trkpt lat="-34.72337" lon="-58.51403">
    <name>TP915</name>
  </trkpt>
  <trkpt lat="-34.72383" lon="-58.51425">
    <name>TP916</name>
  </trkpt>
  <trkpt lat="-34.72392" lon="-58.51429">
    <name>TP917</name>
  </trkpt>
  <trkpt lat="-34.72429" lon="-58.51447">
    <name>TP918</name>
  </trkpt>
  <trkpt lat="-34.72483" lon="-58.51472">
    <name>TP919</name>
  </trkpt>
  <trkpt lat="-34.72571" lon="-58.51511">
    <name>TP920</name>
  </trkpt>
  <trkpt lat="-34.72578" lon="-58.51513">
    <name>TP921</name>
  </trkpt>
  <trkpt lat="-34.72624" lon="-58.51531">
    <name>TP922</name>
  </trkpt>
  <trkpt lat="-34.72631" lon="-58.51534">
    <name>TP923</name>
  </trkpt>
  <trkpt lat="-34.72644" lon="-58.51541">
    <name>TP924</name>
  </trkpt>
  <trkpt lat="-34.72702" lon="-58.51564">
    <name>TP925</name>
  </trkpt>
  <trkpt lat="-34.72714" lon="-58.5157">
    <name>TP926</name>
  </trkpt>
  <trkpt lat="-34.72725" lon="-58.51575">
    <name>TP927</name>
  </trkpt>
  <trkpt lat="-34.72782" lon="-58.51598">
    <name>TP928</name>
  </trkpt>
  <trkpt lat="-34.72795" lon="-58.51603">
    <name>TP929</name>
  </trkpt>
  <trkpt lat="-34.72807" lon="-58.51609">
    <name>TP930</name>
  </trkpt>
  <trkpt lat="-34.7283" lon="-58.51618">
    <name>TP931</name>
  </trkpt>
  <trkpt lat="-34.7285" lon="-58.51625">
    <name>TP932</name>
  </trkpt>
  <trkpt lat="-34.72912" lon="-58.5165">
    <name>TP933</name>
  </trkpt>
  <trkpt lat="-34.72954" lon="-58.51667">
    <name>TP934</name>
  </trkpt>
  <trkpt lat="-34.73015" lon="-58.51692">
    <name>TP935</name>
  </trkpt>
  <trkpt lat="-34.73049" lon="-58.51706">
    <name>TP936</name>
  </trkpt>
  <trkpt lat="-34.73083" lon="-58.5172">
    <name>TP937</name>
  </trkpt>
  <trkpt lat="-34.73144" lon="-58.51746">
    <name>TP938</name>
  </trkpt>
  <trkpt lat="-34.73146" lon="-58.51747">
    <name>TP939</name>
  </trkpt>
  <trkpt lat="-34.73168" lon="-58.51755">
    <name>TP940</name>
  </trkpt>
  <trkpt lat="-34.7327" lon="-58.51797">
    <name>TP941</name>
  </trkpt>
  <trkpt lat="-34.7336" lon="-58.51831">
    <name>TP942</name>
  </trkpt>
  <trkpt lat="-34.73434" lon="-58.51857">
    <name>TP943</name>
  </trkpt>
  <trkpt lat="-34.73437" lon="-58.51858">
    <name>TP944</name>
  </trkpt>
  <trkpt lat="-34.73507" lon="-58.5188">
    <name>TP945</name>
  </trkpt>
  <trkpt lat="-34.73617" lon="-58.51919">
    <name>TP946</name>
  </trkpt>
  <trkpt lat="-34.73682" lon="-58.51939">
    <name>TP947</name>
  </trkpt>
  <trkpt lat="-34.7369" lon="-58.51942">
    <name>TP948</name>
  </trkpt>
  <trkpt lat="-34.73758" lon="-58.51962">
    <name>TP949</name>
  </trkpt>
  <trkpt lat="-34.73865" lon="-58.51995">
    <name>TP950</name>
  </trkpt>
  <trkpt lat="-34.7388" lon="-58.52">
    <name>TP951</name>
  </trkpt>
  <trkpt lat="-34.73897" lon="-58.52005">
    <name>TP952</name>
  </trkpt>
  <trkpt lat="-34.73914" lon="-58.5201">
    <name>TP953</name>
  </trkpt>
  <trkpt lat="-34.7397" lon="-58.52025">
    <name>TP954</name>
  </trkpt>
  <trkpt lat="-34.74013" lon="-58.52037">
    <name>TP955</name>
  </trkpt>
  <trkpt lat="-34.74109" lon="-58.52063">
    <name>TP956</name>
  </trkpt>
  <trkpt lat="-34.74185" lon="-58.52083">
    <name>TP957</name>
  </trkpt>
  <trkpt lat="-34.74235" lon="-58.52096">
    <name>TP958</name>
  </trkpt>
  <trkpt lat="-34.74252" lon="-58.52101">
    <name>TP959</name>
  </trkpt>
  <trkpt lat="-34.74257" lon="-58.52102">
    <name>TP960</name>
  </trkpt>
  <trkpt lat="-34.74312" lon="-58.52116">
    <name>TP961</name>
  </trkpt>
  <trkpt lat="-34.74426" lon="-58.52144">
    <name>TP962</name>
  </trkpt>
  <trkpt lat="-34.74472" lon="-58.52154">
    <name>TP963</name>
  </trkpt>
  <trkpt lat="-34.74491" lon="-58.52158">
    <name>TP964</name>
  </trkpt>
  <trkpt lat="-34.74497" lon="-58.52159">
    <name>TP965</name>
  </trkpt>
  <trkpt lat="-34.74506" lon="-58.52162">
    <name>TP966</name>
  </trkpt>
  <trkpt lat="-34.74553" lon="-58.52173">
    <name>TP967</name>
  </trkpt>
  <trkpt lat="-34.74559" lon="-58.52174">
    <name>TP968</name>
  </trkpt>
  <trkpt lat="-34.74577" lon="-58.52177">
    <name>TP969</name>
  </trkpt>
  <trkpt lat="-34.7468" lon="-58.52198">
    <name>TP970</name>
  </trkpt>
  <trkpt lat="-34.74725" lon="-58.52207">
    <name>TP971</name>
  </trkpt>
  <trkpt lat="-34.74736" lon="-58.52209">
    <name>TP972</name>
  </trkpt>
  <trkpt lat="-34.74746" lon="-58.52211">
    <name>TP973</name>
  </trkpt>
  <trkpt lat="-34.74895" lon="-58.52241">
    <name>TP974</name>
  </trkpt>
  <trkpt lat="-34.74986" lon="-58.52258">
    <name>TP975</name>
  </trkpt>
  <trkpt lat="-34.7505" lon="-58.52271">
    <name>TP976</name>
  </trkpt>
  <trkpt lat="-34.75057" lon="-58.52272">
    <name>TP977</name>
  </trkpt>
  <trkpt lat="-34.75139" lon="-58.52284">
    <name>TP978</name>
  </trkpt>
  <trkpt lat="-34.75203" lon="-58.52294">
    <name>TP979</name>
  </trkpt>
  <trkpt lat="-34.75347" lon="-58.5231">
    <name>TP980</name>
  </trkpt>
  <trkpt lat="-34.75406" lon="-58.52315">
    <name>TP981</name>
  </trkpt>
  <trkpt lat="-34.75487" lon="-58.5232">
    <name>TP982</name>
  </trkpt>
  <trkpt lat="-34.75531" lon="-58.52322">
    <name>TP983</name>
  </trkpt>
  <trkpt lat="-34.75553" lon="-58.52324">
    <name>TP984</name>
  </trkpt>
  <trkpt lat="-34.75599" lon="-58.52329">
    <name>TP985</name>
  </trkpt>
  <trkpt lat="-34.75638" lon="-58.52331">
    <name>TP986</name>
  </trkpt>
  <trkpt lat="-34.75774" lon="-58.52338">
    <name>TP987</name>
  </trkpt>
  <trkpt lat="-34.75836" lon="-58.52342">
    <name>TP988</name>
  </trkpt>
  <trkpt lat="-34.76003" lon="-58.52352">
    <name>TP989</name>
  </trkpt>
  <trkpt lat="-34.76118" lon="-58.52359">
    <name>TP990</name>
  </trkpt>
  <trkpt lat="-34.76135" lon="-58.5236">
    <name>TP991</name>
  </trkpt>
  <trkpt lat="-34.76173" lon="-58.52362">
    <name>TP992</name>
  </trkpt>
  <trkpt lat="-34.76282" lon="-58.52369">
    <name>TP993</name>
  </trkpt>
  <trkpt lat="-34.76511" lon="-58.52382">
    <name>TP994</name>
  </trkpt>
  <trkpt lat="-34.76583" lon="-58.52388">
    <name>TP995</name>
  </trkpt>
  <trkpt lat="-34.76621" lon="-58.5239">
    <name>TP996</name>
  </trkpt>
  <trkpt lat="-34.76689" lon="-58.52394">
    <name>TP997</name>
  </trkpt>
  <trkpt lat="-34.7672" lon="-58.52394">
    <name>TP998</name>
  </trkpt>
  <trkpt lat="-34.76827" lon="-58.52402">
    <name>TP999</name>
  </trkpt>
  <trkpt lat="-34.76988" lon="-58.52412">
    <name>TP1000</name>
  </trkpt>
  <trkpt lat="-34.77134" lon="-58.5242">
    <name>TP1001</name>
  </trkpt>
  <trkpt lat="-34.77169" lon="-58.52422">
    <name>TP1002</name>
  </trkpt>
  <trkpt lat="-34.77291" lon="-58.52429">
    <name>TP1003</name>
  </trkpt>
  <trkpt lat="-34.77434" lon="-58.52437">
    <name>TP1004</name>
  </trkpt>
  <trkpt lat="-34.77435" lon="-58.52437">
    <name>TP1005</name>
  </trkpt>
  <trkpt lat="-34.77555" lon="-58.52447">
    <name>TP1006</name>
  </trkpt>
  <trkpt lat="-34.77609" lon="-58.5245">
    <name>TP1007</name>
  </trkpt>
  <trkpt lat="-34.77693" lon="-58.52454">
    <name>TP1008</name>
  </trkpt>
  <trkpt lat="-34.77803" lon="-58.52461">
    <name>TP1009</name>
  </trkpt>
  <trkpt lat="-34.77896" lon="-58.52466">
    <name>TP1010</name>
  </trkpt>
  <trkpt lat="-34.77939" lon="-58.52469">
    <name>TP1011</name>
  </trkpt>
  <trkpt lat="-34.78033" lon="-58.52475">
    <name>TP1012</name>
  </trkpt>
  <trkpt lat="-34.78041" lon="-58.52476">
    <name>TP1013</name>
  </trkpt>
  <trkpt lat="-34.78096" lon="-58.52479">
    <name>TP1014</name>
  </trkpt>
  <trkpt lat="-34.78114" lon="-58.5248">
    <name>TP1015</name>
  </trkpt>
  <trkpt lat="-34.782" lon="-58.52485">
    <name>TP1016</name>
  </trkpt>
  <trkpt lat="-34.78286" lon="-58.5249">
    <name>TP1017</name>
  </trkpt>
  <trkpt lat="-34.78313" lon="-58.52492">
    <name>TP1018</name>
  </trkpt>
  <trkpt lat="-34.78345" lon="-58.52495">
    <name>TP1019</name>
  </trkpt>
  <trkpt lat="-34.78437" lon="-58.52505">
    <name>TP1020</name>
  </trkpt>
  <trkpt lat="-34.78473" lon="-58.52511">
    <name>TP1021</name>
  </trkpt>
  <trkpt lat="-34.7856" lon="-58.52527">
    <name>TP1022</name>
  </trkpt>
  <trkpt lat="-34.78622" lon="-58.52542">
    <name>TP1023</name>
  </trkpt>
  <trkpt lat="-34.78648" lon="-58.52547">
    <name>TP1024</name>
  </trkpt>
  <trkpt lat="-34.78707" lon="-58.52565">
    <name>TP1025</name>
  </trkpt>
  <trkpt lat="-34.78742" lon="-58.52576">
    <name>TP1026</name>
  </trkpt>
  <trkpt lat="-34.7875" lon="-58.52578">
    <name>TP1027</name>
  </trkpt>
  <trkpt lat="-34.78758" lon="-58.52581">
    <name>TP1028</name>
  </trkpt>
  <trkpt lat="-34.78785" lon="-58.5259">
    <name>TP1029</name>
  </trkpt>
  <trkpt lat="-34.7881" lon="-58.52598">
    <name>TP1030</name>
  </trkpt>
  <trkpt lat="-34.7884" lon="-58.52611">
    <name>TP1031</name>
  </trkpt>
  <trkpt lat="-34.78857" lon="-58.52617">
    <name>TP1032</name>
  </trkpt>
  <trkpt lat="-34.78871" lon="-58.52623">
    <name>TP1033</name>
  </trkpt>
  <trkpt lat="-34.789" lon="-58.52634">
    <name>TP1034</name>
  </trkpt>
  <trkpt lat="-34.78928" lon="-58.52646">
    <name>TP1035</name>
  </trkpt>
  <trkpt lat="-34.78941" lon="-58.52651">
    <name>TP1036</name>
  </trkpt>
  <trkpt lat="-34.78972" lon="-58.52666">
    <name>TP1037</name>
  </trkpt>
  <trkpt lat="-34.79008" lon="-58.52682">
    <name>TP1038</name>
  </trkpt>
  <trkpt lat="-34.79035" lon="-58.52696">
    <name>TP1039</name>
  </trkpt>
  <trkpt lat="-34.79047" lon="-58.52703">
    <name>TP1040</name>
  </trkpt>
  <trkpt lat="-34.79077" lon="-58.52719">
    <name>TP1041</name>
  </trkpt>
  <trkpt lat="-34.79096" lon="-58.52729">
    <name>TP1042</name>
  </trkpt>
  <trkpt lat="-34.79117" lon="-58.5274">
    <name>TP1043</name>
  </trkpt>
  <trkpt lat="-34.79147" lon="-58.52757">
    <name>TP1044</name>
  </trkpt>
  <trkpt lat="-34.79175" lon="-58.52775">
    <name>TP1045</name>
  </trkpt>
  <trkpt lat="-34.79195" lon="-58.52787">
    <name>TP1046</name>
  </trkpt>
  <trkpt lat="-34.79234" lon="-58.52812">
    <name>TP1047</name>
  </trkpt>
  <trkpt lat="-34.79253" lon="-58.52825">
    <name>TP1048</name>
  </trkpt>
  <trkpt lat="-34.79313" lon="-58.52866">
    <name>TP1049</name>
  </trkpt>
  <trkpt lat="-34.79323" lon="-58.52873">
    <name>TP1050</name>
  </trkpt>
  <trkpt lat="-34.79364" lon="-58.52903">
    <name>TP1051</name>
  </trkpt>
  <trkpt lat="-34.7941" lon="-58.52938">
    <name>TP1052</name>
  </trkpt>
  <trkpt lat="-34.7942" lon="-58.52947">
    <name>TP1053</name>
  </trkpt>
  <trkpt lat="-34.79485" lon="-58.53002">
    <name>TP1054</name>
  </trkpt>
  <trkpt lat="-34.79513" lon="-58.53026">
    <name>TP1055</name>
  </trkpt>
  <trkpt lat="-34.79517" lon="-58.5303">
    <name>TP1056</name>
  </trkpt>
  <trkpt lat="-34.79527" lon="-58.53039">
    <name>TP1057</name>
  </trkpt>
  <trkpt lat="-34.79564" lon="-58.53073">
    <name>TP1058</name>
  </trkpt>
  <trkpt lat="-34.79585" lon="-58.53094">
    <name>TP1059</name>
  </trkpt>
  <trkpt lat="-34.79603" lon="-58.53111">
    <name>TP1060</name>
  </trkpt>
  <trkpt lat="-34.79626" lon="-58.53135">
    <name>TP1061</name>
  </trkpt>
  <trkpt lat="-34.79674" lon="-58.53185">
    <name>TP1062</name>
  </trkpt>
  <trkpt lat="-34.79728" lon="-58.53246">
    <name>TP1063</name>
  </trkpt>
  <trkpt lat="-34.79737" lon="-58.53257">
    <name>TP1064</name>
  </trkpt>
  <trkpt lat="-34.79784" lon="-58.53314">
    <name>TP1065</name>
  </trkpt>
  <trkpt lat="-34.79818" lon="-58.53355">
    <name>TP1066</name>
  </trkpt>
  <trkpt lat="-34.79836" lon="-58.53377">
    <name>TP1067</name>
  </trkpt>
  <trkpt lat="-34.79865" lon="-58.53412">
    <name>TP1068</name>
  </trkpt>
  <trkpt lat="-34.79927" lon="-58.53489">
    <name>TP1069</name>
  </trkpt>
  <trkpt lat="-34.79938" lon="-58.53502">
    <name>TP1070</name>
  </trkpt>
  <trkpt lat="-34.79974" lon="-58.53546">
    <name>TP1071</name>
  </trkpt>
  <trkpt lat="-34.7999" lon="-58.53565">
    <name>TP1072</name>
  </trkpt>
  <trkpt lat="-34.8004" lon="-58.53627">
    <name>TP1073</name>
  </trkpt>
  <trkpt lat="-34.80077" lon="-58.53671">
    <name>TP1074</name>
  </trkpt>
  <trkpt lat="-34.80116" lon="-58.53718">
    <name>TP1075</name>
  </trkpt>
  <trkpt lat="-34.80136" lon="-58.53745">
    <name>TP1076</name>
  </trkpt>
  <trkpt lat="-34.80163" lon="-58.53777">
    <name>TP1077</name>
  </trkpt>
  <trkpt lat="-34.80186" lon="-58.53805">
    <name>TP1078</name>
  </trkpt>
  <trkpt lat="-34.8022" lon="-58.53847">
    <name>TP1079</name>
  </trkpt>
  <trkpt lat="-34.80246" lon="-58.53878">
    <name>TP1080</name>
  </trkpt>
  <trkpt lat="-34.80295" lon="-58.53938">
    <name>TP1081</name>
  </trkpt>
  <trkpt lat="-34.80315" lon="-58.53964">
    <name>TP1082</name>
  </trkpt>
  <trkpt lat="-34.80323" lon="-58.53973">
    <name>TP1083</name>
  </trkpt>
  <trkpt lat="-34.80338" lon="-58.53991">
    <name>TP1084</name>
  </trkpt>
  <trkpt lat="-34.80358" lon="-58.54015">
    <name>TP1085</name>
  </trkpt>
  <trkpt lat="-34.80363" lon="-58.54021">
    <name>TP1086</name>
  </trkpt>
  <trkpt lat="-34.80392" lon="-58.54056">
    <name>TP1087</name>
  </trkpt>
  <trkpt lat="-34.80412" lon="-58.54082">
    <name>TP1088</name>
  </trkpt>
  <trkpt lat="-34.80454" lon="-58.54133">
    <name>TP1089</name>
  </trkpt>
  <trkpt lat="-34.80481" lon="-58.54167">
    <name>TP1090</name>
  </trkpt>
  <trkpt lat="-34.80496" lon="-58.54185">
    <name>TP1091</name>
  </trkpt>
  <trkpt lat="-34.80521" lon="-58.54211">
    <name>TP1092</name>
  </trkpt>
  <trkpt lat="-34.80529" lon="-58.54219">
    <name>TP1093</name>
  </trkpt>
  <trkpt lat="-34.80537" lon="-58.54226">
    <name>TP1094</name>
  </trkpt>
  <trkpt lat="-34.80544" lon="-58.54233">
    <name>TP1095</name>
  </trkpt>
  <trkpt lat="-34.80564" lon="-58.5425">
    <name>TP1096</name>
  </trkpt>
  <trkpt lat="-34.8057" lon="-58.54255">
    <name>TP1097</name>
  </trkpt>
  <trkpt lat="-34.8058" lon="-58.54263">
    <name>TP1098</name>
  </trkpt>
  <trkpt lat="-34.80598" lon="-58.54276">
    <name>TP1099</name>
  </trkpt>
  <trkpt lat="-34.80601" lon="-58.54277">
    <name>TP1100</name>
  </trkpt>
  <trkpt lat="-34.80609" lon="-58.54283">
    <name>TP1101</name>
  </trkpt>
  <trkpt lat="-34.80625" lon="-58.54293">
    <name>TP1102</name>
  </trkpt>
  <trkpt lat="-34.80632" lon="-58.54298">
    <name>TP1103</name>
  </trkpt>
  <trkpt lat="-34.80656" lon="-58.54311">
    <name>TP1104</name>
  </trkpt>
  <trkpt lat="-34.80688" lon="-58.54325">
    <name>TP1105</name>
  </trkpt>
  <trkpt lat="-34.80717" lon="-58.54335">
    <name>TP1106</name>
  </trkpt>
  <trkpt lat="-34.80738" lon="-58.54342">
    <name>TP1107</name>
  </trkpt>
  <trkpt lat="-34.80765" lon="-58.54349">
    <name>TP1108</name>
  </trkpt>
  <trkpt lat="-34.80816" lon="-58.54358">
    <name>TP1109</name>
  </trkpt>
  <trkpt lat="-34.80882" lon="-58.54365">
    <name>TP1110</name>
  </trkpt>
  <trkpt lat="-34.80904" lon="-58.54366">
    <name>TP1111</name>
  </trkpt>
  <trkpt lat="-34.80927" lon="-58.54367">
    <name>TP1112</name>
  </trkpt>
  <trkpt lat="-34.80929" lon="-58.54367">
    <name>TP1113</name>
  </trkpt>
  <trkpt lat="-34.80942" lon="-58.54367">
    <name>TP1114</name>
  </trkpt>
  <trkpt lat="-34.80947" lon="-58.54367">
    <name>TP1115</name>
  </trkpt>
  <trkpt lat="-34.8097" lon="-58.54362">
    <name>TP1116</name>
  </trkpt>
  <trkpt lat="-34.81" lon="-58.54353">
    <name>TP1117</name>
  </trkpt>
  <trkpt lat="-34.81017" lon="-58.54348">
    <name>TP1118</name>
  </trkpt>
  <trkpt lat="-34.81022" lon="-58.54346">
    <name>TP1119</name>
  </trkpt>
  <trkpt lat="-34.81041" lon="-58.54342">
    <name>TP1120</name>
  </trkpt>
  <trkpt lat="-34.81057" lon="-58.5434">
    <name>TP1121</name>
  </trkpt>
  <trkpt lat="-34.81075" lon="-58.54339">
    <name>TP1122</name>
  </trkpt>
  <trkpt lat="-34.8107498" lon="-58.5433865">
    <name>TP1123</name>
  </trkpt>
  <trkpt lat="-34.81106" lon="-58.54378">
    <name>TP1124</name>
  </trkpt>
  <trkpt lat="-34.8110574" lon="-58.5437758">
    <name>TP1125</name>
  </trkpt>
  <trkpt lat="-34.81105" lon="-58.54388">
    <name>TP1126</name>
  </trkpt>
  <trkpt lat="-34.811049" lon="-58.543877">
    <name>TP1127</name>
  </trkpt>
  <trkpt lat="-34.81129" lon="-58.54414">
    <name>TP1128</name>
  </trkpt>
  <trkpt lat="-34.81141" lon="-58.54424">
    <name>TP1129</name>
  </trkpt>
  <trkpt lat="-34.81145" lon="-58.54427">
    <name>TP1130</name>
  </trkpt>
  <trkpt lat="-34.81161" lon="-58.54436">
    <name>TP1131</name>
  </trkpt>
  <trkpt lat="-34.81168" lon="-58.54437">
    <name>TP1132</name>
  </trkpt>
  <trkpt lat="-34.81172" lon="-58.54437">
    <name>TP1133</name>
  </trkpt>
  <trkpt lat="-34.81175" lon="-58.54437">
    <name>TP1134</name>
  </trkpt>
  <trkpt lat="-34.812" lon="-58.54434">
    <name>TP1135</name>
  </trkpt>
  <trkpt lat="-34.81227" lon="-58.5443">
    <name>TP1136</name>
  </trkpt>
  <trkpt lat="-34.81261" lon="-58.54426">
    <name>TP1137</name>
  </trkpt>
  <trkpt lat="-34.81277" lon="-58.54425">
    <name>TP1138</name>
  </trkpt>
  <trkpt lat="-34.8129" lon="-58.54427">
    <name>TP1139</name>
  </trkpt>
  <trkpt lat="-34.8128954" lon="-58.5442677">
    <name>TP1140</name>
  </trkpt>
  <trkpt lat="-34.81319" lon="-58.54431">
    <name>TP1141</name>
  </trkpt>
  <trkpt lat="-34.8131933" lon="-58.5443122">
    <name>TP1142</name>
  </trkpt>
  <trkpt lat="-34.8133" lon="-58.5443">
    <name>TP1143</name>
  </trkpt>
  <trkpt lat="-34.81349" lon="-58.54427">
    <name>TP1144</name>
  </trkpt>
  <trkpt lat="-34.81386" lon="-58.54431">
    <name>TP1145</name>
  </trkpt>
  <trkpt lat="-34.81396" lon="-58.54432">
    <name>TP1146</name>
  </trkpt>
  <trkpt lat="-34.81408" lon="-58.54428">
    <name>TP1147</name>
  </trkpt>
  <trkpt lat="-34.81416" lon="-58.54426">
    <name>TP1148</name>
  </trkpt>
  <trkpt lat="-34.81423" lon="-58.5442">
    <name>TP1149</name>
  </trkpt>
  <trkpt lat="-34.81428" lon="-58.54413">
    <name>TP1150</name>
  </trkpt>
  <trkpt lat="-34.81433" lon="-58.54396">
    <name>TP1151</name>
  </trkpt>
  <trkpt lat="-34.81438" lon="-58.54382">
    <name>TP1152</name>
  </trkpt>
  <trkpt lat="-34.81477" lon="-58.54211">
    <name>TP1153</name>
  </trkpt>
  <trkpt lat="-34.81481" lon="-58.54191">
    <name>TP1154</name>
  </trkpt>
  <trkpt lat="-34.81487" lon="-58.54164">
    <name>TP1155</name>
  </trkpt>
  <trkpt lat="-34.8149" lon="-58.54146">
    <name>TP1156</name>
  </trkpt>
  <trkpt lat="-34.81453" lon="-58.54107">
    <name>TP1157</name>
  </trkpt>
  <trkpt lat="-34.81407" lon="-58.54058">
    <name>TP1158</name>
  </trkpt>
  <trkpt lat="-34.8140702" lon="-58.5405773">
    <name>TP1159</name>
  </trkpt>
  <trkpt lat="-34.8140702" lon="-58.5405773">
    <name>TP1160</name>
  </trkpt>
  <trkpt lat="-34.8140702" lon="-58.5405773">
    <name>TP1161</name>
  </trkpt>
  </trkseg>
</trk>
</gpx>