<?xml version="1.0" encoding="UTF-8" standalone="no" ?>
<gpx xmlns="http://www.topografix.com/GPX/1/1" xmlns:gpxx="http://www.garmin.com/xmlschemas/GpxExtensions/v3" xmlns:gpxtpx="http://www.garmin.com/xmlschemas/TrackPointExtension/v1" creator="mapstogpx.com" version="1.1" xmlns:xsi="http://www.w3.org/2001/XMLSchema-instance" xsi:schemaLocation="http://www.topografix.com/GPX/1/1 http://www.topografix.com/GPX/1/1/gpx.xsd http://www.garmin.com/xmlschemas/GpxExtensions/v3 http://www.garmin.com/xmlschemas/GpxExtensionsv3.xsd http://www.garmin.com/xmlschemas/TrackPointExtension/v1 http://www.garmin.com/xmlschemas/TrackPointExtensionv1.xsd">
  <metadata>
    <link href="http://www.mapstogpx.com">
      <text>Sverrir Sigmundarson</text>
    </link>
    <!--desc>Powered by Google, ©2025 Google</desc-->
    <!--copyright author="Google Inc">
    	<year>2025</year>
    	<license>https://developers.google.com/maps/terms</license>
    </copyright-->
    <!--url>https://www.google.com/maps/dir/67.688521,12.68138/V%C3%A6r%C3%B8y+Heliport+(VRY),+R%C3%B8stnesv%C3%A5gen,+V%C3%A6r%C3%B8y,+Norway/67.6526078,12.7105945/@67.6538918,12.7024854,14z/data=!4m15!4m14!1m0!1m10!1m1!1s0x45de2cbb49441079:0x961d0f40cf14188e!2m2!1d12.7270566!2d67.6545612!3m4!1m2!1d12.6979829!2d67.6655451!3s0x45de2cb939242ead:0xdf26f20ab4968201!1m0!3e0?entry=tts&g_ep=EgoyMDI1MDYzMC4wKgBIAVAD&skid=3b1be9e3-aad4-4bcc-9357-79e775a7a872&hl=en</url-->
    <time>2025-07-04T10:36:18Z</time>
  </metadata>
  <wpt lat="67.688521" lon="12.68138">
    <name>8063 Værøy</name>
    <desc>Værøya, 8063 Værøy, Norway</desc>
  </wpt>
  <wpt lat="67.6545612" lon="12.7270566">
    <name>Værøy Heliport (VRY)</name>
    <desc>Værøy Heliport, Røstnesvågen 5, 8063 Værøy, Norway</desc>
  </wpt>
  <wpt lat="67.6526078" lon="12.7105945">
    <name>8063 Værøy</name>
    <desc>Værøy ferjekai, 8063 Værøy, Norway</desc>
  </wpt>
<trk>
  <name>8063 Værøy to 8063 Værøy</name>
  <number>1</number>
  <trkseg>
  <trkpt lat="67.6904003" lon="12.6801181">
    <name>TP001</name>
  </trkpt>
  <trkpt lat="67.69041" lon="12.68024">
    <name>TP002</name>
  </trkpt>
  <trkpt lat="67.69046" lon="12.68077">
    <name>TP003</name>
  </trkpt>
  <trkpt lat="67.69049" lon="12.68105">
    <name>TP004</name>
  </trkpt>
  <trkpt lat="67.69054" lon="12.68149">
    <name>TP005</name>
  </trkpt>
  <trkpt lat="67.69056" lon="12.68168">
    <name>TP006</name>
  </trkpt>
  <trkpt lat="67.69059" lon="12.68188">
    <name>TP007</name>
  </trkpt>
  <trkpt lat="67.69062" lon="12.68212">
    <name>TP008</name>
  </trkpt>
  <trkpt lat="67.6907" lon="12.68272">
    <name>TP009</name>
  </trkpt>
  <trkpt lat="67.69085" lon="12.68353">
    <name>TP010</name>
  </trkpt>
  <trkpt lat="67.691" lon="12.68437">
    <name>TP011</name>
  </trkpt>
  <trkpt lat="67.69116" lon="12.68514">
    <name>TP012</name>
  </trkpt>
  <trkpt lat="67.69132" lon="12.68593">
    <name>TP013</name>
  </trkpt>
  <trkpt lat="67.69149" lon="12.68671">
    <name>TP014</name>
  </trkpt>
  <trkpt lat="67.69165" lon="12.68751">
    <name>TP015</name>
  </trkpt>
  <trkpt lat="67.69172" lon="12.68787">
    <name>TP016</name>
  </trkpt>
  <trkpt lat="67.69175" lon="12.68804">
    <name>TP017</name>
  </trkpt>
  <trkpt lat="67.69177" lon="12.68811">
    <name>TP018</name>
  </trkpt>
  <trkpt lat="67.69192" lon="12.6888">
    <name>TP019</name>
  </trkpt>
  <trkpt lat="67.69201" lon="12.68929">
    <name>TP020</name>
  </trkpt>
  <trkpt lat="67.69207" lon="12.68956">
    <name>TP021</name>
  </trkpt>
  <trkpt lat="67.69214" lon="12.68996">
    <name>TP022</name>
  </trkpt>
  <trkpt lat="67.69222" lon="12.69035">
    <name>TP023</name>
  </trkpt>
  <trkpt lat="67.69225" lon="12.69056">
    <name>TP024</name>
  </trkpt>
  <trkpt lat="67.69233" lon="12.69098">
    <name>TP025</name>
  </trkpt>
  <trkpt lat="67.69236" lon="12.69115">
    <name>TP026</name>
  </trkpt>
  <trkpt lat="67.6925" lon="12.69194">
    <name>TP027</name>
  </trkpt>
  <trkpt lat="67.69256" lon="12.69228">
    <name>TP028</name>
  </trkpt>
  <trkpt lat="67.69263" lon="12.69276">
    <name>TP029</name>
  </trkpt>
  <trkpt lat="67.69275" lon="12.69359">
    <name>TP030</name>
  </trkpt>
  <trkpt lat="67.69286" lon="12.69441">
    <name>TP031</name>
  </trkpt>
  <trkpt lat="67.69299" lon="12.69527">
    <name>TP032</name>
  </trkpt>
  <trkpt lat="67.6931" lon="12.69614">
    <name>TP033</name>
  </trkpt>
  <trkpt lat="67.69312" lon="12.69628">
    <name>TP034</name>
  </trkpt>
  <trkpt lat="67.69322" lon="12.69699">
    <name>TP035</name>
  </trkpt>
  <trkpt lat="67.69322" lon="12.697">
    <name>TP036</name>
  </trkpt>
  <trkpt lat="67.69323" lon="12.6971">
    <name>TP037</name>
  </trkpt>
  <trkpt lat="67.69333" lon="12.69781">
    <name>TP038</name>
  </trkpt>
  <trkpt lat="67.69341" lon="12.69831">
    <name>TP039</name>
  </trkpt>
  <trkpt lat="67.69346" lon="12.6986">
    <name>TP040</name>
  </trkpt>
  <trkpt lat="67.6935" lon="12.69893">
    <name>TP041</name>
  </trkpt>
  <trkpt lat="67.69352" lon="12.69908">
    <name>TP042</name>
  </trkpt>
  <trkpt lat="67.69356" lon="12.6996">
    <name>TP043</name>
  </trkpt>
  <trkpt lat="67.69357" lon="12.70002">
    <name>TP044</name>
  </trkpt>
  <trkpt lat="67.69357" lon="12.70003">
    <name>TP045</name>
  </trkpt>
  <trkpt lat="67.69354" lon="12.70065">
    <name>TP046</name>
  </trkpt>
  <trkpt lat="67.69347" lon="12.70151">
    <name>TP047</name>
  </trkpt>
  <trkpt lat="67.69341" lon="12.70237">
    <name>TP048</name>
  </trkpt>
  <trkpt lat="67.69334" lon="12.70324">
    <name>TP049</name>
  </trkpt>
  <trkpt lat="67.69334" lon="12.70329">
    <name>TP050</name>
  </trkpt>
  <trkpt lat="67.69331" lon="12.70365">
    <name>TP051</name>
  </trkpt>
  <trkpt lat="67.69331" lon="12.70376">
    <name>TP052</name>
  </trkpt>
  <trkpt lat="67.69328" lon="12.70408">
    <name>TP053</name>
  </trkpt>
  <trkpt lat="67.69323" lon="12.70468">
    <name>TP054</name>
  </trkpt>
  <trkpt lat="67.69321" lon="12.70492">
    <name>TP055</name>
  </trkpt>
  <trkpt lat="67.69316" lon="12.70561">
    <name>TP056</name>
  </trkpt>
  <trkpt lat="67.69315" lon="12.70577">
    <name>TP057</name>
  </trkpt>
  <trkpt lat="67.69313" lon="12.70608">
    <name>TP058</name>
  </trkpt>
  <trkpt lat="67.69311" lon="12.70643">
    <name>TP059</name>
  </trkpt>
  <trkpt lat="67.6931" lon="12.70655">
    <name>TP060</name>
  </trkpt>
  <trkpt lat="67.69309" lon="12.70662">
    <name>TP061</name>
  </trkpt>
  <trkpt lat="67.69308" lon="12.7069">
    <name>TP062</name>
  </trkpt>
  <trkpt lat="67.69307" lon="12.70702">
    <name>TP063</name>
  </trkpt>
  <trkpt lat="67.69306" lon="12.70737">
    <name>TP064</name>
  </trkpt>
  <trkpt lat="67.69306" lon="12.70764">
    <name>TP065</name>
  </trkpt>
  <trkpt lat="67.69306" lon="12.70796">
    <name>TP066</name>
  </trkpt>
  <trkpt lat="67.69306" lon="12.70815">
    <name>TP067</name>
  </trkpt>
  <trkpt lat="67.69307" lon="12.70843">
    <name>TP068</name>
  </trkpt>
  <trkpt lat="67.6931" lon="12.70895">
    <name>TP069</name>
  </trkpt>
  <trkpt lat="67.69309" lon="12.70934">
    <name>TP070</name>
  </trkpt>
  <trkpt lat="67.69308" lon="12.70937">
    <name>TP071</name>
  </trkpt>
  <trkpt lat="67.69305" lon="12.70972">
    <name>TP072</name>
  </trkpt>
  <trkpt lat="67.69303" lon="12.70983">
    <name>TP073</name>
  </trkpt>
  <trkpt lat="67.69297" lon="12.71027">
    <name>TP074</name>
  </trkpt>
  <trkpt lat="67.69295" lon="12.71042">
    <name>TP075</name>
  </trkpt>
  <trkpt lat="67.69287" lon="12.71118">
    <name>TP076</name>
  </trkpt>
  <trkpt lat="67.69287" lon="12.71119">
    <name>TP077</name>
  </trkpt>
  <trkpt lat="67.69286" lon="12.71137">
    <name>TP078</name>
  </trkpt>
  <trkpt lat="67.69285" lon="12.71165">
    <name>TP079</name>
  </trkpt>
  <trkpt lat="67.69284" lon="12.71168">
    <name>TP080</name>
  </trkpt>
  <trkpt lat="67.69285" lon="12.71207">
    <name>TP081</name>
  </trkpt>
  <trkpt lat="67.69285" lon="12.71213">
    <name>TP082</name>
  </trkpt>
  <trkpt lat="67.69286" lon="12.71231">
    <name>TP083</name>
  </trkpt>
  <trkpt lat="67.69286" lon="12.71243">
    <name>TP084</name>
  </trkpt>
  <trkpt lat="67.69286" lon="12.71248">
    <name>TP085</name>
  </trkpt>
  <trkpt lat="67.69287" lon="12.7126">
    <name>TP086</name>
  </trkpt>
  <trkpt lat="67.69288" lon="12.71292">
    <name>TP087</name>
  </trkpt>
  <trkpt lat="67.69289" lon="12.71307">
    <name>TP088</name>
  </trkpt>
  <trkpt lat="67.69293" lon="12.7138">
    <name>TP089</name>
  </trkpt>
  <trkpt lat="67.69294" lon="12.71401">
    <name>TP090</name>
  </trkpt>
  <trkpt lat="67.69297" lon="12.71447">
    <name>TP091</name>
  </trkpt>
  <trkpt lat="67.69298" lon="12.71475">
    <name>TP092</name>
  </trkpt>
  <trkpt lat="67.69302" lon="12.71541">
    <name>TP093</name>
  </trkpt>
  <trkpt lat="67.69304" lon="12.71569">
    <name>TP094</name>
  </trkpt>
  <trkpt lat="67.69304" lon="12.71577">
    <name>TP095</name>
  </trkpt>
  <trkpt lat="67.69306" lon="12.71624">
    <name>TP096</name>
  </trkpt>
  <trkpt lat="67.69306" lon="12.71635">
    <name>TP097</name>
  </trkpt>
  <trkpt lat="67.69307" lon="12.71657">
    <name>TP098</name>
  </trkpt>
  <trkpt lat="67.69308" lon="12.71682">
    <name>TP099</name>
  </trkpt>
  <trkpt lat="67.69308" lon="12.71713">
    <name>TP100</name>
  </trkpt>
  <trkpt lat="67.69308" lon="12.71718">
    <name>TP101</name>
  </trkpt>
  <trkpt lat="67.69307" lon="12.71729">
    <name>TP102</name>
  </trkpt>
  <trkpt lat="67.69305" lon="12.71752">
    <name>TP103</name>
  </trkpt>
  <trkpt lat="67.69297" lon="12.71817">
    <name>TP104</name>
  </trkpt>
  <trkpt lat="67.69282" lon="12.71889">
    <name>TP105</name>
  </trkpt>
  <trkpt lat="67.69273" lon="12.71935">
    <name>TP106</name>
  </trkpt>
  <trkpt lat="67.69266" lon="12.71954">
    <name>TP107</name>
  </trkpt>
  <trkpt lat="67.69259" lon="12.71961">
    <name>TP108</name>
  </trkpt>
  <trkpt lat="67.69246" lon="12.71967">
    <name>TP109</name>
  </trkpt>
  <trkpt lat="67.69236" lon="12.71966">
    <name>TP110</name>
  </trkpt>
  <trkpt lat="67.69233" lon="12.71965">
    <name>TP111</name>
  </trkpt>
  <trkpt lat="67.69209" lon="12.71953">
    <name>TP112</name>
  </trkpt>
  <trkpt lat="67.69189" lon="12.71933">
    <name>TP113</name>
  </trkpt>
  <trkpt lat="67.69174" lon="12.71909">
    <name>TP114</name>
  </trkpt>
  <trkpt lat="67.69169" lon="12.71902">
    <name>TP115</name>
  </trkpt>
  <trkpt lat="67.69152" lon="12.71866">
    <name>TP116</name>
  </trkpt>
  <trkpt lat="67.69145" lon="12.71853">
    <name>TP117</name>
  </trkpt>
  <trkpt lat="67.6914" lon="12.71845">
    <name>TP118</name>
  </trkpt>
  <trkpt lat="67.69118" lon="12.71813">
    <name>TP119</name>
  </trkpt>
  <trkpt lat="67.69114" lon="12.71807">
    <name>TP120</name>
  </trkpt>
  <trkpt lat="67.69093" lon="12.71782">
    <name>TP121</name>
  </trkpt>
  <trkpt lat="67.69081" lon="12.71769">
    <name>TP122</name>
  </trkpt>
  <trkpt lat="67.69068" lon="12.71755">
    <name>TP123</name>
  </trkpt>
  <trkpt lat="67.69048" lon="12.71729">
    <name>TP124</name>
  </trkpt>
  <trkpt lat="67.69042" lon="12.7172">
    <name>TP125</name>
  </trkpt>
  <trkpt lat="67.69033" lon="12.71705">
    <name>TP126</name>
  </trkpt>
  <trkpt lat="67.69016" lon="12.7168">
    <name>TP127</name>
  </trkpt>
  <trkpt lat="67.69001" lon="12.71658">
    <name>TP128</name>
  </trkpt>
  <trkpt lat="67.68994" lon="12.71647">
    <name>TP129</name>
  </trkpt>
  <trkpt lat="67.6897" lon="12.7161">
    <name>TP130</name>
  </trkpt>
  <trkpt lat="67.68954" lon="12.71589">
    <name>TP131</name>
  </trkpt>
  <trkpt lat="67.68928" lon="12.71562">
    <name>TP132</name>
  </trkpt>
  <trkpt lat="67.68903" lon="12.71549">
    <name>TP133</name>
  </trkpt>
  <trkpt lat="67.68901" lon="12.71548">
    <name>TP134</name>
  </trkpt>
  <trkpt lat="67.68886" lon="12.71547">
    <name>TP135</name>
  </trkpt>
  <trkpt lat="67.6886" lon="12.71552">
    <name>TP136</name>
  </trkpt>
  <trkpt lat="67.68849" lon="12.71555">
    <name>TP137</name>
  </trkpt>
  <trkpt lat="67.68846" lon="12.71556">
    <name>TP138</name>
  </trkpt>
  <trkpt lat="67.68843" lon="12.71556">
    <name>TP139</name>
  </trkpt>
  <trkpt lat="67.68833" lon="12.71555">
    <name>TP140</name>
  </trkpt>
  <trkpt lat="67.68828" lon="12.71549">
    <name>TP141</name>
  </trkpt>
  <trkpt lat="67.68813" lon="12.71532">
    <name>TP142</name>
  </trkpt>
  <trkpt lat="67.68812" lon="12.7153">
    <name>TP143</name>
  </trkpt>
  <trkpt lat="67.68801" lon="12.7151">
    <name>TP144</name>
  </trkpt>
  <trkpt lat="67.68798" lon="12.71501">
    <name>TP145</name>
  </trkpt>
  <trkpt lat="67.68785" lon="12.7147">
    <name>TP146</name>
  </trkpt>
  <trkpt lat="67.68784" lon="12.71469">
    <name>TP147</name>
  </trkpt>
  <trkpt lat="67.68777" lon="12.71442">
    <name>TP148</name>
  </trkpt>
  <trkpt lat="67.68774" lon="12.7143">
    <name>TP149</name>
  </trkpt>
  <trkpt lat="67.68766" lon="12.71397">
    <name>TP150</name>
  </trkpt>
  <trkpt lat="67.68751" lon="12.71357">
    <name>TP151</name>
  </trkpt>
  <trkpt lat="67.68749" lon="12.7135">
    <name>TP152</name>
  </trkpt>
  <trkpt lat="67.68738" lon="12.71326">
    <name>TP153</name>
  </trkpt>
  <trkpt lat="67.68728" lon="12.71305">
    <name>TP154</name>
  </trkpt>
  <trkpt lat="67.68723" lon="12.71297">
    <name>TP155</name>
  </trkpt>
  <trkpt lat="67.68709" lon="12.71269">
    <name>TP156</name>
  </trkpt>
  <trkpt lat="67.68706" lon="12.71263">
    <name>TP157</name>
  </trkpt>
  <trkpt lat="67.68694" lon="12.71242">
    <name>TP158</name>
  </trkpt>
  <trkpt lat="67.68683" lon="12.71221">
    <name>TP159</name>
  </trkpt>
  <trkpt lat="67.68679" lon="12.71216">
    <name>TP160</name>
  </trkpt>
  <trkpt lat="67.68659" lon="12.71183">
    <name>TP161</name>
  </trkpt>
  <trkpt lat="67.68649" lon="12.71166">
    <name>TP162</name>
  </trkpt>
  <trkpt lat="67.68635" lon="12.71143">
    <name>TP163</name>
  </trkpt>
  <trkpt lat="67.68634" lon="12.7114">
    <name>TP164</name>
  </trkpt>
  <trkpt lat="67.68619" lon="12.71117">
    <name>TP165</name>
  </trkpt>
  <trkpt lat="67.68618" lon="12.71116">
    <name>TP166</name>
  </trkpt>
  <trkpt lat="67.686" lon="12.71088">
    <name>TP167</name>
  </trkpt>
  <trkpt lat="67.68579" lon="12.71054">
    <name>TP168</name>
  </trkpt>
  <trkpt lat="67.68557" lon="12.71022">
    <name>TP169</name>
  </trkpt>
  <trkpt lat="67.68556" lon="12.71021">
    <name>TP170</name>
  </trkpt>
  <trkpt lat="67.6854" lon="12.70998">
    <name>TP171</name>
  </trkpt>
  <trkpt lat="67.68532" lon="12.70987">
    <name>TP172</name>
  </trkpt>
  <trkpt lat="67.68518" lon="12.70967">
    <name>TP173</name>
  </trkpt>
  <trkpt lat="67.68498" lon="12.70944">
    <name>TP174</name>
  </trkpt>
  <trkpt lat="67.68471" lon="12.70919">
    <name>TP175</name>
  </trkpt>
  <trkpt lat="67.68443" lon="12.709">
    <name>TP176</name>
  </trkpt>
  <trkpt lat="67.68417" lon="12.70882">
    <name>TP177</name>
  </trkpt>
  <trkpt lat="67.6839" lon="12.70866">
    <name>TP178</name>
  </trkpt>
  <trkpt lat="67.6837" lon="12.70852">
    <name>TP179</name>
  </trkpt>
  <trkpt lat="67.68366" lon="12.7085">
    <name>TP180</name>
  </trkpt>
  <trkpt lat="67.68344" lon="12.70844">
    <name>TP181</name>
  </trkpt>
  <trkpt lat="67.68337" lon="12.70844">
    <name>TP182</name>
  </trkpt>
  <trkpt lat="67.68321" lon="12.70842">
    <name>TP183</name>
  </trkpt>
  <trkpt lat="67.68301" lon="12.70841">
    <name>TP184</name>
  </trkpt>
  <trkpt lat="67.68296" lon="12.70841">
    <name>TP185</name>
  </trkpt>
  <trkpt lat="67.68288" lon="12.70838">
    <name>TP186</name>
  </trkpt>
  <trkpt lat="67.68283" lon="12.70837">
    <name>TP187</name>
  </trkpt>
  <trkpt lat="67.68275" lon="12.70834">
    <name>TP188</name>
  </trkpt>
  <trkpt lat="67.68266" lon="12.70825">
    <name>TP189</name>
  </trkpt>
  <trkpt lat="67.68259" lon="12.70809">
    <name>TP190</name>
  </trkpt>
  <trkpt lat="67.68256" lon="12.70802">
    <name>TP191</name>
  </trkpt>
  <trkpt lat="67.68252" lon="12.70794">
    <name>TP192</name>
  </trkpt>
  <trkpt lat="67.68243" lon="12.70774">
    <name>TP193</name>
  </trkpt>
  <trkpt lat="67.68237" lon="12.70767">
    <name>TP194</name>
  </trkpt>
  <trkpt lat="67.68224" lon="12.70748">
    <name>TP195</name>
  </trkpt>
  <trkpt lat="67.6821" lon="12.70733">
    <name>TP196</name>
  </trkpt>
  <trkpt lat="67.68186" lon="12.70714">
    <name>TP197</name>
  </trkpt>
  <trkpt lat="67.6817" lon="12.70702">
    <name>TP198</name>
  </trkpt>
  <trkpt lat="67.6816" lon="12.70693">
    <name>TP199</name>
  </trkpt>
  <trkpt lat="67.68153" lon="12.70689">
    <name>TP200</name>
  </trkpt>
  <trkpt lat="67.68143" lon="12.70683">
    <name>TP201</name>
  </trkpt>
  <trkpt lat="67.6814" lon="12.70683">
    <name>TP202</name>
  </trkpt>
  <trkpt lat="67.68125" lon="12.70679">
    <name>TP203</name>
  </trkpt>
  <trkpt lat="67.68122" lon="12.70679">
    <name>TP204</name>
  </trkpt>
  <trkpt lat="67.68109" lon="12.70678">
    <name>TP205</name>
  </trkpt>
  <trkpt lat="67.68104" lon="12.70677">
    <name>TP206</name>
  </trkpt>
  <trkpt lat="67.68099" lon="12.70677">
    <name>TP207</name>
  </trkpt>
  <trkpt lat="67.68097" lon="12.70677">
    <name>TP208</name>
  </trkpt>
  <trkpt lat="67.68091" lon="12.70679">
    <name>TP209</name>
  </trkpt>
  <trkpt lat="67.68083" lon="12.70683">
    <name>TP210</name>
  </trkpt>
  <trkpt lat="67.68081" lon="12.70684">
    <name>TP211</name>
  </trkpt>
  <trkpt lat="67.68053" lon="12.70706">
    <name>TP212</name>
  </trkpt>
  <trkpt lat="67.68047" lon="12.70712">
    <name>TP213</name>
  </trkpt>
  <trkpt lat="67.68035" lon="12.70726">
    <name>TP214</name>
  </trkpt>
  <trkpt lat="67.68031" lon="12.70731">
    <name>TP215</name>
  </trkpt>
  <trkpt lat="67.68025" lon="12.70738">
    <name>TP216</name>
  </trkpt>
  <trkpt lat="67.68014" lon="12.70748">
    <name>TP217</name>
  </trkpt>
  <trkpt lat="67.68002" lon="12.70759">
    <name>TP218</name>
  </trkpt>
  <trkpt lat="67.67997" lon="12.70763">
    <name>TP219</name>
  </trkpt>
  <trkpt lat="67.67996" lon="12.70764">
    <name>TP220</name>
  </trkpt>
  <trkpt lat="67.6798" lon="12.7078">
    <name>TP221</name>
  </trkpt>
  <trkpt lat="67.6797" lon="12.70791">
    <name>TP222</name>
  </trkpt>
  <trkpt lat="67.67968" lon="12.70793">
    <name>TP223</name>
  </trkpt>
  <trkpt lat="67.67963" lon="12.70797">
    <name>TP224</name>
  </trkpt>
  <trkpt lat="67.67951" lon="12.70807">
    <name>TP225</name>
  </trkpt>
  <trkpt lat="67.67946" lon="12.70811">
    <name>TP226</name>
  </trkpt>
  <trkpt lat="67.67944" lon="12.70813">
    <name>TP227</name>
  </trkpt>
  <trkpt lat="67.6793" lon="12.7082">
    <name>TP228</name>
  </trkpt>
  <trkpt lat="67.67928" lon="12.70819">
    <name>TP229</name>
  </trkpt>
  <trkpt lat="67.67918" lon="12.70816">
    <name>TP230</name>
  </trkpt>
  <trkpt lat="67.67916" lon="12.70815">
    <name>TP231</name>
  </trkpt>
  <trkpt lat="67.67911" lon="12.70812">
    <name>TP232</name>
  </trkpt>
  <trkpt lat="67.67898" lon="12.70806">
    <name>TP233</name>
  </trkpt>
  <trkpt lat="67.67876" lon="12.70791">
    <name>TP234</name>
  </trkpt>
  <trkpt lat="67.67872" lon="12.70788">
    <name>TP235</name>
  </trkpt>
  <trkpt lat="67.67863" lon="12.70782">
    <name>TP236</name>
  </trkpt>
  <trkpt lat="67.67858" lon="12.70778">
    <name>TP237</name>
  </trkpt>
  <trkpt lat="67.67857" lon="12.70777">
    <name>TP238</name>
  </trkpt>
  <trkpt lat="67.6785" lon="12.70772">
    <name>TP239</name>
  </trkpt>
  <trkpt lat="67.67849" lon="12.70771">
    <name>TP240</name>
  </trkpt>
  <trkpt lat="67.67846" lon="12.70766">
    <name>TP241</name>
  </trkpt>
  <trkpt lat="67.67843" lon="12.70761">
    <name>TP242</name>
  </trkpt>
  <trkpt lat="67.67838" lon="12.7075">
    <name>TP243</name>
  </trkpt>
  <trkpt lat="67.67835" lon="12.70745">
    <name>TP244</name>
  </trkpt>
  <trkpt lat="67.67832" lon="12.70737">
    <name>TP245</name>
  </trkpt>
  <trkpt lat="67.6783" lon="12.70734">
    <name>TP246</name>
  </trkpt>
  <trkpt lat="67.67829" lon="12.70727">
    <name>TP247</name>
  </trkpt>
  <trkpt lat="67.67827" lon="12.7072">
    <name>TP248</name>
  </trkpt>
  <trkpt lat="67.67824" lon="12.70682">
    <name>TP249</name>
  </trkpt>
  <trkpt lat="67.67824" lon="12.70679">
    <name>TP250</name>
  </trkpt>
  <trkpt lat="67.67823" lon="12.70657">
    <name>TP251</name>
  </trkpt>
  <trkpt lat="67.67823" lon="12.70648">
    <name>TP252</name>
  </trkpt>
  <trkpt lat="67.67823" lon="12.70635">
    <name>TP253</name>
  </trkpt>
  <trkpt lat="67.67822" lon="12.70604">
    <name>TP254</name>
  </trkpt>
  <trkpt lat="67.67822" lon="12.70588">
    <name>TP255</name>
  </trkpt>
  <trkpt lat="67.67822" lon="12.7058">
    <name>TP256</name>
  </trkpt>
  <trkpt lat="67.67819" lon="12.70523">
    <name>TP257</name>
  </trkpt>
  <trkpt lat="67.67819" lon="12.70518">
    <name>TP258</name>
  </trkpt>
  <trkpt lat="67.67819" lon="12.70506">
    <name>TP259</name>
  </trkpt>
  <trkpt lat="67.67819" lon="12.70495">
    <name>TP260</name>
  </trkpt>
  <trkpt lat="67.67819" lon="12.70493">
    <name>TP261</name>
  </trkpt>
  <trkpt lat="67.67822" lon="12.70474">
    <name>TP262</name>
  </trkpt>
  <trkpt lat="67.67824" lon="12.70461">
    <name>TP263</name>
  </trkpt>
  <trkpt lat="67.67826" lon="12.70451">
    <name>TP264</name>
  </trkpt>
  <trkpt lat="67.67826" lon="12.7045">
    <name>TP265</name>
  </trkpt>
  <trkpt lat="67.67833" lon="12.7042">
    <name>TP266</name>
  </trkpt>
  <trkpt lat="67.67835" lon="12.70409">
    <name>TP267</name>
  </trkpt>
  <trkpt lat="67.67836" lon="12.70405">
    <name>TP268</name>
  </trkpt>
  <trkpt lat="67.67841" lon="12.70383">
    <name>TP269</name>
  </trkpt>
  <trkpt lat="67.67843" lon="12.70367">
    <name>TP270</name>
  </trkpt>
  <trkpt lat="67.67849" lon="12.70321">
    <name>TP271</name>
  </trkpt>
  <trkpt lat="67.67854" lon="12.70255">
    <name>TP272</name>
  </trkpt>
  <trkpt lat="67.67858" lon="12.70216">
    <name>TP273</name>
  </trkpt>
  <trkpt lat="67.67859" lon="12.70208">
    <name>TP274</name>
  </trkpt>
  <trkpt lat="67.6786" lon="12.70196">
    <name>TP275</name>
  </trkpt>
  <trkpt lat="67.67861" lon="12.70185">
    <name>TP276</name>
  </trkpt>
  <trkpt lat="67.67861" lon="12.70183">
    <name>TP277</name>
  </trkpt>
  <trkpt lat="67.67862" lon="12.70173">
    <name>TP278</name>
  </trkpt>
  <trkpt lat="67.67862" lon="12.70168">
    <name>TP279</name>
  </trkpt>
  <trkpt lat="67.67865" lon="12.70139">
    <name>TP280</name>
  </trkpt>
  <trkpt lat="67.67866" lon="12.70137">
    <name>TP281</name>
  </trkpt>
  <trkpt lat="67.67868" lon="12.70111">
    <name>TP282</name>
  </trkpt>
  <trkpt lat="67.67869" lon="12.70105">
    <name>TP283</name>
  </trkpt>
  <trkpt lat="67.67871" lon="12.70092">
    <name>TP284</name>
  </trkpt>
  <trkpt lat="67.67874" lon="12.70067">
    <name>TP285</name>
  </trkpt>
  <trkpt lat="67.67874" lon="12.70063">
    <name>TP286</name>
  </trkpt>
  <trkpt lat="67.67875" lon="12.7006">
    <name>TP287</name>
  </trkpt>
  <trkpt lat="67.67877" lon="12.70049">
    <name>TP288</name>
  </trkpt>
  <trkpt lat="67.67877" lon="12.70048">
    <name>TP289</name>
  </trkpt>
  <trkpt lat="67.67884" lon="12.70018">
    <name>TP290</name>
  </trkpt>
  <trkpt lat="67.67887" lon="12.70004">
    <name>TP291</name>
  </trkpt>
  <trkpt lat="67.67899" lon="12.69957">
    <name>TP292</name>
  </trkpt>
  <trkpt lat="67.67907" lon="12.69923">
    <name>TP293</name>
  </trkpt>
  <trkpt lat="67.67909" lon="12.69904">
    <name>TP294</name>
  </trkpt>
  <trkpt lat="67.67912" lon="12.69876">
    <name>TP295</name>
  </trkpt>
  <trkpt lat="67.67912" lon="12.69872">
    <name>TP296</name>
  </trkpt>
  <trkpt lat="67.67913" lon="12.69851">
    <name>TP297</name>
  </trkpt>
  <trkpt lat="67.6791" lon="12.69796">
    <name>TP298</name>
  </trkpt>
  <trkpt lat="67.67903" lon="12.69755">
    <name>TP299</name>
  </trkpt>
  <trkpt lat="67.67898" lon="12.69719">
    <name>TP300</name>
  </trkpt>
  <trkpt lat="67.67883" lon="12.69669">
    <name>TP301</name>
  </trkpt>
  <trkpt lat="67.6787" lon="12.69633">
    <name>TP302</name>
  </trkpt>
  <trkpt lat="67.67867" lon="12.69625">
    <name>TP303</name>
  </trkpt>
  <trkpt lat="67.67861" lon="12.69613">
    <name>TP304</name>
  </trkpt>
  <trkpt lat="67.6786" lon="12.69611">
    <name>TP305</name>
  </trkpt>
  <trkpt lat="67.67856" lon="12.69603">
    <name>TP306</name>
  </trkpt>
  <trkpt lat="67.67853" lon="12.69595">
    <name>TP307</name>
  </trkpt>
  <trkpt lat="67.67837" lon="12.69574">
    <name>TP308</name>
  </trkpt>
  <trkpt lat="67.67833" lon="12.69567">
    <name>TP309</name>
  </trkpt>
  <trkpt lat="67.67829" lon="12.69563">
    <name>TP310</name>
  </trkpt>
  <trkpt lat="67.67827" lon="12.6956">
    <name>TP311</name>
  </trkpt>
  <trkpt lat="67.67825" lon="12.69557">
    <name>TP312</name>
  </trkpt>
  <trkpt lat="67.6781" lon="12.69544">
    <name>TP313</name>
  </trkpt>
  <trkpt lat="67.6779" lon="12.69537">
    <name>TP314</name>
  </trkpt>
  <trkpt lat="67.67782" lon="12.69534">
    <name>TP315</name>
  </trkpt>
  <trkpt lat="67.67772" lon="12.69537">
    <name>TP316</name>
  </trkpt>
  <trkpt lat="67.67763" lon="12.6954">
    <name>TP317</name>
  </trkpt>
  <trkpt lat="67.67755" lon="12.69542">
    <name>TP318</name>
  </trkpt>
  <trkpt lat="67.67754" lon="12.69542">
    <name>TP319</name>
  </trkpt>
  <trkpt lat="67.67737" lon="12.69553">
    <name>TP320</name>
  </trkpt>
  <trkpt lat="67.67722" lon="12.69563">
    <name>TP321</name>
  </trkpt>
  <trkpt lat="67.6772" lon="12.69564">
    <name>TP322</name>
  </trkpt>
  <trkpt lat="67.67719" lon="12.69565">
    <name>TP323</name>
  </trkpt>
  <trkpt lat="67.67716" lon="12.69567">
    <name>TP324</name>
  </trkpt>
  <trkpt lat="67.67707" lon="12.69575">
    <name>TP325</name>
  </trkpt>
  <trkpt lat="67.67695" lon="12.69584">
    <name>TP326</name>
  </trkpt>
  <trkpt lat="67.67693" lon="12.69586">
    <name>TP327</name>
  </trkpt>
  <trkpt lat="67.67685" lon="12.69592">
    <name>TP328</name>
  </trkpt>
  <trkpt lat="67.67672" lon="12.69602">
    <name>TP329</name>
  </trkpt>
  <trkpt lat="67.67668" lon="12.69606">
    <name>TP330</name>
  </trkpt>
  <trkpt lat="67.67664" lon="12.69609">
    <name>TP331</name>
  </trkpt>
  <trkpt lat="67.67639" lon="12.69625">
    <name>TP332</name>
  </trkpt>
  <trkpt lat="67.67633" lon="12.69628">
    <name>TP333</name>
  </trkpt>
  <trkpt lat="67.67615" lon="12.69639">
    <name>TP334</name>
  </trkpt>
  <trkpt lat="67.67614" lon="12.69639">
    <name>TP335</name>
  </trkpt>
  <trkpt lat="67.67606" lon="12.69641">
    <name>TP336</name>
  </trkpt>
  <trkpt lat="67.67597" lon="12.69643">
    <name>TP337</name>
  </trkpt>
  <trkpt lat="67.67592" lon="12.69644">
    <name>TP338</name>
  </trkpt>
  <trkpt lat="67.67574" lon="12.69638">
    <name>TP339</name>
  </trkpt>
  <trkpt lat="67.67567" lon="12.69635">
    <name>TP340</name>
  </trkpt>
  <trkpt lat="67.67562" lon="12.69632">
    <name>TP341</name>
  </trkpt>
  <trkpt lat="67.67549" lon="12.69624">
    <name>TP342</name>
  </trkpt>
  <trkpt lat="67.67544" lon="12.69621">
    <name>TP343</name>
  </trkpt>
  <trkpt lat="67.67541" lon="12.69619">
    <name>TP344</name>
  </trkpt>
  <trkpt lat="67.67539" lon="12.69617">
    <name>TP345</name>
  </trkpt>
  <trkpt lat="67.67533" lon="12.69611">
    <name>TP346</name>
  </trkpt>
  <trkpt lat="67.67527" lon="12.69605">
    <name>TP347</name>
  </trkpt>
  <trkpt lat="67.67513" lon="12.69591">
    <name>TP348</name>
  </trkpt>
  <trkpt lat="67.6751" lon="12.69588">
    <name>TP349</name>
  </trkpt>
  <trkpt lat="67.67486" lon="12.69563">
    <name>TP350</name>
  </trkpt>
  <trkpt lat="67.67477" lon="12.69551">
    <name>TP351</name>
  </trkpt>
  <trkpt lat="67.67476" lon="12.69549">
    <name>TP352</name>
  </trkpt>
  <trkpt lat="67.67456" lon="12.69528">
    <name>TP353</name>
  </trkpt>
  <trkpt lat="67.67439" lon="12.69513">
    <name>TP354</name>
  </trkpt>
  <trkpt lat="67.67431" lon="12.69506">
    <name>TP355</name>
  </trkpt>
  <trkpt lat="67.67426" lon="12.69504">
    <name>TP356</name>
  </trkpt>
  <trkpt lat="67.67422" lon="12.69502">
    <name>TP357</name>
  </trkpt>
  <trkpt lat="67.67415" lon="12.69499">
    <name>TP358</name>
  </trkpt>
  <trkpt lat="67.67409" lon="12.69496">
    <name>TP359</name>
  </trkpt>
  <trkpt lat="67.67405" lon="12.69494">
    <name>TP360</name>
  </trkpt>
  <trkpt lat="67.67396" lon="12.69491">
    <name>TP361</name>
  </trkpt>
  <trkpt lat="67.67391" lon="12.6949">
    <name>TP362</name>
  </trkpt>
  <trkpt lat="67.67383" lon="12.69488">
    <name>TP363</name>
  </trkpt>
  <trkpt lat="67.67378" lon="12.69489">
    <name>TP364</name>
  </trkpt>
  <trkpt lat="67.67367" lon="12.69492">
    <name>TP365</name>
  </trkpt>
  <trkpt lat="67.67364" lon="12.69493">
    <name>TP366</name>
  </trkpt>
  <trkpt lat="67.6736" lon="12.69494">
    <name>TP367</name>
  </trkpt>
  <trkpt lat="67.67355" lon="12.69495">
    <name>TP368</name>
  </trkpt>
  <trkpt lat="67.67344" lon="12.69499">
    <name>TP369</name>
  </trkpt>
  <trkpt lat="67.67338" lon="12.69501">
    <name>TP370</name>
  </trkpt>
  <trkpt lat="67.67337" lon="12.69501">
    <name>TP371</name>
  </trkpt>
  <trkpt lat="67.67328" lon="12.69507">
    <name>TP372</name>
  </trkpt>
  <trkpt lat="67.6732" lon="12.69513">
    <name>TP373</name>
  </trkpt>
  <trkpt lat="67.67315" lon="12.69516">
    <name>TP374</name>
  </trkpt>
  <trkpt lat="67.67311" lon="12.69518">
    <name>TP375</name>
  </trkpt>
  <trkpt lat="67.67303" lon="12.69526">
    <name>TP376</name>
  </trkpt>
  <trkpt lat="67.67298" lon="12.6953">
    <name>TP377</name>
  </trkpt>
  <trkpt lat="67.67284" lon="12.69542">
    <name>TP378</name>
  </trkpt>
  <trkpt lat="67.67269" lon="12.69559">
    <name>TP379</name>
  </trkpt>
  <trkpt lat="67.67264" lon="12.69564">
    <name>TP380</name>
  </trkpt>
  <trkpt lat="67.67258" lon="12.69571">
    <name>TP381</name>
  </trkpt>
  <trkpt lat="67.67252" lon="12.69578">
    <name>TP382</name>
  </trkpt>
  <trkpt lat="67.6723" lon="12.69604">
    <name>TP383</name>
  </trkpt>
  <trkpt lat="67.67225" lon="12.69613">
    <name>TP384</name>
  </trkpt>
  <trkpt lat="67.67209" lon="12.69638">
    <name>TP385</name>
  </trkpt>
  <trkpt lat="67.67208" lon="12.6964">
    <name>TP386</name>
  </trkpt>
  <trkpt lat="67.67194" lon="12.69662">
    <name>TP387</name>
  </trkpt>
  <trkpt lat="67.67185" lon="12.69675">
    <name>TP388</name>
  </trkpt>
  <trkpt lat="67.67169" lon="12.69697">
    <name>TP389</name>
  </trkpt>
  <trkpt lat="67.67168" lon="12.69699">
    <name>TP390</name>
  </trkpt>
  <trkpt lat="67.67165" lon="12.69702">
    <name>TP391</name>
  </trkpt>
  <trkpt lat="67.67149" lon="12.69722">
    <name>TP392</name>
  </trkpt>
  <trkpt lat="67.67147" lon="12.69724">
    <name>TP393</name>
  </trkpt>
  <trkpt lat="67.67141" lon="12.69732">
    <name>TP394</name>
  </trkpt>
  <trkpt lat="67.6713" lon="12.69748">
    <name>TP395</name>
  </trkpt>
  <trkpt lat="67.67122" lon="12.69758">
    <name>TP396</name>
  </trkpt>
  <trkpt lat="67.67121" lon="12.6976">
    <name>TP397</name>
  </trkpt>
  <trkpt lat="67.67109" lon="12.69775">
    <name>TP398</name>
  </trkpt>
  <trkpt lat="67.67099" lon="12.69789">
    <name>TP399</name>
  </trkpt>
  <trkpt lat="67.67098" lon="12.69791">
    <name>TP400</name>
  </trkpt>
  <trkpt lat="67.67097" lon="12.69792">
    <name>TP401</name>
  </trkpt>
  <trkpt lat="67.67093" lon="12.69797">
    <name>TP402</name>
  </trkpt>
  <trkpt lat="67.67082" lon="12.69815">
    <name>TP403</name>
  </trkpt>
  <trkpt lat="67.67078" lon="12.69822">
    <name>TP404</name>
  </trkpt>
  <trkpt lat="67.67075" lon="12.69826">
    <name>TP405</name>
  </trkpt>
  <trkpt lat="67.67066" lon="12.69837">
    <name>TP406</name>
  </trkpt>
  <trkpt lat="67.67062" lon="12.69842">
    <name>TP407</name>
  </trkpt>
  <trkpt lat="67.67057" lon="12.69848">
    <name>TP408</name>
  </trkpt>
  <trkpt lat="67.67051" lon="12.69855">
    <name>TP409</name>
  </trkpt>
  <trkpt lat="67.6705" lon="12.69856">
    <name>TP410</name>
  </trkpt>
  <trkpt lat="67.67045" lon="12.69862">
    <name>TP411</name>
  </trkpt>
  <trkpt lat="67.67041" lon="12.69867">
    <name>TP412</name>
  </trkpt>
  <trkpt lat="67.67037" lon="12.69872">
    <name>TP413</name>
  </trkpt>
  <trkpt lat="67.67035" lon="12.69875">
    <name>TP414</name>
  </trkpt>
  <trkpt lat="67.67033" lon="12.69876">
    <name>TP415</name>
  </trkpt>
  <trkpt lat="67.67029" lon="12.69881">
    <name>TP416</name>
  </trkpt>
  <trkpt lat="67.67014" lon="12.69907">
    <name>TP417</name>
  </trkpt>
  <trkpt lat="67.67012" lon="12.6991">
    <name>TP418</name>
  </trkpt>
  <trkpt lat="67.6701" lon="12.69915">
    <name>TP419</name>
  </trkpt>
  <trkpt lat="67.66999" lon="12.69935">
    <name>TP420</name>
  </trkpt>
  <trkpt lat="67.66992" lon="12.6995">
    <name>TP421</name>
  </trkpt>
  <trkpt lat="67.66985" lon="12.69964">
    <name>TP422</name>
  </trkpt>
  <trkpt lat="67.66981" lon="12.69973">
    <name>TP423</name>
  </trkpt>
  <trkpt lat="67.66976" lon="12.69984">
    <name>TP424</name>
  </trkpt>
  <trkpt lat="67.66975" lon="12.69986">
    <name>TP425</name>
  </trkpt>
  <trkpt lat="67.66971" lon="12.69994">
    <name>TP426</name>
  </trkpt>
  <trkpt lat="67.6697" lon="12.69996">
    <name>TP427</name>
  </trkpt>
  <trkpt lat="67.66962" lon="12.70014">
    <name>TP428</name>
  </trkpt>
  <trkpt lat="67.66961" lon="12.70016">
    <name>TP429</name>
  </trkpt>
  <trkpt lat="67.66957" lon="12.70025">
    <name>TP430</name>
  </trkpt>
  <trkpt lat="67.6695" lon="12.70041">
    <name>TP431</name>
  </trkpt>
  <trkpt lat="67.66949" lon="12.70043">
    <name>TP432</name>
  </trkpt>
  <trkpt lat="67.66944" lon="12.70056">
    <name>TP433</name>
  </trkpt>
  <trkpt lat="67.66931" lon="12.70086">
    <name>TP434</name>
  </trkpt>
  <trkpt lat="67.6693" lon="12.70087">
    <name>TP435</name>
  </trkpt>
  <trkpt lat="67.66927" lon="12.70097">
    <name>TP436</name>
  </trkpt>
  <trkpt lat="67.66919" lon="12.70119">
    <name>TP437</name>
  </trkpt>
  <trkpt lat="67.66918" lon="12.70121">
    <name>TP438</name>
  </trkpt>
  <trkpt lat="67.6691" lon="12.70149">
    <name>TP439</name>
  </trkpt>
  <trkpt lat="67.66907" lon="12.7016">
    <name>TP440</name>
  </trkpt>
  <trkpt lat="67.66904" lon="12.70171">
    <name>TP441</name>
  </trkpt>
  <trkpt lat="67.66901" lon="12.70189">
    <name>TP442</name>
  </trkpt>
  <trkpt lat="67.66899" lon="12.702">
    <name>TP443</name>
  </trkpt>
  <trkpt lat="67.66898" lon="12.70201">
    <name>TP444</name>
  </trkpt>
  <trkpt lat="67.66895" lon="12.7022">
    <name>TP445</name>
  </trkpt>
  <trkpt lat="67.66894" lon="12.70223">
    <name>TP446</name>
  </trkpt>
  <trkpt lat="67.6689" lon="12.70242">
    <name>TP447</name>
  </trkpt>
  <trkpt lat="67.66887" lon="12.70254">
    <name>TP448</name>
  </trkpt>
  <trkpt lat="67.66884" lon="12.70269">
    <name>TP449</name>
  </trkpt>
  <trkpt lat="67.66883" lon="12.70272">
    <name>TP450</name>
  </trkpt>
  <trkpt lat="67.66882" lon="12.7028">
    <name>TP451</name>
  </trkpt>
  <trkpt lat="67.66881" lon="12.70283">
    <name>TP452</name>
  </trkpt>
  <trkpt lat="67.66879" lon="12.70295">
    <name>TP453</name>
  </trkpt>
  <trkpt lat="67.66877" lon="12.70306">
    <name>TP454</name>
  </trkpt>
  <trkpt lat="67.66876" lon="12.70311">
    <name>TP455</name>
  </trkpt>
  <trkpt lat="67.66875" lon="12.70314">
    <name>TP456</name>
  </trkpt>
  <trkpt lat="67.6687" lon="12.70342">
    <name>TP457</name>
  </trkpt>
  <trkpt lat="67.66868" lon="12.70353">
    <name>TP458</name>
  </trkpt>
  <trkpt lat="67.66864" lon="12.70367">
    <name>TP459</name>
  </trkpt>
  <trkpt lat="67.66858" lon="12.70393">
    <name>TP460</name>
  </trkpt>
  <trkpt lat="67.66856" lon="12.704">
    <name>TP461</name>
  </trkpt>
  <trkpt lat="67.66854" lon="12.70406">
    <name>TP462</name>
  </trkpt>
  <trkpt lat="67.66847" lon="12.70425">
    <name>TP463</name>
  </trkpt>
  <trkpt lat="67.66843" lon="12.7043">
    <name>TP464</name>
  </trkpt>
  <trkpt lat="67.6684" lon="12.7043">
    <name>TP465</name>
  </trkpt>
  <trkpt lat="67.66837" lon="12.7043">
    <name>TP466</name>
  </trkpt>
  <trkpt lat="67.66829" lon="12.70421">
    <name>TP467</name>
  </trkpt>
  <trkpt lat="67.66827" lon="12.7042">
    <name>TP468</name>
  </trkpt>
  <trkpt lat="67.66825" lon="12.70418">
    <name>TP469</name>
  </trkpt>
  <trkpt lat="67.66823" lon="12.70414">
    <name>TP470</name>
  </trkpt>
  <trkpt lat="67.66819" lon="12.70409">
    <name>TP471</name>
  </trkpt>
  <trkpt lat="67.66813" lon="12.70394">
    <name>TP472</name>
  </trkpt>
  <trkpt lat="67.66809" lon="12.70385">
    <name>TP473</name>
  </trkpt>
  <trkpt lat="67.66807" lon="12.7038">
    <name>TP474</name>
  </trkpt>
  <trkpt lat="67.66802" lon="12.70365">
    <name>TP475</name>
  </trkpt>
  <trkpt lat="67.66802" lon="12.70361">
    <name>TP476</name>
  </trkpt>
  <trkpt lat="67.66801" lon="12.70358">
    <name>TP477</name>
  </trkpt>
  <trkpt lat="67.66798" lon="12.70347">
    <name>TP478</name>
  </trkpt>
  <trkpt lat="67.66797" lon="12.7034">
    <name>TP479</name>
  </trkpt>
  <trkpt lat="67.66794" lon="12.70319">
    <name>TP480</name>
  </trkpt>
  <trkpt lat="67.66793" lon="12.70315">
    <name>TP481</name>
  </trkpt>
  <trkpt lat="67.66793" lon="12.7031">
    <name>TP482</name>
  </trkpt>
  <trkpt lat="67.66792" lon="12.70303">
    <name>TP483</name>
  </trkpt>
  <trkpt lat="67.66787" lon="12.70257">
    <name>TP484</name>
  </trkpt>
  <trkpt lat="67.66787" lon="12.70256">
    <name>TP485</name>
  </trkpt>
  <trkpt lat="67.66785" lon="12.70245">
    <name>TP486</name>
  </trkpt>
  <trkpt lat="67.66782" lon="12.70228">
    <name>TP487</name>
  </trkpt>
  <trkpt lat="67.66779" lon="12.70216">
    <name>TP488</name>
  </trkpt>
  <trkpt lat="67.66776" lon="12.70206">
    <name>TP489</name>
  </trkpt>
  <trkpt lat="67.66775" lon="12.70202">
    <name>TP490</name>
  </trkpt>
  <trkpt lat="67.6677" lon="12.70197">
    <name>TP491</name>
  </trkpt>
  <trkpt lat="67.66769" lon="12.70196">
    <name>TP492</name>
  </trkpt>
  <trkpt lat="67.66768" lon="12.70195">
    <name>TP493</name>
  </trkpt>
  <trkpt lat="67.66747" lon="12.70181">
    <name>TP494</name>
  </trkpt>
  <trkpt lat="67.66746" lon="12.70181">
    <name>TP495</name>
  </trkpt>
  <trkpt lat="67.66742" lon="12.7018">
    <name>TP496</name>
  </trkpt>
  <trkpt lat="67.66737" lon="12.7018">
    <name>TP497</name>
  </trkpt>
  <trkpt lat="67.66734" lon="12.70179">
    <name>TP498</name>
  </trkpt>
  <trkpt lat="67.66729" lon="12.70178">
    <name>TP499</name>
  </trkpt>
  <trkpt lat="67.66724" lon="12.70177">
    <name>TP500</name>
  </trkpt>
  <trkpt lat="67.66716" lon="12.70181">
    <name>TP501</name>
  </trkpt>
  <trkpt lat="67.66711" lon="12.70183">
    <name>TP502</name>
  </trkpt>
  <trkpt lat="67.66702" lon="12.70194">
    <name>TP503</name>
  </trkpt>
  <trkpt lat="67.66699" lon="12.70199">
    <name>TP504</name>
  </trkpt>
  <trkpt lat="67.6669" lon="12.70219">
    <name>TP505</name>
  </trkpt>
  <trkpt lat="67.66682" lon="12.70244">
    <name>TP506</name>
  </trkpt>
  <trkpt lat="67.6668" lon="12.70252">
    <name>TP507</name>
  </trkpt>
  <trkpt lat="67.66674" lon="12.70279">
    <name>TP508</name>
  </trkpt>
  <trkpt lat="67.66674" lon="12.70282">
    <name>TP509</name>
  </trkpt>
  <trkpt lat="67.66672" lon="12.70294">
    <name>TP510</name>
  </trkpt>
  <trkpt lat="67.6667" lon="12.70305">
    <name>TP511</name>
  </trkpt>
  <trkpt lat="67.66669" lon="12.70314">
    <name>TP512</name>
  </trkpt>
  <trkpt lat="67.66668" lon="12.7032">
    <name>TP513</name>
  </trkpt>
  <trkpt lat="67.66668" lon="12.70326">
    <name>TP514</name>
  </trkpt>
  <trkpt lat="67.66664" lon="12.70356">
    <name>TP515</name>
  </trkpt>
  <trkpt lat="67.66664" lon="12.70359">
    <name>TP516</name>
  </trkpt>
  <trkpt lat="67.66663" lon="12.70372">
    <name>TP517</name>
  </trkpt>
  <trkpt lat="67.66661" lon="12.70408">
    <name>TP518</name>
  </trkpt>
  <trkpt lat="67.66659" lon="12.70418">
    <name>TP519</name>
  </trkpt>
  <trkpt lat="67.66656" lon="12.70447">
    <name>TP520</name>
  </trkpt>
  <trkpt lat="67.66653" lon="12.70462">
    <name>TP521</name>
  </trkpt>
  <trkpt lat="67.6665" lon="12.7048">
    <name>TP522</name>
  </trkpt>
  <trkpt lat="67.66643" lon="12.70502">
    <name>TP523</name>
  </trkpt>
  <trkpt lat="67.66643" lon="12.70504">
    <name>TP524</name>
  </trkpt>
  <trkpt lat="67.66633" lon="12.7053">
    <name>TP525</name>
  </trkpt>
  <trkpt lat="67.66631" lon="12.70535">
    <name>TP526</name>
  </trkpt>
  <trkpt lat="67.66627" lon="12.70543">
    <name>TP527</name>
  </trkpt>
  <trkpt lat="67.66623" lon="12.70551">
    <name>TP528</name>
  </trkpt>
  <trkpt lat="67.66619" lon="12.70561">
    <name>TP529</name>
  </trkpt>
  <trkpt lat="67.66617" lon="12.70565">
    <name>TP530</name>
  </trkpt>
  <trkpt lat="67.66611" lon="12.70577">
    <name>TP531</name>
  </trkpt>
  <trkpt lat="67.66603" lon="12.70594">
    <name>TP532</name>
  </trkpt>
  <trkpt lat="67.66592" lon="12.70616">
    <name>TP533</name>
  </trkpt>
  <trkpt lat="67.66588" lon="12.70623">
    <name>TP534</name>
  </trkpt>
  <trkpt lat="67.66584" lon="12.70632">
    <name>TP535</name>
  </trkpt>
  <trkpt lat="67.66579" lon="12.7064">
    <name>TP536</name>
  </trkpt>
  <trkpt lat="67.6657865" lon="12.7064033">
    <name>TP537</name>
  </trkpt>
  <trkpt lat="67.66571" lon="12.70654">
    <name>TP538</name>
  </trkpt>
  <trkpt lat="67.66568" lon="12.70658">
    <name>TP539</name>
  </trkpt>
  <trkpt lat="67.66556" lon="12.70677">
    <name>TP540</name>
  </trkpt>
  <trkpt lat="67.66554" lon="12.70681">
    <name>TP541</name>
  </trkpt>
  <trkpt lat="67.66534" lon="12.70718">
    <name>TP542</name>
  </trkpt>
  <trkpt lat="67.6651" lon="12.70759">
    <name>TP543</name>
  </trkpt>
  <trkpt lat="67.66496" lon="12.70783">
    <name>TP544</name>
  </trkpt>
  <trkpt lat="67.66495" lon="12.70784">
    <name>TP545</name>
  </trkpt>
  <trkpt lat="67.66479" lon="12.70806">
    <name>TP546</name>
  </trkpt>
  <trkpt lat="67.6647" lon="12.70818">
    <name>TP547</name>
  </trkpt>
  <trkpt lat="67.66463" lon="12.70826">
    <name>TP548</name>
  </trkpt>
  <trkpt lat="67.66446" lon="12.70845">
    <name>TP549</name>
  </trkpt>
  <trkpt lat="67.66444" lon="12.70847">
    <name>TP550</name>
  </trkpt>
  <trkpt lat="67.66429" lon="12.70856">
    <name>TP551</name>
  </trkpt>
  <trkpt lat="67.66418" lon="12.70862">
    <name>TP552</name>
  </trkpt>
  <trkpt lat="67.66395" lon="12.70871">
    <name>TP553</name>
  </trkpt>
  <trkpt lat="67.66391" lon="12.70872">
    <name>TP554</name>
  </trkpt>
  <trkpt lat="67.66362" lon="12.70885">
    <name>TP555</name>
  </trkpt>
  <trkpt lat="67.6636" lon="12.70887">
    <name>TP556</name>
  </trkpt>
  <trkpt lat="67.66342" lon="12.70899">
    <name>TP557</name>
  </trkpt>
  <trkpt lat="67.66335" lon="12.70905">
    <name>TP558</name>
  </trkpt>
  <trkpt lat="67.66325" lon="12.70912">
    <name>TP559</name>
  </trkpt>
  <trkpt lat="67.66305" lon="12.70928">
    <name>TP560</name>
  </trkpt>
  <trkpt lat="67.66291" lon="12.70938">
    <name>TP561</name>
  </trkpt>
  <trkpt lat="67.66277" lon="12.70948">
    <name>TP562</name>
  </trkpt>
  <trkpt lat="67.66247" lon="12.7097">
    <name>TP563</name>
  </trkpt>
  <trkpt lat="67.66239" lon="12.70977">
    <name>TP564</name>
  </trkpt>
  <trkpt lat="67.66217" lon="12.70996">
    <name>TP565</name>
  </trkpt>
  <trkpt lat="67.66197" lon="12.71018">
    <name>TP566</name>
  </trkpt>
  <trkpt lat="67.6617" lon="12.71051">
    <name>TP567</name>
  </trkpt>
  <trkpt lat="67.66156" lon="12.71071">
    <name>TP568</name>
  </trkpt>
  <trkpt lat="67.66145" lon="12.71086">
    <name>TP569</name>
  </trkpt>
  <trkpt lat="67.6614" lon="12.71093">
    <name>TP570</name>
  </trkpt>
  <trkpt lat="67.66123" lon="12.71118">
    <name>TP571</name>
  </trkpt>
  <trkpt lat="67.6612" lon="12.71121">
    <name>TP572</name>
  </trkpt>
  <trkpt lat="67.66095" lon="12.71161">
    <name>TP573</name>
  </trkpt>
  <trkpt lat="67.6609" lon="12.71168">
    <name>TP574</name>
  </trkpt>
  <trkpt lat="67.66066" lon="12.712">
    <name>TP575</name>
  </trkpt>
  <trkpt lat="67.6604" lon="12.71239">
    <name>TP576</name>
  </trkpt>
  <trkpt lat="67.66017" lon="12.71267">
    <name>TP577</name>
  </trkpt>
  <trkpt lat="67.66001" lon="12.71284">
    <name>TP578</name>
  </trkpt>
  <trkpt lat="67.65981" lon="12.71305">
    <name>TP579</name>
  </trkpt>
  <trkpt lat="67.6597" lon="12.71318">
    <name>TP580</name>
  </trkpt>
  <trkpt lat="67.65953" lon="12.71339">
    <name>TP581</name>
  </trkpt>
  <trkpt lat="67.6593" lon="12.71365">
    <name>TP582</name>
  </trkpt>
  <trkpt lat="67.65926" lon="12.71371">
    <name>TP583</name>
  </trkpt>
  <trkpt lat="67.6592" lon="12.71379">
    <name>TP584</name>
  </trkpt>
  <trkpt lat="67.65914" lon="12.71386">
    <name>TP585</name>
  </trkpt>
  <trkpt lat="67.65909" lon="12.71392">
    <name>TP586</name>
  </trkpt>
  <trkpt lat="67.65903" lon="12.71405">
    <name>TP587</name>
  </trkpt>
  <trkpt lat="67.65884" lon="12.71438">
    <name>TP588</name>
  </trkpt>
  <trkpt lat="67.65867" lon="12.71473">
    <name>TP589</name>
  </trkpt>
  <trkpt lat="67.6586" lon="12.71488">
    <name>TP590</name>
  </trkpt>
  <trkpt lat="67.65834" lon="12.7154">
    <name>TP591</name>
  </trkpt>
  <trkpt lat="67.65828" lon="12.71552">
    <name>TP592</name>
  </trkpt>
  <trkpt lat="67.65826" lon="12.71556">
    <name>TP593</name>
  </trkpt>
  <trkpt lat="67.65799" lon="12.71614">
    <name>TP594</name>
  </trkpt>
  <trkpt lat="67.65792" lon="12.71628">
    <name>TP595</name>
  </trkpt>
  <trkpt lat="67.65791" lon="12.7163">
    <name>TP596</name>
  </trkpt>
  <trkpt lat="67.65785" lon="12.71643">
    <name>TP597</name>
  </trkpt>
  <trkpt lat="67.65771" lon="12.71671">
    <name>TP598</name>
  </trkpt>
  <trkpt lat="67.65759" lon="12.71694">
    <name>TP599</name>
  </trkpt>
  <trkpt lat="67.65757" lon="12.71699">
    <name>TP600</name>
  </trkpt>
  <trkpt lat="67.65745" lon="12.71723">
    <name>TP601</name>
  </trkpt>
  <trkpt lat="67.65738" lon="12.71738">
    <name>TP602</name>
  </trkpt>
  <trkpt lat="67.65729" lon="12.71756">
    <name>TP603</name>
  </trkpt>
  <trkpt lat="67.6572" lon="12.71774">
    <name>TP604</name>
  </trkpt>
  <trkpt lat="67.65701" lon="12.71801">
    <name>TP605</name>
  </trkpt>
  <trkpt lat="67.65675" lon="12.7183">
    <name>TP606</name>
  </trkpt>
  <trkpt lat="67.65673" lon="12.71832">
    <name>TP607</name>
  </trkpt>
  <trkpt lat="67.65643" lon="12.71858">
    <name>TP608</name>
  </trkpt>
  <trkpt lat="67.65629" lon="12.7187">
    <name>TP609</name>
  </trkpt>
  <trkpt lat="67.65625" lon="12.71874">
    <name>TP610</name>
  </trkpt>
  <trkpt lat="67.65621" lon="12.71877">
    <name>TP611</name>
  </trkpt>
  <trkpt lat="67.65624" lon="12.71896">
    <name>TP612</name>
  </trkpt>
  <trkpt lat="67.65626" lon="12.71914">
    <name>TP613</name>
  </trkpt>
  <trkpt lat="67.65628" lon="12.71933">
    <name>TP614</name>
  </trkpt>
  <trkpt lat="67.65631" lon="12.71951">
    <name>TP615</name>
  </trkpt>
  <trkpt lat="67.65637" lon="12.72007">
    <name>TP616</name>
  </trkpt>
  <trkpt lat="67.65637" lon="12.72011">
    <name>TP617</name>
  </trkpt>
  <trkpt lat="67.65638" lon="12.7203">
    <name>TP618</name>
  </trkpt>
  <trkpt lat="67.65637" lon="12.72052">
    <name>TP619</name>
  </trkpt>
  <trkpt lat="67.65637" lon="12.72058">
    <name>TP620</name>
  </trkpt>
  <trkpt lat="67.65636" lon="12.72069">
    <name>TP621</name>
  </trkpt>
  <trkpt lat="67.65633" lon="12.72104">
    <name>TP622</name>
  </trkpt>
  <trkpt lat="67.65632" lon="12.72116">
    <name>TP623</name>
  </trkpt>
  <trkpt lat="67.65622" lon="12.72199">
    <name>TP624</name>
  </trkpt>
  <trkpt lat="67.65618" lon="12.72223">
    <name>TP625</name>
  </trkpt>
  <trkpt lat="67.65611" lon="12.72242">
    <name>TP626</name>
  </trkpt>
  <trkpt lat="67.65605" lon="12.72256">
    <name>TP627</name>
  </trkpt>
  <trkpt lat="67.656" lon="12.72266">
    <name>TP628</name>
  </trkpt>
  <trkpt lat="67.65598" lon="12.7227">
    <name>TP629</name>
  </trkpt>
  <trkpt lat="67.6559" lon="12.7228">
    <name>TP630</name>
  </trkpt>
  <trkpt lat="67.65584" lon="12.72287">
    <name>TP631</name>
  </trkpt>
  <trkpt lat="67.65568" lon="12.72306">
    <name>TP632</name>
  </trkpt>
  <trkpt lat="67.65551" lon="12.72325">
    <name>TP633</name>
  </trkpt>
  <trkpt lat="67.65535" lon="12.72344">
    <name>TP634</name>
  </trkpt>
  <trkpt lat="67.65527" lon="12.72354">
    <name>TP635</name>
  </trkpt>
  <trkpt lat="67.65518" lon="12.72366">
    <name>TP636</name>
  </trkpt>
  <trkpt lat="67.65511" lon="12.7238">
    <name>TP637</name>
  </trkpt>
  <trkpt lat="67.65507" lon="12.72396">
    <name>TP638</name>
  </trkpt>
  <trkpt lat="67.65502" lon="12.72419">
    <name>TP639</name>
  </trkpt>
  <trkpt lat="67.655" lon="12.7243">
    <name>TP640</name>
  </trkpt>
  <trkpt lat="67.65499" lon="12.72441">
    <name>TP641</name>
  </trkpt>
  <trkpt lat="67.6549853" lon="12.7244114">
    <name>TP642</name>
  </trkpt>
  <trkpt lat="67.65497" lon="12.72476">
    <name>TP643</name>
  </trkpt>
  <trkpt lat="67.65496" lon="12.72501">
    <name>TP644</name>
  </trkpt>
  <trkpt lat="67.65496" lon="12.72519">
    <name>TP645</name>
  </trkpt>
  <trkpt lat="67.65496" lon="12.72531">
    <name>TP646</name>
  </trkpt>
  <trkpt lat="67.65496" lon="12.72543">
    <name>TP647</name>
  </trkpt>
  <trkpt lat="67.6549559" lon="12.7254285">
    <name>TP648</name>
  </trkpt>
  <trkpt lat="67.6549559" lon="12.7254285">
    <name>TP649</name>
  </trkpt>
  <trkpt lat="67.65496" lon="12.72531">
    <name>TP650</name>
  </trkpt>
  <trkpt lat="67.65496" lon="12.72519">
    <name>TP651</name>
  </trkpt>
  <trkpt lat="67.65496" lon="12.72501">
    <name>TP652</name>
  </trkpt>
  <trkpt lat="67.65497" lon="12.72476">
    <name>TP653</name>
  </trkpt>
  <trkpt lat="67.65499" lon="12.72441">
    <name>TP654</name>
  </trkpt>
  <trkpt lat="67.655" lon="12.7243">
    <name>TP655</name>
  </trkpt>
  <trkpt lat="67.65502" lon="12.72419">
    <name>TP656</name>
  </trkpt>
  <trkpt lat="67.65507" lon="12.72396">
    <name>TP657</name>
  </trkpt>
  <trkpt lat="67.65511" lon="12.7238">
    <name>TP658</name>
  </trkpt>
  <trkpt lat="67.65518" lon="12.72366">
    <name>TP659</name>
  </trkpt>
  <trkpt lat="67.65527" lon="12.72354">
    <name>TP660</name>
  </trkpt>
  <trkpt lat="67.65535" lon="12.72344">
    <name>TP661</name>
  </trkpt>
  <trkpt lat="67.65551" lon="12.72325">
    <name>TP662</name>
  </trkpt>
  <trkpt lat="67.65568" lon="12.72306">
    <name>TP663</name>
  </trkpt>
  <trkpt lat="67.65584" lon="12.72287">
    <name>TP664</name>
  </trkpt>
  <trkpt lat="67.6559" lon="12.7228">
    <name>TP665</name>
  </trkpt>
  <trkpt lat="67.65598" lon="12.7227">
    <name>TP666</name>
  </trkpt>
  <trkpt lat="67.656" lon="12.72266">
    <name>TP667</name>
  </trkpt>
  <trkpt lat="67.65605" lon="12.72256">
    <name>TP668</name>
  </trkpt>
  <trkpt lat="67.65611" lon="12.72242">
    <name>TP669</name>
  </trkpt>
  <trkpt lat="67.65618" lon="12.72223">
    <name>TP670</name>
  </trkpt>
  <trkpt lat="67.65622" lon="12.72199">
    <name>TP671</name>
  </trkpt>
  <trkpt lat="67.65632" lon="12.72116">
    <name>TP672</name>
  </trkpt>
  <trkpt lat="67.65633" lon="12.72104">
    <name>TP673</name>
  </trkpt>
  <trkpt lat="67.65636" lon="12.72069">
    <name>TP674</name>
  </trkpt>
  <trkpt lat="67.65637" lon="12.72058">
    <name>TP675</name>
  </trkpt>
  <trkpt lat="67.65637" lon="12.72052">
    <name>TP676</name>
  </trkpt>
  <trkpt lat="67.65638" lon="12.7203">
    <name>TP677</name>
  </trkpt>
  <trkpt lat="67.65637" lon="12.72011">
    <name>TP678</name>
  </trkpt>
  <trkpt lat="67.65637" lon="12.72007">
    <name>TP679</name>
  </trkpt>
  <trkpt lat="67.65631" lon="12.71951">
    <name>TP680</name>
  </trkpt>
  <trkpt lat="67.65628" lon="12.71933">
    <name>TP681</name>
  </trkpt>
  <trkpt lat="67.65626" lon="12.71914">
    <name>TP682</name>
  </trkpt>
  <trkpt lat="67.65624" lon="12.71896">
    <name>TP683</name>
  </trkpt>
  <trkpt lat="67.65621" lon="12.71877">
    <name>TP684</name>
  </trkpt>
  <trkpt lat="67.65625" lon="12.71874">
    <name>TP685</name>
  </trkpt>
  <trkpt lat="67.65629" lon="12.7187">
    <name>TP686</name>
  </trkpt>
  <trkpt lat="67.65643" lon="12.71858">
    <name>TP687</name>
  </trkpt>
  <trkpt lat="67.65673" lon="12.71832">
    <name>TP688</name>
  </trkpt>
  <trkpt lat="67.65675" lon="12.7183">
    <name>TP689</name>
  </trkpt>
  <trkpt lat="67.65701" lon="12.71801">
    <name>TP690</name>
  </trkpt>
  <trkpt lat="67.6572" lon="12.71774">
    <name>TP691</name>
  </trkpt>
  <trkpt lat="67.65729" lon="12.71756">
    <name>TP692</name>
  </trkpt>
  <trkpt lat="67.65738" lon="12.71738">
    <name>TP693</name>
  </trkpt>
  <trkpt lat="67.65745" lon="12.71723">
    <name>TP694</name>
  </trkpt>
  <trkpt lat="67.65757" lon="12.71699">
    <name>TP695</name>
  </trkpt>
  <trkpt lat="67.65759" lon="12.71694">
    <name>TP696</name>
  </trkpt>
  <trkpt lat="67.65771" lon="12.71671">
    <name>TP697</name>
  </trkpt>
  <trkpt lat="67.65785" lon="12.71643">
    <name>TP698</name>
  </trkpt>
  <trkpt lat="67.65791" lon="12.7163">
    <name>TP699</name>
  </trkpt>
  <trkpt lat="67.65792" lon="12.71628">
    <name>TP700</name>
  </trkpt>
  <trkpt lat="67.65799" lon="12.71614">
    <name>TP701</name>
  </trkpt>
  <trkpt lat="67.65826" lon="12.71556">
    <name>TP702</name>
  </trkpt>
  <trkpt lat="67.65828" lon="12.71552">
    <name>TP703</name>
  </trkpt>
  <trkpt lat="67.65834" lon="12.7154">
    <name>TP704</name>
  </trkpt>
  <trkpt lat="67.6586" lon="12.71488">
    <name>TP705</name>
  </trkpt>
  <trkpt lat="67.65867" lon="12.71473">
    <name>TP706</name>
  </trkpt>
  <trkpt lat="67.65884" lon="12.71438">
    <name>TP707</name>
  </trkpt>
  <trkpt lat="67.65903" lon="12.71405">
    <name>TP708</name>
  </trkpt>
  <trkpt lat="67.65909" lon="12.71392">
    <name>TP709</name>
  </trkpt>
  <trkpt lat="67.65914" lon="12.71386">
    <name>TP710</name>
  </trkpt>
  <trkpt lat="67.6592" lon="12.71379">
    <name>TP711</name>
  </trkpt>
  <trkpt lat="67.65926" lon="12.71371">
    <name>TP712</name>
  </trkpt>
  <trkpt lat="67.6593" lon="12.71365">
    <name>TP713</name>
  </trkpt>
  <trkpt lat="67.65953" lon="12.71339">
    <name>TP714</name>
  </trkpt>
  <trkpt lat="67.6597" lon="12.71318">
    <name>TP715</name>
  </trkpt>
  <trkpt lat="67.65981" lon="12.71305">
    <name>TP716</name>
  </trkpt>
  <trkpt lat="67.66001" lon="12.71284">
    <name>TP717</name>
  </trkpt>
  <trkpt lat="67.66017" lon="12.71267">
    <name>TP718</name>
  </trkpt>
  <trkpt lat="67.6604" lon="12.71239">
    <name>TP719</name>
  </trkpt>
  <trkpt lat="67.66066" lon="12.712">
    <name>TP720</name>
  </trkpt>
  <trkpt lat="67.6609" lon="12.71168">
    <name>TP721</name>
  </trkpt>
  <trkpt lat="67.66095" lon="12.71161">
    <name>TP722</name>
  </trkpt>
  <trkpt lat="67.6612" lon="12.71121">
    <name>TP723</name>
  </trkpt>
  <trkpt lat="67.66123" lon="12.71118">
    <name>TP724</name>
  </trkpt>
  <trkpt lat="67.6614" lon="12.71093">
    <name>TP725</name>
  </trkpt>
  <trkpt lat="67.66145" lon="12.71086">
    <name>TP726</name>
  </trkpt>
  <trkpt lat="67.66156" lon="12.71071">
    <name>TP727</name>
  </trkpt>
  <trkpt lat="67.6617" lon="12.71051">
    <name>TP728</name>
  </trkpt>
  <trkpt lat="67.66197" lon="12.71018">
    <name>TP729</name>
  </trkpt>
  <trkpt lat="67.66217" lon="12.70996">
    <name>TP730</name>
  </trkpt>
  <trkpt lat="67.66239" lon="12.70977">
    <name>TP731</name>
  </trkpt>
  <trkpt lat="67.66247" lon="12.7097">
    <name>TP732</name>
  </trkpt>
  <trkpt lat="67.66277" lon="12.70948">
    <name>TP733</name>
  </trkpt>
  <trkpt lat="67.66291" lon="12.70938">
    <name>TP734</name>
  </trkpt>
  <trkpt lat="67.66305" lon="12.70928">
    <name>TP735</name>
  </trkpt>
  <trkpt lat="67.66325" lon="12.70912">
    <name>TP736</name>
  </trkpt>
  <trkpt lat="67.66335" lon="12.70905">
    <name>TP737</name>
  </trkpt>
  <trkpt lat="67.66342" lon="12.70899">
    <name>TP738</name>
  </trkpt>
  <trkpt lat="67.6636" lon="12.70887">
    <name>TP739</name>
  </trkpt>
  <trkpt lat="67.66362" lon="12.70885">
    <name>TP740</name>
  </trkpt>
  <trkpt lat="67.66391" lon="12.70872">
    <name>TP741</name>
  </trkpt>
  <trkpt lat="67.66395" lon="12.70871">
    <name>TP742</name>
  </trkpt>
  <trkpt lat="67.66418" lon="12.70862">
    <name>TP743</name>
  </trkpt>
  <trkpt lat="67.66429" lon="12.70856">
    <name>TP744</name>
  </trkpt>
  <trkpt lat="67.66444" lon="12.70847">
    <name>TP745</name>
  </trkpt>
  <trkpt lat="67.66446" lon="12.70845">
    <name>TP746</name>
  </trkpt>
  <trkpt lat="67.66463" lon="12.70826">
    <name>TP747</name>
  </trkpt>
  <trkpt lat="67.6647" lon="12.70818">
    <name>TP748</name>
  </trkpt>
  <trkpt lat="67.66479" lon="12.70806">
    <name>TP749</name>
  </trkpt>
  <trkpt lat="67.66495" lon="12.70784">
    <name>TP750</name>
  </trkpt>
  <trkpt lat="67.66496" lon="12.70783">
    <name>TP751</name>
  </trkpt>
  <trkpt lat="67.6651" lon="12.70759">
    <name>TP752</name>
  </trkpt>
  <trkpt lat="67.66534" lon="12.70718">
    <name>TP753</name>
  </trkpt>
  <trkpt lat="67.66554" lon="12.70681">
    <name>TP754</name>
  </trkpt>
  <trkpt lat="67.66556" lon="12.70677">
    <name>TP755</name>
  </trkpt>
  <trkpt lat="67.66568" lon="12.70658">
    <name>TP756</name>
  </trkpt>
  <trkpt lat="67.66571" lon="12.70654">
    <name>TP757</name>
  </trkpt>
  <trkpt lat="67.66579" lon="12.7064">
    <name>TP758</name>
  </trkpt>
  <trkpt lat="67.6657865" lon="12.7064033">
    <name>TP759</name>
  </trkpt>
  <trkpt lat="67.66576" lon="12.70624">
    <name>TP760</name>
  </trkpt>
  <trkpt lat="67.66575" lon="12.70611">
    <name>TP761</name>
  </trkpt>
  <trkpt lat="67.66575" lon="12.70593">
    <name>TP762</name>
  </trkpt>
  <trkpt lat="67.66575" lon="12.70578">
    <name>TP763</name>
  </trkpt>
  <trkpt lat="67.66575" lon="12.70566">
    <name>TP764</name>
  </trkpt>
  <trkpt lat="67.66575" lon="12.70531">
    <name>TP765</name>
  </trkpt>
  <trkpt lat="67.66575" lon="12.70514">
    <name>TP766</name>
  </trkpt>
  <trkpt lat="67.66575" lon="12.70483">
    <name>TP767</name>
  </trkpt>
  <trkpt lat="67.66575" lon="12.70447">
    <name>TP768</name>
  </trkpt>
  <trkpt lat="67.66575" lon="12.70436">
    <name>TP769</name>
  </trkpt>
  <trkpt lat="67.66575" lon="12.70418">
    <name>TP770</name>
  </trkpt>
  <trkpt lat="67.66575" lon="12.70406">
    <name>TP771</name>
  </trkpt>
  <trkpt lat="67.66575" lon="12.70386">
    <name>TP772</name>
  </trkpt>
  <trkpt lat="67.66575" lon="12.70371">
    <name>TP773</name>
  </trkpt>
  <trkpt lat="67.66575" lon="12.70359">
    <name>TP774</name>
  </trkpt>
  <trkpt lat="67.66575" lon="12.70341">
    <name>TP775</name>
  </trkpt>
  <trkpt lat="67.66575" lon="12.70324">
    <name>TP776</name>
  </trkpt>
  <trkpt lat="67.66575" lon="12.70311">
    <name>TP777</name>
  </trkpt>
  <trkpt lat="67.66575" lon="12.70276">
    <name>TP778</name>
  </trkpt>
  <trkpt lat="67.66575" lon="12.70243">
    <name>TP779</name>
  </trkpt>
  <trkpt lat="67.66575" lon="12.70182">
    <name>TP780</name>
  </trkpt>
  <trkpt lat="67.66575" lon="12.70177">
    <name>TP781</name>
  </trkpt>
  <trkpt lat="67.66575" lon="12.70134">
    <name>TP782</name>
  </trkpt>
  <trkpt lat="67.66575" lon="12.70106">
    <name>TP783</name>
  </trkpt>
  <trkpt lat="67.66575" lon="12.70075">
    <name>TP784</name>
  </trkpt>
  <trkpt lat="67.66575" lon="12.7005">
    <name>TP785</name>
  </trkpt>
  <trkpt lat="67.66575" lon="12.69985">
    <name>TP786</name>
  </trkpt>
  <trkpt lat="67.66575" lon="12.69959">
    <name>TP787</name>
  </trkpt>
  <trkpt lat="67.66574" lon="12.69935">
    <name>TP788</name>
  </trkpt>
  <trkpt lat="67.66573" lon="12.6992">
    <name>TP789</name>
  </trkpt>
  <trkpt lat="67.66571" lon="12.69903">
    <name>TP790</name>
  </trkpt>
  <trkpt lat="67.6657" lon="12.6989">
    <name>TP791</name>
  </trkpt>
  <trkpt lat="67.66569" lon="12.69884">
    <name>TP792</name>
  </trkpt>
  <trkpt lat="67.66566" lon="12.69859">
    <name>TP793</name>
  </trkpt>
  <trkpt lat="67.66557" lon="12.69806">
    <name>TP794</name>
  </trkpt>
  <trkpt lat="67.66555" lon="12.69798">
    <name>TP795</name>
  </trkpt>
  <trkpt lat="67.66551" lon="12.69785">
    <name>TP796</name>
  </trkpt>
  <trkpt lat="67.66544" lon="12.69767">
    <name>TP797</name>
  </trkpt>
  <trkpt lat="67.66543" lon="12.69763">
    <name>TP798</name>
  </trkpt>
  <trkpt lat="67.66531" lon="12.69735">
    <name>TP799</name>
  </trkpt>
  <trkpt lat="67.66518" lon="12.69695">
    <name>TP800</name>
  </trkpt>
  <trkpt lat="67.66516" lon="12.69689">
    <name>TP801</name>
  </trkpt>
  <trkpt lat="67.66506" lon="12.69658">
    <name>TP802</name>
  </trkpt>
  <trkpt lat="67.665" lon="12.69638">
    <name>TP803</name>
  </trkpt>
  <trkpt lat="67.66489" lon="12.6958">
    <name>TP804</name>
  </trkpt>
  <trkpt lat="67.66486" lon="12.69566">
    <name>TP805</name>
  </trkpt>
  <trkpt lat="67.66478" lon="12.69518">
    <name>TP806</name>
  </trkpt>
  <trkpt lat="67.66478" lon="12.69517">
    <name>TP807</name>
  </trkpt>
  <trkpt lat="67.6647" lon="12.69474">
    <name>TP808</name>
  </trkpt>
  <trkpt lat="67.66468" lon="12.69461">
    <name>TP809</name>
  </trkpt>
  <trkpt lat="67.66462" lon="12.69432">
    <name>TP810</name>
  </trkpt>
  <trkpt lat="67.66457" lon="12.69405">
    <name>TP811</name>
  </trkpt>
  <trkpt lat="67.66447" lon="12.69358">
    <name>TP812</name>
  </trkpt>
  <trkpt lat="67.66444" lon="12.6935">
    <name>TP813</name>
  </trkpt>
  <trkpt lat="67.66441" lon="12.69341">
    <name>TP814</name>
  </trkpt>
  <trkpt lat="67.66432" lon="12.6933">
    <name>TP815</name>
  </trkpt>
  <trkpt lat="67.66409" lon="12.6931">
    <name>TP816</name>
  </trkpt>
  <trkpt lat="67.66382" lon="12.69293">
    <name>TP817</name>
  </trkpt>
  <trkpt lat="67.66365" lon="12.69277">
    <name>TP818</name>
  </trkpt>
  <trkpt lat="67.66357" lon="12.69267">
    <name>TP819</name>
  </trkpt>
  <trkpt lat="67.66345" lon="12.69258">
    <name>TP820</name>
  </trkpt>
  <trkpt lat="67.66344" lon="12.69257">
    <name>TP821</name>
  </trkpt>
  <trkpt lat="67.66329" lon="12.69239">
    <name>TP822</name>
  </trkpt>
  <trkpt lat="67.66314" lon="12.69209">
    <name>TP823</name>
  </trkpt>
  <trkpt lat="67.66307" lon="12.69196">
    <name>TP824</name>
  </trkpt>
  <trkpt lat="67.66305" lon="12.69192">
    <name>TP825</name>
  </trkpt>
  <trkpt lat="67.66298" lon="12.69178">
    <name>TP826</name>
  </trkpt>
  <trkpt lat="67.66285" lon="12.69154">
    <name>TP827</name>
  </trkpt>
  <trkpt lat="67.66282" lon="12.69148">
    <name>TP828</name>
  </trkpt>
  <trkpt lat="67.66271" lon="12.69128">
    <name>TP829</name>
  </trkpt>
  <trkpt lat="67.6627" lon="12.69127">
    <name>TP830</name>
  </trkpt>
  <trkpt lat="67.66261" lon="12.6911">
    <name>TP831</name>
  </trkpt>
  <trkpt lat="67.66255" lon="12.69097">
    <name>TP832</name>
  </trkpt>
  <trkpt lat="67.66242" lon="12.69072">
    <name>TP833</name>
  </trkpt>
  <trkpt lat="67.66226" lon="12.69038">
    <name>TP834</name>
  </trkpt>
  <trkpt lat="67.66213" lon="12.69014">
    <name>TP835</name>
  </trkpt>
  <trkpt lat="67.66205" lon="12.69001">
    <name>TP836</name>
  </trkpt>
  <trkpt lat="67.66189" lon="12.68969">
    <name>TP837</name>
  </trkpt>
  <trkpt lat="67.66172" lon="12.68936">
    <name>TP838</name>
  </trkpt>
  <trkpt lat="67.66138" lon="12.68875">
    <name>TP839</name>
  </trkpt>
  <trkpt lat="67.66114" lon="12.68829">
    <name>TP840</name>
  </trkpt>
  <trkpt lat="67.661" lon="12.68803">
    <name>TP841</name>
  </trkpt>
  <trkpt lat="67.66085" lon="12.68776">
    <name>TP842</name>
  </trkpt>
  <trkpt lat="67.66085" lon="12.68775">
    <name>TP843</name>
  </trkpt>
  <trkpt lat="67.66064" lon="12.68735">
    <name>TP844</name>
  </trkpt>
  <trkpt lat="67.66043" lon="12.68698">
    <name>TP845</name>
  </trkpt>
  <trkpt lat="67.66027" lon="12.68668">
    <name>TP846</name>
  </trkpt>
  <trkpt lat="67.66017" lon="12.68653">
    <name>TP847</name>
  </trkpt>
  <trkpt lat="67.66008" lon="12.68638">
    <name>TP848</name>
  </trkpt>
  <trkpt lat="67.66" lon="12.6863">
    <name>TP849</name>
  </trkpt>
  <trkpt lat="67.65997" lon="12.68627">
    <name>TP850</name>
  </trkpt>
  <trkpt lat="67.65986" lon="12.68621">
    <name>TP851</name>
  </trkpt>
  <trkpt lat="67.65982" lon="12.68621">
    <name>TP852</name>
  </trkpt>
  <trkpt lat="67.65975" lon="12.68621">
    <name>TP853</name>
  </trkpt>
  <trkpt lat="67.6597" lon="12.68625">
    <name>TP854</name>
  </trkpt>
  <trkpt lat="67.65965" lon="12.6863">
    <name>TP855</name>
  </trkpt>
  <trkpt lat="67.65946" lon="12.68653">
    <name>TP856</name>
  </trkpt>
  <trkpt lat="67.65944" lon="12.68657">
    <name>TP857</name>
  </trkpt>
  <trkpt lat="67.6593" lon="12.68688">
    <name>TP858</name>
  </trkpt>
  <trkpt lat="67.65908" lon="12.68737">
    <name>TP859</name>
  </trkpt>
  <trkpt lat="67.65889" lon="12.68779">
    <name>TP860</name>
  </trkpt>
  <trkpt lat="67.65886" lon="12.68785">
    <name>TP861</name>
  </trkpt>
  <trkpt lat="67.65875" lon="12.6881">
    <name>TP862</name>
  </trkpt>
  <trkpt lat="67.65864" lon="12.68837">
    <name>TP863</name>
  </trkpt>
  <trkpt lat="67.6584" lon="12.68889">
    <name>TP864</name>
  </trkpt>
  <trkpt lat="67.65825" lon="12.68919">
    <name>TP865</name>
  </trkpt>
  <trkpt lat="67.65814" lon="12.68931">
    <name>TP866</name>
  </trkpt>
  <trkpt lat="67.65794" lon="12.68942">
    <name>TP867</name>
  </trkpt>
  <trkpt lat="67.65784" lon="12.68947">
    <name>TP868</name>
  </trkpt>
  <trkpt lat="67.65767" lon="12.68957">
    <name>TP869</name>
  </trkpt>
  <trkpt lat="67.65759" lon="12.68964">
    <name>TP870</name>
  </trkpt>
  <trkpt lat="67.65746" lon="12.68975">
    <name>TP871</name>
  </trkpt>
  <trkpt lat="67.65729" lon="12.68995">
    <name>TP872</name>
  </trkpt>
  <trkpt lat="67.65717" lon="12.69026">
    <name>TP873</name>
  </trkpt>
  <trkpt lat="67.65709" lon="12.69061">
    <name>TP874</name>
  </trkpt>
  <trkpt lat="67.65704" lon="12.69087">
    <name>TP875</name>
  </trkpt>
  <trkpt lat="67.65696" lon="12.69118">
    <name>TP876</name>
  </trkpt>
  <trkpt lat="67.65688" lon="12.69146">
    <name>TP877</name>
  </trkpt>
  <trkpt lat="67.65673" lon="12.6919">
    <name>TP878</name>
  </trkpt>
  <trkpt lat="67.65672" lon="12.69194">
    <name>TP879</name>
  </trkpt>
  <trkpt lat="67.65654" lon="12.69249">
    <name>TP880</name>
  </trkpt>
  <trkpt lat="67.65649" lon="12.69262">
    <name>TP881</name>
  </trkpt>
  <trkpt lat="67.65642" lon="12.69283">
    <name>TP882</name>
  </trkpt>
  <trkpt lat="67.65635" lon="12.69303">
    <name>TP883</name>
  </trkpt>
  <trkpt lat="67.65626" lon="12.69333">
    <name>TP884</name>
  </trkpt>
  <trkpt lat="67.65611" lon="12.6936">
    <name>TP885</name>
  </trkpt>
  <trkpt lat="67.65605" lon="12.69369">
    <name>TP886</name>
  </trkpt>
  <trkpt lat="67.65601" lon="12.69375">
    <name>TP887</name>
  </trkpt>
  <trkpt lat="67.65593" lon="12.69386">
    <name>TP888</name>
  </trkpt>
  <trkpt lat="67.6559" lon="12.6939">
    <name>TP889</name>
  </trkpt>
  <trkpt lat="67.6559" lon="12.69391">
    <name>TP890</name>
  </trkpt>
  <trkpt lat="67.65574" lon="12.69413">
    <name>TP891</name>
  </trkpt>
  <trkpt lat="67.65569" lon="12.6942">
    <name>TP892</name>
  </trkpt>
  <trkpt lat="67.65568" lon="12.69421">
    <name>TP893</name>
  </trkpt>
  <trkpt lat="67.65559" lon="12.6944">
    <name>TP894</name>
  </trkpt>
  <trkpt lat="67.65555" lon="12.69449">
    <name>TP895</name>
  </trkpt>
  <trkpt lat="67.65549" lon="12.69461">
    <name>TP896</name>
  </trkpt>
  <trkpt lat="67.65546" lon="12.6947">
    <name>TP897</name>
  </trkpt>
  <trkpt lat="67.65545" lon="12.69471">
    <name>TP898</name>
  </trkpt>
  <trkpt lat="67.65542" lon="12.69481">
    <name>TP899</name>
  </trkpt>
  <trkpt lat="67.6554" lon="12.69487">
    <name>TP900</name>
  </trkpt>
  <trkpt lat="67.65534" lon="12.69507">
    <name>TP901</name>
  </trkpt>
  <trkpt lat="67.65534" lon="12.69508">
    <name>TP902</name>
  </trkpt>
  <trkpt lat="67.65528" lon="12.69533">
    <name>TP903</name>
  </trkpt>
  <trkpt lat="67.65526" lon="12.69549">
    <name>TP904</name>
  </trkpt>
  <trkpt lat="67.6552" lon="12.69583">
    <name>TP905</name>
  </trkpt>
  <trkpt lat="67.65519" lon="12.69593">
    <name>TP906</name>
  </trkpt>
  <trkpt lat="67.65515" lon="12.69638">
    <name>TP907</name>
  </trkpt>
  <trkpt lat="67.65513" lon="12.69655">
    <name>TP908</name>
  </trkpt>
  <trkpt lat="67.65509" lon="12.69683">
    <name>TP909</name>
  </trkpt>
  <trkpt lat="67.65509" lon="12.69684">
    <name>TP910</name>
  </trkpt>
  <trkpt lat="67.65508" lon="12.69691">
    <name>TP911</name>
  </trkpt>
  <trkpt lat="67.65507" lon="12.69697">
    <name>TP912</name>
  </trkpt>
  <trkpt lat="67.65502" lon="12.69727">
    <name>TP913</name>
  </trkpt>
  <trkpt lat="67.65498" lon="12.69755">
    <name>TP914</name>
  </trkpt>
  <trkpt lat="67.65494" lon="12.6977">
    <name>TP915</name>
  </trkpt>
  <trkpt lat="67.65492" lon="12.69776">
    <name>TP916</name>
  </trkpt>
  <trkpt lat="67.65485" lon="12.69809">
    <name>TP917</name>
  </trkpt>
  <trkpt lat="67.65484" lon="12.69813">
    <name>TP918</name>
  </trkpt>
  <trkpt lat="67.65472" lon="12.6986">
    <name>TP919</name>
  </trkpt>
  <trkpt lat="67.65471" lon="12.69862">
    <name>TP920</name>
  </trkpt>
  <trkpt lat="67.65465" lon="12.69888">
    <name>TP921</name>
  </trkpt>
  <trkpt lat="67.65456" lon="12.69923">
    <name>TP922</name>
  </trkpt>
  <trkpt lat="67.6544" lon="12.69978">
    <name>TP923</name>
  </trkpt>
  <trkpt lat="67.65436" lon="12.69991">
    <name>TP924</name>
  </trkpt>
  <trkpt lat="67.65421" lon="12.70035">
    <name>TP925</name>
  </trkpt>
  <trkpt lat="67.65412" lon="12.70061">
    <name>TP926</name>
  </trkpt>
  <trkpt lat="67.654" lon="12.7009">
    <name>TP927</name>
  </trkpt>
  <trkpt lat="67.65399" lon="12.70094">
    <name>TP928</name>
  </trkpt>
  <trkpt lat="67.65379" lon="12.70149">
    <name>TP929</name>
  </trkpt>
  <trkpt lat="67.65374" lon="12.70162">
    <name>TP930</name>
  </trkpt>
  <trkpt lat="67.65362" lon="12.70191">
    <name>TP931</name>
  </trkpt>
  <trkpt lat="67.65347" lon="12.7024">
    <name>TP932</name>
  </trkpt>
  <trkpt lat="67.65344" lon="12.70249">
    <name>TP933</name>
  </trkpt>
  <trkpt lat="67.65337" lon="12.70279">
    <name>TP934</name>
  </trkpt>
  <trkpt lat="67.65329" lon="12.7031">
    <name>TP935</name>
  </trkpt>
  <trkpt lat="67.65326" lon="12.70317">
    <name>TP936</name>
  </trkpt>
  <trkpt lat="67.65319" lon="12.70335">
    <name>TP937</name>
  </trkpt>
  <trkpt lat="67.65313" lon="12.70348">
    <name>TP938</name>
  </trkpt>
  <trkpt lat="67.65308" lon="12.70357">
    <name>TP939</name>
  </trkpt>
  <trkpt lat="67.65289" lon="12.70395">
    <name>TP940</name>
  </trkpt>
  <trkpt lat="67.65284" lon="12.70404">
    <name>TP941</name>
  </trkpt>
  <trkpt lat="67.65271" lon="12.70426">
    <name>TP942</name>
  </trkpt>
  <trkpt lat="67.65268" lon="12.70428">
    <name>TP943</name>
  </trkpt>
  <trkpt lat="67.65253" lon="12.70445">
    <name>TP944</name>
  </trkpt>
  <trkpt lat="67.65238" lon="12.70456">
    <name>TP945</name>
  </trkpt>
  <trkpt lat="67.65234" lon="12.70458">
    <name>TP946</name>
  </trkpt>
  <trkpt lat="67.65234" lon="12.70459">
    <name>TP947</name>
  </trkpt>
  <trkpt lat="67.65221" lon="12.70472">
    <name>TP948</name>
  </trkpt>
  <trkpt lat="67.65218" lon="12.70478">
    <name>TP949</name>
  </trkpt>
  <trkpt lat="67.6521" lon="12.705">
    <name>TP950</name>
  </trkpt>
  <trkpt lat="67.65203" lon="12.7054">
    <name>TP951</name>
  </trkpt>
  <trkpt lat="67.652" lon="12.70588">
    <name>TP952</name>
  </trkpt>
  <trkpt lat="67.65202" lon="12.70618">
    <name>TP953</name>
  </trkpt>
  <trkpt lat="67.65203" lon="12.70636">
    <name>TP954</name>
  </trkpt>
  <trkpt lat="67.65207" lon="12.70698">
    <name>TP955</name>
  </trkpt>
  <trkpt lat="67.65212" lon="12.70757">
    <name>TP956</name>
  </trkpt>
  <trkpt lat="67.65213" lon="12.70769">
    <name>TP957</name>
  </trkpt>
  <trkpt lat="67.65216" lon="12.70813">
    <name>TP958</name>
  </trkpt>
  <trkpt lat="67.65217" lon="12.70818">
    <name>TP959</name>
  </trkpt>
  <trkpt lat="67.65223" lon="12.70888">
    <name>TP960</name>
  </trkpt>
  <trkpt lat="67.65231" lon="12.70957">
    <name>TP961</name>
  </trkpt>
  <trkpt lat="67.65237" lon="12.70993">
    <name>TP962</name>
  </trkpt>
  <trkpt lat="67.65243" lon="12.71016">
    <name>TP963</name>
  </trkpt>
  <trkpt lat="67.65249" lon="12.71036">
    <name>TP964</name>
  </trkpt>
  <trkpt lat="67.65257" lon="12.7106">
    <name>TP965</name>
  </trkpt>
  <trkpt lat="67.6525687" lon="12.7106049">
    <name>TP966</name>
  </trkpt>
  <trkpt lat="67.6525687" lon="12.7106049">
    <name>TP967</name>
  </trkpt>
  <trkpt lat="67.6525687" lon="12.7106049">
    <name>TP968</name>
  </trkpt>
  </trkseg>
</trk>
</gpx>