<?xml version="1.0" encoding="UTF-8" standalone="no" ?>
<gpx xmlns="http://www.topografix.com/GPX/1/1" xmlns:gpxx="http://www.garmin.com/xmlschemas/GpxExtensions/v3" xmlns:gpxtpx="http://www.garmin.com/xmlschemas/TrackPointExtension/v1" creator="mapstogpx.com" version="1.1" xmlns:xsi="http://www.w3.org/2001/XMLSchema-instance" xsi:schemaLocation="http://www.topografix.com/GPX/1/1 http://www.topografix.com/GPX/1/1/gpx.xsd http://www.garmin.com/xmlschemas/GpxExtensions/v3 http://www.garmin.com/xmlschemas/GpxExtensionsv3.xsd http://www.garmin.com/xmlschemas/TrackPointExtension/v1 http://www.garmin.com/xmlschemas/TrackPointExtensionv1.xsd">
  <metadata>
    <link href="http://www.mapstogpx.com">
      <text>Sverrir Sigmundarson</text>
    </link>
    <!--desc>Powered by Google, ©2025 Google</desc-->
    <!--copyright author="Google Inc">
    	<year>2025</year>
    	<license>https://developers.google.com/maps/terms</license>
    </copyright-->
    <!--url>https://www.google.com/maps/dir/60.925994,7.078895/Undredalen+parkering,+snuplass+Undredal/@60.9375591,7.0682166,4237m/data=!3m1!1e3!4m9!4m8!1m0!1m5!1m1!1s0x463e1100033ad447:0xcb69845c6fdecb0b!2m2!1d7.0987371!2d60.9490314!3e0?entry=tts&g_ep=EgoyMDI1MDcxNS4xKgBIAVAD&skid=a27c0b80-11f3-43fe-afbe-5246d1825689&hl=en</url-->
    <time>2025-07-18T22:02:53Z</time>
  </metadata>
  <wpt lat="60.925994" lon="7.078895">
    <name>5746 Undredal</name>
    <desc>Fv601, 5746 Undredal, Norway</desc>
  </wpt>
  <wpt lat="60.9490314" lon="7.0987371">
    <name>Undredalen parkering</name>
    <desc>Undredalen parkering, snuplass Undredal, Norway</desc>
  </wpt>
<trk>
  <name>5746 Undredal to Undredalen parkering</name>
  <number>1</number>
  <trkseg>
  <trkpt lat="60.9259921" lon="7.0789401">
    <name>TP001</name>
  </trkpt>
  <trkpt lat="60.92602" lon="7.07895">
    <name>TP002</name>
  </trkpt>
  <trkpt lat="60.92608" lon="7.07897">
    <name>TP003</name>
  </trkpt>
  <trkpt lat="60.92615" lon="7.07901">
    <name>TP004</name>
  </trkpt>
  <trkpt lat="60.92621" lon="7.07903">
    <name>TP005</name>
  </trkpt>
  <trkpt lat="60.92628" lon="7.07906">
    <name>TP006</name>
  </trkpt>
  <trkpt lat="60.92634" lon="7.07909">
    <name>TP007</name>
  </trkpt>
  <trkpt lat="60.92641" lon="7.07913">
    <name>TP008</name>
  </trkpt>
  <trkpt lat="60.92648" lon="7.07918">
    <name>TP009</name>
  </trkpt>
  <trkpt lat="60.92652" lon="7.0792">
    <name>TP010</name>
  </trkpt>
  <trkpt lat="60.92657" lon="7.07923">
    <name>TP011</name>
  </trkpt>
  <trkpt lat="60.92662" lon="7.07925">
    <name>TP012</name>
  </trkpt>
  <trkpt lat="60.92664" lon="7.07926">
    <name>TP013</name>
  </trkpt>
  <trkpt lat="60.92666" lon="7.07928">
    <name>TP014</name>
  </trkpt>
  <trkpt lat="60.92671" lon="7.07931">
    <name>TP015</name>
  </trkpt>
  <trkpt lat="60.92675" lon="7.07933">
    <name>TP016</name>
  </trkpt>
  <trkpt lat="60.92681" lon="7.07936">
    <name>TP017</name>
  </trkpt>
  <trkpt lat="60.92687" lon="7.0794">
    <name>TP018</name>
  </trkpt>
  <trkpt lat="60.92693" lon="7.07944">
    <name>TP019</name>
  </trkpt>
  <trkpt lat="60.92698" lon="7.07948">
    <name>TP020</name>
  </trkpt>
  <trkpt lat="60.92699" lon="7.07949">
    <name>TP021</name>
  </trkpt>
  <trkpt lat="60.92706" lon="7.07953">
    <name>TP022</name>
  </trkpt>
  <trkpt lat="60.92712" lon="7.07957">
    <name>TP023</name>
  </trkpt>
  <trkpt lat="60.92715" lon="7.0796">
    <name>TP024</name>
  </trkpt>
  <trkpt lat="60.92718" lon="7.07962">
    <name>TP025</name>
  </trkpt>
  <trkpt lat="60.92724" lon="7.07966">
    <name>TP026</name>
  </trkpt>
  <trkpt lat="60.92729" lon="7.0797">
    <name>TP027</name>
  </trkpt>
  <trkpt lat="60.92736" lon="7.07975">
    <name>TP028</name>
  </trkpt>
  <trkpt lat="60.92742" lon="7.0798">
    <name>TP029</name>
  </trkpt>
  <trkpt lat="60.92748" lon="7.07984">
    <name>TP030</name>
  </trkpt>
  <trkpt lat="60.92749" lon="7.07985">
    <name>TP031</name>
  </trkpt>
  <trkpt lat="60.92754" lon="7.07989">
    <name>TP032</name>
  </trkpt>
  <trkpt lat="60.92759" lon="7.07993">
    <name>TP033</name>
  </trkpt>
  <trkpt lat="60.92765" lon="7.07998">
    <name>TP034</name>
  </trkpt>
  <trkpt lat="60.92766" lon="7.07998">
    <name>TP035</name>
  </trkpt>
  <trkpt lat="60.9277" lon="7.08001">
    <name>TP036</name>
  </trkpt>
  <trkpt lat="60.92777" lon="7.08005">
    <name>TP037</name>
  </trkpt>
  <trkpt lat="60.92782" lon="7.08009">
    <name>TP038</name>
  </trkpt>
  <trkpt lat="60.92783" lon="7.08009">
    <name>TP039</name>
  </trkpt>
  <trkpt lat="60.92789" lon="7.08013">
    <name>TP040</name>
  </trkpt>
  <trkpt lat="60.92795" lon="7.08016">
    <name>TP041</name>
  </trkpt>
  <trkpt lat="60.928" lon="7.08019">
    <name>TP042</name>
  </trkpt>
  <trkpt lat="60.92802" lon="7.0802">
    <name>TP043</name>
  </trkpt>
  <trkpt lat="60.92808" lon="7.08023">
    <name>TP044</name>
  </trkpt>
  <trkpt lat="60.92814" lon="7.08027">
    <name>TP045</name>
  </trkpt>
  <trkpt lat="60.92821" lon="7.0803">
    <name>TP046</name>
  </trkpt>
  <trkpt lat="60.92827" lon="7.08034">
    <name>TP047</name>
  </trkpt>
  <trkpt lat="60.92834" lon="7.08037">
    <name>TP048</name>
  </trkpt>
  <trkpt lat="60.92835" lon="7.08038">
    <name>TP049</name>
  </trkpt>
  <trkpt lat="60.9284" lon="7.0804">
    <name>TP050</name>
  </trkpt>
  <trkpt lat="60.92846" lon="7.08042">
    <name>TP051</name>
  </trkpt>
  <trkpt lat="60.92851" lon="7.08045">
    <name>TP052</name>
  </trkpt>
  <trkpt lat="60.92858" lon="7.08049">
    <name>TP053</name>
  </trkpt>
  <trkpt lat="60.92864" lon="7.08052">
    <name>TP054</name>
  </trkpt>
  <trkpt lat="60.9287" lon="7.08055">
    <name>TP055</name>
  </trkpt>
  <trkpt lat="60.92871" lon="7.08056">
    <name>TP056</name>
  </trkpt>
  <trkpt lat="60.92876" lon="7.08059">
    <name>TP057</name>
  </trkpt>
  <trkpt lat="60.92882" lon="7.08063">
    <name>TP058</name>
  </trkpt>
  <trkpt lat="60.92888" lon="7.08067">
    <name>TP059</name>
  </trkpt>
  <trkpt lat="60.92895" lon="7.0807">
    <name>TP060</name>
  </trkpt>
  <trkpt lat="60.929" lon="7.08075">
    <name>TP061</name>
  </trkpt>
  <trkpt lat="60.92904" lon="7.08077">
    <name>TP062</name>
  </trkpt>
  <trkpt lat="60.92907" lon="7.08079">
    <name>TP063</name>
  </trkpt>
  <trkpt lat="60.92914" lon="7.08084">
    <name>TP064</name>
  </trkpt>
  <trkpt lat="60.92919" lon="7.08088">
    <name>TP065</name>
  </trkpt>
  <trkpt lat="60.92925" lon="7.08093">
    <name>TP066</name>
  </trkpt>
  <trkpt lat="60.92932" lon="7.08098">
    <name>TP067</name>
  </trkpt>
  <trkpt lat="60.92938" lon="7.08103">
    <name>TP068</name>
  </trkpt>
  <trkpt lat="60.92944" lon="7.08109">
    <name>TP069</name>
  </trkpt>
  <trkpt lat="60.92951" lon="7.08116">
    <name>TP070</name>
  </trkpt>
  <trkpt lat="60.92956" lon="7.08122">
    <name>TP071</name>
  </trkpt>
  <trkpt lat="60.92962" lon="7.08128">
    <name>TP072</name>
  </trkpt>
  <trkpt lat="60.92968" lon="7.08134">
    <name>TP073</name>
  </trkpt>
  <trkpt lat="60.92974" lon="7.08141">
    <name>TP074</name>
  </trkpt>
  <trkpt lat="60.9298" lon="7.08147">
    <name>TP075</name>
  </trkpt>
  <trkpt lat="60.92985" lon="7.08154">
    <name>TP076</name>
  </trkpt>
  <trkpt lat="60.92985" lon="7.08155">
    <name>TP077</name>
  </trkpt>
  <trkpt lat="60.92991" lon="7.08162">
    <name>TP078</name>
  </trkpt>
  <trkpt lat="60.92996" lon="7.08169">
    <name>TP079</name>
  </trkpt>
  <trkpt lat="60.93001" lon="7.08175">
    <name>TP080</name>
  </trkpt>
  <trkpt lat="60.93001" lon="7.08176">
    <name>TP081</name>
  </trkpt>
  <trkpt lat="60.93007" lon="7.08183">
    <name>TP082</name>
  </trkpt>
  <trkpt lat="60.93011" lon="7.08188">
    <name>TP083</name>
  </trkpt>
  <trkpt lat="60.93016" lon="7.08194">
    <name>TP084</name>
  </trkpt>
  <trkpt lat="60.93017" lon="7.08196">
    <name>TP085</name>
  </trkpt>
  <trkpt lat="60.93023" lon="7.08203">
    <name>TP086</name>
  </trkpt>
  <trkpt lat="60.93029" lon="7.0821">
    <name>TP087</name>
  </trkpt>
  <trkpt lat="60.93035" lon="7.08218">
    <name>TP088</name>
  </trkpt>
  <trkpt lat="60.9304" lon="7.08224">
    <name>TP089</name>
  </trkpt>
  <trkpt lat="60.93047" lon="7.08231">
    <name>TP090</name>
  </trkpt>
  <trkpt lat="60.93047" lon="7.08232">
    <name>TP091</name>
  </trkpt>
  <trkpt lat="60.93052" lon="7.08237">
    <name>TP092</name>
  </trkpt>
  <trkpt lat="60.93059" lon="7.08243">
    <name>TP093</name>
  </trkpt>
  <trkpt lat="60.93064" lon="7.08247">
    <name>TP094</name>
  </trkpt>
  <trkpt lat="60.93071" lon="7.08251">
    <name>TP095</name>
  </trkpt>
  <trkpt lat="60.93077" lon="7.08255">
    <name>TP096</name>
  </trkpt>
  <trkpt lat="60.93081" lon="7.08257">
    <name>TP097</name>
  </trkpt>
  <trkpt lat="60.93083" lon="7.08259">
    <name>TP098</name>
  </trkpt>
  <trkpt lat="60.93089" lon="7.08262">
    <name>TP099</name>
  </trkpt>
  <trkpt lat="60.93095" lon="7.08265">
    <name>TP100</name>
  </trkpt>
  <trkpt lat="60.93098" lon="7.08266">
    <name>TP101</name>
  </trkpt>
  <trkpt lat="60.93102" lon="7.08268">
    <name>TP102</name>
  </trkpt>
  <trkpt lat="60.93108" lon="7.08271">
    <name>TP103</name>
  </trkpt>
  <trkpt lat="60.93114" lon="7.08273">
    <name>TP104</name>
  </trkpt>
  <trkpt lat="60.93116" lon="7.08274">
    <name>TP105</name>
  </trkpt>
  <trkpt lat="60.93121" lon="7.08275">
    <name>TP106</name>
  </trkpt>
  <trkpt lat="60.93128" lon="7.08278">
    <name>TP107</name>
  </trkpt>
  <trkpt lat="60.93133" lon="7.0828">
    <name>TP108</name>
  </trkpt>
  <trkpt lat="60.93135" lon="7.0828">
    <name>TP109</name>
  </trkpt>
  <trkpt lat="60.93151" lon="7.08286">
    <name>TP110</name>
  </trkpt>
  <trkpt lat="60.93153" lon="7.08287">
    <name>TP111</name>
  </trkpt>
  <trkpt lat="60.93154" lon="7.08288">
    <name>TP112</name>
  </trkpt>
  <trkpt lat="60.93156" lon="7.08289">
    <name>TP113</name>
  </trkpt>
  <trkpt lat="60.93161" lon="7.0829">
    <name>TP114</name>
  </trkpt>
  <trkpt lat="60.93166" lon="7.08293">
    <name>TP115</name>
  </trkpt>
  <trkpt lat="60.9317" lon="7.08295">
    <name>TP116</name>
  </trkpt>
  <trkpt lat="60.93176" lon="7.08298">
    <name>TP117</name>
  </trkpt>
  <trkpt lat="60.93181" lon="7.08302">
    <name>TP118</name>
  </trkpt>
  <trkpt lat="60.93186" lon="7.08305">
    <name>TP119</name>
  </trkpt>
  <trkpt lat="60.93191" lon="7.08309">
    <name>TP120</name>
  </trkpt>
  <trkpt lat="60.93196" lon="7.08312">
    <name>TP121</name>
  </trkpt>
  <trkpt lat="60.93201" lon="7.08317">
    <name>TP122</name>
  </trkpt>
  <trkpt lat="60.93203" lon="7.08318">
    <name>TP123</name>
  </trkpt>
  <trkpt lat="60.93207" lon="7.08321">
    <name>TP124</name>
  </trkpt>
  <trkpt lat="60.93214" lon="7.08327">
    <name>TP125</name>
  </trkpt>
  <trkpt lat="60.93219" lon="7.0833">
    <name>TP126</name>
  </trkpt>
  <trkpt lat="60.93226" lon="7.08337">
    <name>TP127</name>
  </trkpt>
  <trkpt lat="60.9323" lon="7.08341">
    <name>TP128</name>
  </trkpt>
  <trkpt lat="60.93235" lon="7.08346">
    <name>TP129</name>
  </trkpt>
  <trkpt lat="60.93236" lon="7.08346">
    <name>TP130</name>
  </trkpt>
  <trkpt lat="60.93241" lon="7.08352">
    <name>TP131</name>
  </trkpt>
  <trkpt lat="60.93246" lon="7.08357">
    <name>TP132</name>
  </trkpt>
  <trkpt lat="60.93252" lon="7.08364">
    <name>TP133</name>
  </trkpt>
  <trkpt lat="60.93257" lon="7.08369">
    <name>TP134</name>
  </trkpt>
  <trkpt lat="60.93262" lon="7.08376">
    <name>TP135</name>
  </trkpt>
  <trkpt lat="60.93267" lon="7.08383">
    <name>TP136</name>
  </trkpt>
  <trkpt lat="60.93267" lon="7.08384">
    <name>TP137</name>
  </trkpt>
  <trkpt lat="60.93272" lon="7.08392">
    <name>TP138</name>
  </trkpt>
  <trkpt lat="60.93278" lon="7.084">
    <name>TP139</name>
  </trkpt>
  <trkpt lat="60.93282" lon="7.08405">
    <name>TP140</name>
  </trkpt>
  <trkpt lat="60.93286" lon="7.08411">
    <name>TP141</name>
  </trkpt>
  <trkpt lat="60.93291" lon="7.08419">
    <name>TP142</name>
  </trkpt>
  <trkpt lat="60.93296" lon="7.08428">
    <name>TP143</name>
  </trkpt>
  <trkpt lat="60.93301" lon="7.08436">
    <name>TP144</name>
  </trkpt>
  <trkpt lat="60.93306" lon="7.08443">
    <name>TP145</name>
  </trkpt>
  <trkpt lat="60.9331" lon="7.0845">
    <name>TP146</name>
  </trkpt>
  <trkpt lat="60.93311" lon="7.08452">
    <name>TP147</name>
  </trkpt>
  <trkpt lat="60.93316" lon="7.08461">
    <name>TP148</name>
  </trkpt>
  <trkpt lat="60.93321" lon="7.08469">
    <name>TP149</name>
  </trkpt>
  <trkpt lat="60.93324" lon="7.08473">
    <name>TP150</name>
  </trkpt>
  <trkpt lat="60.93326" lon="7.08477">
    <name>TP151</name>
  </trkpt>
  <trkpt lat="60.93331" lon="7.08485">
    <name>TP152</name>
  </trkpt>
  <trkpt lat="60.93336" lon="7.08492">
    <name>TP153</name>
  </trkpt>
  <trkpt lat="60.93338" lon="7.08495">
    <name>TP154</name>
  </trkpt>
  <trkpt lat="60.93341" lon="7.085">
    <name>TP155</name>
  </trkpt>
  <trkpt lat="60.93346" lon="7.08508">
    <name>TP156</name>
  </trkpt>
  <trkpt lat="60.93351" lon="7.08515">
    <name>TP157</name>
  </trkpt>
  <trkpt lat="60.93353" lon="7.08517">
    <name>TP158</name>
  </trkpt>
  <trkpt lat="60.93356" lon="7.08523">
    <name>TP159</name>
  </trkpt>
  <trkpt lat="60.93361" lon="7.0853">
    <name>TP160</name>
  </trkpt>
  <trkpt lat="60.93367" lon="7.08539">
    <name>TP161</name>
  </trkpt>
  <trkpt lat="60.93372" lon="7.08544">
    <name>TP162</name>
  </trkpt>
  <trkpt lat="60.93375" lon="7.0855">
    <name>TP163</name>
  </trkpt>
  <trkpt lat="60.93379" lon="7.08556">
    <name>TP164</name>
  </trkpt>
  <trkpt lat="60.93384" lon="7.08563">
    <name>TP165</name>
  </trkpt>
  <trkpt lat="60.93388" lon="7.0857">
    <name>TP166</name>
  </trkpt>
  <trkpt lat="60.93392" lon="7.08576">
    <name>TP167</name>
  </trkpt>
  <trkpt lat="60.93396" lon="7.08582">
    <name>TP168</name>
  </trkpt>
  <trkpt lat="60.93402" lon="7.08591">
    <name>TP169</name>
  </trkpt>
  <trkpt lat="60.93406" lon="7.08599">
    <name>TP170</name>
  </trkpt>
  <trkpt lat="60.9341" lon="7.08605">
    <name>TP171</name>
  </trkpt>
  <trkpt lat="60.93412" lon="7.08607">
    <name>TP172</name>
  </trkpt>
  <trkpt lat="60.93416" lon="7.08616">
    <name>TP173</name>
  </trkpt>
  <trkpt lat="60.9342" lon="7.08625">
    <name>TP174</name>
  </trkpt>
  <trkpt lat="60.93424" lon="7.0863">
    <name>TP175</name>
  </trkpt>
  <trkpt lat="60.93426" lon="7.08633">
    <name>TP176</name>
  </trkpt>
  <trkpt lat="60.93431" lon="7.08642">
    <name>TP177</name>
  </trkpt>
  <trkpt lat="60.93436" lon="7.08651">
    <name>TP178</name>
  </trkpt>
  <trkpt lat="60.93438" lon="7.08653">
    <name>TP179</name>
  </trkpt>
  <trkpt lat="60.93441" lon="7.08659">
    <name>TP180</name>
  </trkpt>
  <trkpt lat="60.93446" lon="7.08667">
    <name>TP181</name>
  </trkpt>
  <trkpt lat="60.9345" lon="7.08675">
    <name>TP182</name>
  </trkpt>
  <trkpt lat="60.93452" lon="7.08677">
    <name>TP183</name>
  </trkpt>
  <trkpt lat="60.93455" lon="7.08683">
    <name>TP184</name>
  </trkpt>
  <trkpt lat="60.93459" lon="7.08692">
    <name>TP185</name>
  </trkpt>
  <trkpt lat="60.93464" lon="7.08701">
    <name>TP186</name>
  </trkpt>
  <trkpt lat="60.93465" lon="7.08702">
    <name>TP187</name>
  </trkpt>
  <trkpt lat="60.93469" lon="7.08709">
    <name>TP188</name>
  </trkpt>
  <trkpt lat="60.93474" lon="7.08719">
    <name>TP189</name>
  </trkpt>
  <trkpt lat="60.93478" lon="7.08727">
    <name>TP190</name>
  </trkpt>
  <trkpt lat="60.93478" lon="7.08728">
    <name>TP191</name>
  </trkpt>
  <trkpt lat="60.93483" lon="7.08737">
    <name>TP192</name>
  </trkpt>
  <trkpt lat="60.93488" lon="7.08746">
    <name>TP193</name>
  </trkpt>
  <trkpt lat="60.93493" lon="7.08755">
    <name>TP194</name>
  </trkpt>
  <trkpt lat="60.93497" lon="7.08765">
    <name>TP195</name>
  </trkpt>
  <trkpt lat="60.93502" lon="7.08774">
    <name>TP196</name>
  </trkpt>
  <trkpt lat="60.93504" lon="7.08779">
    <name>TP197</name>
  </trkpt>
  <trkpt lat="60.93505" lon="7.08784">
    <name>TP198</name>
  </trkpt>
  <trkpt lat="60.93509" lon="7.08794">
    <name>TP199</name>
  </trkpt>
  <trkpt lat="60.93514" lon="7.08804">
    <name>TP200</name>
  </trkpt>
  <trkpt lat="60.93518" lon="7.08813">
    <name>TP201</name>
  </trkpt>
  <trkpt lat="60.93523" lon="7.08822">
    <name>TP202</name>
  </trkpt>
  <trkpt lat="60.93527" lon="7.08832">
    <name>TP203</name>
  </trkpt>
  <trkpt lat="60.93528" lon="7.08834">
    <name>TP204</name>
  </trkpt>
  <trkpt lat="60.93532" lon="7.0884">
    <name>TP205</name>
  </trkpt>
  <trkpt lat="60.93537" lon="7.08849">
    <name>TP206</name>
  </trkpt>
  <trkpt lat="60.93543" lon="7.08857">
    <name>TP207</name>
  </trkpt>
  <trkpt lat="60.93548" lon="7.08864">
    <name>TP208</name>
  </trkpt>
  <trkpt lat="60.93553" lon="7.08871">
    <name>TP209</name>
  </trkpt>
  <trkpt lat="60.93558" lon="7.08875">
    <name>TP210</name>
  </trkpt>
  <trkpt lat="60.93559" lon="7.08876">
    <name>TP211</name>
  </trkpt>
  <trkpt lat="60.93566" lon="7.08879">
    <name>TP212</name>
  </trkpt>
  <trkpt lat="60.93572" lon="7.08882">
    <name>TP213</name>
  </trkpt>
  <trkpt lat="60.93579" lon="7.08884">
    <name>TP214</name>
  </trkpt>
  <trkpt lat="60.93584" lon="7.08884">
    <name>TP215</name>
  </trkpt>
  <trkpt lat="60.93591" lon="7.08883">
    <name>TP216</name>
  </trkpt>
  <trkpt lat="60.93599" lon="7.08884">
    <name>TP217</name>
  </trkpt>
  <trkpt lat="60.93605" lon="7.08884">
    <name>TP218</name>
  </trkpt>
  <trkpt lat="60.93612" lon="7.08884">
    <name>TP219</name>
  </trkpt>
  <trkpt lat="60.93619" lon="7.08883">
    <name>TP220</name>
  </trkpt>
  <trkpt lat="60.93624" lon="7.08882">
    <name>TP221</name>
  </trkpt>
  <trkpt lat="60.93629" lon="7.08882">
    <name>TP222</name>
  </trkpt>
  <trkpt lat="60.93636" lon="7.08882">
    <name>TP223</name>
  </trkpt>
  <trkpt lat="60.93643" lon="7.08881">
    <name>TP224</name>
  </trkpt>
  <trkpt lat="60.93651" lon="7.08879">
    <name>TP225</name>
  </trkpt>
  <trkpt lat="60.93653" lon="7.08879">
    <name>TP226</name>
  </trkpt>
  <trkpt lat="60.93659" lon="7.0888">
    <name>TP227</name>
  </trkpt>
  <trkpt lat="60.93666" lon="7.08878">
    <name>TP228</name>
  </trkpt>
  <trkpt lat="60.93672" lon="7.08878">
    <name>TP229</name>
  </trkpt>
  <trkpt lat="60.93678" lon="7.08878">
    <name>TP230</name>
  </trkpt>
  <trkpt lat="60.93685" lon="7.08876">
    <name>TP231</name>
  </trkpt>
  <trkpt lat="60.93691" lon="7.08876">
    <name>TP232</name>
  </trkpt>
  <trkpt lat="60.93698" lon="7.08875">
    <name>TP233</name>
  </trkpt>
  <trkpt lat="60.93704" lon="7.08875">
    <name>TP234</name>
  </trkpt>
  <trkpt lat="60.93711" lon="7.08873">
    <name>TP235</name>
  </trkpt>
  <trkpt lat="60.93717" lon="7.08873">
    <name>TP236</name>
  </trkpt>
  <trkpt lat="60.93723" lon="7.08872">
    <name>TP237</name>
  </trkpt>
  <trkpt lat="60.9373" lon="7.08872">
    <name>TP238</name>
  </trkpt>
  <trkpt lat="60.93736" lon="7.08871">
    <name>TP239</name>
  </trkpt>
  <trkpt lat="60.93743" lon="7.0887">
    <name>TP240</name>
  </trkpt>
  <trkpt lat="60.93749" lon="7.0887">
    <name>TP241</name>
  </trkpt>
  <trkpt lat="60.93756" lon="7.0887">
    <name>TP242</name>
  </trkpt>
  <trkpt lat="60.93762" lon="7.08869">
    <name>TP243</name>
  </trkpt>
  <trkpt lat="60.93768" lon="7.08869">
    <name>TP244</name>
  </trkpt>
  <trkpt lat="60.93775" lon="7.08869">
    <name>TP245</name>
  </trkpt>
  <trkpt lat="60.93781" lon="7.0887">
    <name>TP246</name>
  </trkpt>
  <trkpt lat="60.93787" lon="7.0887">
    <name>TP247</name>
  </trkpt>
  <trkpt lat="60.93794" lon="7.08871">
    <name>TP248</name>
  </trkpt>
  <trkpt lat="60.93795" lon="7.08871">
    <name>TP249</name>
  </trkpt>
  <trkpt lat="60.93801" lon="7.08872">
    <name>TP250</name>
  </trkpt>
  <trkpt lat="60.93807" lon="7.08874">
    <name>TP251</name>
  </trkpt>
  <trkpt lat="60.93814" lon="7.08875">
    <name>TP252</name>
  </trkpt>
  <trkpt lat="60.9382" lon="7.08877">
    <name>TP253</name>
  </trkpt>
  <trkpt lat="60.93827" lon="7.08879">
    <name>TP254</name>
  </trkpt>
  <trkpt lat="60.93833" lon="7.0888">
    <name>TP255</name>
  </trkpt>
  <trkpt lat="60.9384" lon="7.08882">
    <name>TP256</name>
  </trkpt>
  <trkpt lat="60.93847" lon="7.08884">
    <name>TP257</name>
  </trkpt>
  <trkpt lat="60.93848" lon="7.08884">
    <name>TP258</name>
  </trkpt>
  <trkpt lat="60.93853" lon="7.08886">
    <name>TP259</name>
  </trkpt>
  <trkpt lat="60.9386" lon="7.08887">
    <name>TP260</name>
  </trkpt>
  <trkpt lat="60.93866" lon="7.0889">
    <name>TP261</name>
  </trkpt>
  <trkpt lat="60.93869" lon="7.08891">
    <name>TP262</name>
  </trkpt>
  <trkpt lat="60.93872" lon="7.08892">
    <name>TP263</name>
  </trkpt>
  <trkpt lat="60.93879" lon="7.08894">
    <name>TP264</name>
  </trkpt>
  <trkpt lat="60.93886" lon="7.08897">
    <name>TP265</name>
  </trkpt>
  <trkpt lat="60.93892" lon="7.08898">
    <name>TP266</name>
  </trkpt>
  <trkpt lat="60.93897" lon="7.089">
    <name>TP267</name>
  </trkpt>
  <trkpt lat="60.93902" lon="7.08902">
    <name>TP268</name>
  </trkpt>
  <trkpt lat="60.93904" lon="7.08903">
    <name>TP269</name>
  </trkpt>
  <trkpt lat="60.9391" lon="7.08906">
    <name>TP270</name>
  </trkpt>
  <trkpt lat="60.93917" lon="7.08907">
    <name>TP271</name>
  </trkpt>
  <trkpt lat="60.93919" lon="7.08908">
    <name>TP272</name>
  </trkpt>
  <trkpt lat="60.93923" lon="7.08909">
    <name>TP273</name>
  </trkpt>
  <trkpt lat="60.9393" lon="7.08909">
    <name>TP274</name>
  </trkpt>
  <trkpt lat="60.93936" lon="7.0891">
    <name>TP275</name>
  </trkpt>
  <trkpt lat="60.93937" lon="7.0891">
    <name>TP276</name>
  </trkpt>
  <trkpt lat="60.9394" lon="7.0891">
    <name>TP277</name>
  </trkpt>
  <trkpt lat="60.93943" lon="7.0891">
    <name>TP278</name>
  </trkpt>
  <trkpt lat="60.93949" lon="7.0891">
    <name>TP279</name>
  </trkpt>
  <trkpt lat="60.93956" lon="7.08909">
    <name>TP280</name>
  </trkpt>
  <trkpt lat="60.93963" lon="7.08908">
    <name>TP281</name>
  </trkpt>
  <trkpt lat="60.9397" lon="7.08908">
    <name>TP282</name>
  </trkpt>
  <trkpt lat="60.93973" lon="7.08907">
    <name>TP283</name>
  </trkpt>
  <trkpt lat="60.93977" lon="7.08907">
    <name>TP284</name>
  </trkpt>
  <trkpt lat="60.93983" lon="7.08908">
    <name>TP285</name>
  </trkpt>
  <trkpt lat="60.9399" lon="7.08907">
    <name>TP286</name>
  </trkpt>
  <trkpt lat="60.93991" lon="7.08907">
    <name>TP287</name>
  </trkpt>
  <trkpt lat="60.93994" lon="7.08907">
    <name>TP288</name>
  </trkpt>
  <trkpt lat="60.93997" lon="7.08907">
    <name>TP289</name>
  </trkpt>
  <trkpt lat="60.94003" lon="7.08908">
    <name>TP290</name>
  </trkpt>
  <trkpt lat="60.94009" lon="7.08908">
    <name>TP291</name>
  </trkpt>
  <trkpt lat="60.9401" lon="7.08908">
    <name>TP292</name>
  </trkpt>
  <trkpt lat="60.94012" lon="7.08909">
    <name>TP293</name>
  </trkpt>
  <trkpt lat="60.94017" lon="7.08909">
    <name>TP294</name>
  </trkpt>
  <trkpt lat="60.94023" lon="7.08911">
    <name>TP295</name>
  </trkpt>
  <trkpt lat="60.94027" lon="7.08911">
    <name>TP296</name>
  </trkpt>
  <trkpt lat="60.94029" lon="7.08912">
    <name>TP297</name>
  </trkpt>
  <trkpt lat="60.94036" lon="7.08914">
    <name>TP298</name>
  </trkpt>
  <trkpt lat="60.94042" lon="7.08917">
    <name>TP299</name>
  </trkpt>
  <trkpt lat="60.94045" lon="7.08919">
    <name>TP300</name>
  </trkpt>
  <trkpt lat="60.94047" lon="7.08921">
    <name>TP301</name>
  </trkpt>
  <trkpt lat="60.94048" lon="7.08921">
    <name>TP302</name>
  </trkpt>
  <trkpt lat="60.94055" lon="7.08925">
    <name>TP303</name>
  </trkpt>
  <trkpt lat="60.94061" lon="7.08929">
    <name>TP304</name>
  </trkpt>
  <trkpt lat="60.94067" lon="7.08934">
    <name>TP305</name>
  </trkpt>
  <trkpt lat="60.94074" lon="7.08939">
    <name>TP306</name>
  </trkpt>
  <trkpt lat="60.94079" lon="7.08943">
    <name>TP307</name>
  </trkpt>
  <trkpt lat="60.94081" lon="7.08945">
    <name>TP308</name>
  </trkpt>
  <trkpt lat="60.94087" lon="7.0895">
    <name>TP309</name>
  </trkpt>
  <trkpt lat="60.94092" lon="7.08955">
    <name>TP310</name>
  </trkpt>
  <trkpt lat="60.94098" lon="7.08962">
    <name>TP311</name>
  </trkpt>
  <trkpt lat="60.94104" lon="7.0897">
    <name>TP312</name>
  </trkpt>
  <trkpt lat="60.94109" lon="7.08977">
    <name>TP313</name>
  </trkpt>
  <trkpt lat="60.9411" lon="7.08979">
    <name>TP314</name>
  </trkpt>
  <trkpt lat="60.94115" lon="7.08985">
    <name>TP315</name>
  </trkpt>
  <trkpt lat="60.9412" lon="7.08993">
    <name>TP316</name>
  </trkpt>
  <trkpt lat="60.94126" lon="7.09002">
    <name>TP317</name>
  </trkpt>
  <trkpt lat="60.94131" lon="7.09011">
    <name>TP318</name>
  </trkpt>
  <trkpt lat="60.94136" lon="7.0902">
    <name>TP319</name>
  </trkpt>
  <trkpt lat="60.94141" lon="7.09029">
    <name>TP320</name>
  </trkpt>
  <trkpt lat="60.94146" lon="7.09039">
    <name>TP321</name>
  </trkpt>
  <trkpt lat="60.94151" lon="7.09049">
    <name>TP322</name>
  </trkpt>
  <trkpt lat="60.94153" lon="7.09053">
    <name>TP323</name>
  </trkpt>
  <trkpt lat="60.94156" lon="7.09057">
    <name>TP324</name>
  </trkpt>
  <trkpt lat="60.9416" lon="7.09066">
    <name>TP325</name>
  </trkpt>
  <trkpt lat="60.94166" lon="7.09075">
    <name>TP326</name>
  </trkpt>
  <trkpt lat="60.94167" lon="7.09077">
    <name>TP327</name>
  </trkpt>
  <trkpt lat="60.9417" lon="7.09083">
    <name>TP328</name>
  </trkpt>
  <trkpt lat="60.94176" lon="7.09092">
    <name>TP329</name>
  </trkpt>
  <trkpt lat="60.94179" lon="7.09096">
    <name>TP330</name>
  </trkpt>
  <trkpt lat="60.94181" lon="7.09099">
    <name>TP331</name>
  </trkpt>
  <trkpt lat="60.94187" lon="7.09106">
    <name>TP332</name>
  </trkpt>
  <trkpt lat="60.94192" lon="7.09112">
    <name>TP333</name>
  </trkpt>
  <trkpt lat="60.94195" lon="7.09116">
    <name>TP334</name>
  </trkpt>
  <trkpt lat="60.94197" lon="7.09118">
    <name>TP335</name>
  </trkpt>
  <trkpt lat="60.94198" lon="7.0912">
    <name>TP336</name>
  </trkpt>
  <trkpt lat="60.94204" lon="7.09126">
    <name>TP337</name>
  </trkpt>
  <trkpt lat="60.94209" lon="7.09132">
    <name>TP338</name>
  </trkpt>
  <trkpt lat="60.94213" lon="7.09136">
    <name>TP339</name>
  </trkpt>
  <trkpt lat="60.94215" lon="7.09138">
    <name>TP340</name>
  </trkpt>
  <trkpt lat="60.94221" lon="7.09143">
    <name>TP341</name>
  </trkpt>
  <trkpt lat="60.94227" lon="7.09146">
    <name>TP342</name>
  </trkpt>
  <trkpt lat="60.94228" lon="7.09147">
    <name>TP343</name>
  </trkpt>
  <trkpt lat="60.9423" lon="7.09148">
    <name>TP344</name>
  </trkpt>
  <trkpt lat="60.94234" lon="7.09151">
    <name>TP345</name>
  </trkpt>
  <trkpt lat="60.94241" lon="7.09154">
    <name>TP346</name>
  </trkpt>
  <trkpt lat="60.94245" lon="7.09156">
    <name>TP347</name>
  </trkpt>
  <trkpt lat="60.94254" lon="7.0916">
    <name>TP348</name>
  </trkpt>
  <trkpt lat="60.9426" lon="7.09163">
    <name>TP349</name>
  </trkpt>
  <trkpt lat="60.94265" lon="7.09164">
    <name>TP350</name>
  </trkpt>
  <trkpt lat="60.94267" lon="7.09164">
    <name>TP351</name>
  </trkpt>
  <trkpt lat="60.94273" lon="7.09166">
    <name>TP352</name>
  </trkpt>
  <trkpt lat="60.9428" lon="7.09167">
    <name>TP353</name>
  </trkpt>
  <trkpt lat="60.94286" lon="7.09167">
    <name>TP354</name>
  </trkpt>
  <trkpt lat="60.94293" lon="7.09168">
    <name>TP355</name>
  </trkpt>
  <trkpt lat="60.94298" lon="7.09168">
    <name>TP356</name>
  </trkpt>
  <trkpt lat="60.943" lon="7.09168">
    <name>TP357</name>
  </trkpt>
  <trkpt lat="60.94306" lon="7.09167">
    <name>TP358</name>
  </trkpt>
  <trkpt lat="60.94312" lon="7.09166">
    <name>TP359</name>
  </trkpt>
  <trkpt lat="60.94319" lon="7.09165">
    <name>TP360</name>
  </trkpt>
  <trkpt lat="60.94319" lon="7.09164">
    <name>TP361</name>
  </trkpt>
  <trkpt lat="60.94325" lon="7.09162">
    <name>TP362</name>
  </trkpt>
  <trkpt lat="60.94332" lon="7.09161">
    <name>TP363</name>
  </trkpt>
  <trkpt lat="60.94334" lon="7.0916">
    <name>TP364</name>
  </trkpt>
  <trkpt lat="60.94336" lon="7.09159">
    <name>TP365</name>
  </trkpt>
  <trkpt lat="60.94338" lon="7.09158">
    <name>TP366</name>
  </trkpt>
  <trkpt lat="60.94345" lon="7.09157">
    <name>TP367</name>
  </trkpt>
  <trkpt lat="60.9435" lon="7.09156">
    <name>TP368</name>
  </trkpt>
  <trkpt lat="60.94358" lon="7.09154">
    <name>TP369</name>
  </trkpt>
  <trkpt lat="60.94364" lon="7.09151">
    <name>TP370</name>
  </trkpt>
  <trkpt lat="60.94369" lon="7.0915">
    <name>TP371</name>
  </trkpt>
  <trkpt lat="60.94371" lon="7.0915">
    <name>TP372</name>
  </trkpt>
  <trkpt lat="60.94378" lon="7.09149">
    <name>TP373</name>
  </trkpt>
  <trkpt lat="60.94384" lon="7.09148">
    <name>TP374</name>
  </trkpt>
  <trkpt lat="60.94387" lon="7.09148">
    <name>TP375</name>
  </trkpt>
  <trkpt lat="60.9439" lon="7.09148">
    <name>TP376</name>
  </trkpt>
  <trkpt lat="60.94397" lon="7.09149">
    <name>TP377</name>
  </trkpt>
  <trkpt lat="60.94404" lon="7.0915">
    <name>TP378</name>
  </trkpt>
  <trkpt lat="60.94405" lon="7.0915">
    <name>TP379</name>
  </trkpt>
  <trkpt lat="60.94408" lon="7.09151">
    <name>TP380</name>
  </trkpt>
  <trkpt lat="60.9441" lon="7.09152">
    <name>TP381</name>
  </trkpt>
  <trkpt lat="60.94417" lon="7.09154">
    <name>TP382</name>
  </trkpt>
  <trkpt lat="60.94422" lon="7.09156">
    <name>TP383</name>
  </trkpt>
  <trkpt lat="60.94423" lon="7.09157">
    <name>TP384</name>
  </trkpt>
  <trkpt lat="60.94425" lon="7.09158">
    <name>TP385</name>
  </trkpt>
  <trkpt lat="60.94429" lon="7.0916">
    <name>TP386</name>
  </trkpt>
  <trkpt lat="60.94434" lon="7.09162">
    <name>TP387</name>
  </trkpt>
  <trkpt lat="60.9444" lon="7.09167">
    <name>TP388</name>
  </trkpt>
  <trkpt lat="60.94441" lon="7.09168">
    <name>TP389</name>
  </trkpt>
  <trkpt lat="60.94443" lon="7.09169">
    <name>TP390</name>
  </trkpt>
  <trkpt lat="60.94448" lon="7.09174">
    <name>TP391</name>
  </trkpt>
  <trkpt lat="60.94454" lon="7.09179">
    <name>TP392</name>
  </trkpt>
  <trkpt lat="60.94456" lon="7.09183">
    <name>TP393</name>
  </trkpt>
  <trkpt lat="60.94459" lon="7.09185">
    <name>TP394</name>
  </trkpt>
  <trkpt lat="60.94464" lon="7.09191">
    <name>TP395</name>
  </trkpt>
  <trkpt lat="60.94469" lon="7.09198">
    <name>TP396</name>
  </trkpt>
  <trkpt lat="60.94474" lon="7.09206">
    <name>TP397</name>
  </trkpt>
  <trkpt lat="60.94479" lon="7.09215">
    <name>TP398</name>
  </trkpt>
  <trkpt lat="60.94484" lon="7.09224">
    <name>TP399</name>
  </trkpt>
  <trkpt lat="60.94489" lon="7.09234">
    <name>TP400</name>
  </trkpt>
  <trkpt lat="60.94493" lon="7.09242">
    <name>TP401</name>
  </trkpt>
  <trkpt lat="60.94497" lon="7.0925">
    <name>TP402</name>
  </trkpt>
  <trkpt lat="60.94503" lon="7.09261">
    <name>TP403</name>
  </trkpt>
  <trkpt lat="60.94507" lon="7.0927">
    <name>TP404</name>
  </trkpt>
  <trkpt lat="60.94511" lon="7.09279">
    <name>TP405</name>
  </trkpt>
  <trkpt lat="60.94511" lon="7.0928">
    <name>TP406</name>
  </trkpt>
  <trkpt lat="60.94517" lon="7.0929">
    <name>TP407</name>
  </trkpt>
  <trkpt lat="60.94521" lon="7.09299">
    <name>TP408</name>
  </trkpt>
  <trkpt lat="60.94525" lon="7.09308">
    <name>TP409</name>
  </trkpt>
  <trkpt lat="60.94526" lon="7.0931">
    <name>TP410</name>
  </trkpt>
  <trkpt lat="60.94531" lon="7.09319">
    <name>TP411</name>
  </trkpt>
  <trkpt lat="60.94535" lon="7.09327">
    <name>TP412</name>
  </trkpt>
  <trkpt lat="60.94537" lon="7.0933">
    <name>TP413</name>
  </trkpt>
  <trkpt lat="60.94541" lon="7.09337">
    <name>TP414</name>
  </trkpt>
  <trkpt lat="60.94546" lon="7.09345">
    <name>TP415</name>
  </trkpt>
  <trkpt lat="60.94552" lon="7.09354">
    <name>TP416</name>
  </trkpt>
  <trkpt lat="60.94557" lon="7.09359">
    <name>TP417</name>
  </trkpt>
  <trkpt lat="60.94562" lon="7.09367">
    <name>TP418</name>
  </trkpt>
  <trkpt lat="60.94569" lon="7.09375">
    <name>TP419</name>
  </trkpt>
  <trkpt lat="60.94575" lon="7.0938">
    <name>TP420</name>
  </trkpt>
  <trkpt lat="60.94581" lon="7.09385">
    <name>TP421</name>
  </trkpt>
  <trkpt lat="60.94587" lon="7.09391">
    <name>TP422</name>
  </trkpt>
  <trkpt lat="60.94593" lon="7.09394">
    <name>TP423</name>
  </trkpt>
  <trkpt lat="60.94599" lon="7.094">
    <name>TP424</name>
  </trkpt>
  <trkpt lat="60.94606" lon="7.09404">
    <name>TP425</name>
  </trkpt>
  <trkpt lat="60.94613" lon="7.09409">
    <name>TP426</name>
  </trkpt>
  <trkpt lat="60.94617" lon="7.09411">
    <name>TP427</name>
  </trkpt>
  <trkpt lat="60.94619" lon="7.09413">
    <name>TP428</name>
  </trkpt>
  <trkpt lat="60.9462" lon="7.09413">
    <name>TP429</name>
  </trkpt>
  <trkpt lat="60.94626" lon="7.09417">
    <name>TP430</name>
  </trkpt>
  <trkpt lat="60.94631" lon="7.09422">
    <name>TP431</name>
  </trkpt>
  <trkpt lat="60.94638" lon="7.09426">
    <name>TP432</name>
  </trkpt>
  <trkpt lat="60.94644" lon="7.09431">
    <name>TP433</name>
  </trkpt>
  <trkpt lat="60.9465" lon="7.09435">
    <name>TP434</name>
  </trkpt>
  <trkpt lat="60.94657" lon="7.0944">
    <name>TP435</name>
  </trkpt>
  <trkpt lat="60.94663" lon="7.09446">
    <name>TP436</name>
  </trkpt>
  <trkpt lat="60.94667" lon="7.0945">
    <name>TP437</name>
  </trkpt>
  <trkpt lat="60.94668" lon="7.09451">
    <name>TP438</name>
  </trkpt>
  <trkpt lat="60.94675" lon="7.09457">
    <name>TP439</name>
  </trkpt>
  <trkpt lat="60.94681" lon="7.09463">
    <name>TP440</name>
  </trkpt>
  <trkpt lat="60.94686" lon="7.09467">
    <name>TP441</name>
  </trkpt>
  <trkpt lat="60.94692" lon="7.09474">
    <name>TP442</name>
  </trkpt>
  <trkpt lat="60.94698" lon="7.0948">
    <name>TP443</name>
  </trkpt>
  <trkpt lat="60.94704" lon="7.09488">
    <name>TP444</name>
  </trkpt>
  <trkpt lat="60.94709" lon="7.09495">
    <name>TP445</name>
  </trkpt>
  <trkpt lat="60.94715" lon="7.09501">
    <name>TP446</name>
  </trkpt>
  <trkpt lat="60.94716" lon="7.09502">
    <name>TP447</name>
  </trkpt>
  <trkpt lat="60.94717" lon="7.09504">
    <name>TP448</name>
  </trkpt>
  <trkpt lat="60.94721" lon="7.0951">
    <name>TP449</name>
  </trkpt>
  <trkpt lat="60.94727" lon="7.09517">
    <name>TP450</name>
  </trkpt>
  <trkpt lat="60.9473" lon="7.09521">
    <name>TP451</name>
  </trkpt>
  <trkpt lat="60.94732" lon="7.09523">
    <name>TP452</name>
  </trkpt>
  <trkpt lat="60.94732" lon="7.09524">
    <name>TP453</name>
  </trkpt>
  <trkpt lat="60.94737" lon="7.0953">
    <name>TP454</name>
  </trkpt>
  <trkpt lat="60.94743" lon="7.09538">
    <name>TP455</name>
  </trkpt>
  <trkpt lat="60.94745" lon="7.09541">
    <name>TP456</name>
  </trkpt>
  <trkpt lat="60.94748" lon="7.09545">
    <name>TP457</name>
  </trkpt>
  <trkpt lat="60.94754" lon="7.09554">
    <name>TP458</name>
  </trkpt>
  <trkpt lat="60.9476" lon="7.09562">
    <name>TP459</name>
  </trkpt>
  <trkpt lat="60.94765" lon="7.0957">
    <name>TP460</name>
  </trkpt>
  <trkpt lat="60.94771" lon="7.09577">
    <name>TP461</name>
  </trkpt>
  <trkpt lat="60.94777" lon="7.09585">
    <name>TP462</name>
  </trkpt>
  <trkpt lat="60.94782" lon="7.09592">
    <name>TP463</name>
  </trkpt>
  <trkpt lat="60.94787" lon="7.09599">
    <name>TP464</name>
  </trkpt>
  <trkpt lat="60.94792" lon="7.09606">
    <name>TP465</name>
  </trkpt>
  <trkpt lat="60.94793" lon="7.09607">
    <name>TP466</name>
  </trkpt>
  <trkpt lat="60.94797" lon="7.09613">
    <name>TP467</name>
  </trkpt>
  <trkpt lat="60.94803" lon="7.09621">
    <name>TP468</name>
  </trkpt>
  <trkpt lat="60.94805" lon="7.09624">
    <name>TP469</name>
  </trkpt>
  <trkpt lat="60.94807" lon="7.09627">
    <name>TP470</name>
  </trkpt>
  <trkpt lat="60.94809" lon="7.09629">
    <name>TP471</name>
  </trkpt>
  <trkpt lat="60.94815" lon="7.09637">
    <name>TP472</name>
  </trkpt>
  <trkpt lat="60.9482" lon="7.09644">
    <name>TP473</name>
  </trkpt>
  <trkpt lat="60.9482" lon="7.09645">
    <name>TP474</name>
  </trkpt>
  <trkpt lat="60.94825" lon="7.09651">
    <name>TP475</name>
  </trkpt>
  <trkpt lat="60.94831" lon="7.0966">
    <name>TP476</name>
  </trkpt>
  <trkpt lat="60.94835" lon="7.09665">
    <name>TP477</name>
  </trkpt>
  <trkpt lat="60.94842" lon="7.09674">
    <name>TP478</name>
  </trkpt>
  <trkpt lat="60.94848" lon="7.09683">
    <name>TP479</name>
  </trkpt>
  <trkpt lat="60.94853" lon="7.0969">
    <name>TP480</name>
  </trkpt>
  <trkpt lat="60.94858" lon="7.09698">
    <name>TP481</name>
  </trkpt>
  <trkpt lat="60.94862" lon="7.09707">
    <name>TP482</name>
  </trkpt>
  <trkpt lat="60.94863" lon="7.0971">
    <name>TP483</name>
  </trkpt>
  <trkpt lat="60.94866" lon="7.09718">
    <name>TP484</name>
  </trkpt>
  <trkpt lat="60.94871" lon="7.09729">
    <name>TP485</name>
  </trkpt>
  <trkpt lat="60.94875" lon="7.09738">
    <name>TP486</name>
  </trkpt>
  <trkpt lat="60.94875" lon="7.09739">
    <name>TP487</name>
  </trkpt>
  <trkpt lat="60.94879" lon="7.09751">
    <name>TP488</name>
  </trkpt>
  <trkpt lat="60.94883" lon="7.09762">
    <name>TP489</name>
  </trkpt>
  <trkpt lat="60.94885" lon="7.09768">
    <name>TP490</name>
  </trkpt>
  <trkpt lat="60.94887" lon="7.09773">
    <name>TP491</name>
  </trkpt>
  <trkpt lat="60.94891" lon="7.09783">
    <name>TP492</name>
  </trkpt>
  <trkpt lat="60.94895" lon="7.09793">
    <name>TP493</name>
  </trkpt>
  <trkpt lat="60.94898" lon="7.09802">
    <name>TP494</name>
  </trkpt>
  <trkpt lat="60.94899" lon="7.09806">
    <name>TP495</name>
  </trkpt>
  <trkpt lat="60.949" lon="7.09809">
    <name>TP496</name>
  </trkpt>
  <trkpt lat="60.94903" lon="7.09816">
    <name>TP497</name>
  </trkpt>
  <trkpt lat="60.94907" lon="7.09826">
    <name>TP498</name>
  </trkpt>
  <trkpt lat="60.94912" lon="7.09838">
    <name>TP499</name>
  </trkpt>
  <trkpt lat="60.94913" lon="7.09841">
    <name>TP500</name>
  </trkpt>
  <trkpt lat="60.9491292" lon="7.0984087">
    <name>TP501</name>
  </trkpt>
  <trkpt lat="60.94901" lon="7.09871">
    <name>TP502</name>
  </trkpt>
  <trkpt lat="60.9490133" lon="7.0987072">
    <name>TP503</name>
  </trkpt>
  <trkpt lat="60.9490133" lon="7.0987072">
    <name>TP504</name>
  </trkpt>
  <trkpt lat="60.9490133" lon="7.0987072">
    <name>TP505</name>
  </trkpt>
  </trkseg>
</trk>
</gpx>