<?xml version="1.0" encoding="UTF-8" standalone="no" ?>
<gpx xmlns="http://www.topografix.com/GPX/1/1" xmlns:gpxx="http://www.garmin.com/xmlschemas/GpxExtensions/v3" xmlns:gpxtpx="http://www.garmin.com/xmlschemas/TrackPointExtension/v1" creator="mapstogpx.com" version="1.1" xmlns:xsi="http://www.w3.org/2001/XMLSchema-instance" xsi:schemaLocation="http://www.topografix.com/GPX/1/1 http://www.topografix.com/GPX/1/1/gpx.xsd http://www.garmin.com/xmlschemas/GpxExtensions/v3 http://www.garmin.com/xmlschemas/GpxExtensionsv3.xsd http://www.garmin.com/xmlschemas/TrackPointExtension/v1 http://www.garmin.com/xmlschemas/TrackPointExtensionv1.xsd">
  <metadata>
    <link href="http://www.mapstogpx.com">
      <text>Sverrir Sigmundarson</text>
    </link>
    <!--desc>Powered by Google, ©2025 Google</desc-->
    <!--copyright author="Google Inc">
    	<year>2025</year>
    	<license>https://developers.google.com/maps/terms</license>
    </copyright-->
    <!--url>https://www.google.com/maps/dir/60.159664,6.295464/60.1098017,6.2710142/@60.1075119,6.3259516,12.15z/data=!4m5!4m4!1m1!4e1!1m0!3e0?entry=tts&g_ep=EgoyMDI1MDcyMy4wKgBIAVAD&skid=810a9156-49dd-4867-9c15-94ad204515ae&hl=en</url-->
    <time>2025-07-25T14:37:50Z</time>
  </metadata>
  <wpt lat="60.159664" lon="6.295464">
    <name>60.1596640</name>
  </wpt>
  <wpt lat="60.1098017" lon="6.2710142">
    <name>5476 Mauranger</name>
    <desc>Bondhus, 5476 Mauranger, Norway</desc>
  </wpt>
<trk>
  <name>60.1596640 to 5476 Mauranger</name>
  <number>1</number>
  <trkseg>
  <trkpt lat="60.1596291" lon="6.2956104">
    <name>TP001</name>
  </trkpt>
  <trkpt lat="60.15961" lon="6.29559">
    <name>TP002</name>
  </trkpt>
  <trkpt lat="60.15958" lon="6.29559">
    <name>TP003</name>
  </trkpt>
  <trkpt lat="60.15955" lon="6.2956">
    <name>TP004</name>
  </trkpt>
  <trkpt lat="60.15951" lon="6.29572">
    <name>TP005</name>
  </trkpt>
  <trkpt lat="60.1595" lon="6.29577">
    <name>TP006</name>
  </trkpt>
  <trkpt lat="60.15945" lon="6.29594">
    <name>TP007</name>
  </trkpt>
  <trkpt lat="60.15944" lon="6.29602">
    <name>TP008</name>
  </trkpt>
  <trkpt lat="60.15945" lon="6.29611">
    <name>TP009</name>
  </trkpt>
  <trkpt lat="60.15945" lon="6.29613">
    <name>TP010</name>
  </trkpt>
  <trkpt lat="60.15946" lon="6.2962">
    <name>TP011</name>
  </trkpt>
  <trkpt lat="60.15953" lon="6.29641">
    <name>TP012</name>
  </trkpt>
  <trkpt lat="60.15953" lon="6.29643">
    <name>TP013</name>
  </trkpt>
  <trkpt lat="60.15958" lon="6.29674">
    <name>TP014</name>
  </trkpt>
  <trkpt lat="60.1595796" lon="6.2967372">
    <name>TP015</name>
  </trkpt>
  <trkpt lat="60.15954" lon="6.29694">
    <name>TP016</name>
  </trkpt>
  <trkpt lat="60.15951" lon="6.29711">
    <name>TP017</name>
  </trkpt>
  <trkpt lat="60.1595" lon="6.29729">
    <name>TP018</name>
  </trkpt>
  <trkpt lat="60.1595005" lon="6.2972876">
    <name>TP019</name>
  </trkpt>
  <trkpt lat="60.15937" lon="6.29735">
    <name>TP020</name>
  </trkpt>
  <trkpt lat="60.15931" lon="6.29738">
    <name>TP021</name>
  </trkpt>
  <trkpt lat="60.15923" lon="6.29743">
    <name>TP022</name>
  </trkpt>
  <trkpt lat="60.15894" lon="6.29795">
    <name>TP023</name>
  </trkpt>
  <trkpt lat="60.1589355" lon="6.2979508">
    <name>TP024</name>
  </trkpt>
  <trkpt lat="60.15892" lon="6.29769">
    <name>TP025</name>
  </trkpt>
  <trkpt lat="60.1589" lon="6.29747">
    <name>TP026</name>
  </trkpt>
  <trkpt lat="60.1589" lon="6.29745">
    <name>TP027</name>
  </trkpt>
  <trkpt lat="60.15887" lon="6.29718">
    <name>TP028</name>
  </trkpt>
  <trkpt lat="60.15885" lon="6.29701">
    <name>TP029</name>
  </trkpt>
  <trkpt lat="60.15881" lon="6.2967">
    <name>TP030</name>
  </trkpt>
  <trkpt lat="60.15878" lon="6.29652">
    <name>TP031</name>
  </trkpt>
  <trkpt lat="60.15877" lon="6.29645">
    <name>TP032</name>
  </trkpt>
  <trkpt lat="60.15872" lon="6.29622">
    <name>TP033</name>
  </trkpt>
  <trkpt lat="60.15867" lon="6.29597">
    <name>TP034</name>
  </trkpt>
  <trkpt lat="60.15861" lon="6.29573">
    <name>TP035</name>
  </trkpt>
  <trkpt lat="60.1586" lon="6.29569">
    <name>TP036</name>
  </trkpt>
  <trkpt lat="60.15853" lon="6.29542">
    <name>TP037</name>
  </trkpt>
  <trkpt lat="60.1585" lon="6.29532">
    <name>TP038</name>
  </trkpt>
  <trkpt lat="60.15847" lon="6.29522">
    <name>TP039</name>
  </trkpt>
  <trkpt lat="60.15837" lon="6.29492">
    <name>TP040</name>
  </trkpt>
  <trkpt lat="60.15827" lon="6.29464">
    <name>TP041</name>
  </trkpt>
  <trkpt lat="60.15819" lon="6.29444">
    <name>TP042</name>
  </trkpt>
  <trkpt lat="60.15815" lon="6.29436">
    <name>TP043</name>
  </trkpt>
  <trkpt lat="60.15806" lon="6.29413">
    <name>TP044</name>
  </trkpt>
  <trkpt lat="60.15798" lon="6.29395">
    <name>TP045</name>
  </trkpt>
  <trkpt lat="60.15791" lon="6.2938">
    <name>TP046</name>
  </trkpt>
  <trkpt lat="60.15785" lon="6.29366">
    <name>TP047</name>
  </trkpt>
  <trkpt lat="60.15773" lon="6.29343">
    <name>TP048</name>
  </trkpt>
  <trkpt lat="60.15766" lon="6.29329">
    <name>TP049</name>
  </trkpt>
  <trkpt lat="60.15759" lon="6.29315">
    <name>TP050</name>
  </trkpt>
  <trkpt lat="60.15755" lon="6.29307">
    <name>TP051</name>
  </trkpt>
  <trkpt lat="60.15751" lon="6.293">
    <name>TP052</name>
  </trkpt>
  <trkpt lat="60.15736" lon="6.29272">
    <name>TP053</name>
  </trkpt>
  <trkpt lat="60.15716" lon="6.29239">
    <name>TP054</name>
  </trkpt>
  <trkpt lat="60.15697" lon="6.29206">
    <name>TP055</name>
  </trkpt>
  <trkpt lat="60.15666" lon="6.29152">
    <name>TP056</name>
  </trkpt>
  <trkpt lat="60.15663" lon="6.29146">
    <name>TP057</name>
  </trkpt>
  <trkpt lat="60.15657" lon="6.29132">
    <name>TP058</name>
  </trkpt>
  <trkpt lat="60.1565" lon="6.29118">
    <name>TP059</name>
  </trkpt>
  <trkpt lat="60.15639" lon="6.29095">
    <name>TP060</name>
  </trkpt>
  <trkpt lat="60.15631" lon="6.29073">
    <name>TP061</name>
  </trkpt>
  <trkpt lat="60.15617" lon="6.29038">
    <name>TP062</name>
  </trkpt>
  <trkpt lat="60.15605" lon="6.29005">
    <name>TP063</name>
  </trkpt>
  <trkpt lat="60.15594" lon="6.2897">
    <name>TP064</name>
  </trkpt>
  <trkpt lat="60.15584" lon="6.28937">
    <name>TP065</name>
  </trkpt>
  <trkpt lat="60.15571" lon="6.28901">
    <name>TP066</name>
  </trkpt>
  <trkpt lat="60.15561" lon="6.28876">
    <name>TP067</name>
  </trkpt>
  <trkpt lat="60.15552" lon="6.28853">
    <name>TP068</name>
  </trkpt>
  <trkpt lat="60.15537" lon="6.28817">
    <name>TP069</name>
  </trkpt>
  <trkpt lat="60.15519" lon="6.28781">
    <name>TP070</name>
  </trkpt>
  <trkpt lat="60.15498" lon="6.28736">
    <name>TP071</name>
  </trkpt>
  <trkpt lat="60.15478" lon="6.28697">
    <name>TP072</name>
  </trkpt>
  <trkpt lat="60.1546" lon="6.28664">
    <name>TP073</name>
  </trkpt>
  <trkpt lat="60.15438" lon="6.28625">
    <name>TP074</name>
  </trkpt>
  <trkpt lat="60.15421" lon="6.286">
    <name>TP075</name>
  </trkpt>
  <trkpt lat="60.15401" lon="6.28573">
    <name>TP076</name>
  </trkpt>
  <trkpt lat="60.15388" lon="6.28558">
    <name>TP077</name>
  </trkpt>
  <trkpt lat="60.15384" lon="6.28553">
    <name>TP078</name>
  </trkpt>
  <trkpt lat="60.15382" lon="6.28551">
    <name>TP079</name>
  </trkpt>
  <trkpt lat="60.15363" lon="6.28533">
    <name>TP080</name>
  </trkpt>
  <trkpt lat="60.15347" lon="6.28517">
    <name>TP081</name>
  </trkpt>
  <trkpt lat="60.15334" lon="6.28506">
    <name>TP082</name>
  </trkpt>
  <trkpt lat="60.1532" lon="6.28495">
    <name>TP083</name>
  </trkpt>
  <trkpt lat="60.15307" lon="6.28483">
    <name>TP084</name>
  </trkpt>
  <trkpt lat="60.15286" lon="6.28468">
    <name>TP085</name>
  </trkpt>
  <trkpt lat="60.1527" lon="6.28458">
    <name>TP086</name>
  </trkpt>
  <trkpt lat="60.15258" lon="6.28452">
    <name>TP087</name>
  </trkpt>
  <trkpt lat="60.15243" lon="6.28451">
    <name>TP088</name>
  </trkpt>
  <trkpt lat="60.15229" lon="6.28447">
    <name>TP089</name>
  </trkpt>
  <trkpt lat="60.15214" lon="6.28443">
    <name>TP090</name>
  </trkpt>
  <trkpt lat="60.15203" lon="6.28438">
    <name>TP091</name>
  </trkpt>
  <trkpt lat="60.15186" lon="6.28431">
    <name>TP092</name>
  </trkpt>
  <trkpt lat="60.15175" lon="6.28428">
    <name>TP093</name>
  </trkpt>
  <trkpt lat="60.15167" lon="6.28427">
    <name>TP094</name>
  </trkpt>
  <trkpt lat="60.15148" lon="6.28427">
    <name>TP095</name>
  </trkpt>
  <trkpt lat="60.15141" lon="6.28429">
    <name>TP096</name>
  </trkpt>
  <trkpt lat="60.15138" lon="6.2843">
    <name>TP097</name>
  </trkpt>
  <trkpt lat="60.15133" lon="6.28431">
    <name>TP098</name>
  </trkpt>
  <trkpt lat="60.15123" lon="6.28431">
    <name>TP099</name>
  </trkpt>
  <trkpt lat="60.15112" lon="6.28429">
    <name>TP100</name>
  </trkpt>
  <trkpt lat="60.15085" lon="6.28422">
    <name>TP101</name>
  </trkpt>
  <trkpt lat="60.15071" lon="6.28418">
    <name>TP102</name>
  </trkpt>
  <trkpt lat="60.15067" lon="6.28416">
    <name>TP103</name>
  </trkpt>
  <trkpt lat="60.15065" lon="6.28416">
    <name>TP104</name>
  </trkpt>
  <trkpt lat="60.15061" lon="6.28415">
    <name>TP105</name>
  </trkpt>
  <trkpt lat="60.15057" lon="6.28414">
    <name>TP106</name>
  </trkpt>
  <trkpt lat="60.15048" lon="6.28412">
    <name>TP107</name>
  </trkpt>
  <trkpt lat="60.15045" lon="6.28411">
    <name>TP108</name>
  </trkpt>
  <trkpt lat="60.1504" lon="6.2841">
    <name>TP109</name>
  </trkpt>
  <trkpt lat="60.15032" lon="6.28407">
    <name>TP110</name>
  </trkpt>
  <trkpt lat="60.15022" lon="6.28401">
    <name>TP111</name>
  </trkpt>
  <trkpt lat="60.1502" lon="6.284">
    <name>TP112</name>
  </trkpt>
  <trkpt lat="60.15006" lon="6.28388">
    <name>TP113</name>
  </trkpt>
  <trkpt lat="60.14991" lon="6.28374">
    <name>TP114</name>
  </trkpt>
  <trkpt lat="60.14989" lon="6.28372">
    <name>TP115</name>
  </trkpt>
  <trkpt lat="60.1498" lon="6.28363">
    <name>TP116</name>
  </trkpt>
  <trkpt lat="60.14976" lon="6.28358">
    <name>TP117</name>
  </trkpt>
  <trkpt lat="60.14973" lon="6.28355">
    <name>TP118</name>
  </trkpt>
  <trkpt lat="60.14965" lon="6.28347">
    <name>TP119</name>
  </trkpt>
  <trkpt lat="60.14964" lon="6.28347">
    <name>TP120</name>
  </trkpt>
  <trkpt lat="60.14957" lon="6.28341">
    <name>TP121</name>
  </trkpt>
  <trkpt lat="60.14948" lon="6.28337">
    <name>TP122</name>
  </trkpt>
  <trkpt lat="60.14938" lon="6.28338">
    <name>TP123</name>
  </trkpt>
  <trkpt lat="60.14932" lon="6.28338">
    <name>TP124</name>
  </trkpt>
  <trkpt lat="60.14928" lon="6.28338">
    <name>TP125</name>
  </trkpt>
  <trkpt lat="60.14921" lon="6.28336">
    <name>TP126</name>
  </trkpt>
  <trkpt lat="60.14914" lon="6.28333">
    <name>TP127</name>
  </trkpt>
  <trkpt lat="60.14899" lon="6.28323">
    <name>TP128</name>
  </trkpt>
  <trkpt lat="60.14877" lon="6.28314">
    <name>TP129</name>
  </trkpt>
  <trkpt lat="60.14843" lon="6.28303">
    <name>TP130</name>
  </trkpt>
  <trkpt lat="60.14818" lon="6.28291">
    <name>TP131</name>
  </trkpt>
  <trkpt lat="60.14792" lon="6.28275">
    <name>TP132</name>
  </trkpt>
  <trkpt lat="60.14761" lon="6.28255">
    <name>TP133</name>
  </trkpt>
  <trkpt lat="60.14749" lon="6.28249">
    <name>TP134</name>
  </trkpt>
  <trkpt lat="60.14737" lon="6.28243">
    <name>TP135</name>
  </trkpt>
  <trkpt lat="60.14727" lon="6.28238">
    <name>TP136</name>
  </trkpt>
  <trkpt lat="60.14714" lon="6.28235">
    <name>TP137</name>
  </trkpt>
  <trkpt lat="60.14699" lon="6.28233">
    <name>TP138</name>
  </trkpt>
  <trkpt lat="60.14686" lon="6.28232">
    <name>TP139</name>
  </trkpt>
  <trkpt lat="60.14676" lon="6.28231">
    <name>TP140</name>
  </trkpt>
  <trkpt lat="60.14671" lon="6.28231">
    <name>TP141</name>
  </trkpt>
  <trkpt lat="60.14647" lon="6.28232">
    <name>TP142</name>
  </trkpt>
  <trkpt lat="60.14633" lon="6.28231">
    <name>TP143</name>
  </trkpt>
  <trkpt lat="60.14621" lon="6.28232">
    <name>TP144</name>
  </trkpt>
  <trkpt lat="60.14617" lon="6.28233">
    <name>TP145</name>
  </trkpt>
  <trkpt lat="60.14607" lon="6.28237">
    <name>TP146</name>
  </trkpt>
  <trkpt lat="60.14594" lon="6.28242">
    <name>TP147</name>
  </trkpt>
  <trkpt lat="60.14572" lon="6.28253">
    <name>TP148</name>
  </trkpt>
  <trkpt lat="60.14552" lon="6.28262">
    <name>TP149</name>
  </trkpt>
  <trkpt lat="60.14538" lon="6.28271">
    <name>TP150</name>
  </trkpt>
  <trkpt lat="60.14527" lon="6.28277">
    <name>TP151</name>
  </trkpt>
  <trkpt lat="60.14514" lon="6.28287">
    <name>TP152</name>
  </trkpt>
  <trkpt lat="60.14498" lon="6.28301">
    <name>TP153</name>
  </trkpt>
  <trkpt lat="60.14483" lon="6.28316">
    <name>TP154</name>
  </trkpt>
  <trkpt lat="60.1447" lon="6.28334">
    <name>TP155</name>
  </trkpt>
  <trkpt lat="60.14454" lon="6.28353">
    <name>TP156</name>
  </trkpt>
  <trkpt lat="60.1444" lon="6.28371">
    <name>TP157</name>
  </trkpt>
  <trkpt lat="60.14424" lon="6.28385">
    <name>TP158</name>
  </trkpt>
  <trkpt lat="60.14416" lon="6.28392">
    <name>TP159</name>
  </trkpt>
  <trkpt lat="60.14408" lon="6.284">
    <name>TP160</name>
  </trkpt>
  <trkpt lat="60.14383" lon="6.28422">
    <name>TP161</name>
  </trkpt>
  <trkpt lat="60.14375" lon="6.28428">
    <name>TP162</name>
  </trkpt>
  <trkpt lat="60.14352" lon="6.28447">
    <name>TP163</name>
  </trkpt>
  <trkpt lat="60.14326" lon="6.2847">
    <name>TP164</name>
  </trkpt>
  <trkpt lat="60.14308" lon="6.28485">
    <name>TP165</name>
  </trkpt>
  <trkpt lat="60.143" lon="6.28492">
    <name>TP166</name>
  </trkpt>
  <trkpt lat="60.14275" lon="6.28514">
    <name>TP167</name>
  </trkpt>
  <trkpt lat="60.14274" lon="6.28515">
    <name>TP168</name>
  </trkpt>
  <trkpt lat="60.14259" lon="6.28528">
    <name>TP169</name>
  </trkpt>
  <trkpt lat="60.14249" lon="6.28536">
    <name>TP170</name>
  </trkpt>
  <trkpt lat="60.14242" lon="6.28542">
    <name>TP171</name>
  </trkpt>
  <trkpt lat="60.14239" lon="6.28544">
    <name>TP172</name>
  </trkpt>
  <trkpt lat="60.1423" lon="6.28552">
    <name>TP173</name>
  </trkpt>
  <trkpt lat="60.14216" lon="6.28562">
    <name>TP174</name>
  </trkpt>
  <trkpt lat="60.14207" lon="6.28568">
    <name>TP175</name>
  </trkpt>
  <trkpt lat="60.14202" lon="6.2857">
    <name>TP176</name>
  </trkpt>
  <trkpt lat="60.14191" lon="6.28572">
    <name>TP177</name>
  </trkpt>
  <trkpt lat="60.14184" lon="6.28574">
    <name>TP178</name>
  </trkpt>
  <trkpt lat="60.14173" lon="6.28575">
    <name>TP179</name>
  </trkpt>
  <trkpt lat="60.14163" lon="6.28577">
    <name>TP180</name>
  </trkpt>
  <trkpt lat="60.14155" lon="6.28576">
    <name>TP181</name>
  </trkpt>
  <trkpt lat="60.14144" lon="6.28575">
    <name>TP182</name>
  </trkpt>
  <trkpt lat="60.14134" lon="6.28573">
    <name>TP183</name>
  </trkpt>
  <trkpt lat="60.14129" lon="6.2857">
    <name>TP184</name>
  </trkpt>
  <trkpt lat="60.14121" lon="6.28567">
    <name>TP185</name>
  </trkpt>
  <trkpt lat="60.14112" lon="6.28562">
    <name>TP186</name>
  </trkpt>
  <trkpt lat="60.14104" lon="6.28557">
    <name>TP187</name>
  </trkpt>
  <trkpt lat="60.14095" lon="6.2855">
    <name>TP188</name>
  </trkpt>
  <trkpt lat="60.14086" lon="6.28541">
    <name>TP189</name>
  </trkpt>
  <trkpt lat="60.14084" lon="6.2854">
    <name>TP190</name>
  </trkpt>
  <trkpt lat="60.14076" lon="6.28532">
    <name>TP191</name>
  </trkpt>
  <trkpt lat="60.14064" lon="6.28521">
    <name>TP192</name>
  </trkpt>
  <trkpt lat="60.14043" lon="6.28497">
    <name>TP193</name>
  </trkpt>
  <trkpt lat="60.14038" lon="6.28491">
    <name>TP194</name>
  </trkpt>
  <trkpt lat="60.14027" lon="6.2848">
    <name>TP195</name>
  </trkpt>
  <trkpt lat="60.14022" lon="6.28475">
    <name>TP196</name>
  </trkpt>
  <trkpt lat="60.14006" lon="6.28458">
    <name>TP197</name>
  </trkpt>
  <trkpt lat="60.14004" lon="6.28456">
    <name>TP198</name>
  </trkpt>
  <trkpt lat="60.1399" lon="6.28441">
    <name>TP199</name>
  </trkpt>
  <trkpt lat="60.13979" lon="6.28429">
    <name>TP200</name>
  </trkpt>
  <trkpt lat="60.13967" lon="6.28416">
    <name>TP201</name>
  </trkpt>
  <trkpt lat="60.13951" lon="6.28399">
    <name>TP202</name>
  </trkpt>
  <trkpt lat="60.13939" lon="6.28387">
    <name>TP203</name>
  </trkpt>
  <trkpt lat="60.13922" lon="6.28374">
    <name>TP204</name>
  </trkpt>
  <trkpt lat="60.13907" lon="6.28363">
    <name>TP205</name>
  </trkpt>
  <trkpt lat="60.13896" lon="6.28356">
    <name>TP206</name>
  </trkpt>
  <trkpt lat="60.13884" lon="6.2835">
    <name>TP207</name>
  </trkpt>
  <trkpt lat="60.1387" lon="6.28345">
    <name>TP208</name>
  </trkpt>
  <trkpt lat="60.13866" lon="6.28344">
    <name>TP209</name>
  </trkpt>
  <trkpt lat="60.13843" lon="6.2834">
    <name>TP210</name>
  </trkpt>
  <trkpt lat="60.1382" lon="6.28336">
    <name>TP211</name>
  </trkpt>
  <trkpt lat="60.13788" lon="6.28326">
    <name>TP212</name>
  </trkpt>
  <trkpt lat="60.13764" lon="6.28318">
    <name>TP213</name>
  </trkpt>
  <trkpt lat="60.13763" lon="6.28318">
    <name>TP214</name>
  </trkpt>
  <trkpt lat="60.13756" lon="6.28316">
    <name>TP215</name>
  </trkpt>
  <trkpt lat="60.13755" lon="6.28316">
    <name>TP216</name>
  </trkpt>
  <trkpt lat="60.13751" lon="6.28314">
    <name>TP217</name>
  </trkpt>
  <trkpt lat="60.13744" lon="6.28313">
    <name>TP218</name>
  </trkpt>
  <trkpt lat="60.13733" lon="6.2831">
    <name>TP219</name>
  </trkpt>
  <trkpt lat="60.1372" lon="6.28306">
    <name>TP220</name>
  </trkpt>
  <trkpt lat="60.13707" lon="6.28296">
    <name>TP221</name>
  </trkpt>
  <trkpt lat="60.13699" lon="6.28289">
    <name>TP222</name>
  </trkpt>
  <trkpt lat="60.13689" lon="6.28283">
    <name>TP223</name>
  </trkpt>
  <trkpt lat="60.13676" lon="6.28275">
    <name>TP224</name>
  </trkpt>
  <trkpt lat="60.13664" lon="6.2827">
    <name>TP225</name>
  </trkpt>
  <trkpt lat="60.13643" lon="6.28265">
    <name>TP226</name>
  </trkpt>
  <trkpt lat="60.13623" lon="6.28264">
    <name>TP227</name>
  </trkpt>
  <trkpt lat="60.13615" lon="6.28264">
    <name>TP228</name>
  </trkpt>
  <trkpt lat="60.1361" lon="6.28265">
    <name>TP229</name>
  </trkpt>
  <trkpt lat="60.13606" lon="6.28265">
    <name>TP230</name>
  </trkpt>
  <trkpt lat="60.13605" lon="6.28265">
    <name>TP231</name>
  </trkpt>
  <trkpt lat="60.13604" lon="6.28265">
    <name>TP232</name>
  </trkpt>
  <trkpt lat="60.13597" lon="6.28268">
    <name>TP233</name>
  </trkpt>
  <trkpt lat="60.13593" lon="6.28269">
    <name>TP234</name>
  </trkpt>
  <trkpt lat="60.13581" lon="6.28276">
    <name>TP235</name>
  </trkpt>
  <trkpt lat="60.1357" lon="6.2828">
    <name>TP236</name>
  </trkpt>
  <trkpt lat="60.13563" lon="6.28277">
    <name>TP237</name>
  </trkpt>
  <trkpt lat="60.13555" lon="6.28272">
    <name>TP238</name>
  </trkpt>
  <trkpt lat="60.1354" lon="6.2826">
    <name>TP239</name>
  </trkpt>
  <trkpt lat="60.13528" lon="6.28253">
    <name>TP240</name>
  </trkpt>
  <trkpt lat="60.13512" lon="6.28248">
    <name>TP241</name>
  </trkpt>
  <trkpt lat="60.13489" lon="6.28242">
    <name>TP242</name>
  </trkpt>
  <trkpt lat="60.13467" lon="6.28239">
    <name>TP243</name>
  </trkpt>
  <trkpt lat="60.13448" lon="6.28237">
    <name>TP244</name>
  </trkpt>
  <trkpt lat="60.13436" lon="6.28239">
    <name>TP245</name>
  </trkpt>
  <trkpt lat="60.13428" lon="6.28242">
    <name>TP246</name>
  </trkpt>
  <trkpt lat="60.13422" lon="6.28246">
    <name>TP247</name>
  </trkpt>
  <trkpt lat="60.13417" lon="6.28251">
    <name>TP248</name>
  </trkpt>
  <trkpt lat="60.13404" lon="6.28271">
    <name>TP249</name>
  </trkpt>
  <trkpt lat="60.13393" lon="6.28289">
    <name>TP250</name>
  </trkpt>
  <trkpt lat="60.13392" lon="6.2829">
    <name>TP251</name>
  </trkpt>
  <trkpt lat="60.13388" lon="6.28296">
    <name>TP252</name>
  </trkpt>
  <trkpt lat="60.13385" lon="6.28301">
    <name>TP253</name>
  </trkpt>
  <trkpt lat="60.13384" lon="6.28302">
    <name>TP254</name>
  </trkpt>
  <trkpt lat="60.13381" lon="6.28307">
    <name>TP255</name>
  </trkpt>
  <trkpt lat="60.1338" lon="6.28308">
    <name>TP256</name>
  </trkpt>
  <trkpt lat="60.13371" lon="6.28323">
    <name>TP257</name>
  </trkpt>
  <trkpt lat="60.13347" lon="6.28364">
    <name>TP258</name>
  </trkpt>
  <trkpt lat="60.13341" lon="6.28376">
    <name>TP259</name>
  </trkpt>
  <trkpt lat="60.13331" lon="6.28395">
    <name>TP260</name>
  </trkpt>
  <trkpt lat="60.13328" lon="6.28401">
    <name>TP261</name>
  </trkpt>
  <trkpt lat="60.13313" lon="6.28431">
    <name>TP262</name>
  </trkpt>
  <trkpt lat="60.133" lon="6.28453">
    <name>TP263</name>
  </trkpt>
  <trkpt lat="60.1329" lon="6.2847">
    <name>TP264</name>
  </trkpt>
  <trkpt lat="60.13281" lon="6.28486">
    <name>TP265</name>
  </trkpt>
  <trkpt lat="60.13277" lon="6.28494">
    <name>TP266</name>
  </trkpt>
  <trkpt lat="60.13274" lon="6.28501">
    <name>TP267</name>
  </trkpt>
  <trkpt lat="60.13271" lon="6.28509">
    <name>TP268</name>
  </trkpt>
  <trkpt lat="60.1327" lon="6.28515">
    <name>TP269</name>
  </trkpt>
  <trkpt lat="60.13269" lon="6.28517">
    <name>TP270</name>
  </trkpt>
  <trkpt lat="60.13268" lon="6.28519">
    <name>TP271</name>
  </trkpt>
  <trkpt lat="60.13268" lon="6.28522">
    <name>TP272</name>
  </trkpt>
  <trkpt lat="60.13266" lon="6.2853">
    <name>TP273</name>
  </trkpt>
  <trkpt lat="60.13266" lon="6.28531">
    <name>TP274</name>
  </trkpt>
  <trkpt lat="60.13265" lon="6.28536">
    <name>TP275</name>
  </trkpt>
  <trkpt lat="60.13262" lon="6.28553">
    <name>TP276</name>
  </trkpt>
  <trkpt lat="60.13258" lon="6.28574">
    <name>TP277</name>
  </trkpt>
  <trkpt lat="60.13252" lon="6.28607">
    <name>TP278</name>
  </trkpt>
  <trkpt lat="60.13247" lon="6.28628">
    <name>TP279</name>
  </trkpt>
  <trkpt lat="60.13246" lon="6.28631">
    <name>TP280</name>
  </trkpt>
  <trkpt lat="60.13242" lon="6.28648">
    <name>TP281</name>
  </trkpt>
  <trkpt lat="60.13234" lon="6.28675">
    <name>TP282</name>
  </trkpt>
  <trkpt lat="60.13229" lon="6.28688">
    <name>TP283</name>
  </trkpt>
  <trkpt lat="60.13222" lon="6.28707">
    <name>TP284</name>
  </trkpt>
  <trkpt lat="60.13214" lon="6.28725">
    <name>TP285</name>
  </trkpt>
  <trkpt lat="60.13205" lon="6.28741">
    <name>TP286</name>
  </trkpt>
  <trkpt lat="60.1319" lon="6.28766">
    <name>TP287</name>
  </trkpt>
  <trkpt lat="60.13185" lon="6.28774">
    <name>TP288</name>
  </trkpt>
  <trkpt lat="60.1318" lon="6.28783">
    <name>TP289</name>
  </trkpt>
  <trkpt lat="60.1318" lon="6.28784">
    <name>TP290</name>
  </trkpt>
  <trkpt lat="60.13175" lon="6.28793">
    <name>TP291</name>
  </trkpt>
  <trkpt lat="60.13171" lon="6.28804">
    <name>TP292</name>
  </trkpt>
  <trkpt lat="60.1317" lon="6.28807">
    <name>TP293</name>
  </trkpt>
  <trkpt lat="60.13169" lon="6.28811">
    <name>TP294</name>
  </trkpt>
  <trkpt lat="60.13168" lon="6.28814">
    <name>TP295</name>
  </trkpt>
  <trkpt lat="60.13168" lon="6.28815">
    <name>TP296</name>
  </trkpt>
  <trkpt lat="60.13165" lon="6.28822">
    <name>TP297</name>
  </trkpt>
  <trkpt lat="60.13163" lon="6.2883">
    <name>TP298</name>
  </trkpt>
  <trkpt lat="60.13161" lon="6.28836">
    <name>TP299</name>
  </trkpt>
  <trkpt lat="60.1316" lon="6.28842">
    <name>TP300</name>
  </trkpt>
  <trkpt lat="60.13154" lon="6.28864">
    <name>TP301</name>
  </trkpt>
  <trkpt lat="60.1315" lon="6.28889">
    <name>TP302</name>
  </trkpt>
  <trkpt lat="60.13146" lon="6.28909">
    <name>TP303</name>
  </trkpt>
  <trkpt lat="60.13143" lon="6.28926">
    <name>TP304</name>
  </trkpt>
  <trkpt lat="60.13142" lon="6.28938">
    <name>TP305</name>
  </trkpt>
  <trkpt lat="60.13141" lon="6.28952">
    <name>TP306</name>
  </trkpt>
  <trkpt lat="60.13141" lon="6.28973">
    <name>TP307</name>
  </trkpt>
  <trkpt lat="60.1314" lon="6.28992">
    <name>TP308</name>
  </trkpt>
  <trkpt lat="60.1314" lon="6.28993">
    <name>TP309</name>
  </trkpt>
  <trkpt lat="60.1314" lon="6.29005">
    <name>TP310</name>
  </trkpt>
  <trkpt lat="60.13141" lon="6.2901">
    <name>TP311</name>
  </trkpt>
  <trkpt lat="60.13141" lon="6.29015">
    <name>TP312</name>
  </trkpt>
  <trkpt lat="60.13142" lon="6.29024">
    <name>TP313</name>
  </trkpt>
  <trkpt lat="60.13142" lon="6.29028">
    <name>TP314</name>
  </trkpt>
  <trkpt lat="60.13142" lon="6.29029">
    <name>TP315</name>
  </trkpt>
  <trkpt lat="60.13143" lon="6.29068">
    <name>TP316</name>
  </trkpt>
  <trkpt lat="60.13144" lon="6.29102">
    <name>TP317</name>
  </trkpt>
  <trkpt lat="60.13144" lon="6.29131">
    <name>TP318</name>
  </trkpt>
  <trkpt lat="60.13145" lon="6.29162">
    <name>TP319</name>
  </trkpt>
  <trkpt lat="60.13146" lon="6.29231">
    <name>TP320</name>
  </trkpt>
  <trkpt lat="60.13146" lon="6.29233">
    <name>TP321</name>
  </trkpt>
  <trkpt lat="60.13146" lon="6.29263">
    <name>TP322</name>
  </trkpt>
  <trkpt lat="60.13146" lon="6.29267">
    <name>TP323</name>
  </trkpt>
  <trkpt lat="60.13147" lon="6.29277">
    <name>TP324</name>
  </trkpt>
  <trkpt lat="60.13147" lon="6.29281">
    <name>TP325</name>
  </trkpt>
  <trkpt lat="60.13148" lon="6.29313">
    <name>TP326</name>
  </trkpt>
  <trkpt lat="60.13148" lon="6.29317">
    <name>TP327</name>
  </trkpt>
  <trkpt lat="60.13148" lon="6.29323">
    <name>TP328</name>
  </trkpt>
  <trkpt lat="60.13151" lon="6.29369">
    <name>TP329</name>
  </trkpt>
  <trkpt lat="60.13153" lon="6.29427">
    <name>TP330</name>
  </trkpt>
  <trkpt lat="60.13154" lon="6.29493">
    <name>TP331</name>
  </trkpt>
  <trkpt lat="60.13155" lon="6.29564">
    <name>TP332</name>
  </trkpt>
  <trkpt lat="60.13155" lon="6.29565">
    <name>TP333</name>
  </trkpt>
  <trkpt lat="60.13155" lon="6.2957">
    <name>TP334</name>
  </trkpt>
  <trkpt lat="60.13156" lon="6.29608">
    <name>TP335</name>
  </trkpt>
  <trkpt lat="60.13156" lon="6.29628">
    <name>TP336</name>
  </trkpt>
  <trkpt lat="60.13156" lon="6.29637">
    <name>TP337</name>
  </trkpt>
  <trkpt lat="60.13156" lon="6.29646">
    <name>TP338</name>
  </trkpt>
  <trkpt lat="60.13156" lon="6.29655">
    <name>TP339</name>
  </trkpt>
  <trkpt lat="60.13158" lon="6.2969">
    <name>TP340</name>
  </trkpt>
  <trkpt lat="60.1316" lon="6.29731">
    <name>TP341</name>
  </trkpt>
  <trkpt lat="60.13162" lon="6.29763">
    <name>TP342</name>
  </trkpt>
  <trkpt lat="60.13164" lon="6.29787">
    <name>TP343</name>
  </trkpt>
  <trkpt lat="60.13169" lon="6.2984">
    <name>TP344</name>
  </trkpt>
  <trkpt lat="60.13169" lon="6.29848">
    <name>TP345</name>
  </trkpt>
  <trkpt lat="60.1317" lon="6.29857">
    <name>TP346</name>
  </trkpt>
  <trkpt lat="60.1317" lon="6.29861">
    <name>TP347</name>
  </trkpt>
  <trkpt lat="60.13171" lon="6.29869">
    <name>TP348</name>
  </trkpt>
  <trkpt lat="60.13173" lon="6.29897">
    <name>TP349</name>
  </trkpt>
  <trkpt lat="60.13175" lon="6.29916">
    <name>TP350</name>
  </trkpt>
  <trkpt lat="60.13175" lon="6.29919">
    <name>TP351</name>
  </trkpt>
  <trkpt lat="60.13176" lon="6.29928">
    <name>TP352</name>
  </trkpt>
  <trkpt lat="60.13177" lon="6.29931">
    <name>TP353</name>
  </trkpt>
  <trkpt lat="60.13177" lon="6.29932">
    <name>TP354</name>
  </trkpt>
  <trkpt lat="60.13177" lon="6.29935">
    <name>TP355</name>
  </trkpt>
  <trkpt lat="60.13177" lon="6.2994">
    <name>TP356</name>
  </trkpt>
  <trkpt lat="60.13178" lon="6.29945">
    <name>TP357</name>
  </trkpt>
  <trkpt lat="60.13179" lon="6.29949">
    <name>TP358</name>
  </trkpt>
  <trkpt lat="60.13181" lon="6.29968">
    <name>TP359</name>
  </trkpt>
  <trkpt lat="60.13183" lon="6.29983">
    <name>TP360</name>
  </trkpt>
  <trkpt lat="60.13186" lon="6.30009">
    <name>TP361</name>
  </trkpt>
  <trkpt lat="60.13188" lon="6.30041">
    <name>TP362</name>
  </trkpt>
  <trkpt lat="60.13189" lon="6.30066">
    <name>TP363</name>
  </trkpt>
  <trkpt lat="60.13189" lon="6.30079">
    <name>TP364</name>
  </trkpt>
  <trkpt lat="60.1319" lon="6.30096">
    <name>TP365</name>
  </trkpt>
  <trkpt lat="60.1319" lon="6.30115">
    <name>TP366</name>
  </trkpt>
  <trkpt lat="60.13189" lon="6.30143">
    <name>TP367</name>
  </trkpt>
  <trkpt lat="60.13188" lon="6.30154">
    <name>TP368</name>
  </trkpt>
  <trkpt lat="60.13188" lon="6.30169">
    <name>TP369</name>
  </trkpt>
  <trkpt lat="60.13188" lon="6.30183">
    <name>TP370</name>
  </trkpt>
  <trkpt lat="60.13187" lon="6.30205">
    <name>TP371</name>
  </trkpt>
  <trkpt lat="60.13185" lon="6.30245">
    <name>TP372</name>
  </trkpt>
  <trkpt lat="60.13183" lon="6.30313">
    <name>TP373</name>
  </trkpt>
  <trkpt lat="60.13183" lon="6.30322">
    <name>TP374</name>
  </trkpt>
  <trkpt lat="60.13183" lon="6.30326">
    <name>TP375</name>
  </trkpt>
  <trkpt lat="60.13183" lon="6.30334">
    <name>TP376</name>
  </trkpt>
  <trkpt lat="60.13183" lon="6.30339">
    <name>TP377</name>
  </trkpt>
  <trkpt lat="60.13182" lon="6.30349">
    <name>TP378</name>
  </trkpt>
  <trkpt lat="60.1318" lon="6.30446">
    <name>TP379</name>
  </trkpt>
  <trkpt lat="60.1318" lon="6.30461">
    <name>TP380</name>
  </trkpt>
  <trkpt lat="60.13179" lon="6.3047">
    <name>TP381</name>
  </trkpt>
  <trkpt lat="60.13178" lon="6.30474">
    <name>TP382</name>
  </trkpt>
  <trkpt lat="60.13178" lon="6.30478">
    <name>TP383</name>
  </trkpt>
  <trkpt lat="60.13178" lon="6.30484">
    <name>TP384</name>
  </trkpt>
  <trkpt lat="60.13177" lon="6.30489">
    <name>TP385</name>
  </trkpt>
  <trkpt lat="60.13177" lon="6.3049">
    <name>TP386</name>
  </trkpt>
  <trkpt lat="60.13177" lon="6.30493">
    <name>TP387</name>
  </trkpt>
  <trkpt lat="60.13176" lon="6.30502">
    <name>TP388</name>
  </trkpt>
  <trkpt lat="60.13174" lon="6.30516">
    <name>TP389</name>
  </trkpt>
  <trkpt lat="60.13172" lon="6.30523">
    <name>TP390</name>
  </trkpt>
  <trkpt lat="60.13171" lon="6.30528">
    <name>TP391</name>
  </trkpt>
  <trkpt lat="60.13168" lon="6.30539">
    <name>TP392</name>
  </trkpt>
  <trkpt lat="60.13165" lon="6.3055">
    <name>TP393</name>
  </trkpt>
  <trkpt lat="60.13165" lon="6.30551">
    <name>TP394</name>
  </trkpt>
  <trkpt lat="60.13162" lon="6.3056">
    <name>TP395</name>
  </trkpt>
  <trkpt lat="60.13158" lon="6.3057">
    <name>TP396</name>
  </trkpt>
  <trkpt lat="60.13149" lon="6.30588">
    <name>TP397</name>
  </trkpt>
  <trkpt lat="60.13143" lon="6.30599">
    <name>TP398</name>
  </trkpt>
  <trkpt lat="60.13138" lon="6.30611">
    <name>TP399</name>
  </trkpt>
  <trkpt lat="60.13137" lon="6.30611">
    <name>TP400</name>
  </trkpt>
  <trkpt lat="60.13135" lon="6.30618">
    <name>TP401</name>
  </trkpt>
  <trkpt lat="60.13134" lon="6.30622">
    <name>TP402</name>
  </trkpt>
  <trkpt lat="60.13129" lon="6.30641">
    <name>TP403</name>
  </trkpt>
  <trkpt lat="60.13126" lon="6.30657">
    <name>TP404</name>
  </trkpt>
  <trkpt lat="60.13125" lon="6.30672">
    <name>TP405</name>
  </trkpt>
  <trkpt lat="60.13124" lon="6.30696">
    <name>TP406</name>
  </trkpt>
  <trkpt lat="60.13124" lon="6.30728">
    <name>TP407</name>
  </trkpt>
  <trkpt lat="60.13125" lon="6.30749">
    <name>TP408</name>
  </trkpt>
  <trkpt lat="60.13125" lon="6.30752">
    <name>TP409</name>
  </trkpt>
  <trkpt lat="60.13126" lon="6.30758">
    <name>TP410</name>
  </trkpt>
  <trkpt lat="60.13126" lon="6.30767">
    <name>TP411</name>
  </trkpt>
  <trkpt lat="60.13127" lon="6.3077">
    <name>TP412</name>
  </trkpt>
  <trkpt lat="60.13128" lon="6.30779">
    <name>TP413</name>
  </trkpt>
  <trkpt lat="60.13135" lon="6.30834">
    <name>TP414</name>
  </trkpt>
  <trkpt lat="60.13138" lon="6.30866">
    <name>TP415</name>
  </trkpt>
  <trkpt lat="60.13142" lon="6.30894">
    <name>TP416</name>
  </trkpt>
  <trkpt lat="60.13146" lon="6.30922">
    <name>TP417</name>
  </trkpt>
  <trkpt lat="60.1315" lon="6.30944">
    <name>TP418</name>
  </trkpt>
  <trkpt lat="60.13161" lon="6.30992">
    <name>TP419</name>
  </trkpt>
  <trkpt lat="60.13172" lon="6.3104">
    <name>TP420</name>
  </trkpt>
  <trkpt lat="60.13174" lon="6.31049">
    <name>TP421</name>
  </trkpt>
  <trkpt lat="60.13178" lon="6.3107">
    <name>TP422</name>
  </trkpt>
  <trkpt lat="60.13185" lon="6.31107">
    <name>TP423</name>
  </trkpt>
  <trkpt lat="60.1319" lon="6.31136">
    <name>TP424</name>
  </trkpt>
  <trkpt lat="60.13192" lon="6.31159">
    <name>TP425</name>
  </trkpt>
  <trkpt lat="60.13192" lon="6.31171">
    <name>TP426</name>
  </trkpt>
  <trkpt lat="60.13192" lon="6.31183">
    <name>TP427</name>
  </trkpt>
  <trkpt lat="60.13192" lon="6.31187">
    <name>TP428</name>
  </trkpt>
  <trkpt lat="60.13191" lon="6.31193">
    <name>TP429</name>
  </trkpt>
  <trkpt lat="60.13189" lon="6.31212">
    <name>TP430</name>
  </trkpt>
  <trkpt lat="60.13186" lon="6.31227">
    <name>TP431</name>
  </trkpt>
  <trkpt lat="60.13176" lon="6.31262">
    <name>TP432</name>
  </trkpt>
  <trkpt lat="60.13151" lon="6.3134">
    <name>TP433</name>
  </trkpt>
  <trkpt lat="60.13117" lon="6.3144">
    <name>TP434</name>
  </trkpt>
  <trkpt lat="60.13098" lon="6.31493">
    <name>TP435</name>
  </trkpt>
  <trkpt lat="60.13083" lon="6.31537">
    <name>TP436</name>
  </trkpt>
  <trkpt lat="60.13068" lon="6.31586">
    <name>TP437</name>
  </trkpt>
  <trkpt lat="60.13057" lon="6.31622">
    <name>TP438</name>
  </trkpt>
  <trkpt lat="60.1305" lon="6.31647">
    <name>TP439</name>
  </trkpt>
  <trkpt lat="60.13043" lon="6.31668">
    <name>TP440</name>
  </trkpt>
  <trkpt lat="60.13038" lon="6.31686">
    <name>TP441</name>
  </trkpt>
  <trkpt lat="60.13036" lon="6.317">
    <name>TP442</name>
  </trkpt>
  <trkpt lat="60.13034" lon="6.31711">
    <name>TP443</name>
  </trkpt>
  <trkpt lat="60.13031" lon="6.31732">
    <name>TP444</name>
  </trkpt>
  <trkpt lat="60.13028" lon="6.31754">
    <name>TP445</name>
  </trkpt>
  <trkpt lat="60.13027" lon="6.3177">
    <name>TP446</name>
  </trkpt>
  <trkpt lat="60.13026" lon="6.31788">
    <name>TP447</name>
  </trkpt>
  <trkpt lat="60.13026" lon="6.3181">
    <name>TP448</name>
  </trkpt>
  <trkpt lat="60.13027" lon="6.31833">
    <name>TP449</name>
  </trkpt>
  <trkpt lat="60.13029" lon="6.31856">
    <name>TP450</name>
  </trkpt>
  <trkpt lat="60.13032" lon="6.31896">
    <name>TP451</name>
  </trkpt>
  <trkpt lat="60.13032" lon="6.31901">
    <name>TP452</name>
  </trkpt>
  <trkpt lat="60.13034" lon="6.31932">
    <name>TP453</name>
  </trkpt>
  <trkpt lat="60.13034" lon="6.31934">
    <name>TP454</name>
  </trkpt>
  <trkpt lat="60.13036" lon="6.31968">
    <name>TP455</name>
  </trkpt>
  <trkpt lat="60.13038" lon="6.31991">
    <name>TP456</name>
  </trkpt>
  <trkpt lat="60.13039" lon="6.32004">
    <name>TP457</name>
  </trkpt>
  <trkpt lat="60.13041" lon="6.32032">
    <name>TP458</name>
  </trkpt>
  <trkpt lat="60.13041" lon="6.3204">
    <name>TP459</name>
  </trkpt>
  <trkpt lat="60.13044" lon="6.32075">
    <name>TP460</name>
  </trkpt>
  <trkpt lat="60.13044" lon="6.32081">
    <name>TP461</name>
  </trkpt>
  <trkpt lat="60.13047" lon="6.32111">
    <name>TP462</name>
  </trkpt>
  <trkpt lat="60.1305" lon="6.32147">
    <name>TP463</name>
  </trkpt>
  <trkpt lat="60.1305" lon="6.32148">
    <name>TP464</name>
  </trkpt>
  <trkpt lat="60.13051" lon="6.32158">
    <name>TP465</name>
  </trkpt>
  <trkpt lat="60.13054" lon="6.32182">
    <name>TP466</name>
  </trkpt>
  <trkpt lat="60.13056" lon="6.32197">
    <name>TP467</name>
  </trkpt>
  <trkpt lat="60.13059" lon="6.32211">
    <name>TP468</name>
  </trkpt>
  <trkpt lat="60.1306" lon="6.3222">
    <name>TP469</name>
  </trkpt>
  <trkpt lat="60.13065" lon="6.32245">
    <name>TP470</name>
  </trkpt>
  <trkpt lat="60.13067" lon="6.32256">
    <name>TP471</name>
  </trkpt>
  <trkpt lat="60.13069" lon="6.32274">
    <name>TP472</name>
  </trkpt>
  <trkpt lat="60.1307" lon="6.32279">
    <name>TP473</name>
  </trkpt>
  <trkpt lat="60.13073" lon="6.32291">
    <name>TP474</name>
  </trkpt>
  <trkpt lat="60.13077" lon="6.32307">
    <name>TP475</name>
  </trkpt>
  <trkpt lat="60.13082" lon="6.32322">
    <name>TP476</name>
  </trkpt>
  <trkpt lat="60.13092" lon="6.32349">
    <name>TP477</name>
  </trkpt>
  <trkpt lat="60.13094" lon="6.32355">
    <name>TP478</name>
  </trkpt>
  <trkpt lat="60.13096" lon="6.3236">
    <name>TP479</name>
  </trkpt>
  <trkpt lat="60.13102" lon="6.32375">
    <name>TP480</name>
  </trkpt>
  <trkpt lat="60.13112" lon="6.32395">
    <name>TP481</name>
  </trkpt>
  <trkpt lat="60.1312" lon="6.32409">
    <name>TP482</name>
  </trkpt>
  <trkpt lat="60.13125" lon="6.32421">
    <name>TP483</name>
  </trkpt>
  <trkpt lat="60.13126" lon="6.32426">
    <name>TP484</name>
  </trkpt>
  <trkpt lat="60.13128" lon="6.32435">
    <name>TP485</name>
  </trkpt>
  <trkpt lat="60.13128" lon="6.3244">
    <name>TP486</name>
  </trkpt>
  <trkpt lat="60.13127" lon="6.32444">
    <name>TP487</name>
  </trkpt>
  <trkpt lat="60.13126" lon="6.32448">
    <name>TP488</name>
  </trkpt>
  <trkpt lat="60.13125" lon="6.32451">
    <name>TP489</name>
  </trkpt>
  <trkpt lat="60.13125" lon="6.32452">
    <name>TP490</name>
  </trkpt>
  <trkpt lat="60.13123" lon="6.32455">
    <name>TP491</name>
  </trkpt>
  <trkpt lat="60.13119" lon="6.32461">
    <name>TP492</name>
  </trkpt>
  <trkpt lat="60.13112" lon="6.32471">
    <name>TP493</name>
  </trkpt>
  <trkpt lat="60.13102" lon="6.3248">
    <name>TP494</name>
  </trkpt>
  <trkpt lat="60.13093" lon="6.32487">
    <name>TP495</name>
  </trkpt>
  <trkpt lat="60.1309336" lon="6.3248653">
    <name>TP496</name>
  </trkpt>
  <trkpt lat="60.1309" lon="6.32474">
    <name>TP497</name>
  </trkpt>
  <trkpt lat="60.13083" lon="6.32456">
    <name>TP498</name>
  </trkpt>
  <trkpt lat="60.13083" lon="6.32454">
    <name>TP499</name>
  </trkpt>
  <trkpt lat="60.1308" lon="6.32448">
    <name>TP500</name>
  </trkpt>
  <trkpt lat="60.13077" lon="6.32441">
    <name>TP501</name>
  </trkpt>
  <trkpt lat="60.13075" lon="6.32437">
    <name>TP502</name>
  </trkpt>
  <trkpt lat="60.13071" lon="6.32427">
    <name>TP503</name>
  </trkpt>
  <trkpt lat="60.13053" lon="6.32393">
    <name>TP504</name>
  </trkpt>
  <trkpt lat="60.13033" lon="6.32358">
    <name>TP505</name>
  </trkpt>
  <trkpt lat="60.13028" lon="6.32349">
    <name>TP506</name>
  </trkpt>
  <trkpt lat="60.13024" lon="6.3234">
    <name>TP507</name>
  </trkpt>
  <trkpt lat="60.1302" lon="6.3233">
    <name>TP508</name>
  </trkpt>
  <trkpt lat="60.13016" lon="6.32321">
    <name>TP509</name>
  </trkpt>
  <trkpt lat="60.13013" lon="6.3231">
    <name>TP510</name>
  </trkpt>
  <trkpt lat="60.13012" lon="6.32309">
    <name>TP511</name>
  </trkpt>
  <trkpt lat="60.13007" lon="6.32288">
    <name>TP512</name>
  </trkpt>
  <trkpt lat="60.13001" lon="6.3225">
    <name>TP513</name>
  </trkpt>
  <trkpt lat="60.12999" lon="6.32239">
    <name>TP514</name>
  </trkpt>
  <trkpt lat="60.12995" lon="6.32212">
    <name>TP515</name>
  </trkpt>
  <trkpt lat="60.12989" lon="6.32173">
    <name>TP516</name>
  </trkpt>
  <trkpt lat="60.12985" lon="6.32147">
    <name>TP517</name>
  </trkpt>
  <trkpt lat="60.12977" lon="6.32102">
    <name>TP518</name>
  </trkpt>
  <trkpt lat="60.12972" lon="6.32067">
    <name>TP519</name>
  </trkpt>
  <trkpt lat="60.12966" lon="6.3203">
    <name>TP520</name>
  </trkpt>
  <trkpt lat="60.1296" lon="6.31995">
    <name>TP521</name>
  </trkpt>
  <trkpt lat="60.12955" lon="6.31962">
    <name>TP522</name>
  </trkpt>
  <trkpt lat="60.12955" lon="6.31961">
    <name>TP523</name>
  </trkpt>
  <trkpt lat="60.12954" lon="6.31951">
    <name>TP524</name>
  </trkpt>
  <trkpt lat="60.1295" lon="6.31926">
    <name>TP525</name>
  </trkpt>
  <trkpt lat="60.12945" lon="6.31891">
    <name>TP526</name>
  </trkpt>
  <trkpt lat="60.12942" lon="6.31873">
    <name>TP527</name>
  </trkpt>
  <trkpt lat="60.12937" lon="6.31838">
    <name>TP528</name>
  </trkpt>
  <trkpt lat="60.12927" lon="6.31785">
    <name>TP529</name>
  </trkpt>
  <trkpt lat="60.12925" lon="6.31773">
    <name>TP530</name>
  </trkpt>
  <trkpt lat="60.12919" lon="6.31739">
    <name>TP531</name>
  </trkpt>
  <trkpt lat="60.12918" lon="6.31735">
    <name>TP532</name>
  </trkpt>
  <trkpt lat="60.12912" lon="6.31706">
    <name>TP533</name>
  </trkpt>
  <trkpt lat="60.12909" lon="6.31693">
    <name>TP534</name>
  </trkpt>
  <trkpt lat="60.12909" lon="6.31692">
    <name>TP535</name>
  </trkpt>
  <trkpt lat="60.12906" lon="6.3168">
    <name>TP536</name>
  </trkpt>
  <trkpt lat="60.12903" lon="6.31668">
    <name>TP537</name>
  </trkpt>
  <trkpt lat="60.12899" lon="6.31658">
    <name>TP538</name>
  </trkpt>
  <trkpt lat="60.12896" lon="6.31651">
    <name>TP539</name>
  </trkpt>
  <trkpt lat="60.12893" lon="6.31645">
    <name>TP540</name>
  </trkpt>
  <trkpt lat="60.12889" lon="6.3164">
    <name>TP541</name>
  </trkpt>
  <trkpt lat="60.12884" lon="6.31634">
    <name>TP542</name>
  </trkpt>
  <trkpt lat="60.12877" lon="6.31628">
    <name>TP543</name>
  </trkpt>
  <trkpt lat="60.12871" lon="6.31624">
    <name>TP544</name>
  </trkpt>
  <trkpt lat="60.12864" lon="6.31622">
    <name>TP545</name>
  </trkpt>
  <trkpt lat="60.12857" lon="6.31621">
    <name>TP546</name>
  </trkpt>
  <trkpt lat="60.1285" lon="6.3162">
    <name>TP547</name>
  </trkpt>
  <trkpt lat="60.12843" lon="6.31619">
    <name>TP548</name>
  </trkpt>
  <trkpt lat="60.12835" lon="6.31619">
    <name>TP549</name>
  </trkpt>
  <trkpt lat="60.12828" lon="6.31619">
    <name>TP550</name>
  </trkpt>
  <trkpt lat="60.1281" lon="6.31618">
    <name>TP551</name>
  </trkpt>
  <trkpt lat="60.12798" lon="6.31618">
    <name>TP552</name>
  </trkpt>
  <trkpt lat="60.12792" lon="6.31618">
    <name>TP553</name>
  </trkpt>
  <trkpt lat="60.1279" lon="6.31618">
    <name>TP554</name>
  </trkpt>
  <trkpt lat="60.12776" lon="6.31617">
    <name>TP555</name>
  </trkpt>
  <trkpt lat="60.12774" lon="6.31617">
    <name>TP556</name>
  </trkpt>
  <trkpt lat="60.12761" lon="6.31615">
    <name>TP557</name>
  </trkpt>
  <trkpt lat="60.12755" lon="6.31614">
    <name>TP558</name>
  </trkpt>
  <trkpt lat="60.12754" lon="6.31614">
    <name>TP559</name>
  </trkpt>
  <trkpt lat="60.12753" lon="6.31614">
    <name>TP560</name>
  </trkpt>
  <trkpt lat="60.12748" lon="6.31614">
    <name>TP561</name>
  </trkpt>
  <trkpt lat="60.12747" lon="6.31613">
    <name>TP562</name>
  </trkpt>
  <trkpt lat="60.12744" lon="6.31613">
    <name>TP563</name>
  </trkpt>
  <trkpt lat="60.1274" lon="6.31612">
    <name>TP564</name>
  </trkpt>
  <trkpt lat="60.12733" lon="6.31611">
    <name>TP565</name>
  </trkpt>
  <trkpt lat="60.12727" lon="6.31608">
    <name>TP566</name>
  </trkpt>
  <trkpt lat="60.12721" lon="6.31605">
    <name>TP567</name>
  </trkpt>
  <trkpt lat="60.12715" lon="6.316">
    <name>TP568</name>
  </trkpt>
  <trkpt lat="60.1271" lon="6.31595">
    <name>TP569</name>
  </trkpt>
  <trkpt lat="60.12706" lon="6.31588">
    <name>TP570</name>
  </trkpt>
  <trkpt lat="60.12701" lon="6.31579">
    <name>TP571</name>
  </trkpt>
  <trkpt lat="60.12697" lon="6.3157">
    <name>TP572</name>
  </trkpt>
  <trkpt lat="60.12693" lon="6.31559">
    <name>TP573</name>
  </trkpt>
  <trkpt lat="60.12692" lon="6.31553">
    <name>TP574</name>
  </trkpt>
  <trkpt lat="60.1269" lon="6.31549">
    <name>TP575</name>
  </trkpt>
  <trkpt lat="60.12688" lon="6.31537">
    <name>TP576</name>
  </trkpt>
  <trkpt lat="60.12687" lon="6.31525">
    <name>TP577</name>
  </trkpt>
  <trkpt lat="60.12686" lon="6.31512">
    <name>TP578</name>
  </trkpt>
  <trkpt lat="60.12685" lon="6.31498">
    <name>TP579</name>
  </trkpt>
  <trkpt lat="60.12686" lon="6.31485">
    <name>TP580</name>
  </trkpt>
  <trkpt lat="60.12686" lon="6.31482">
    <name>TP581</name>
  </trkpt>
  <trkpt lat="60.12687" lon="6.31446">
    <name>TP582</name>
  </trkpt>
  <trkpt lat="60.12688" lon="6.31412">
    <name>TP583</name>
  </trkpt>
  <trkpt lat="60.12688" lon="6.3141">
    <name>TP584</name>
  </trkpt>
  <trkpt lat="60.12688" lon="6.31391">
    <name>TP585</name>
  </trkpt>
  <trkpt lat="60.12688" lon="6.3139">
    <name>TP586</name>
  </trkpt>
  <trkpt lat="60.12689" lon="6.31379">
    <name>TP587</name>
  </trkpt>
  <trkpt lat="60.1269" lon="6.31347">
    <name>TP588</name>
  </trkpt>
  <trkpt lat="60.1269" lon="6.31345">
    <name>TP589</name>
  </trkpt>
  <trkpt lat="60.1269" lon="6.31338">
    <name>TP590</name>
  </trkpt>
  <trkpt lat="60.12691" lon="6.31302">
    <name>TP591</name>
  </trkpt>
  <trkpt lat="60.12691" lon="6.31292">
    <name>TP592</name>
  </trkpt>
  <trkpt lat="60.12692" lon="6.31237">
    <name>TP593</name>
  </trkpt>
  <trkpt lat="60.12694" lon="6.31199">
    <name>TP594</name>
  </trkpt>
  <trkpt lat="60.12694" lon="6.31194">
    <name>TP595</name>
  </trkpt>
  <trkpt lat="60.12695" lon="6.31141">
    <name>TP596</name>
  </trkpt>
  <trkpt lat="60.12695" lon="6.31122">
    <name>TP597</name>
  </trkpt>
  <trkpt lat="60.12696" lon="6.31086">
    <name>TP598</name>
  </trkpt>
  <trkpt lat="60.12696" lon="6.31083">
    <name>TP599</name>
  </trkpt>
  <trkpt lat="60.12698" lon="6.31027">
    <name>TP600</name>
  </trkpt>
  <trkpt lat="60.12698" lon="6.31014">
    <name>TP601</name>
  </trkpt>
  <trkpt lat="60.12698" lon="6.31012">
    <name>TP602</name>
  </trkpt>
  <trkpt lat="60.12698" lon="6.31008">
    <name>TP603</name>
  </trkpt>
  <trkpt lat="60.12698" lon="6.31003">
    <name>TP604</name>
  </trkpt>
  <trkpt lat="60.12698" lon="6.31002">
    <name>TP605</name>
  </trkpt>
  <trkpt lat="60.12698" lon="6.30989">
    <name>TP606</name>
  </trkpt>
  <trkpt lat="60.12697" lon="6.30971">
    <name>TP607</name>
  </trkpt>
  <trkpt lat="60.12696" lon="6.30952">
    <name>TP608</name>
  </trkpt>
  <trkpt lat="60.12694" lon="6.30934">
    <name>TP609</name>
  </trkpt>
  <trkpt lat="60.12692" lon="6.30915">
    <name>TP610</name>
  </trkpt>
  <trkpt lat="60.12691" lon="6.30907">
    <name>TP611</name>
  </trkpt>
  <trkpt lat="60.12689" lon="6.30897">
    <name>TP612</name>
  </trkpt>
  <trkpt lat="60.12687" lon="6.30879">
    <name>TP613</name>
  </trkpt>
  <trkpt lat="60.1268" lon="6.30843">
    <name>TP614</name>
  </trkpt>
  <trkpt lat="60.12672" lon="6.30809">
    <name>TP615</name>
  </trkpt>
  <trkpt lat="60.12657" lon="6.30739">
    <name>TP616</name>
  </trkpt>
  <trkpt lat="60.12646" lon="6.30688">
    <name>TP617</name>
  </trkpt>
  <trkpt lat="60.12642" lon="6.30669">
    <name>TP618</name>
  </trkpt>
  <trkpt lat="60.12628" lon="6.30601">
    <name>TP619</name>
  </trkpt>
  <trkpt lat="60.12627" lon="6.30599">
    <name>TP620</name>
  </trkpt>
  <trkpt lat="60.1262" lon="6.30564">
    <name>TP621</name>
  </trkpt>
  <trkpt lat="60.12618" lon="6.30555">
    <name>TP622</name>
  </trkpt>
  <trkpt lat="60.12605" lon="6.30493">
    <name>TP623</name>
  </trkpt>
  <trkpt lat="60.12604" lon="6.30489">
    <name>TP624</name>
  </trkpt>
  <trkpt lat="60.12597" lon="6.30456">
    <name>TP625</name>
  </trkpt>
  <trkpt lat="60.1259" lon="6.30422">
    <name>TP626</name>
  </trkpt>
  <trkpt lat="60.12589" lon="6.3042">
    <name>TP627</name>
  </trkpt>
  <trkpt lat="60.12583" lon="6.30389">
    <name>TP628</name>
  </trkpt>
  <trkpt lat="60.12578" lon="6.30364">
    <name>TP629</name>
  </trkpt>
  <trkpt lat="60.12572" lon="6.30341">
    <name>TP630</name>
  </trkpt>
  <trkpt lat="60.12571" lon="6.30335">
    <name>TP631</name>
  </trkpt>
  <trkpt lat="60.12569" lon="6.30328">
    <name>TP632</name>
  </trkpt>
  <trkpt lat="60.12568" lon="6.30323">
    <name>TP633</name>
  </trkpt>
  <trkpt lat="60.12565" lon="6.30311">
    <name>TP634</name>
  </trkpt>
  <trkpt lat="60.12565" lon="6.30308">
    <name>TP635</name>
  </trkpt>
  <trkpt lat="60.12563" lon="6.303">
    <name>TP636</name>
  </trkpt>
  <trkpt lat="60.12561" lon="6.30294">
    <name>TP637</name>
  </trkpt>
  <trkpt lat="60.1256" lon="6.30291">
    <name>TP638</name>
  </trkpt>
  <trkpt lat="60.12556" lon="6.30277">
    <name>TP639</name>
  </trkpt>
  <trkpt lat="60.12551" lon="6.30262">
    <name>TP640</name>
  </trkpt>
  <trkpt lat="60.1254" lon="6.30231">
    <name>TP641</name>
  </trkpt>
  <trkpt lat="60.12538" lon="6.30225">
    <name>TP642</name>
  </trkpt>
  <trkpt lat="60.12536" lon="6.30222">
    <name>TP643</name>
  </trkpt>
  <trkpt lat="60.12527" lon="6.30201">
    <name>TP644</name>
  </trkpt>
  <trkpt lat="60.12516" lon="6.30174">
    <name>TP645</name>
  </trkpt>
  <trkpt lat="60.12509" lon="6.30157">
    <name>TP646</name>
  </trkpt>
  <trkpt lat="60.12504" lon="6.30146">
    <name>TP647</name>
  </trkpt>
  <trkpt lat="60.12496" lon="6.30128">
    <name>TP648</name>
  </trkpt>
  <trkpt lat="60.12491" lon="6.3012">
    <name>TP649</name>
  </trkpt>
  <trkpt lat="60.12482" lon="6.30101">
    <name>TP650</name>
  </trkpt>
  <trkpt lat="60.1248" lon="6.30097">
    <name>TP651</name>
  </trkpt>
  <trkpt lat="60.12479" lon="6.30095">
    <name>TP652</name>
  </trkpt>
  <trkpt lat="60.12467" lon="6.30074">
    <name>TP653</name>
  </trkpt>
  <trkpt lat="60.12466" lon="6.30073">
    <name>TP654</name>
  </trkpt>
  <trkpt lat="60.12465" lon="6.30071">
    <name>TP655</name>
  </trkpt>
  <trkpt lat="60.12459" lon="6.30061">
    <name>TP656</name>
  </trkpt>
  <trkpt lat="60.12451" lon="6.30048">
    <name>TP657</name>
  </trkpt>
  <trkpt lat="60.12443" lon="6.30033">
    <name>TP658</name>
  </trkpt>
  <trkpt lat="60.12438" lon="6.30024">
    <name>TP659</name>
  </trkpt>
  <trkpt lat="60.12436" lon="6.3002">
    <name>TP660</name>
  </trkpt>
  <trkpt lat="60.12428" lon="6.30005">
    <name>TP661</name>
  </trkpt>
  <trkpt lat="60.12426" lon="6.3">
    <name>TP662</name>
  </trkpt>
  <trkpt lat="60.12425" lon="6.29998">
    <name>TP663</name>
  </trkpt>
  <trkpt lat="60.12421" lon="6.29989">
    <name>TP664</name>
  </trkpt>
  <trkpt lat="60.12414" lon="6.2997">
    <name>TP665</name>
  </trkpt>
  <trkpt lat="60.12409" lon="6.29955">
    <name>TP666</name>
  </trkpt>
  <trkpt lat="60.12403" lon="6.29937">
    <name>TP667</name>
  </trkpt>
  <trkpt lat="60.12397" lon="6.29919">
    <name>TP668</name>
  </trkpt>
  <trkpt lat="60.12376" lon="6.29843">
    <name>TP669</name>
  </trkpt>
  <trkpt lat="60.1236" lon="6.29786">
    <name>TP670</name>
  </trkpt>
  <trkpt lat="60.12359" lon="6.29784">
    <name>TP671</name>
  </trkpt>
  <trkpt lat="60.12351" lon="6.29752">
    <name>TP672</name>
  </trkpt>
  <trkpt lat="60.12345" lon="6.29729">
    <name>TP673</name>
  </trkpt>
  <trkpt lat="60.12343" lon="6.29719">
    <name>TP674</name>
  </trkpt>
  <trkpt lat="60.12336" lon="6.2969">
    <name>TP675</name>
  </trkpt>
  <trkpt lat="60.12333" lon="6.29669">
    <name>TP676</name>
  </trkpt>
  <trkpt lat="60.1233" lon="6.29654">
    <name>TP677</name>
  </trkpt>
  <trkpt lat="60.1233" lon="6.29652">
    <name>TP678</name>
  </trkpt>
  <trkpt lat="60.12327" lon="6.29631">
    <name>TP679</name>
  </trkpt>
  <trkpt lat="60.12325" lon="6.29611">
    <name>TP680</name>
  </trkpt>
  <trkpt lat="60.12323" lon="6.2959">
    <name>TP681</name>
  </trkpt>
  <trkpt lat="60.12323" lon="6.29581">
    <name>TP682</name>
  </trkpt>
  <trkpt lat="60.12322" lon="6.29569">
    <name>TP683</name>
  </trkpt>
  <trkpt lat="60.1232" lon="6.29545">
    <name>TP684</name>
  </trkpt>
  <trkpt lat="60.12319" lon="6.29528">
    <name>TP685</name>
  </trkpt>
  <trkpt lat="60.12317" lon="6.29474">
    <name>TP686</name>
  </trkpt>
  <trkpt lat="60.12316" lon="6.29465">
    <name>TP687</name>
  </trkpt>
  <trkpt lat="60.12315" lon="6.29441">
    <name>TP688</name>
  </trkpt>
  <trkpt lat="60.12315" lon="6.29438">
    <name>TP689</name>
  </trkpt>
  <trkpt lat="60.12314" lon="6.29405">
    <name>TP690</name>
  </trkpt>
  <trkpt lat="60.12314" lon="6.29402">
    <name>TP691</name>
  </trkpt>
  <trkpt lat="60.12314" lon="6.29401">
    <name>TP692</name>
  </trkpt>
  <trkpt lat="60.12312" lon="6.29366">
    <name>TP693</name>
  </trkpt>
  <trkpt lat="60.1231" lon="6.29337">
    <name>TP694</name>
  </trkpt>
  <trkpt lat="60.1231" lon="6.2933">
    <name>TP695</name>
  </trkpt>
  <trkpt lat="60.12308" lon="6.29297">
    <name>TP696</name>
  </trkpt>
  <trkpt lat="60.12308" lon="6.29294">
    <name>TP697</name>
  </trkpt>
  <trkpt lat="60.12306" lon="6.29272">
    <name>TP698</name>
  </trkpt>
  <trkpt lat="60.12303" lon="6.29229">
    <name>TP699</name>
  </trkpt>
  <trkpt lat="60.12298" lon="6.29164">
    <name>TP700</name>
  </trkpt>
  <trkpt lat="60.12297" lon="6.29151">
    <name>TP701</name>
  </trkpt>
  <trkpt lat="60.12296" lon="6.29143">
    <name>TP702</name>
  </trkpt>
  <trkpt lat="60.12294" lon="6.29121">
    <name>TP703</name>
  </trkpt>
  <trkpt lat="60.12291" lon="6.2908">
    <name>TP704</name>
  </trkpt>
  <trkpt lat="60.12291" lon="6.29077">
    <name>TP705</name>
  </trkpt>
  <trkpt lat="60.12289" lon="6.29035">
    <name>TP706</name>
  </trkpt>
  <trkpt lat="60.12288" lon="6.28992">
    <name>TP707</name>
  </trkpt>
  <trkpt lat="60.12286" lon="6.2895">
    <name>TP708</name>
  </trkpt>
  <trkpt lat="60.12284" lon="6.28906">
    <name>TP709</name>
  </trkpt>
  <trkpt lat="60.12283" lon="6.28864">
    <name>TP710</name>
  </trkpt>
  <trkpt lat="60.12283" lon="6.28836">
    <name>TP711</name>
  </trkpt>
  <trkpt lat="60.12283" lon="6.2882">
    <name>TP712</name>
  </trkpt>
  <trkpt lat="60.12283" lon="6.288">
    <name>TP713</name>
  </trkpt>
  <trkpt lat="60.12284" lon="6.28777">
    <name>TP714</name>
  </trkpt>
  <trkpt lat="60.12284" lon="6.28764">
    <name>TP715</name>
  </trkpt>
  <trkpt lat="60.12285" lon="6.28734">
    <name>TP716</name>
  </trkpt>
  <trkpt lat="60.12285" lon="6.28727">
    <name>TP717</name>
  </trkpt>
  <trkpt lat="60.12287" lon="6.28692">
    <name>TP718</name>
  </trkpt>
  <trkpt lat="60.12289" lon="6.28669">
    <name>TP719</name>
  </trkpt>
  <trkpt lat="60.1229" lon="6.28649">
    <name>TP720</name>
  </trkpt>
  <trkpt lat="60.12291" lon="6.28633">
    <name>TP721</name>
  </trkpt>
  <trkpt lat="60.12295" lon="6.2859">
    <name>TP722</name>
  </trkpt>
  <trkpt lat="60.12297" lon="6.28567">
    <name>TP723</name>
  </trkpt>
  <trkpt lat="60.12297" lon="6.28562">
    <name>TP724</name>
  </trkpt>
  <trkpt lat="60.12297" lon="6.28547">
    <name>TP725</name>
  </trkpt>
  <trkpt lat="60.12298" lon="6.28527">
    <name>TP726</name>
  </trkpt>
  <trkpt lat="60.12298" lon="6.28525">
    <name>TP727</name>
  </trkpt>
  <trkpt lat="60.12297" lon="6.28508">
    <name>TP728</name>
  </trkpt>
  <trkpt lat="60.12297" lon="6.28489">
    <name>TP729</name>
  </trkpt>
  <trkpt lat="60.12297" lon="6.28472">
    <name>TP730</name>
  </trkpt>
  <trkpt lat="60.12297" lon="6.28466">
    <name>TP731</name>
  </trkpt>
  <trkpt lat="60.12296" lon="6.28453">
    <name>TP732</name>
  </trkpt>
  <trkpt lat="60.12296" lon="6.28426">
    <name>TP733</name>
  </trkpt>
  <trkpt lat="60.12296" lon="6.28417">
    <name>TP734</name>
  </trkpt>
  <trkpt lat="60.12296" lon="6.28385">
    <name>TP735</name>
  </trkpt>
  <trkpt lat="60.12297" lon="6.28364">
    <name>TP736</name>
  </trkpt>
  <trkpt lat="60.12297" lon="6.28345">
    <name>TP737</name>
  </trkpt>
  <trkpt lat="60.12297" lon="6.28328">
    <name>TP738</name>
  </trkpt>
  <trkpt lat="60.12297" lon="6.28309">
    <name>TP739</name>
  </trkpt>
  <trkpt lat="60.12297" lon="6.28307">
    <name>TP740</name>
  </trkpt>
  <trkpt lat="60.12296" lon="6.28291">
    <name>TP741</name>
  </trkpt>
  <trkpt lat="60.12296" lon="6.2829">
    <name>TP742</name>
  </trkpt>
  <trkpt lat="60.12296" lon="6.28273">
    <name>TP743</name>
  </trkpt>
  <trkpt lat="60.12294" lon="6.28256">
    <name>TP744</name>
  </trkpt>
  <trkpt lat="60.12292" lon="6.28241">
    <name>TP745</name>
  </trkpt>
  <trkpt lat="60.12289" lon="6.28226">
    <name>TP746</name>
  </trkpt>
  <trkpt lat="60.12285" lon="6.2821">
    <name>TP747</name>
  </trkpt>
  <trkpt lat="60.12284" lon="6.28205">
    <name>TP748</name>
  </trkpt>
  <trkpt lat="60.12277" lon="6.2818">
    <name>TP749</name>
  </trkpt>
  <trkpt lat="60.12269" lon="6.28153">
    <name>TP750</name>
  </trkpt>
  <trkpt lat="60.12264" lon="6.28137">
    <name>TP751</name>
  </trkpt>
  <trkpt lat="60.12258" lon="6.28124">
    <name>TP752</name>
  </trkpt>
  <trkpt lat="60.12254" lon="6.28115">
    <name>TP753</name>
  </trkpt>
  <trkpt lat="60.12253" lon="6.28112">
    <name>TP754</name>
  </trkpt>
  <trkpt lat="60.12247" lon="6.281">
    <name>TP755</name>
  </trkpt>
  <trkpt lat="60.1224" lon="6.2809">
    <name>TP756</name>
  </trkpt>
  <trkpt lat="60.12233" lon="6.28081">
    <name>TP757</name>
  </trkpt>
  <trkpt lat="60.12226" lon="6.28072">
    <name>TP758</name>
  </trkpt>
  <trkpt lat="60.12218" lon="6.28064">
    <name>TP759</name>
  </trkpt>
  <trkpt lat="60.12195" lon="6.28042">
    <name>TP760</name>
  </trkpt>
  <trkpt lat="60.12193" lon="6.28041">
    <name>TP761</name>
  </trkpt>
  <trkpt lat="60.12178" lon="6.28027">
    <name>TP762</name>
  </trkpt>
  <trkpt lat="60.12177" lon="6.28025">
    <name>TP763</name>
  </trkpt>
  <trkpt lat="60.12171" lon="6.28017">
    <name>TP764</name>
  </trkpt>
  <trkpt lat="60.12164" lon="6.28007">
    <name>TP765</name>
  </trkpt>
  <trkpt lat="60.12162" lon="6.28004">
    <name>TP766</name>
  </trkpt>
  <trkpt lat="60.12157" lon="6.27997">
    <name>TP767</name>
  </trkpt>
  <trkpt lat="60.12155" lon="6.27994">
    <name>TP768</name>
  </trkpt>
  <trkpt lat="60.1215" lon="6.27985">
    <name>TP769</name>
  </trkpt>
  <trkpt lat="60.12148" lon="6.27981">
    <name>TP770</name>
  </trkpt>
  <trkpt lat="60.12144" lon="6.27973">
    <name>TP771</name>
  </trkpt>
  <trkpt lat="60.12132" lon="6.27949">
    <name>TP772</name>
  </trkpt>
  <trkpt lat="60.12121" lon="6.27924">
    <name>TP773</name>
  </trkpt>
  <trkpt lat="60.12113" lon="6.27902">
    <name>TP774</name>
  </trkpt>
  <trkpt lat="60.12107" lon="6.27885">
    <name>TP775</name>
  </trkpt>
  <trkpt lat="60.12102" lon="6.27868">
    <name>TP776</name>
  </trkpt>
  <trkpt lat="60.12095" lon="6.27848">
    <name>TP777</name>
  </trkpt>
  <trkpt lat="60.1209" lon="6.27829">
    <name>TP778</name>
  </trkpt>
  <trkpt lat="60.12086" lon="6.27814">
    <name>TP779</name>
  </trkpt>
  <trkpt lat="60.1208" lon="6.27784">
    <name>TP780</name>
  </trkpt>
  <trkpt lat="60.12074" lon="6.27749">
    <name>TP781</name>
  </trkpt>
  <trkpt lat="60.12073" lon="6.2774">
    <name>TP782</name>
  </trkpt>
  <trkpt lat="60.12068" lon="6.27708">
    <name>TP783</name>
  </trkpt>
  <trkpt lat="60.1206" lon="6.27666">
    <name>TP784</name>
  </trkpt>
  <trkpt lat="60.12053" lon="6.27621">
    <name>TP785</name>
  </trkpt>
  <trkpt lat="60.12051" lon="6.27614">
    <name>TP786</name>
  </trkpt>
  <trkpt lat="60.12051" lon="6.27613">
    <name>TP787</name>
  </trkpt>
  <trkpt lat="60.1205" lon="6.27603">
    <name>TP788</name>
  </trkpt>
  <trkpt lat="60.12045" lon="6.27576">
    <name>TP789</name>
  </trkpt>
  <trkpt lat="60.12043" lon="6.27569">
    <name>TP790</name>
  </trkpt>
  <trkpt lat="60.12043" lon="6.27566">
    <name>TP791</name>
  </trkpt>
  <trkpt lat="60.1204" lon="6.27553">
    <name>TP792</name>
  </trkpt>
  <trkpt lat="60.12037" lon="6.27543">
    <name>TP793</name>
  </trkpt>
  <trkpt lat="60.1203" lon="6.27521">
    <name>TP794</name>
  </trkpt>
  <trkpt lat="60.12019" lon="6.27491">
    <name>TP795</name>
  </trkpt>
  <trkpt lat="60.12011" lon="6.27468">
    <name>TP796</name>
  </trkpt>
  <trkpt lat="60.11995" lon="6.27424">
    <name>TP797</name>
  </trkpt>
  <trkpt lat="60.11988" lon="6.27403">
    <name>TP798</name>
  </trkpt>
  <trkpt lat="60.11983" lon="6.2739">
    <name>TP799</name>
  </trkpt>
  <trkpt lat="60.11981" lon="6.27381">
    <name>TP800</name>
  </trkpt>
  <trkpt lat="60.11973" lon="6.2736">
    <name>TP801</name>
  </trkpt>
  <trkpt lat="60.11966" lon="6.2734">
    <name>TP802</name>
  </trkpt>
  <trkpt lat="60.11958" lon="6.27321">
    <name>TP803</name>
  </trkpt>
  <trkpt lat="60.11954" lon="6.27312">
    <name>TP804</name>
  </trkpt>
  <trkpt lat="60.11949" lon="6.27303">
    <name>TP805</name>
  </trkpt>
  <trkpt lat="60.11945" lon="6.27294">
    <name>TP806</name>
  </trkpt>
  <trkpt lat="60.1194" lon="6.27288">
    <name>TP807</name>
  </trkpt>
  <trkpt lat="60.11935" lon="6.2728">
    <name>TP808</name>
  </trkpt>
  <trkpt lat="60.11929" lon="6.27273">
    <name>TP809</name>
  </trkpt>
  <trkpt lat="60.11925" lon="6.27268">
    <name>TP810</name>
  </trkpt>
  <trkpt lat="60.119" lon="6.27246">
    <name>TP811</name>
  </trkpt>
  <trkpt lat="60.11871" lon="6.27221">
    <name>TP812</name>
  </trkpt>
  <trkpt lat="60.11849" lon="6.27202">
    <name>TP813</name>
  </trkpt>
  <trkpt lat="60.11839" lon="6.27193">
    <name>TP814</name>
  </trkpt>
  <trkpt lat="60.11833" lon="6.27188">
    <name>TP815</name>
  </trkpt>
  <trkpt lat="60.11828" lon="6.27183">
    <name>TP816</name>
  </trkpt>
  <trkpt lat="60.11823" lon="6.27177">
    <name>TP817</name>
  </trkpt>
  <trkpt lat="60.11821" lon="6.27174">
    <name>TP818</name>
  </trkpt>
  <trkpt lat="60.11818" lon="6.27171">
    <name>TP819</name>
  </trkpt>
  <trkpt lat="60.11813" lon="6.27165">
    <name>TP820</name>
  </trkpt>
  <trkpt lat="60.118" lon="6.27144">
    <name>TP821</name>
  </trkpt>
  <trkpt lat="60.11792" lon="6.2713">
    <name>TP822</name>
  </trkpt>
  <trkpt lat="60.11782" lon="6.27109">
    <name>TP823</name>
  </trkpt>
  <trkpt lat="60.11774" lon="6.2709">
    <name>TP824</name>
  </trkpt>
  <trkpt lat="60.1177417" lon="6.2709016">
    <name>TP825</name>
  </trkpt>
  <trkpt lat="60.11768" lon="6.271">
    <name>TP826</name>
  </trkpt>
  <trkpt lat="60.11763" lon="6.2711">
    <name>TP827</name>
  </trkpt>
  <trkpt lat="60.11757" lon="6.27105">
    <name>TP828</name>
  </trkpt>
  <trkpt lat="60.11748" lon="6.27092">
    <name>TP829</name>
  </trkpt>
  <trkpt lat="60.11736" lon="6.27077">
    <name>TP830</name>
  </trkpt>
  <trkpt lat="60.11732" lon="6.27073">
    <name>TP831</name>
  </trkpt>
  <trkpt lat="60.11727" lon="6.27068">
    <name>TP832</name>
  </trkpt>
  <trkpt lat="60.11714" lon="6.27062">
    <name>TP833</name>
  </trkpt>
  <trkpt lat="60.11696" lon="6.27057">
    <name>TP834</name>
  </trkpt>
  <trkpt lat="60.11685" lon="6.27059">
    <name>TP835</name>
  </trkpt>
  <trkpt lat="60.11668" lon="6.27067">
    <name>TP836</name>
  </trkpt>
  <trkpt lat="60.11664" lon="6.2707">
    <name>TP837</name>
  </trkpt>
  <trkpt lat="60.11655" lon="6.27081">
    <name>TP838</name>
  </trkpt>
  <trkpt lat="60.11649" lon="6.27091">
    <name>TP839</name>
  </trkpt>
  <trkpt lat="60.11645" lon="6.27097">
    <name>TP840</name>
  </trkpt>
  <trkpt lat="60.11629" lon="6.27114">
    <name>TP841</name>
  </trkpt>
  <trkpt lat="60.11619" lon="6.2712">
    <name>TP842</name>
  </trkpt>
  <trkpt lat="60.11617" lon="6.2712">
    <name>TP843</name>
  </trkpt>
  <trkpt lat="60.11594" lon="6.2713">
    <name>TP844</name>
  </trkpt>
  <trkpt lat="60.11589" lon="6.27131">
    <name>TP845</name>
  </trkpt>
  <trkpt lat="60.11574" lon="6.27136">
    <name>TP846</name>
  </trkpt>
  <trkpt lat="60.11564" lon="6.27142">
    <name>TP847</name>
  </trkpt>
  <trkpt lat="60.11532" lon="6.27155">
    <name>TP848</name>
  </trkpt>
  <trkpt lat="60.11526" lon="6.27155">
    <name>TP849</name>
  </trkpt>
  <trkpt lat="60.11519" lon="6.27155">
    <name>TP850</name>
  </trkpt>
  <trkpt lat="60.11505" lon="6.27151">
    <name>TP851</name>
  </trkpt>
  <trkpt lat="60.11489" lon="6.27143">
    <name>TP852</name>
  </trkpt>
  <trkpt lat="60.11478" lon="6.27135">
    <name>TP853</name>
  </trkpt>
  <trkpt lat="60.11468" lon="6.27127">
    <name>TP854</name>
  </trkpt>
  <trkpt lat="60.11466" lon="6.27125">
    <name>TP855</name>
  </trkpt>
  <trkpt lat="60.1146" lon="6.2712">
    <name>TP856</name>
  </trkpt>
  <trkpt lat="60.11458" lon="6.27118">
    <name>TP857</name>
  </trkpt>
  <trkpt lat="60.11456" lon="6.27116">
    <name>TP858</name>
  </trkpt>
  <trkpt lat="60.11445" lon="6.27108">
    <name>TP859</name>
  </trkpt>
  <trkpt lat="60.11439" lon="6.27101">
    <name>TP860</name>
  </trkpt>
  <trkpt lat="60.11436" lon="6.27098">
    <name>TP861</name>
  </trkpt>
  <trkpt lat="60.11426" lon="6.27086">
    <name>TP862</name>
  </trkpt>
  <trkpt lat="60.11416" lon="6.27073">
    <name>TP863</name>
  </trkpt>
  <trkpt lat="60.11407" lon="6.27064">
    <name>TP864</name>
  </trkpt>
  <trkpt lat="60.114" lon="6.27058">
    <name>TP865</name>
  </trkpt>
  <trkpt lat="60.11389" lon="6.27049">
    <name>TP866</name>
  </trkpt>
  <trkpt lat="60.11384" lon="6.27043">
    <name>TP867</name>
  </trkpt>
  <trkpt lat="60.11378" lon="6.27039">
    <name>TP868</name>
  </trkpt>
  <trkpt lat="60.11367" lon="6.27032">
    <name>TP869</name>
  </trkpt>
  <trkpt lat="60.11364" lon="6.2703">
    <name>TP870</name>
  </trkpt>
  <trkpt lat="60.11352" lon="6.27021">
    <name>TP871</name>
  </trkpt>
  <trkpt lat="60.1134" lon="6.27014">
    <name>TP872</name>
  </trkpt>
  <trkpt lat="60.11332" lon="6.27008">
    <name>TP873</name>
  </trkpt>
  <trkpt lat="60.11327" lon="6.27005">
    <name>TP874</name>
  </trkpt>
  <trkpt lat="60.11315" lon="6.26999">
    <name>TP875</name>
  </trkpt>
  <trkpt lat="60.11314" lon="6.26999">
    <name>TP876</name>
  </trkpt>
  <trkpt lat="60.113" lon="6.26993">
    <name>TP877</name>
  </trkpt>
  <trkpt lat="60.11297" lon="6.26992">
    <name>TP878</name>
  </trkpt>
  <trkpt lat="60.11287" lon="6.26988">
    <name>TP879</name>
  </trkpt>
  <trkpt lat="60.11273" lon="6.26984">
    <name>TP880</name>
  </trkpt>
  <trkpt lat="60.11263" lon="6.2698">
    <name>TP881</name>
  </trkpt>
  <trkpt lat="60.1125" lon="6.26976">
    <name>TP882</name>
  </trkpt>
  <trkpt lat="60.11238" lon="6.26971">
    <name>TP883</name>
  </trkpt>
  <trkpt lat="60.11227" lon="6.26967">
    <name>TP884</name>
  </trkpt>
  <trkpt lat="60.11225" lon="6.26966">
    <name>TP885</name>
  </trkpt>
  <trkpt lat="60.11213" lon="6.26962">
    <name>TP886</name>
  </trkpt>
  <trkpt lat="60.11209" lon="6.2696">
    <name>TP887</name>
  </trkpt>
  <trkpt lat="60.11202" lon="6.26958">
    <name>TP888</name>
  </trkpt>
  <trkpt lat="60.11191" lon="6.26954">
    <name>TP889</name>
  </trkpt>
  <trkpt lat="60.11181" lon="6.2695">
    <name>TP890</name>
  </trkpt>
  <trkpt lat="60.11172" lon="6.26947">
    <name>TP891</name>
  </trkpt>
  <trkpt lat="60.11162" lon="6.26944">
    <name>TP892</name>
  </trkpt>
  <trkpt lat="60.11153" lon="6.2694">
    <name>TP893</name>
  </trkpt>
  <trkpt lat="60.11145" lon="6.26936">
    <name>TP894</name>
  </trkpt>
  <trkpt lat="60.11136" lon="6.26935">
    <name>TP895</name>
  </trkpt>
  <trkpt lat="60.11126" lon="6.26935">
    <name>TP896</name>
  </trkpt>
  <trkpt lat="60.11121" lon="6.26935">
    <name>TP897</name>
  </trkpt>
  <trkpt lat="60.11115" lon="6.26936">
    <name>TP898</name>
  </trkpt>
  <trkpt lat="60.11105" lon="6.26938">
    <name>TP899</name>
  </trkpt>
  <trkpt lat="60.11102" lon="6.26939">
    <name>TP900</name>
  </trkpt>
  <trkpt lat="60.11095" lon="6.26941">
    <name>TP901</name>
  </trkpt>
  <trkpt lat="60.11093" lon="6.26943">
    <name>TP902</name>
  </trkpt>
  <trkpt lat="60.11089" lon="6.26946">
    <name>TP903</name>
  </trkpt>
  <trkpt lat="60.11085" lon="6.26949">
    <name>TP904</name>
  </trkpt>
  <trkpt lat="60.1108" lon="6.26952">
    <name>TP905</name>
  </trkpt>
  <trkpt lat="60.11073" lon="6.26959">
    <name>TP906</name>
  </trkpt>
  <trkpt lat="60.11069" lon="6.26963">
    <name>TP907</name>
  </trkpt>
  <trkpt lat="60.11066" lon="6.26966">
    <name>TP908</name>
  </trkpt>
  <trkpt lat="60.11058" lon="6.26976">
    <name>TP909</name>
  </trkpt>
  <trkpt lat="60.11053" lon="6.26981">
    <name>TP910</name>
  </trkpt>
  <trkpt lat="60.11053" lon="6.26982">
    <name>TP911</name>
  </trkpt>
  <trkpt lat="60.11046" lon="6.26994">
    <name>TP912</name>
  </trkpt>
  <trkpt lat="60.11043" lon="6.26998">
    <name>TP913</name>
  </trkpt>
  <trkpt lat="60.11039" lon="6.27004">
    <name>TP914</name>
  </trkpt>
  <trkpt lat="60.11036" lon="6.27011">
    <name>TP915</name>
  </trkpt>
  <trkpt lat="60.1103" lon="6.27024">
    <name>TP916</name>
  </trkpt>
  <trkpt lat="60.11027" lon="6.27031">
    <name>TP917</name>
  </trkpt>
  <trkpt lat="60.11025" lon="6.27037">
    <name>TP918</name>
  </trkpt>
  <trkpt lat="60.11018" lon="6.2705">
    <name>TP919</name>
  </trkpt>
  <trkpt lat="60.11013" lon="6.27064">
    <name>TP920</name>
  </trkpt>
  <trkpt lat="60.11009" lon="6.27077">
    <name>TP921</name>
  </trkpt>
  <trkpt lat="60.11005" lon="6.27087">
    <name>TP922</name>
  </trkpt>
  <trkpt lat="60.11005" lon="6.27088">
    <name>TP923</name>
  </trkpt>
  <trkpt lat="60.11" lon="6.27094">
    <name>TP924</name>
  </trkpt>
  <trkpt lat="60.10998" lon="6.27097">
    <name>TP925</name>
  </trkpt>
  <trkpt lat="60.10995" lon="6.27099">
    <name>TP926</name>
  </trkpt>
  <trkpt lat="60.10993" lon="6.271">
    <name>TP927</name>
  </trkpt>
  <trkpt lat="60.10991" lon="6.27102">
    <name>TP928</name>
  </trkpt>
  <trkpt lat="60.10989" lon="6.27103">
    <name>TP929</name>
  </trkpt>
  <trkpt lat="60.10987" lon="6.27103">
    <name>TP930</name>
  </trkpt>
  <trkpt lat="60.10983" lon="6.27102">
    <name>TP931</name>
  </trkpt>
  <trkpt lat="60.1098" lon="6.271">
    <name>TP932</name>
  </trkpt>
  <trkpt lat="60.1098043" lon="6.2710027">
    <name>TP933</name>
  </trkpt>
  <trkpt lat="60.1098043" lon="6.2710027">
    <name>TP934</name>
  </trkpt>
  <trkpt lat="60.1098043" lon="6.2710027">
    <name>TP935</name>
  </trkpt>
  </trkseg>
</trk>
</gpx>