<?xml version="1.0" encoding="UTF-8" standalone="no" ?>
<gpx xmlns="http://www.topografix.com/GPX/1/1" xmlns:gpxx="http://www.garmin.com/xmlschemas/GpxExtensions/v3" xmlns:gpxtpx="http://www.garmin.com/xmlschemas/TrackPointExtension/v1" creator="mapstogpx.com" version="1.1" xmlns:xsi="http://www.w3.org/2001/XMLSchema-instance" xsi:schemaLocation="http://www.topografix.com/GPX/1/1 http://www.topografix.com/GPX/1/1/gpx.xsd http://www.garmin.com/xmlschemas/GpxExtensions/v3 http://www.garmin.com/xmlschemas/GpxExtensionsv3.xsd http://www.garmin.com/xmlschemas/TrackPointExtension/v1 http://www.garmin.com/xmlschemas/TrackPointExtensionv1.xsd">
  <metadata>
    <link href="http://www.mapstogpx.com">
      <text>Sverrir Sigmundarson</text>
    </link>
    <!--desc>Powered by Google, ©2025 Google</desc-->
    <!--copyright author="Google Inc">
    	<year>2025</year>
    	<license>https://developers.google.com/maps/terms</license>
    </copyright-->
    <!--url>https://www.google.com/maps/dir/68.2247376,14.5555999/KIWI+Svolv%C3%A6r+Sentrum/68.187364,14.224477/@68.1868231,14.2238184,16z/data=!4m10!4m9!1m0!1m5!1m1!1s0x45de8079d3a1b703:0x946a7783cbee68de!2m2!1d14.5624288!2d68.2352117!1m0!3e0?entry=tts&g_ep=EgoyMDI1MDYyMy4yKgBIAVAD&skid=7215cb3a-fc66-4930-8253-fd0edf5208d7&hl=en</url-->
    <time>2025-06-27T22:41:48Z</time>
  </metadata>
  <wpt lat="68.2247376" lon="14.5555999">
    <name>8300 Svolvær</name>
    <desc>Vorsetøyveien, 8300 Svolvær, Norway</desc>
  </wpt>
  <wpt lat="68.2352117" lon="14.5624288">
    <name>KIWI Svolvær Sentrum</name>
    <desc>KIWI Svolvaer Downtown, Lofotgata 52, 8300 Svolvær, Norway</desc>
  </wpt>
  <wpt lat="68.187364" lon="14.224477">
    <name>8312</name>
    <desc>Henningsværveien 736, 8312, Norway</desc>
  </wpt>
<trk>
  <name>8300 Svolvær to 8312</name>
  <number>1</number>
  <trkseg>
  <trkpt lat="68.2249116" lon="14.5555539">
    <name>TP001</name>
  </trkpt>
  <trkpt lat="68.22554" lon="14.55538">
    <name>TP002</name>
  </trkpt>
  <trkpt lat="68.22563" lon="14.55535">
    <name>TP003</name>
  </trkpt>
  <trkpt lat="68.22581" lon="14.55527">
    <name>TP004</name>
  </trkpt>
  <trkpt lat="68.22598" lon="14.55507">
    <name>TP005</name>
  </trkpt>
  <trkpt lat="68.22605" lon="14.55502">
    <name>TP006</name>
  </trkpt>
  <trkpt lat="68.22613" lon="14.55496">
    <name>TP007</name>
  </trkpt>
  <trkpt lat="68.22624" lon="14.55498">
    <name>TP008</name>
  </trkpt>
  <trkpt lat="68.22633" lon="14.55503">
    <name>TP009</name>
  </trkpt>
  <trkpt lat="68.22641" lon="14.5551">
    <name>TP010</name>
  </trkpt>
  <trkpt lat="68.22669" lon="14.55547">
    <name>TP011</name>
  </trkpt>
  <trkpt lat="68.22683" lon="14.5556">
    <name>TP012</name>
  </trkpt>
  <trkpt lat="68.22686" lon="14.55563">
    <name>TP013</name>
  </trkpt>
  <trkpt lat="68.22697" lon="14.5557">
    <name>TP014</name>
  </trkpt>
  <trkpt lat="68.227" lon="14.5557">
    <name>TP015</name>
  </trkpt>
  <trkpt lat="68.22704" lon="14.55568">
    <name>TP016</name>
  </trkpt>
  <trkpt lat="68.22706" lon="14.55567">
    <name>TP017</name>
  </trkpt>
  <trkpt lat="68.22715" lon="14.55565">
    <name>TP018</name>
  </trkpt>
  <trkpt lat="68.22716" lon="14.55564">
    <name>TP019</name>
  </trkpt>
  <trkpt lat="68.22726" lon="14.55565">
    <name>TP020</name>
  </trkpt>
  <trkpt lat="68.22745" lon="14.55571">
    <name>TP021</name>
  </trkpt>
  <trkpt lat="68.22755" lon="14.55576">
    <name>TP022</name>
  </trkpt>
  <trkpt lat="68.22783" lon="14.55599">
    <name>TP023</name>
  </trkpt>
  <trkpt lat="68.22798" lon="14.55614">
    <name>TP024</name>
  </trkpt>
  <trkpt lat="68.22813" lon="14.55633">
    <name>TP025</name>
  </trkpt>
  <trkpt lat="68.22842" lon="14.55674">
    <name>TP026</name>
  </trkpt>
  <trkpt lat="68.2286" lon="14.55698">
    <name>TP027</name>
  </trkpt>
  <trkpt lat="68.22879" lon="14.55726">
    <name>TP028</name>
  </trkpt>
  <trkpt lat="68.22906" lon="14.55766">
    <name>TP029</name>
  </trkpt>
  <trkpt lat="68.22938" lon="14.5581">
    <name>TP030</name>
  </trkpt>
  <trkpt lat="68.22954" lon="14.55835">
    <name>TP031</name>
  </trkpt>
  <trkpt lat="68.22965" lon="14.55849">
    <name>TP032</name>
  </trkpt>
  <trkpt lat="68.22974" lon="14.55857">
    <name>TP033</name>
  </trkpt>
  <trkpt lat="68.22978" lon="14.55859">
    <name>TP034</name>
  </trkpt>
  <trkpt lat="68.23018" lon="14.55882">
    <name>TP035</name>
  </trkpt>
  <trkpt lat="68.23053" lon="14.55894">
    <name>TP036</name>
  </trkpt>
  <trkpt lat="68.23107" lon="14.55912">
    <name>TP037</name>
  </trkpt>
  <trkpt lat="68.2312" lon="14.55919">
    <name>TP038</name>
  </trkpt>
  <trkpt lat="68.2312036" lon="14.5591929">
    <name>TP039</name>
  </trkpt>
  <trkpt lat="68.23125" lon="14.55921">
    <name>TP040</name>
  </trkpt>
  <trkpt lat="68.23144" lon="14.55929">
    <name>TP041</name>
  </trkpt>
  <trkpt lat="68.23149" lon="14.55931">
    <name>TP042</name>
  </trkpt>
  <trkpt lat="68.23155" lon="14.55933">
    <name>TP043</name>
  </trkpt>
  <trkpt lat="68.23168" lon="14.55936">
    <name>TP044</name>
  </trkpt>
  <trkpt lat="68.23183" lon="14.55937">
    <name>TP045</name>
  </trkpt>
  <trkpt lat="68.23197" lon="14.55937">
    <name>TP046</name>
  </trkpt>
  <trkpt lat="68.23229" lon="14.5593">
    <name>TP047</name>
  </trkpt>
  <trkpt lat="68.23267" lon="14.55924">
    <name>TP048</name>
  </trkpt>
  <trkpt lat="68.2327" lon="14.55924">
    <name>TP049</name>
  </trkpt>
  <trkpt lat="68.23282" lon="14.55924">
    <name>TP050</name>
  </trkpt>
  <trkpt lat="68.23304" lon="14.55927">
    <name>TP051</name>
  </trkpt>
  <trkpt lat="68.23316" lon="14.55932">
    <name>TP052</name>
  </trkpt>
  <trkpt lat="68.23324" lon="14.55935">
    <name>TP053</name>
  </trkpt>
  <trkpt lat="68.23336" lon="14.55939">
    <name>TP054</name>
  </trkpt>
  <trkpt lat="68.2337" lon="14.55961">
    <name>TP055</name>
  </trkpt>
  <trkpt lat="68.23397" lon="14.55986">
    <name>TP056</name>
  </trkpt>
  <trkpt lat="68.23408" lon="14.55997">
    <name>TP057</name>
  </trkpt>
  <trkpt lat="68.23456" lon="14.56042">
    <name>TP058</name>
  </trkpt>
  <trkpt lat="68.23473" lon="14.56056">
    <name>TP059</name>
  </trkpt>
  <trkpt lat="68.2349" lon="14.5607">
    <name>TP060</name>
  </trkpt>
  <trkpt lat="68.2349031" lon="14.560702">
    <name>TP061</name>
  </trkpt>
  <trkpt lat="68.23482" lon="14.56145">
    <name>TP062</name>
  </trkpt>
  <trkpt lat="68.2348197" lon="14.5614503">
    <name>TP063</name>
  </trkpt>
  <trkpt lat="68.23489" lon="14.56154">
    <name>TP064</name>
  </trkpt>
  <trkpt lat="68.23507" lon="14.5617">
    <name>TP065</name>
  </trkpt>
  <trkpt lat="68.2352" lon="14.56175">
    <name>TP066</name>
  </trkpt>
  <trkpt lat="68.23525" lon="14.56176">
    <name>TP067</name>
  </trkpt>
  <trkpt lat="68.23528" lon="14.56179">
    <name>TP068</name>
  </trkpt>
  <trkpt lat="68.23529" lon="14.56182">
    <name>TP069</name>
  </trkpt>
  <trkpt lat="68.2353" lon="14.56186">
    <name>TP070</name>
  </trkpt>
  <trkpt lat="68.2353" lon="14.56194">
    <name>TP071</name>
  </trkpt>
  <trkpt lat="68.23531" lon="14.56199">
    <name>TP072</name>
  </trkpt>
  <trkpt lat="68.2353" lon="14.56206">
    <name>TP073</name>
  </trkpt>
  <trkpt lat="68.2353" lon="14.56209">
    <name>TP074</name>
  </trkpt>
  <trkpt lat="68.23529" lon="14.56209">
    <name>TP075</name>
  </trkpt>
  <trkpt lat="68.2352944" lon="14.5620931">
    <name>TP076</name>
  </trkpt>
  <trkpt lat="68.23528" lon="14.56212">
    <name>TP077</name>
  </trkpt>
  <trkpt lat="68.23525" lon="14.56215">
    <name>TP078</name>
  </trkpt>
  <trkpt lat="68.2352" lon="14.56218">
    <name>TP079</name>
  </trkpt>
  <trkpt lat="68.2352034" lon="14.5621827">
    <name>TP080</name>
  </trkpt>
  <trkpt lat="68.2352034" lon="14.5621827">
    <name>TP081</name>
  </trkpt>
  <trkpt lat="68.23525" lon="14.56215">
    <name>TP082</name>
  </trkpt>
  <trkpt lat="68.23528" lon="14.56212">
    <name>TP083</name>
  </trkpt>
  <trkpt lat="68.23529" lon="14.56209">
    <name>TP084</name>
  </trkpt>
  <trkpt lat="68.2352944" lon="14.5620931">
    <name>TP085</name>
  </trkpt>
  <trkpt lat="68.23532" lon="14.56221">
    <name>TP086</name>
  </trkpt>
  <trkpt lat="68.23534" lon="14.56234">
    <name>TP087</name>
  </trkpt>
  <trkpt lat="68.23537" lon="14.5625">
    <name>TP088</name>
  </trkpt>
  <trkpt lat="68.2354" lon="14.5626">
    <name>TP089</name>
  </trkpt>
  <trkpt lat="68.23544" lon="14.56271">
    <name>TP090</name>
  </trkpt>
  <trkpt lat="68.23547" lon="14.5628">
    <name>TP091</name>
  </trkpt>
  <trkpt lat="68.2354749" lon="14.5627973">
    <name>TP092</name>
  </trkpt>
  <trkpt lat="68.23551" lon="14.56256">
    <name>TP093</name>
  </trkpt>
  <trkpt lat="68.2356" lon="14.56233">
    <name>TP094</name>
  </trkpt>
  <trkpt lat="68.23569" lon="14.56188">
    <name>TP095</name>
  </trkpt>
  <trkpt lat="68.2356853" lon="14.5618842">
    <name>TP096</name>
  </trkpt>
  <trkpt lat="68.2357" lon="14.56188">
    <name>TP097</name>
  </trkpt>
  <trkpt lat="68.23571" lon="14.56188">
    <name>TP098</name>
  </trkpt>
  <trkpt lat="68.23572" lon="14.56187">
    <name>TP099</name>
  </trkpt>
  <trkpt lat="68.23573" lon="14.56187">
    <name>TP100</name>
  </trkpt>
  <trkpt lat="68.23573" lon="14.56186">
    <name>TP101</name>
  </trkpt>
  <trkpt lat="68.23574" lon="14.56185">
    <name>TP102</name>
  </trkpt>
  <trkpt lat="68.23575" lon="14.56184">
    <name>TP103</name>
  </trkpt>
  <trkpt lat="68.23576" lon="14.56182">
    <name>TP104</name>
  </trkpt>
  <trkpt lat="68.23577" lon="14.5618">
    <name>TP105</name>
  </trkpt>
  <trkpt lat="68.23577" lon="14.56179">
    <name>TP106</name>
  </trkpt>
  <trkpt lat="68.23578" lon="14.56178">
    <name>TP107</name>
  </trkpt>
  <trkpt lat="68.23578" lon="14.56177">
    <name>TP108</name>
  </trkpt>
  <trkpt lat="68.23578" lon="14.56176">
    <name>TP109</name>
  </trkpt>
  <trkpt lat="68.23579" lon="14.56174">
    <name>TP110</name>
  </trkpt>
  <trkpt lat="68.23579" lon="14.56173">
    <name>TP111</name>
  </trkpt>
  <trkpt lat="68.23579" lon="14.56172">
    <name>TP112</name>
  </trkpt>
  <trkpt lat="68.2358" lon="14.5617">
    <name>TP113</name>
  </trkpt>
  <trkpt lat="68.2358" lon="14.56169">
    <name>TP114</name>
  </trkpt>
  <trkpt lat="68.2358" lon="14.56167">
    <name>TP115</name>
  </trkpt>
  <trkpt lat="68.2358" lon="14.56165">
    <name>TP116</name>
  </trkpt>
  <trkpt lat="68.23581" lon="14.56164">
    <name>TP117</name>
  </trkpt>
  <trkpt lat="68.23581" lon="14.56162">
    <name>TP118</name>
  </trkpt>
  <trkpt lat="68.23581" lon="14.56161">
    <name>TP119</name>
  </trkpt>
  <trkpt lat="68.23581" lon="14.56159">
    <name>TP120</name>
  </trkpt>
  <trkpt lat="68.23581" lon="14.56157">
    <name>TP121</name>
  </trkpt>
  <trkpt lat="68.23581" lon="14.56155">
    <name>TP122</name>
  </trkpt>
  <trkpt lat="68.23581" lon="14.56154">
    <name>TP123</name>
  </trkpt>
  <trkpt lat="68.23581" lon="14.56153">
    <name>TP124</name>
  </trkpt>
  <trkpt lat="68.23581" lon="14.56151">
    <name>TP125</name>
  </trkpt>
  <trkpt lat="68.23581" lon="14.5615">
    <name>TP126</name>
  </trkpt>
  <trkpt lat="68.2358" lon="14.56148">
    <name>TP127</name>
  </trkpt>
  <trkpt lat="68.2358" lon="14.56147">
    <name>TP128</name>
  </trkpt>
  <trkpt lat="68.2358" lon="14.56146">
    <name>TP129</name>
  </trkpt>
  <trkpt lat="68.2358" lon="14.56145">
    <name>TP130</name>
  </trkpt>
  <trkpt lat="68.23586" lon="14.56102">
    <name>TP131</name>
  </trkpt>
  <trkpt lat="68.23593" lon="14.56054">
    <name>TP132</name>
  </trkpt>
  <trkpt lat="68.23595" lon="14.56036">
    <name>TP133</name>
  </trkpt>
  <trkpt lat="68.23599" lon="14.55999">
    <name>TP134</name>
  </trkpt>
  <trkpt lat="68.23602" lon="14.55972">
    <name>TP135</name>
  </trkpt>
  <trkpt lat="68.23607" lon="14.55925">
    <name>TP136</name>
  </trkpt>
  <trkpt lat="68.23614" lon="14.55866">
    <name>TP137</name>
  </trkpt>
  <trkpt lat="68.23626" lon="14.5576">
    <name>TP138</name>
  </trkpt>
  <trkpt lat="68.23627" lon="14.55746">
    <name>TP139</name>
  </trkpt>
  <trkpt lat="68.23629" lon="14.5572">
    <name>TP140</name>
  </trkpt>
  <trkpt lat="68.23629" lon="14.55698">
    <name>TP141</name>
  </trkpt>
  <trkpt lat="68.2363" lon="14.55682">
    <name>TP142</name>
  </trkpt>
  <trkpt lat="68.2363" lon="14.5565">
    <name>TP143</name>
  </trkpt>
  <trkpt lat="68.23632" lon="14.55631">
    <name>TP144</name>
  </trkpt>
  <trkpt lat="68.23633" lon="14.55629">
    <name>TP145</name>
  </trkpt>
  <trkpt lat="68.23633" lon="14.55575">
    <name>TP146</name>
  </trkpt>
  <trkpt lat="68.23633" lon="14.55503">
    <name>TP147</name>
  </trkpt>
  <trkpt lat="68.23632" lon="14.55461">
    <name>TP148</name>
  </trkpt>
  <trkpt lat="68.23632" lon="14.5544">
    <name>TP149</name>
  </trkpt>
  <trkpt lat="68.23632" lon="14.55434">
    <name>TP150</name>
  </trkpt>
  <trkpt lat="68.23631" lon="14.55364">
    <name>TP151</name>
  </trkpt>
  <trkpt lat="68.23631" lon="14.55323">
    <name>TP152</name>
  </trkpt>
  <trkpt lat="68.23631" lon="14.55312">
    <name>TP153</name>
  </trkpt>
  <trkpt lat="68.23631" lon="14.55302">
    <name>TP154</name>
  </trkpt>
  <trkpt lat="68.23631" lon="14.55297">
    <name>TP155</name>
  </trkpt>
  <trkpt lat="68.23631" lon="14.55146">
    <name>TP156</name>
  </trkpt>
  <trkpt lat="68.23631" lon="14.55124">
    <name>TP157</name>
  </trkpt>
  <trkpt lat="68.23631" lon="14.5512">
    <name>TP158</name>
  </trkpt>
  <trkpt lat="68.23631" lon="14.55115">
    <name>TP159</name>
  </trkpt>
  <trkpt lat="68.23628" lon="14.55102">
    <name>TP160</name>
  </trkpt>
  <trkpt lat="68.23628" lon="14.55082">
    <name>TP161</name>
  </trkpt>
  <trkpt lat="68.23626" lon="14.54986">
    <name>TP162</name>
  </trkpt>
  <trkpt lat="68.23625" lon="14.54795">
    <name>TP163</name>
  </trkpt>
  <trkpt lat="68.23623" lon="14.54604">
    <name>TP164</name>
  </trkpt>
  <trkpt lat="68.23623" lon="14.54578">
    <name>TP165</name>
  </trkpt>
  <trkpt lat="68.23623" lon="14.54563">
    <name>TP166</name>
  </trkpt>
  <trkpt lat="68.23623" lon="14.54539">
    <name>TP167</name>
  </trkpt>
  <trkpt lat="68.23622" lon="14.54512">
    <name>TP168</name>
  </trkpt>
  <trkpt lat="68.23622" lon="14.54495">
    <name>TP169</name>
  </trkpt>
  <trkpt lat="68.23621" lon="14.54479">
    <name>TP170</name>
  </trkpt>
  <trkpt lat="68.23619" lon="14.54461">
    <name>TP171</name>
  </trkpt>
  <trkpt lat="68.23617" lon="14.54429">
    <name>TP172</name>
  </trkpt>
  <trkpt lat="68.23615" lon="14.544">
    <name>TP173</name>
  </trkpt>
  <trkpt lat="68.23611" lon="14.54367">
    <name>TP174</name>
  </trkpt>
  <trkpt lat="68.23609" lon="14.5435">
    <name>TP175</name>
  </trkpt>
  <trkpt lat="68.23607" lon="14.54335">
    <name>TP176</name>
  </trkpt>
  <trkpt lat="68.23604" lon="14.54318">
    <name>TP177</name>
  </trkpt>
  <trkpt lat="68.23603" lon="14.54309">
    <name>TP178</name>
  </trkpt>
  <trkpt lat="68.23601" lon="14.543">
    <name>TP179</name>
  </trkpt>
  <trkpt lat="68.23595" lon="14.54265">
    <name>TP180</name>
  </trkpt>
  <trkpt lat="68.23589" lon="14.54235">
    <name>TP181</name>
  </trkpt>
  <trkpt lat="68.23578" lon="14.54189">
    <name>TP182</name>
  </trkpt>
  <trkpt lat="68.23568" lon="14.54144">
    <name>TP183</name>
  </trkpt>
  <trkpt lat="68.23557" lon="14.54097">
    <name>TP184</name>
  </trkpt>
  <trkpt lat="68.23546" lon="14.54047">
    <name>TP185</name>
  </trkpt>
  <trkpt lat="68.23539" lon="14.54017">
    <name>TP186</name>
  </trkpt>
  <trkpt lat="68.23535" lon="14.54001">
    <name>TP187</name>
  </trkpt>
  <trkpt lat="68.23529" lon="14.53976">
    <name>TP188</name>
  </trkpt>
  <trkpt lat="68.23525" lon="14.53956">
    <name>TP189</name>
  </trkpt>
  <trkpt lat="68.23516" lon="14.53916">
    <name>TP190</name>
  </trkpt>
  <trkpt lat="68.23515" lon="14.53915">
    <name>TP191</name>
  </trkpt>
  <trkpt lat="68.23513" lon="14.53906">
    <name>TP192</name>
  </trkpt>
  <trkpt lat="68.23505" lon="14.5387">
    <name>TP193</name>
  </trkpt>
  <trkpt lat="68.23492" lon="14.53815">
    <name>TP194</name>
  </trkpt>
  <trkpt lat="68.23481" lon="14.53761">
    <name>TP195</name>
  </trkpt>
  <trkpt lat="68.23476" lon="14.5374">
    <name>TP196</name>
  </trkpt>
  <trkpt lat="68.2347" lon="14.53718">
    <name>TP197</name>
  </trkpt>
  <trkpt lat="68.23463" lon="14.53698">
    <name>TP198</name>
  </trkpt>
  <trkpt lat="68.23457" lon="14.5368">
    <name>TP199</name>
  </trkpt>
  <trkpt lat="68.23454" lon="14.53671">
    <name>TP200</name>
  </trkpt>
  <trkpt lat="68.23452" lon="14.53667">
    <name>TP201</name>
  </trkpt>
  <trkpt lat="68.23451" lon="14.53664">
    <name>TP202</name>
  </trkpt>
  <trkpt lat="68.23451" lon="14.53663">
    <name>TP203</name>
  </trkpt>
  <trkpt lat="68.23443" lon="14.5364">
    <name>TP204</name>
  </trkpt>
  <trkpt lat="68.23436" lon="14.53623">
    <name>TP205</name>
  </trkpt>
  <trkpt lat="68.23429" lon="14.53605">
    <name>TP206</name>
  </trkpt>
  <trkpt lat="68.23421" lon="14.53587">
    <name>TP207</name>
  </trkpt>
  <trkpt lat="68.23415" lon="14.53574">
    <name>TP208</name>
  </trkpt>
  <trkpt lat="68.23414" lon="14.53573">
    <name>TP209</name>
  </trkpt>
  <trkpt lat="68.23396" lon="14.5354">
    <name>TP210</name>
  </trkpt>
  <trkpt lat="68.23387" lon="14.53519">
    <name>TP211</name>
  </trkpt>
  <trkpt lat="68.23373" lon="14.53498">
    <name>TP212</name>
  </trkpt>
  <trkpt lat="68.23351" lon="14.53465">
    <name>TP213</name>
  </trkpt>
  <trkpt lat="68.23349" lon="14.53461">
    <name>TP214</name>
  </trkpt>
  <trkpt lat="68.23333" lon="14.53436">
    <name>TP215</name>
  </trkpt>
  <trkpt lat="68.23322" lon="14.53417">
    <name>TP216</name>
  </trkpt>
  <trkpt lat="68.23315" lon="14.53405">
    <name>TP217</name>
  </trkpt>
  <trkpt lat="68.23296" lon="14.53374">
    <name>TP218</name>
  </trkpt>
  <trkpt lat="68.2329" lon="14.53364">
    <name>TP219</name>
  </trkpt>
  <trkpt lat="68.23288" lon="14.5336">
    <name>TP220</name>
  </trkpt>
  <trkpt lat="68.23281" lon="14.53348">
    <name>TP221</name>
  </trkpt>
  <trkpt lat="68.23274" lon="14.53336">
    <name>TP222</name>
  </trkpt>
  <trkpt lat="68.23252" lon="14.533">
    <name>TP223</name>
  </trkpt>
  <trkpt lat="68.23245" lon="14.5329">
    <name>TP224</name>
  </trkpt>
  <trkpt lat="68.23231" lon="14.53266">
    <name>TP225</name>
  </trkpt>
  <trkpt lat="68.23218" lon="14.53247">
    <name>TP226</name>
  </trkpt>
  <trkpt lat="68.23215" lon="14.53242">
    <name>TP227</name>
  </trkpt>
  <trkpt lat="68.23203" lon="14.53227">
    <name>TP228</name>
  </trkpt>
  <trkpt lat="68.23188" lon="14.5321">
    <name>TP229</name>
  </trkpt>
  <trkpt lat="68.23172" lon="14.53195">
    <name>TP230</name>
  </trkpt>
  <trkpt lat="68.23162" lon="14.53185">
    <name>TP231</name>
  </trkpt>
  <trkpt lat="68.23156" lon="14.53181">
    <name>TP232</name>
  </trkpt>
  <trkpt lat="68.23155" lon="14.5318">
    <name>TP233</name>
  </trkpt>
  <trkpt lat="68.23139" lon="14.53167">
    <name>TP234</name>
  </trkpt>
  <trkpt lat="68.2312" lon="14.53153">
    <name>TP235</name>
  </trkpt>
  <trkpt lat="68.23117" lon="14.53152">
    <name>TP236</name>
  </trkpt>
  <trkpt lat="68.23104" lon="14.53145">
    <name>TP237</name>
  </trkpt>
  <trkpt lat="68.23088" lon="14.53139">
    <name>TP238</name>
  </trkpt>
  <trkpt lat="68.23085" lon="14.53138">
    <name>TP239</name>
  </trkpt>
  <trkpt lat="68.2308" lon="14.53137">
    <name>TP240</name>
  </trkpt>
  <trkpt lat="68.23073" lon="14.53137">
    <name>TP241</name>
  </trkpt>
  <trkpt lat="68.23067" lon="14.5314">
    <name>TP242</name>
  </trkpt>
  <trkpt lat="68.23053" lon="14.53142">
    <name>TP243</name>
  </trkpt>
  <trkpt lat="68.23031" lon="14.53142">
    <name>TP244</name>
  </trkpt>
  <trkpt lat="68.23009" lon="14.53145">
    <name>TP245</name>
  </trkpt>
  <trkpt lat="68.22987" lon="14.53154">
    <name>TP246</name>
  </trkpt>
  <trkpt lat="68.22972" lon="14.53158">
    <name>TP247</name>
  </trkpt>
  <trkpt lat="68.22969" lon="14.5316">
    <name>TP248</name>
  </trkpt>
  <trkpt lat="68.22952" lon="14.53166">
    <name>TP249</name>
  </trkpt>
  <trkpt lat="68.2295" lon="14.53167">
    <name>TP250</name>
  </trkpt>
  <trkpt lat="68.22947" lon="14.53168">
    <name>TP251</name>
  </trkpt>
  <trkpt lat="68.22941" lon="14.53171">
    <name>TP252</name>
  </trkpt>
  <trkpt lat="68.22928" lon="14.53176">
    <name>TP253</name>
  </trkpt>
  <trkpt lat="68.22905" lon="14.53186">
    <name>TP254</name>
  </trkpt>
  <trkpt lat="68.22875" lon="14.53195">
    <name>TP255</name>
  </trkpt>
  <trkpt lat="68.22864" lon="14.53197">
    <name>TP256</name>
  </trkpt>
  <trkpt lat="68.22853" lon="14.53196">
    <name>TP257</name>
  </trkpt>
  <trkpt lat="68.22836" lon="14.53191">
    <name>TP258</name>
  </trkpt>
  <trkpt lat="68.22822" lon="14.53183">
    <name>TP259</name>
  </trkpt>
  <trkpt lat="68.22813" lon="14.53176">
    <name>TP260</name>
  </trkpt>
  <trkpt lat="68.22797" lon="14.53163">
    <name>TP261</name>
  </trkpt>
  <trkpt lat="68.22791" lon="14.53156">
    <name>TP262</name>
  </trkpt>
  <trkpt lat="68.22782" lon="14.53147">
    <name>TP263</name>
  </trkpt>
  <trkpt lat="68.22773" lon="14.53138">
    <name>TP264</name>
  </trkpt>
  <trkpt lat="68.22764" lon="14.53126">
    <name>TP265</name>
  </trkpt>
  <trkpt lat="68.22752" lon="14.53105">
    <name>TP266</name>
  </trkpt>
  <trkpt lat="68.22743" lon="14.53092">
    <name>TP267</name>
  </trkpt>
  <trkpt lat="68.22733" lon="14.53075">
    <name>TP268</name>
  </trkpt>
  <trkpt lat="68.2271" lon="14.53023">
    <name>TP269</name>
  </trkpt>
  <trkpt lat="68.22687" lon="14.52964">
    <name>TP270</name>
  </trkpt>
  <trkpt lat="68.22685" lon="14.52959">
    <name>TP271</name>
  </trkpt>
  <trkpt lat="68.22676" lon="14.52932">
    <name>TP272</name>
  </trkpt>
  <trkpt lat="68.22661" lon="14.52887">
    <name>TP273</name>
  </trkpt>
  <trkpt lat="68.22652" lon="14.52862">
    <name>TP274</name>
  </trkpt>
  <trkpt lat="68.22651" lon="14.5286">
    <name>TP275</name>
  </trkpt>
  <trkpt lat="68.22636" lon="14.52814">
    <name>TP276</name>
  </trkpt>
  <trkpt lat="68.22632" lon="14.52801">
    <name>TP277</name>
  </trkpt>
  <trkpt lat="68.22628" lon="14.52789">
    <name>TP278</name>
  </trkpt>
  <trkpt lat="68.22623" lon="14.52775">
    <name>TP279</name>
  </trkpt>
  <trkpt lat="68.22616" lon="14.52752">
    <name>TP280</name>
  </trkpt>
  <trkpt lat="68.22612" lon="14.52739">
    <name>TP281</name>
  </trkpt>
  <trkpt lat="68.22611" lon="14.52736">
    <name>TP282</name>
  </trkpt>
  <trkpt lat="68.22605" lon="14.52715">
    <name>TP283</name>
  </trkpt>
  <trkpt lat="68.22597" lon="14.5269">
    <name>TP284</name>
  </trkpt>
  <trkpt lat="68.22593" lon="14.52677">
    <name>TP285</name>
  </trkpt>
  <trkpt lat="68.22587" lon="14.52659">
    <name>TP286</name>
  </trkpt>
  <trkpt lat="68.22582" lon="14.52642">
    <name>TP287</name>
  </trkpt>
  <trkpt lat="68.22575" lon="14.52621">
    <name>TP288</name>
  </trkpt>
  <trkpt lat="68.22562" lon="14.52587">
    <name>TP289</name>
  </trkpt>
  <trkpt lat="68.22556" lon="14.5257">
    <name>TP290</name>
  </trkpt>
  <trkpt lat="68.22539" lon="14.52523">
    <name>TP291</name>
  </trkpt>
  <trkpt lat="68.22534" lon="14.5251">
    <name>TP292</name>
  </trkpt>
  <trkpt lat="68.22525" lon="14.52486">
    <name>TP293</name>
  </trkpt>
  <trkpt lat="68.22519" lon="14.52469">
    <name>TP294</name>
  </trkpt>
  <trkpt lat="68.22514" lon="14.52451">
    <name>TP295</name>
  </trkpt>
  <trkpt lat="68.2251" lon="14.52437">
    <name>TP296</name>
  </trkpt>
  <trkpt lat="68.22509" lon="14.52435">
    <name>TP297</name>
  </trkpt>
  <trkpt lat="68.22503" lon="14.52411">
    <name>TP298</name>
  </trkpt>
  <trkpt lat="68.225" lon="14.52397">
    <name>TP299</name>
  </trkpt>
  <trkpt lat="68.22497" lon="14.52384">
    <name>TP300</name>
  </trkpt>
  <trkpt lat="68.22492" lon="14.52357">
    <name>TP301</name>
  </trkpt>
  <trkpt lat="68.22489" lon="14.52337">
    <name>TP302</name>
  </trkpt>
  <trkpt lat="68.22485" lon="14.5231">
    <name>TP303</name>
  </trkpt>
  <trkpt lat="68.22485" lon="14.52309">
    <name>TP304</name>
  </trkpt>
  <trkpt lat="68.22482" lon="14.52277">
    <name>TP305</name>
  </trkpt>
  <trkpt lat="68.2248" lon="14.52252">
    <name>TP306</name>
  </trkpt>
  <trkpt lat="68.22479" lon="14.52217">
    <name>TP307</name>
  </trkpt>
  <trkpt lat="68.22478" lon="14.52173">
    <name>TP308</name>
  </trkpt>
  <trkpt lat="68.22478" lon="14.52165">
    <name>TP309</name>
  </trkpt>
  <trkpt lat="68.22478" lon="14.52146">
    <name>TP310</name>
  </trkpt>
  <trkpt lat="68.22479" lon="14.5211">
    <name>TP311</name>
  </trkpt>
  <trkpt lat="68.22479" lon="14.52068">
    <name>TP312</name>
  </trkpt>
  <trkpt lat="68.2248" lon="14.5202">
    <name>TP313</name>
  </trkpt>
  <trkpt lat="68.2248" lon="14.51989">
    <name>TP314</name>
  </trkpt>
  <trkpt lat="68.22481" lon="14.51855">
    <name>TP315</name>
  </trkpt>
  <trkpt lat="68.2248" lon="14.51816">
    <name>TP316</name>
  </trkpt>
  <trkpt lat="68.22479" lon="14.51776">
    <name>TP317</name>
  </trkpt>
  <trkpt lat="68.22477" lon="14.51736">
    <name>TP318</name>
  </trkpt>
  <trkpt lat="68.22476" lon="14.51716">
    <name>TP319</name>
  </trkpt>
  <trkpt lat="68.22474" lon="14.51696">
    <name>TP320</name>
  </trkpt>
  <trkpt lat="68.22473" lon="14.51689">
    <name>TP321</name>
  </trkpt>
  <trkpt lat="68.22467" lon="14.51645">
    <name>TP322</name>
  </trkpt>
  <trkpt lat="68.22462" lon="14.51624">
    <name>TP323</name>
  </trkpt>
  <trkpt lat="68.2246" lon="14.51614">
    <name>TP324</name>
  </trkpt>
  <trkpt lat="68.22458" lon="14.51604">
    <name>TP325</name>
  </trkpt>
  <trkpt lat="68.22449" lon="14.51572">
    <name>TP326</name>
  </trkpt>
  <trkpt lat="68.22445" lon="14.51559">
    <name>TP327</name>
  </trkpt>
  <trkpt lat="68.22436" lon="14.51533">
    <name>TP328</name>
  </trkpt>
  <trkpt lat="68.22416" lon="14.5148">
    <name>TP329</name>
  </trkpt>
  <trkpt lat="68.22414" lon="14.51473">
    <name>TP330</name>
  </trkpt>
  <trkpt lat="68.22413" lon="14.5147">
    <name>TP331</name>
  </trkpt>
  <trkpt lat="68.2241" lon="14.51465">
    <name>TP332</name>
  </trkpt>
  <trkpt lat="68.22409" lon="14.51462">
    <name>TP333</name>
  </trkpt>
  <trkpt lat="68.22407" lon="14.51458">
    <name>TP334</name>
  </trkpt>
  <trkpt lat="68.22395" lon="14.51437">
    <name>TP335</name>
  </trkpt>
  <trkpt lat="68.22366" lon="14.51392">
    <name>TP336</name>
  </trkpt>
  <trkpt lat="68.2234" lon="14.51352">
    <name>TP337</name>
  </trkpt>
  <trkpt lat="68.22321" lon="14.51321">
    <name>TP338</name>
  </trkpt>
  <trkpt lat="68.22305" lon="14.51294">
    <name>TP339</name>
  </trkpt>
  <trkpt lat="68.22292" lon="14.51273">
    <name>TP340</name>
  </trkpt>
  <trkpt lat="68.22277" lon="14.51248">
    <name>TP341</name>
  </trkpt>
  <trkpt lat="68.22268" lon="14.51228">
    <name>TP342</name>
  </trkpt>
  <trkpt lat="68.22262" lon="14.51217">
    <name>TP343</name>
  </trkpt>
  <trkpt lat="68.22261" lon="14.51216">
    <name>TP344</name>
  </trkpt>
  <trkpt lat="68.22258" lon="14.51209">
    <name>TP345</name>
  </trkpt>
  <trkpt lat="68.22256" lon="14.51205">
    <name>TP346</name>
  </trkpt>
  <trkpt lat="68.22253" lon="14.51199">
    <name>TP347</name>
  </trkpt>
  <trkpt lat="68.22243" lon="14.51172">
    <name>TP348</name>
  </trkpt>
  <trkpt lat="68.22236" lon="14.51155">
    <name>TP349</name>
  </trkpt>
  <trkpt lat="68.2223" lon="14.51137">
    <name>TP350</name>
  </trkpt>
  <trkpt lat="68.22225" lon="14.51122">
    <name>TP351</name>
  </trkpt>
  <trkpt lat="68.22219" lon="14.51099">
    <name>TP352</name>
  </trkpt>
  <trkpt lat="68.22212" lon="14.51069">
    <name>TP353</name>
  </trkpt>
  <trkpt lat="68.22207" lon="14.51044">
    <name>TP354</name>
  </trkpt>
  <trkpt lat="68.22205" lon="14.51033">
    <name>TP355</name>
  </trkpt>
  <trkpt lat="68.22202" lon="14.51015">
    <name>TP356</name>
  </trkpt>
  <trkpt lat="68.22201" lon="14.5101">
    <name>TP357</name>
  </trkpt>
  <trkpt lat="68.22198" lon="14.50988">
    <name>TP358</name>
  </trkpt>
  <trkpt lat="68.22198" lon="14.50987">
    <name>TP359</name>
  </trkpt>
  <trkpt lat="68.22196" lon="14.50975">
    <name>TP360</name>
  </trkpt>
  <trkpt lat="68.22195" lon="14.50963">
    <name>TP361</name>
  </trkpt>
  <trkpt lat="68.22194" lon="14.50952">
    <name>TP362</name>
  </trkpt>
  <trkpt lat="68.22192" lon="14.50932">
    <name>TP363</name>
  </trkpt>
  <trkpt lat="68.22191" lon="14.50929">
    <name>TP364</name>
  </trkpt>
  <trkpt lat="68.22189" lon="14.50902">
    <name>TP365</name>
  </trkpt>
  <trkpt lat="68.22186" lon="14.50852">
    <name>TP366</name>
  </trkpt>
  <trkpt lat="68.22186" lon="14.50833">
    <name>TP367</name>
  </trkpt>
  <trkpt lat="68.22185" lon="14.50818">
    <name>TP368</name>
  </trkpt>
  <trkpt lat="68.22185" lon="14.50785">
    <name>TP369</name>
  </trkpt>
  <trkpt lat="68.22184" lon="14.50776">
    <name>TP370</name>
  </trkpt>
  <trkpt lat="68.22184" lon="14.50768">
    <name>TP371</name>
  </trkpt>
  <trkpt lat="68.22184" lon="14.50736">
    <name>TP372</name>
  </trkpt>
  <trkpt lat="68.22184" lon="14.50714">
    <name>TP373</name>
  </trkpt>
  <trkpt lat="68.22184" lon="14.50649">
    <name>TP374</name>
  </trkpt>
  <trkpt lat="68.22184" lon="14.50542">
    <name>TP375</name>
  </trkpt>
  <trkpt lat="68.22184" lon="14.50524">
    <name>TP376</name>
  </trkpt>
  <trkpt lat="68.22183" lon="14.50494">
    <name>TP377</name>
  </trkpt>
  <trkpt lat="68.22182" lon="14.50463">
    <name>TP378</name>
  </trkpt>
  <trkpt lat="68.22179" lon="14.50411">
    <name>TP379</name>
  </trkpt>
  <trkpt lat="68.22178" lon="14.50398">
    <name>TP380</name>
  </trkpt>
  <trkpt lat="68.22176" lon="14.50381">
    <name>TP381</name>
  </trkpt>
  <trkpt lat="68.22173" lon="14.50351">
    <name>TP382</name>
  </trkpt>
  <trkpt lat="68.22171" lon="14.50335">
    <name>TP383</name>
  </trkpt>
  <trkpt lat="68.22171" lon="14.50334">
    <name>TP384</name>
  </trkpt>
  <trkpt lat="68.22165" lon="14.50292">
    <name>TP385</name>
  </trkpt>
  <trkpt lat="68.22159" lon="14.50261">
    <name>TP386</name>
  </trkpt>
  <trkpt lat="68.22152" lon="14.50221">
    <name>TP387</name>
  </trkpt>
  <trkpt lat="68.22152" lon="14.50218">
    <name>TP388</name>
  </trkpt>
  <trkpt lat="68.22145" lon="14.50186">
    <name>TP389</name>
  </trkpt>
  <trkpt lat="68.22137" lon="14.50154">
    <name>TP390</name>
  </trkpt>
  <trkpt lat="68.22132" lon="14.50137">
    <name>TP391</name>
  </trkpt>
  <trkpt lat="68.22126" lon="14.50118">
    <name>TP392</name>
  </trkpt>
  <trkpt lat="68.22114" lon="14.50074">
    <name>TP393</name>
  </trkpt>
  <trkpt lat="68.22104" lon="14.50044">
    <name>TP394</name>
  </trkpt>
  <trkpt lat="68.22101" lon="14.50037">
    <name>TP395</name>
  </trkpt>
  <trkpt lat="68.22097" lon="14.50025">
    <name>TP396</name>
  </trkpt>
  <trkpt lat="68.22094" lon="14.50016">
    <name>TP397</name>
  </trkpt>
  <trkpt lat="68.22093" lon="14.50013">
    <name>TP398</name>
  </trkpt>
  <trkpt lat="68.22091" lon="14.50008">
    <name>TP399</name>
  </trkpt>
  <trkpt lat="68.22088" lon="14.49999">
    <name>TP400</name>
  </trkpt>
  <trkpt lat="68.2208" lon="14.49974">
    <name>TP401</name>
  </trkpt>
  <trkpt lat="68.22073" lon="14.49954">
    <name>TP402</name>
  </trkpt>
  <trkpt lat="68.22055" lon="14.49902">
    <name>TP403</name>
  </trkpt>
  <trkpt lat="68.22044" lon="14.49872">
    <name>TP404</name>
  </trkpt>
  <trkpt lat="68.22043" lon="14.49869">
    <name>TP405</name>
  </trkpt>
  <trkpt lat="68.22033" lon="14.4984">
    <name>TP406</name>
  </trkpt>
  <trkpt lat="68.22032" lon="14.49836">
    <name>TP407</name>
  </trkpt>
  <trkpt lat="68.22022" lon="14.4981">
    <name>TP408</name>
  </trkpt>
  <trkpt lat="68.22018" lon="14.49801">
    <name>TP409</name>
  </trkpt>
  <trkpt lat="68.22009" lon="14.49776">
    <name>TP410</name>
  </trkpt>
  <trkpt lat="68.21997" lon="14.49741">
    <name>TP411</name>
  </trkpt>
  <trkpt lat="68.21993" lon="14.49732">
    <name>TP412</name>
  </trkpt>
  <trkpt lat="68.21985" lon="14.49708">
    <name>TP413</name>
  </trkpt>
  <trkpt lat="68.21981" lon="14.49696">
    <name>TP414</name>
  </trkpt>
  <trkpt lat="68.21972" lon="14.49667">
    <name>TP415</name>
  </trkpt>
  <trkpt lat="68.21969" lon="14.49659">
    <name>TP416</name>
  </trkpt>
  <trkpt lat="68.21959" lon="14.49628">
    <name>TP417</name>
  </trkpt>
  <trkpt lat="68.21946" lon="14.49588">
    <name>TP418</name>
  </trkpt>
  <trkpt lat="68.21946" lon="14.49586">
    <name>TP419</name>
  </trkpt>
  <trkpt lat="68.21935" lon="14.49548">
    <name>TP420</name>
  </trkpt>
  <trkpt lat="68.21932" lon="14.49541">
    <name>TP421</name>
  </trkpt>
  <trkpt lat="68.21923" lon="14.4951">
    <name>TP422</name>
  </trkpt>
  <trkpt lat="68.21921" lon="14.49502">
    <name>TP423</name>
  </trkpt>
  <trkpt lat="68.21905" lon="14.49448">
    <name>TP424</name>
  </trkpt>
  <trkpt lat="68.21893" lon="14.49408">
    <name>TP425</name>
  </trkpt>
  <trkpt lat="68.2188" lon="14.49362">
    <name>TP426</name>
  </trkpt>
  <trkpt lat="68.21867" lon="14.49323">
    <name>TP427</name>
  </trkpt>
  <trkpt lat="68.21859" lon="14.49296">
    <name>TP428</name>
  </trkpt>
  <trkpt lat="68.21855" lon="14.49286">
    <name>TP429</name>
  </trkpt>
  <trkpt lat="68.21855" lon="14.49285">
    <name>TP430</name>
  </trkpt>
  <trkpt lat="68.21851" lon="14.49274">
    <name>TP431</name>
  </trkpt>
  <trkpt lat="68.21849" lon="14.49269">
    <name>TP432</name>
  </trkpt>
  <trkpt lat="68.21847" lon="14.49266">
    <name>TP433</name>
  </trkpt>
  <trkpt lat="68.21844" lon="14.49259">
    <name>TP434</name>
  </trkpt>
  <trkpt lat="68.21842" lon="14.49253">
    <name>TP435</name>
  </trkpt>
  <trkpt lat="68.21841" lon="14.49253">
    <name>TP436</name>
  </trkpt>
  <trkpt lat="68.21836" lon="14.49241">
    <name>TP437</name>
  </trkpt>
  <trkpt lat="68.21825" lon="14.49218">
    <name>TP438</name>
  </trkpt>
  <trkpt lat="68.21814" lon="14.49195">
    <name>TP439</name>
  </trkpt>
  <trkpt lat="68.21813" lon="14.49194">
    <name>TP440</name>
  </trkpt>
  <trkpt lat="68.21797" lon="14.49164">
    <name>TP441</name>
  </trkpt>
  <trkpt lat="68.21786" lon="14.49139">
    <name>TP442</name>
  </trkpt>
  <trkpt lat="68.21774" lon="14.49117">
    <name>TP443</name>
  </trkpt>
  <trkpt lat="68.21762" lon="14.49088">
    <name>TP444</name>
  </trkpt>
  <trkpt lat="68.21756" lon="14.49071">
    <name>TP445</name>
  </trkpt>
  <trkpt lat="68.2175" lon="14.49055">
    <name>TP446</name>
  </trkpt>
  <trkpt lat="68.21746" lon="14.49042">
    <name>TP447</name>
  </trkpt>
  <trkpt lat="68.21738" lon="14.49017">
    <name>TP448</name>
  </trkpt>
  <trkpt lat="68.21729" lon="14.48978">
    <name>TP449</name>
  </trkpt>
  <trkpt lat="68.21722" lon="14.48943">
    <name>TP450</name>
  </trkpt>
  <trkpt lat="68.21716" lon="14.48911">
    <name>TP451</name>
  </trkpt>
  <trkpt lat="68.21713" lon="14.48891">
    <name>TP452</name>
  </trkpt>
  <trkpt lat="68.21711" lon="14.48875">
    <name>TP453</name>
  </trkpt>
  <trkpt lat="68.21709" lon="14.48866">
    <name>TP454</name>
  </trkpt>
  <trkpt lat="68.21704" lon="14.4883">
    <name>TP455</name>
  </trkpt>
  <trkpt lat="68.21703" lon="14.48823">
    <name>TP456</name>
  </trkpt>
  <trkpt lat="68.21703" lon="14.48821">
    <name>TP457</name>
  </trkpt>
  <trkpt lat="68.21694" lon="14.48759">
    <name>TP458</name>
  </trkpt>
  <trkpt lat="68.21684" lon="14.48685">
    <name>TP459</name>
  </trkpt>
  <trkpt lat="68.2168" lon="14.48658">
    <name>TP460</name>
  </trkpt>
  <trkpt lat="68.21678" lon="14.48647">
    <name>TP461</name>
  </trkpt>
  <trkpt lat="68.21673" lon="14.48612">
    <name>TP462</name>
  </trkpt>
  <trkpt lat="68.21664" lon="14.48544">
    <name>TP463</name>
  </trkpt>
  <trkpt lat="68.21663" lon="14.48534">
    <name>TP464</name>
  </trkpt>
  <trkpt lat="68.21661" lon="14.48522">
    <name>TP465</name>
  </trkpt>
  <trkpt lat="68.21656" lon="14.48486">
    <name>TP466</name>
  </trkpt>
  <trkpt lat="68.2165" lon="14.4845">
    <name>TP467</name>
  </trkpt>
  <trkpt lat="68.21643" lon="14.48398">
    <name>TP468</name>
  </trkpt>
  <trkpt lat="68.21637" lon="14.48363">
    <name>TP469</name>
  </trkpt>
  <trkpt lat="68.21633" lon="14.48341">
    <name>TP470</name>
  </trkpt>
  <trkpt lat="68.21629" lon="14.4832">
    <name>TP471</name>
  </trkpt>
  <trkpt lat="68.21626" lon="14.48306">
    <name>TP472</name>
  </trkpt>
  <trkpt lat="68.21621" lon="14.48289">
    <name>TP473</name>
  </trkpt>
  <trkpt lat="68.21616" lon="14.48273">
    <name>TP474</name>
  </trkpt>
  <trkpt lat="68.21611" lon="14.48258">
    <name>TP475</name>
  </trkpt>
  <trkpt lat="68.21602" lon="14.48236">
    <name>TP476</name>
  </trkpt>
  <trkpt lat="68.21591" lon="14.48213">
    <name>TP477</name>
  </trkpt>
  <trkpt lat="68.21583" lon="14.48201">
    <name>TP478</name>
  </trkpt>
  <trkpt lat="68.21572" lon="14.48188">
    <name>TP479</name>
  </trkpt>
  <trkpt lat="68.21561" lon="14.48179">
    <name>TP480</name>
  </trkpt>
  <trkpt lat="68.21548" lon="14.48172">
    <name>TP481</name>
  </trkpt>
  <trkpt lat="68.21539" lon="14.48171">
    <name>TP482</name>
  </trkpt>
  <trkpt lat="68.21531" lon="14.4817">
    <name>TP483</name>
  </trkpt>
  <trkpt lat="68.2152" lon="14.48172">
    <name>TP484</name>
  </trkpt>
  <trkpt lat="68.21516" lon="14.48173">
    <name>TP485</name>
  </trkpt>
  <trkpt lat="68.21514" lon="14.48174">
    <name>TP486</name>
  </trkpt>
  <trkpt lat="68.2151" lon="14.48176">
    <name>TP487</name>
  </trkpt>
  <trkpt lat="68.21499" lon="14.48183">
    <name>TP488</name>
  </trkpt>
  <trkpt lat="68.21481" lon="14.48198">
    <name>TP489</name>
  </trkpt>
  <trkpt lat="68.21448" lon="14.48232">
    <name>TP490</name>
  </trkpt>
  <trkpt lat="68.21438" lon="14.48242">
    <name>TP491</name>
  </trkpt>
  <trkpt lat="68.2143" lon="14.48248">
    <name>TP492</name>
  </trkpt>
  <trkpt lat="68.21423" lon="14.4825">
    <name>TP493</name>
  </trkpt>
  <trkpt lat="68.21413" lon="14.48252">
    <name>TP494</name>
  </trkpt>
  <trkpt lat="68.21402" lon="14.48251">
    <name>TP495</name>
  </trkpt>
  <trkpt lat="68.21395" lon="14.48249">
    <name>TP496</name>
  </trkpt>
  <trkpt lat="68.21394" lon="14.48249">
    <name>TP497</name>
  </trkpt>
  <trkpt lat="68.21387" lon="14.48246">
    <name>TP498</name>
  </trkpt>
  <trkpt lat="68.2138" lon="14.48242">
    <name>TP499</name>
  </trkpt>
  <trkpt lat="68.21378" lon="14.4824">
    <name>TP500</name>
  </trkpt>
  <trkpt lat="68.2137" lon="14.48235">
    <name>TP501</name>
  </trkpt>
  <trkpt lat="68.21365" lon="14.4823">
    <name>TP502</name>
  </trkpt>
  <trkpt lat="68.21359" lon="14.48223">
    <name>TP503</name>
  </trkpt>
  <trkpt lat="68.21353" lon="14.48214">
    <name>TP504</name>
  </trkpt>
  <trkpt lat="68.21346" lon="14.48204">
    <name>TP505</name>
  </trkpt>
  <trkpt lat="68.2134" lon="14.48195">
    <name>TP506</name>
  </trkpt>
  <trkpt lat="68.21335" lon="14.48185">
    <name>TP507</name>
  </trkpt>
  <trkpt lat="68.21328" lon="14.48171">
    <name>TP508</name>
  </trkpt>
  <trkpt lat="68.21323" lon="14.48157">
    <name>TP509</name>
  </trkpt>
  <trkpt lat="68.21318" lon="14.48144">
    <name>TP510</name>
  </trkpt>
  <trkpt lat="68.21308" lon="14.48113">
    <name>TP511</name>
  </trkpt>
  <trkpt lat="68.21301" lon="14.48087">
    <name>TP512</name>
  </trkpt>
  <trkpt lat="68.213" lon="14.48086">
    <name>TP513</name>
  </trkpt>
  <trkpt lat="68.21298" lon="14.48077">
    <name>TP514</name>
  </trkpt>
  <trkpt lat="68.21295" lon="14.48067">
    <name>TP515</name>
  </trkpt>
  <trkpt lat="68.21291" lon="14.48052">
    <name>TP516</name>
  </trkpt>
  <trkpt lat="68.21287" lon="14.48035">
    <name>TP517</name>
  </trkpt>
  <trkpt lat="68.2128" lon="14.48012">
    <name>TP518</name>
  </trkpt>
  <trkpt lat="68.21276" lon="14.47996">
    <name>TP519</name>
  </trkpt>
  <trkpt lat="68.21271" lon="14.47972">
    <name>TP520</name>
  </trkpt>
  <trkpt lat="68.21266" lon="14.47955">
    <name>TP521</name>
  </trkpt>
  <trkpt lat="68.21262" lon="14.47938">
    <name>TP522</name>
  </trkpt>
  <trkpt lat="68.21253" lon="14.47912">
    <name>TP523</name>
  </trkpt>
  <trkpt lat="68.21243" lon="14.47884">
    <name>TP524</name>
  </trkpt>
  <trkpt lat="68.21233" lon="14.47858">
    <name>TP525</name>
  </trkpt>
  <trkpt lat="68.2123" lon="14.4785">
    <name>TP526</name>
  </trkpt>
  <trkpt lat="68.21215" lon="14.47813">
    <name>TP527</name>
  </trkpt>
  <trkpt lat="68.21208" lon="14.47786">
    <name>TP528</name>
  </trkpt>
  <trkpt lat="68.21201" lon="14.47755">
    <name>TP529</name>
  </trkpt>
  <trkpt lat="68.21195" lon="14.47722">
    <name>TP530</name>
  </trkpt>
  <trkpt lat="68.21191" lon="14.47686">
    <name>TP531</name>
  </trkpt>
  <trkpt lat="68.21191" lon="14.47683">
    <name>TP532</name>
  </trkpt>
  <trkpt lat="68.21188" lon="14.47642">
    <name>TP533</name>
  </trkpt>
  <trkpt lat="68.21188" lon="14.47599">
    <name>TP534</name>
  </trkpt>
  <trkpt lat="68.21188" lon="14.47574">
    <name>TP535</name>
  </trkpt>
  <trkpt lat="68.2119" lon="14.47542">
    <name>TP536</name>
  </trkpt>
  <trkpt lat="68.2119" lon="14.4754">
    <name>TP537</name>
  </trkpt>
  <trkpt lat="68.21192" lon="14.47488">
    <name>TP538</name>
  </trkpt>
  <trkpt lat="68.21193" lon="14.47485">
    <name>TP539</name>
  </trkpt>
  <trkpt lat="68.21194" lon="14.4746">
    <name>TP540</name>
  </trkpt>
  <trkpt lat="68.21195" lon="14.47432">
    <name>TP541</name>
  </trkpt>
  <trkpt lat="68.21199" lon="14.47362">
    <name>TP542</name>
  </trkpt>
  <trkpt lat="68.212" lon="14.47308">
    <name>TP543</name>
  </trkpt>
  <trkpt lat="68.21201" lon="14.47274">
    <name>TP544</name>
  </trkpt>
  <trkpt lat="68.21205" lon="14.47222">
    <name>TP545</name>
  </trkpt>
  <trkpt lat="68.21205" lon="14.47213">
    <name>TP546</name>
  </trkpt>
  <trkpt lat="68.21205" lon="14.47201">
    <name>TP547</name>
  </trkpt>
  <trkpt lat="68.21208" lon="14.47143">
    <name>TP548</name>
  </trkpt>
  <trkpt lat="68.21211" lon="14.47055">
    <name>TP549</name>
  </trkpt>
  <trkpt lat="68.21212" lon="14.47028">
    <name>TP550</name>
  </trkpt>
  <trkpt lat="68.21213" lon="14.47016">
    <name>TP551</name>
  </trkpt>
  <trkpt lat="68.21215" lon="14.46961">
    <name>TP552</name>
  </trkpt>
  <trkpt lat="68.21217" lon="14.46913">
    <name>TP553</name>
  </trkpt>
  <trkpt lat="68.21219" lon="14.46875">
    <name>TP554</name>
  </trkpt>
  <trkpt lat="68.2122" lon="14.46865">
    <name>TP555</name>
  </trkpt>
  <trkpt lat="68.21224" lon="14.46787">
    <name>TP556</name>
  </trkpt>
  <trkpt lat="68.21225" lon="14.46769">
    <name>TP557</name>
  </trkpt>
  <trkpt lat="68.21227" lon="14.46733">
    <name>TP558</name>
  </trkpt>
  <trkpt lat="68.21232" lon="14.46683">
    <name>TP559</name>
  </trkpt>
  <trkpt lat="68.21239" lon="14.4663">
    <name>TP560</name>
  </trkpt>
  <trkpt lat="68.21246" lon="14.4659">
    <name>TP561</name>
  </trkpt>
  <trkpt lat="68.21255" lon="14.46547">
    <name>TP562</name>
  </trkpt>
  <trkpt lat="68.2126" lon="14.46523">
    <name>TP563</name>
  </trkpt>
  <trkpt lat="68.21264" lon="14.46506">
    <name>TP564</name>
  </trkpt>
  <trkpt lat="68.2127" lon="14.46485">
    <name>TP565</name>
  </trkpt>
  <trkpt lat="68.21273" lon="14.46472">
    <name>TP566</name>
  </trkpt>
  <trkpt lat="68.21283" lon="14.46425">
    <name>TP567</name>
  </trkpt>
  <trkpt lat="68.21291" lon="14.46379">
    <name>TP568</name>
  </trkpt>
  <trkpt lat="68.21299" lon="14.46333">
    <name>TP569</name>
  </trkpt>
  <trkpt lat="68.21301" lon="14.46323">
    <name>TP570</name>
  </trkpt>
  <trkpt lat="68.21303" lon="14.46312">
    <name>TP571</name>
  </trkpt>
  <trkpt lat="68.21303" lon="14.46307">
    <name>TP572</name>
  </trkpt>
  <trkpt lat="68.21306" lon="14.46291">
    <name>TP573</name>
  </trkpt>
  <trkpt lat="68.21311" lon="14.46253">
    <name>TP574</name>
  </trkpt>
  <trkpt lat="68.21312" lon="14.46245">
    <name>TP575</name>
  </trkpt>
  <trkpt lat="68.21315" lon="14.46219">
    <name>TP576</name>
  </trkpt>
  <trkpt lat="68.21318" lon="14.46184">
    <name>TP577</name>
  </trkpt>
  <trkpt lat="68.21321" lon="14.46144">
    <name>TP578</name>
  </trkpt>
  <trkpt lat="68.21323" lon="14.461">
    <name>TP579</name>
  </trkpt>
  <trkpt lat="68.21325" lon="14.46052">
    <name>TP580</name>
  </trkpt>
  <trkpt lat="68.21326" lon="14.45999">
    <name>TP581</name>
  </trkpt>
  <trkpt lat="68.21326" lon="14.45941">
    <name>TP582</name>
  </trkpt>
  <trkpt lat="68.21326" lon="14.45933">
    <name>TP583</name>
  </trkpt>
  <trkpt lat="68.21326" lon="14.45929">
    <name>TP584</name>
  </trkpt>
  <trkpt lat="68.21326" lon="14.45842">
    <name>TP585</name>
  </trkpt>
  <trkpt lat="68.21326" lon="14.45766">
    <name>TP586</name>
  </trkpt>
  <trkpt lat="68.21327" lon="14.45716">
    <name>TP587</name>
  </trkpt>
  <trkpt lat="68.21327" lon="14.45662">
    <name>TP588</name>
  </trkpt>
  <trkpt lat="68.21327" lon="14.45648">
    <name>TP589</name>
  </trkpt>
  <trkpt lat="68.21328" lon="14.45608">
    <name>TP590</name>
  </trkpt>
  <trkpt lat="68.21328" lon="14.456">
    <name>TP591</name>
  </trkpt>
  <trkpt lat="68.21328" lon="14.45557">
    <name>TP592</name>
  </trkpt>
  <trkpt lat="68.21329" lon="14.4551">
    <name>TP593</name>
  </trkpt>
  <trkpt lat="68.21331" lon="14.45467">
    <name>TP594</name>
  </trkpt>
  <trkpt lat="68.21333" lon="14.45429">
    <name>TP595</name>
  </trkpt>
  <trkpt lat="68.21336" lon="14.45396">
    <name>TP596</name>
  </trkpt>
  <trkpt lat="68.21337" lon="14.4538">
    <name>TP597</name>
  </trkpt>
  <trkpt lat="68.21338" lon="14.45364">
    <name>TP598</name>
  </trkpt>
  <trkpt lat="68.21342" lon="14.45324">
    <name>TP599</name>
  </trkpt>
  <trkpt lat="68.21344" lon="14.45289">
    <name>TP600</name>
  </trkpt>
  <trkpt lat="68.21349" lon="14.45236">
    <name>TP601</name>
  </trkpt>
  <trkpt lat="68.21357" lon="14.45164">
    <name>TP602</name>
  </trkpt>
  <trkpt lat="68.21364" lon="14.45095">
    <name>TP603</name>
  </trkpt>
  <trkpt lat="68.21372" lon="14.4502">
    <name>TP604</name>
  </trkpt>
  <trkpt lat="68.2138" lon="14.44946">
    <name>TP605</name>
  </trkpt>
  <trkpt lat="68.21383" lon="14.44913">
    <name>TP606</name>
  </trkpt>
  <trkpt lat="68.21389" lon="14.44856">
    <name>TP607</name>
  </trkpt>
  <trkpt lat="68.21396" lon="14.44803">
    <name>TP608</name>
  </trkpt>
  <trkpt lat="68.214" lon="14.4476">
    <name>TP609</name>
  </trkpt>
  <trkpt lat="68.21401" lon="14.44753">
    <name>TP610</name>
  </trkpt>
  <trkpt lat="68.21405" lon="14.44723">
    <name>TP611</name>
  </trkpt>
  <trkpt lat="68.21408" lon="14.44691">
    <name>TP612</name>
  </trkpt>
  <trkpt lat="68.21413" lon="14.44643">
    <name>TP613</name>
  </trkpt>
  <trkpt lat="68.21423" lon="14.44565">
    <name>TP614</name>
  </trkpt>
  <trkpt lat="68.21435" lon="14.44467">
    <name>TP615</name>
  </trkpt>
  <trkpt lat="68.21441" lon="14.44412">
    <name>TP616</name>
  </trkpt>
  <trkpt lat="68.21443" lon="14.44399">
    <name>TP617</name>
  </trkpt>
  <trkpt lat="68.21456" lon="14.44291">
    <name>TP618</name>
  </trkpt>
  <trkpt lat="68.21463" lon="14.44232">
    <name>TP619</name>
  </trkpt>
  <trkpt lat="68.21469" lon="14.44176">
    <name>TP620</name>
  </trkpt>
  <trkpt lat="68.21476" lon="14.44123">
    <name>TP621</name>
  </trkpt>
  <trkpt lat="68.21477" lon="14.44112">
    <name>TP622</name>
  </trkpt>
  <trkpt lat="68.21478" lon="14.44101">
    <name>TP623</name>
  </trkpt>
  <trkpt lat="68.21489" lon="14.44016">
    <name>TP624</name>
  </trkpt>
  <trkpt lat="68.21501" lon="14.43908">
    <name>TP625</name>
  </trkpt>
  <trkpt lat="68.21511" lon="14.43815">
    <name>TP626</name>
  </trkpt>
  <trkpt lat="68.21514" lon="14.43794">
    <name>TP627</name>
  </trkpt>
  <trkpt lat="68.21519" lon="14.43741">
    <name>TP628</name>
  </trkpt>
  <trkpt lat="68.21522" lon="14.437">
    <name>TP629</name>
  </trkpt>
  <trkpt lat="68.21524" lon="14.43659">
    <name>TP630</name>
  </trkpt>
  <trkpt lat="68.21525" lon="14.43621">
    <name>TP631</name>
  </trkpt>
  <trkpt lat="68.21524" lon="14.43584">
    <name>TP632</name>
  </trkpt>
  <trkpt lat="68.21522" lon="14.43545">
    <name>TP633</name>
  </trkpt>
  <trkpt lat="68.21518" lon="14.43508">
    <name>TP634</name>
  </trkpt>
  <trkpt lat="68.21512" lon="14.4345">
    <name>TP635</name>
  </trkpt>
  <trkpt lat="68.2151" lon="14.43432">
    <name>TP636</name>
  </trkpt>
  <trkpt lat="68.21504" lon="14.43383">
    <name>TP637</name>
  </trkpt>
  <trkpt lat="68.21498" lon="14.4334">
    <name>TP638</name>
  </trkpt>
  <trkpt lat="68.21492" lon="14.433">
    <name>TP639</name>
  </trkpt>
  <trkpt lat="68.21491" lon="14.43295">
    <name>TP640</name>
  </trkpt>
  <trkpt lat="68.21478" lon="14.43187">
    <name>TP641</name>
  </trkpt>
  <trkpt lat="68.21475" lon="14.43168">
    <name>TP642</name>
  </trkpt>
  <trkpt lat="68.21473" lon="14.43152">
    <name>TP643</name>
  </trkpt>
  <trkpt lat="68.21463" lon="14.43078">
    <name>TP644</name>
  </trkpt>
  <trkpt lat="68.2146" lon="14.4305">
    <name>TP645</name>
  </trkpt>
  <trkpt lat="68.21454" lon="14.43004">
    <name>TP646</name>
  </trkpt>
  <trkpt lat="68.21449" lon="14.42966">
    <name>TP647</name>
  </trkpt>
  <trkpt lat="68.21442" lon="14.42918">
    <name>TP648</name>
  </trkpt>
  <trkpt lat="68.21442" lon="14.42913">
    <name>TP649</name>
  </trkpt>
  <trkpt lat="68.21436" lon="14.4287">
    <name>TP650</name>
  </trkpt>
  <trkpt lat="68.21436" lon="14.42867">
    <name>TP651</name>
  </trkpt>
  <trkpt lat="68.2143" lon="14.42821">
    <name>TP652</name>
  </trkpt>
  <trkpt lat="68.21424" lon="14.42775">
    <name>TP653</name>
  </trkpt>
  <trkpt lat="68.21422" lon="14.42758">
    <name>TP654</name>
  </trkpt>
  <trkpt lat="68.21407" lon="14.42649">
    <name>TP655</name>
  </trkpt>
  <trkpt lat="68.21392" lon="14.42534">
    <name>TP656</name>
  </trkpt>
  <trkpt lat="68.21382" lon="14.42459">
    <name>TP657</name>
  </trkpt>
  <trkpt lat="68.21382" lon="14.42456">
    <name>TP658</name>
  </trkpt>
  <trkpt lat="68.21376" lon="14.4241">
    <name>TP659</name>
  </trkpt>
  <trkpt lat="68.21371" lon="14.42373">
    <name>TP660</name>
  </trkpt>
  <trkpt lat="68.21361" lon="14.4229">
    <name>TP661</name>
  </trkpt>
  <trkpt lat="68.21358" lon="14.42272">
    <name>TP662</name>
  </trkpt>
  <trkpt lat="68.21349" lon="14.42205">
    <name>TP663</name>
  </trkpt>
  <trkpt lat="68.21349" lon="14.42202">
    <name>TP664</name>
  </trkpt>
  <trkpt lat="68.21348" lon="14.42194">
    <name>TP665</name>
  </trkpt>
  <trkpt lat="68.21346" lon="14.42181">
    <name>TP666</name>
  </trkpt>
  <trkpt lat="68.21342" lon="14.42148">
    <name>TP667</name>
  </trkpt>
  <trkpt lat="68.21339" lon="14.42125">
    <name>TP668</name>
  </trkpt>
  <trkpt lat="68.21336" lon="14.42103">
    <name>TP669</name>
  </trkpt>
  <trkpt lat="68.2133" lon="14.42057">
    <name>TP670</name>
  </trkpt>
  <trkpt lat="68.21325" lon="14.42024">
    <name>TP671</name>
  </trkpt>
  <trkpt lat="68.21319" lon="14.41979">
    <name>TP672</name>
  </trkpt>
  <trkpt lat="68.21318" lon="14.41973">
    <name>TP673</name>
  </trkpt>
  <trkpt lat="68.21309" lon="14.41902">
    <name>TP674</name>
  </trkpt>
  <trkpt lat="68.21308" lon="14.41887">
    <name>TP675</name>
  </trkpt>
  <trkpt lat="68.21302" lon="14.41841">
    <name>TP676</name>
  </trkpt>
  <trkpt lat="68.21298" lon="14.41802">
    <name>TP677</name>
  </trkpt>
  <trkpt lat="68.21296" lon="14.41787">
    <name>TP678</name>
  </trkpt>
  <trkpt lat="68.21292" lon="14.41742">
    <name>TP679</name>
  </trkpt>
  <trkpt lat="68.2129" lon="14.417">
    <name>TP680</name>
  </trkpt>
  <trkpt lat="68.21289" lon="14.41662">
    <name>TP681</name>
  </trkpt>
  <trkpt lat="68.21289" lon="14.41646">
    <name>TP682</name>
  </trkpt>
  <trkpt lat="68.21289" lon="14.41643">
    <name>TP683</name>
  </trkpt>
  <trkpt lat="68.21289" lon="14.41611">
    <name>TP684</name>
  </trkpt>
  <trkpt lat="68.2129" lon="14.41597">
    <name>TP685</name>
  </trkpt>
  <trkpt lat="68.2129" lon="14.41586">
    <name>TP686</name>
  </trkpt>
  <trkpt lat="68.21291" lon="14.41569">
    <name>TP687</name>
  </trkpt>
  <trkpt lat="68.21292" lon="14.41545">
    <name>TP688</name>
  </trkpt>
  <trkpt lat="68.21293" lon="14.41521">
    <name>TP689</name>
  </trkpt>
  <trkpt lat="68.21294" lon="14.41514">
    <name>TP690</name>
  </trkpt>
  <trkpt lat="68.21298" lon="14.41474">
    <name>TP691</name>
  </trkpt>
  <trkpt lat="68.21298" lon="14.41473">
    <name>TP692</name>
  </trkpt>
  <trkpt lat="68.21303" lon="14.41428">
    <name>TP693</name>
  </trkpt>
  <trkpt lat="68.21304" lon="14.41421">
    <name>TP694</name>
  </trkpt>
  <trkpt lat="68.21309" lon="14.41382">
    <name>TP695</name>
  </trkpt>
  <trkpt lat="68.21315" lon="14.41333">
    <name>TP696</name>
  </trkpt>
  <trkpt lat="68.21315" lon="14.41331">
    <name>TP697</name>
  </trkpt>
  <trkpt lat="68.21317" lon="14.41315">
    <name>TP698</name>
  </trkpt>
  <trkpt lat="68.21318" lon="14.41303">
    <name>TP699</name>
  </trkpt>
  <trkpt lat="68.2132" lon="14.41292">
    <name>TP700</name>
  </trkpt>
  <trkpt lat="68.2132" lon="14.41289">
    <name>TP701</name>
  </trkpt>
  <trkpt lat="68.21324" lon="14.41254">
    <name>TP702</name>
  </trkpt>
  <trkpt lat="68.21328" lon="14.41226">
    <name>TP703</name>
  </trkpt>
  <trkpt lat="68.21331" lon="14.41196">
    <name>TP704</name>
  </trkpt>
  <trkpt lat="68.21337" lon="14.41151">
    <name>TP705</name>
  </trkpt>
  <trkpt lat="68.21343" lon="14.41105">
    <name>TP706</name>
  </trkpt>
  <trkpt lat="68.21344" lon="14.41094">
    <name>TP707</name>
  </trkpt>
  <trkpt lat="68.21353" lon="14.41027">
    <name>TP708</name>
  </trkpt>
  <trkpt lat="68.21355" lon="14.41014">
    <name>TP709</name>
  </trkpt>
  <trkpt lat="68.2136" lon="14.40983">
    <name>TP710</name>
  </trkpt>
  <trkpt lat="68.21362" lon="14.40969">
    <name>TP711</name>
  </trkpt>
  <trkpt lat="68.21368" lon="14.40934">
    <name>TP712</name>
  </trkpt>
  <trkpt lat="68.2137" lon="14.40926">
    <name>TP713</name>
  </trkpt>
  <trkpt lat="68.21376" lon="14.40899">
    <name>TP714</name>
  </trkpt>
  <trkpt lat="68.21379" lon="14.40884">
    <name>TP715</name>
  </trkpt>
  <trkpt lat="68.21385" lon="14.4086">
    <name>TP716</name>
  </trkpt>
  <trkpt lat="68.2139" lon="14.40845">
    <name>TP717</name>
  </trkpt>
  <trkpt lat="68.21399" lon="14.40817">
    <name>TP718</name>
  </trkpt>
  <trkpt lat="68.21402" lon="14.40808">
    <name>TP719</name>
  </trkpt>
  <trkpt lat="68.21414" lon="14.40772">
    <name>TP720</name>
  </trkpt>
  <trkpt lat="68.21422" lon="14.40746">
    <name>TP721</name>
  </trkpt>
  <trkpt lat="68.21425" lon="14.40736">
    <name>TP722</name>
  </trkpt>
  <trkpt lat="68.21437" lon="14.40699">
    <name>TP723</name>
  </trkpt>
  <trkpt lat="68.21438" lon="14.40695">
    <name>TP724</name>
  </trkpt>
  <trkpt lat="68.21448" lon="14.4066">
    <name>TP725</name>
  </trkpt>
  <trkpt lat="68.21452" lon="14.40644">
    <name>TP726</name>
  </trkpt>
  <trkpt lat="68.21458" lon="14.40619">
    <name>TP727</name>
  </trkpt>
  <trkpt lat="68.21463" lon="14.40593">
    <name>TP728</name>
  </trkpt>
  <trkpt lat="68.21472" lon="14.40538">
    <name>TP729</name>
  </trkpt>
  <trkpt lat="68.21478" lon="14.40492">
    <name>TP730</name>
  </trkpt>
  <trkpt lat="68.21482" lon="14.40444">
    <name>TP731</name>
  </trkpt>
  <trkpt lat="68.21485" lon="14.40399">
    <name>TP732</name>
  </trkpt>
  <trkpt lat="68.21485" lon="14.40396">
    <name>TP733</name>
  </trkpt>
  <trkpt lat="68.21486" lon="14.4035">
    <name>TP734</name>
  </trkpt>
  <trkpt lat="68.21487" lon="14.40313">
    <name>TP735</name>
  </trkpt>
  <trkpt lat="68.21487" lon="14.40301">
    <name>TP736</name>
  </trkpt>
  <trkpt lat="68.21487" lon="14.403">
    <name>TP737</name>
  </trkpt>
  <trkpt lat="68.21486" lon="14.40257">
    <name>TP738</name>
  </trkpt>
  <trkpt lat="68.21486" lon="14.40251">
    <name>TP739</name>
  </trkpt>
  <trkpt lat="68.21484" lon="14.40215">
    <name>TP740</name>
  </trkpt>
  <trkpt lat="68.21483" lon="14.40203">
    <name>TP741</name>
  </trkpt>
  <trkpt lat="68.2148" lon="14.40167">
    <name>TP742</name>
  </trkpt>
  <trkpt lat="68.21472" lon="14.40101">
    <name>TP743</name>
  </trkpt>
  <trkpt lat="68.21463" lon="14.40048">
    <name>TP744</name>
  </trkpt>
  <trkpt lat="68.21449" lon="14.39983">
    <name>TP745</name>
  </trkpt>
  <trkpt lat="68.21439" lon="14.39941">
    <name>TP746</name>
  </trkpt>
  <trkpt lat="68.21432" lon="14.39916">
    <name>TP747</name>
  </trkpt>
  <trkpt lat="68.21429" lon="14.39901">
    <name>TP748</name>
  </trkpt>
  <trkpt lat="68.21419" lon="14.3986">
    <name>TP749</name>
  </trkpt>
  <trkpt lat="68.21414" lon="14.39841">
    <name>TP750</name>
  </trkpt>
  <trkpt lat="68.21404" lon="14.39801">
    <name>TP751</name>
  </trkpt>
  <trkpt lat="68.21401" lon="14.39791">
    <name>TP752</name>
  </trkpt>
  <trkpt lat="68.21398" lon="14.3978">
    <name>TP753</name>
  </trkpt>
  <trkpt lat="68.21394" lon="14.39763">
    <name>TP754</name>
  </trkpt>
  <trkpt lat="68.21388" lon="14.39741">
    <name>TP755</name>
  </trkpt>
  <trkpt lat="68.21378" lon="14.39701">
    <name>TP756</name>
  </trkpt>
  <trkpt lat="68.21375" lon="14.39691">
    <name>TP757</name>
  </trkpt>
  <trkpt lat="68.21361" lon="14.39634">
    <name>TP758</name>
  </trkpt>
  <trkpt lat="68.21356" lon="14.39603">
    <name>TP759</name>
  </trkpt>
  <trkpt lat="68.21354" lon="14.3959">
    <name>TP760</name>
  </trkpt>
  <trkpt lat="68.21347" lon="14.39556">
    <name>TP761</name>
  </trkpt>
  <trkpt lat="68.21339" lon="14.395">
    <name>TP762</name>
  </trkpt>
  <trkpt lat="68.21329" lon="14.39432">
    <name>TP763</name>
  </trkpt>
  <trkpt lat="68.21323" lon="14.39379">
    <name>TP764</name>
  </trkpt>
  <trkpt lat="68.21318" lon="14.3933">
    <name>TP765</name>
  </trkpt>
  <trkpt lat="68.21314" lon="14.39274">
    <name>TP766</name>
  </trkpt>
  <trkpt lat="68.21312" lon="14.39241">
    <name>TP767</name>
  </trkpt>
  <trkpt lat="68.2131" lon="14.39207">
    <name>TP768</name>
  </trkpt>
  <trkpt lat="68.21305" lon="14.39111">
    <name>TP769</name>
  </trkpt>
  <trkpt lat="68.21304" lon="14.39089">
    <name>TP770</name>
  </trkpt>
  <trkpt lat="68.21303" lon="14.39063">
    <name>TP771</name>
  </trkpt>
  <trkpt lat="68.21298" lon="14.38981">
    <name>TP772</name>
  </trkpt>
  <trkpt lat="68.21293" lon="14.38852">
    <name>TP773</name>
  </trkpt>
  <trkpt lat="68.21287" lon="14.38715">
    <name>TP774</name>
  </trkpt>
  <trkpt lat="68.21281" lon="14.38594">
    <name>TP775</name>
  </trkpt>
  <trkpt lat="68.21277" lon="14.38507">
    <name>TP776</name>
  </trkpt>
  <trkpt lat="68.21273" lon="14.38417">
    <name>TP777</name>
  </trkpt>
  <trkpt lat="68.21265" lon="14.38234">
    <name>TP778</name>
  </trkpt>
  <trkpt lat="68.21264" lon="14.38213">
    <name>TP779</name>
  </trkpt>
  <trkpt lat="68.21261" lon="14.38165">
    <name>TP780</name>
  </trkpt>
  <trkpt lat="68.2126" lon="14.38139">
    <name>TP781</name>
  </trkpt>
  <trkpt lat="68.21259" lon="14.38117">
    <name>TP782</name>
  </trkpt>
  <trkpt lat="68.21256" lon="14.38065">
    <name>TP783</name>
  </trkpt>
  <trkpt lat="68.21251" lon="14.37969">
    <name>TP784</name>
  </trkpt>
  <trkpt lat="68.21249" lon="14.37938">
    <name>TP785</name>
  </trkpt>
  <trkpt lat="68.21248" lon="14.37921">
    <name>TP786</name>
  </trkpt>
  <trkpt lat="68.21243" lon="14.37826">
    <name>TP787</name>
  </trkpt>
  <trkpt lat="68.21243" lon="14.37818">
    <name>TP788</name>
  </trkpt>
  <trkpt lat="68.2124" lon="14.37778">
    <name>TP789</name>
  </trkpt>
  <trkpt lat="68.21238" lon="14.3773">
    <name>TP790</name>
  </trkpt>
  <trkpt lat="68.21236" lon="14.37707">
    <name>TP791</name>
  </trkpt>
  <trkpt lat="68.21232" lon="14.37625">
    <name>TP792</name>
  </trkpt>
  <trkpt lat="68.21227" lon="14.37512">
    <name>TP793</name>
  </trkpt>
  <trkpt lat="68.2122" lon="14.37381">
    <name>TP794</name>
  </trkpt>
  <trkpt lat="68.21213" lon="14.37248">
    <name>TP795</name>
  </trkpt>
  <trkpt lat="68.21207" lon="14.37132">
    <name>TP796</name>
  </trkpt>
  <trkpt lat="68.21204" lon="14.37057">
    <name>TP797</name>
  </trkpt>
  <trkpt lat="68.21203" lon="14.37045">
    <name>TP798</name>
  </trkpt>
  <trkpt lat="68.21201" lon="14.3701">
    <name>TP799</name>
  </trkpt>
  <trkpt lat="68.21193" lon="14.36848">
    <name>TP800</name>
  </trkpt>
  <trkpt lat="68.21189" lon="14.36772">
    <name>TP801</name>
  </trkpt>
  <trkpt lat="68.21183" lon="14.36649">
    <name>TP802</name>
  </trkpt>
  <trkpt lat="68.21176" lon="14.36524">
    <name>TP803</name>
  </trkpt>
  <trkpt lat="68.21175" lon="14.36512">
    <name>TP804</name>
  </trkpt>
  <trkpt lat="68.21173" lon="14.36464">
    <name>TP805</name>
  </trkpt>
  <trkpt lat="68.21169" lon="14.36382">
    <name>TP806</name>
  </trkpt>
  <trkpt lat="68.21168" lon="14.36368">
    <name>TP807</name>
  </trkpt>
  <trkpt lat="68.21166" lon="14.3632">
    <name>TP808</name>
  </trkpt>
  <trkpt lat="68.21164" lon="14.36284">
    <name>TP809</name>
  </trkpt>
  <trkpt lat="68.21156" lon="14.36128">
    <name>TP810</name>
  </trkpt>
  <trkpt lat="68.21155" lon="14.3611">
    <name>TP811</name>
  </trkpt>
  <trkpt lat="68.21153" lon="14.3608">
    <name>TP812</name>
  </trkpt>
  <trkpt lat="68.21148" lon="14.35979">
    <name>TP813</name>
  </trkpt>
  <trkpt lat="68.21144" lon="14.35888">
    <name>TP814</name>
  </trkpt>
  <trkpt lat="68.21144" lon="14.35887">
    <name>TP815</name>
  </trkpt>
  <trkpt lat="68.21141" lon="14.3584">
    <name>TP816</name>
  </trkpt>
  <trkpt lat="68.21139" lon="14.35797">
    <name>TP817</name>
  </trkpt>
  <trkpt lat="68.21138" lon="14.35792">
    <name>TP818</name>
  </trkpt>
  <trkpt lat="68.21136" lon="14.35744">
    <name>TP819</name>
  </trkpt>
  <trkpt lat="68.21136" lon="14.35736">
    <name>TP820</name>
  </trkpt>
  <trkpt lat="68.21133" lon="14.35696">
    <name>TP821</name>
  </trkpt>
  <trkpt lat="68.21132" lon="14.35678">
    <name>TP822</name>
  </trkpt>
  <trkpt lat="68.21131" lon="14.35648">
    <name>TP823</name>
  </trkpt>
  <trkpt lat="68.2113" lon="14.35637">
    <name>TP824</name>
  </trkpt>
  <trkpt lat="68.21129" lon="14.356">
    <name>TP825</name>
  </trkpt>
  <trkpt lat="68.21129" lon="14.35591">
    <name>TP826</name>
  </trkpt>
  <trkpt lat="68.21128" lon="14.35552">
    <name>TP827</name>
  </trkpt>
  <trkpt lat="68.21128" lon="14.35513">
    <name>TP828</name>
  </trkpt>
  <trkpt lat="68.21128" lon="14.35503">
    <name>TP829</name>
  </trkpt>
  <trkpt lat="68.21128" lon="14.35476">
    <name>TP830</name>
  </trkpt>
  <trkpt lat="68.21129" lon="14.35455">
    <name>TP831</name>
  </trkpt>
  <trkpt lat="68.2113" lon="14.35439">
    <name>TP832</name>
  </trkpt>
  <trkpt lat="68.21133" lon="14.35401">
    <name>TP833</name>
  </trkpt>
  <trkpt lat="68.21136" lon="14.35361">
    <name>TP834</name>
  </trkpt>
  <trkpt lat="68.21141" lon="14.35308">
    <name>TP835</name>
  </trkpt>
  <trkpt lat="68.21146" lon="14.35269">
    <name>TP836</name>
  </trkpt>
  <trkpt lat="68.21151" lon="14.35224">
    <name>TP837</name>
  </trkpt>
  <trkpt lat="68.21158" lon="14.35163">
    <name>TP838</name>
  </trkpt>
  <trkpt lat="68.21164" lon="14.35117">
    <name>TP839</name>
  </trkpt>
  <trkpt lat="68.2117" lon="14.35067">
    <name>TP840</name>
  </trkpt>
  <trkpt lat="68.21177" lon="14.35005">
    <name>TP841</name>
  </trkpt>
  <trkpt lat="68.21186" lon="14.34932">
    <name>TP842</name>
  </trkpt>
  <trkpt lat="68.21187" lon="14.34918">
    <name>TP843</name>
  </trkpt>
  <trkpt lat="68.21191" lon="14.34886">
    <name>TP844</name>
  </trkpt>
  <trkpt lat="68.21198" lon="14.34826">
    <name>TP845</name>
  </trkpt>
  <trkpt lat="68.21202" lon="14.34793">
    <name>TP846</name>
  </trkpt>
  <trkpt lat="68.21207" lon="14.34747">
    <name>TP847</name>
  </trkpt>
  <trkpt lat="68.2121" lon="14.34725">
    <name>TP848</name>
  </trkpt>
  <trkpt lat="68.21212" lon="14.34701">
    <name>TP849</name>
  </trkpt>
  <trkpt lat="68.21218" lon="14.34654">
    <name>TP850</name>
  </trkpt>
  <trkpt lat="68.2122" lon="14.34633">
    <name>TP851</name>
  </trkpt>
  <trkpt lat="68.21223" lon="14.34608">
    <name>TP852</name>
  </trkpt>
  <trkpt lat="68.21231" lon="14.34542">
    <name>TP853</name>
  </trkpt>
  <trkpt lat="68.21234" lon="14.34516">
    <name>TP854</name>
  </trkpt>
  <trkpt lat="68.21243" lon="14.34436">
    <name>TP855</name>
  </trkpt>
  <trkpt lat="68.2125" lon="14.34377">
    <name>TP856</name>
  </trkpt>
  <trkpt lat="68.21253" lon="14.34347">
    <name>TP857</name>
  </trkpt>
  <trkpt lat="68.2126" lon="14.34284">
    <name>TP858</name>
  </trkpt>
  <trkpt lat="68.21264" lon="14.34249">
    <name>TP859</name>
  </trkpt>
  <trkpt lat="68.21266" lon="14.34238">
    <name>TP860</name>
  </trkpt>
  <trkpt lat="68.21271" lon="14.34192">
    <name>TP861</name>
  </trkpt>
  <trkpt lat="68.21275" lon="14.34159">
    <name>TP862</name>
  </trkpt>
  <trkpt lat="68.21286" lon="14.34066">
    <name>TP863</name>
  </trkpt>
  <trkpt lat="68.21297" lon="14.33964">
    <name>TP864</name>
  </trkpt>
  <trkpt lat="68.21298" lon="14.3396">
    <name>TP865</name>
  </trkpt>
  <trkpt lat="68.21303" lon="14.33914">
    <name>TP866</name>
  </trkpt>
  <trkpt lat="68.21307" lon="14.33875">
    <name>TP867</name>
  </trkpt>
  <trkpt lat="68.21308" lon="14.33867">
    <name>TP868</name>
  </trkpt>
  <trkpt lat="68.21318" lon="14.33786">
    <name>TP869</name>
  </trkpt>
  <trkpt lat="68.21334" lon="14.33646">
    <name>TP870</name>
  </trkpt>
  <trkpt lat="68.2134" lon="14.3359">
    <name>TP871</name>
  </trkpt>
  <trkpt lat="68.21348" lon="14.33518">
    <name>TP872</name>
  </trkpt>
  <trkpt lat="68.21361" lon="14.33405">
    <name>TP873</name>
  </trkpt>
  <trkpt lat="68.21366" lon="14.33361">
    <name>TP874</name>
  </trkpt>
  <trkpt lat="68.21385" lon="14.33204">
    <name>TP875</name>
  </trkpt>
  <trkpt lat="68.21401" lon="14.33068">
    <name>TP876</name>
  </trkpt>
  <trkpt lat="68.2141" lon="14.32989">
    <name>TP877</name>
  </trkpt>
  <trkpt lat="68.21413" lon="14.32966">
    <name>TP878</name>
  </trkpt>
  <trkpt lat="68.21415" lon="14.32942">
    <name>TP879</name>
  </trkpt>
  <trkpt lat="68.21421" lon="14.32896">
    <name>TP880</name>
  </trkpt>
  <trkpt lat="68.21423" lon="14.32875">
    <name>TP881</name>
  </trkpt>
  <trkpt lat="68.21426" lon="14.3285">
    <name>TP882</name>
  </trkpt>
  <trkpt lat="68.21433" lon="14.32787">
    <name>TP883</name>
  </trkpt>
  <trkpt lat="68.21447" lon="14.32659">
    <name>TP884</name>
  </trkpt>
  <trkpt lat="68.21458" lon="14.32572">
    <name>TP885</name>
  </trkpt>
  <trkpt lat="68.21462" lon="14.32541">
    <name>TP886</name>
  </trkpt>
  <trkpt lat="68.21464" lon="14.32526">
    <name>TP887</name>
  </trkpt>
  <trkpt lat="68.21469" lon="14.3248">
    <name>TP888</name>
  </trkpt>
  <trkpt lat="68.21474" lon="14.32433">
    <name>TP889</name>
  </trkpt>
  <trkpt lat="68.21475" lon="14.32429">
    <name>TP890</name>
  </trkpt>
  <trkpt lat="68.21479" lon="14.32387">
    <name>TP891</name>
  </trkpt>
  <trkpt lat="68.21485" lon="14.32341">
    <name>TP892</name>
  </trkpt>
  <trkpt lat="68.21485" lon="14.32334">
    <name>TP893</name>
  </trkpt>
  <trkpt lat="68.21494" lon="14.32255">
    <name>TP894</name>
  </trkpt>
  <trkpt lat="68.215" lon="14.32196">
    <name>TP895</name>
  </trkpt>
  <trkpt lat="68.21506" lon="14.32141">
    <name>TP896</name>
  </trkpt>
  <trkpt lat="68.2151" lon="14.32076">
    <name>TP897</name>
  </trkpt>
  <trkpt lat="68.21514" lon="14.32022">
    <name>TP898</name>
  </trkpt>
  <trkpt lat="68.21518" lon="14.3196">
    <name>TP899</name>
  </trkpt>
  <trkpt lat="68.21517" lon="14.31917">
    <name>TP900</name>
  </trkpt>
  <trkpt lat="68.21516" lon="14.31855">
    <name>TP901</name>
  </trkpt>
  <trkpt lat="68.21514" lon="14.31793">
    <name>TP902</name>
  </trkpt>
  <trkpt lat="68.21512" lon="14.31741">
    <name>TP903</name>
  </trkpt>
  <trkpt lat="68.21508" lon="14.31682">
    <name>TP904</name>
  </trkpt>
  <trkpt lat="68.21501" lon="14.31592">
    <name>TP905</name>
  </trkpt>
  <trkpt lat="68.21495" lon="14.31516">
    <name>TP906</name>
  </trkpt>
  <trkpt lat="68.21481" lon="14.31404">
    <name>TP907</name>
  </trkpt>
  <trkpt lat="68.21471" lon="14.31341">
    <name>TP908</name>
  </trkpt>
  <trkpt lat="68.21464" lon="14.31296">
    <name>TP909</name>
  </trkpt>
  <trkpt lat="68.21462" lon="14.31283">
    <name>TP910</name>
  </trkpt>
  <trkpt lat="68.21439" lon="14.31161">
    <name>TP911</name>
  </trkpt>
  <trkpt lat="68.21411" lon="14.31043">
    <name>TP912</name>
  </trkpt>
  <trkpt lat="68.21376" lon="14.3091">
    <name>TP913</name>
  </trkpt>
  <trkpt lat="68.21349" lon="14.30815">
    <name>TP914</name>
  </trkpt>
  <trkpt lat="68.21337" lon="14.3077">
    <name>TP915</name>
  </trkpt>
  <trkpt lat="68.21315" lon="14.30693">
    <name>TP916</name>
  </trkpt>
  <trkpt lat="68.21286" lon="14.30582">
    <name>TP917</name>
  </trkpt>
  <trkpt lat="68.21258" lon="14.30475">
    <name>TP918</name>
  </trkpt>
  <trkpt lat="68.21228" lon="14.30366">
    <name>TP919</name>
  </trkpt>
  <trkpt lat="68.21199" lon="14.3026">
    <name>TP920</name>
  </trkpt>
  <trkpt lat="68.21194" lon="14.30241">
    <name>TP921</name>
  </trkpt>
  <trkpt lat="68.21165" lon="14.30129">
    <name>TP922</name>
  </trkpt>
  <trkpt lat="68.21134" lon="14.30018">
    <name>TP923</name>
  </trkpt>
  <trkpt lat="68.211" lon="14.29894">
    <name>TP924</name>
  </trkpt>
  <trkpt lat="68.21079" lon="14.29812">
    <name>TP925</name>
  </trkpt>
  <trkpt lat="68.21073" lon="14.29788">
    <name>TP926</name>
  </trkpt>
  <trkpt lat="68.21065" lon="14.29756">
    <name>TP927</name>
  </trkpt>
  <trkpt lat="68.21057" lon="14.29729">
    <name>TP928</name>
  </trkpt>
  <trkpt lat="68.21046" lon="14.29687">
    <name>TP929</name>
  </trkpt>
  <trkpt lat="68.21031" lon="14.29633">
    <name>TP930</name>
  </trkpt>
  <trkpt lat="68.21021" lon="14.29593">
    <name>TP931</name>
  </trkpt>
  <trkpt lat="68.21021" lon="14.29592">
    <name>TP932</name>
  </trkpt>
  <trkpt lat="68.21016" lon="14.29577">
    <name>TP933</name>
  </trkpt>
  <trkpt lat="68.2101" lon="14.29554">
    <name>TP934</name>
  </trkpt>
  <trkpt lat="68.2101" lon="14.29553">
    <name>TP935</name>
  </trkpt>
  <trkpt lat="68.20999" lon="14.29516">
    <name>TP936</name>
  </trkpt>
  <trkpt lat="68.20999" lon="14.29514">
    <name>TP937</name>
  </trkpt>
  <trkpt lat="68.20989" lon="14.29477">
    <name>TP938</name>
  </trkpt>
  <trkpt lat="68.20988" lon="14.29474">
    <name>TP939</name>
  </trkpt>
  <trkpt lat="68.20978" lon="14.29437">
    <name>TP940</name>
  </trkpt>
  <trkpt lat="68.20978" lon="14.29436">
    <name>TP941</name>
  </trkpt>
  <trkpt lat="68.20968" lon="14.29398">
    <name>TP942</name>
  </trkpt>
  <trkpt lat="68.20964" lon="14.29384">
    <name>TP943</name>
  </trkpt>
  <trkpt lat="68.20883" lon="14.29085">
    <name>TP944</name>
  </trkpt>
  <trkpt lat="68.20882" lon="14.29083">
    <name>TP945</name>
  </trkpt>
  <trkpt lat="68.20867" lon="14.29025">
    <name>TP946</name>
  </trkpt>
  <trkpt lat="68.20851" lon="14.28967">
    <name>TP947</name>
  </trkpt>
  <trkpt lat="68.20851" lon="14.28966">
    <name>TP948</name>
  </trkpt>
  <trkpt lat="68.20841" lon="14.28928">
    <name>TP949</name>
  </trkpt>
  <trkpt lat="68.2084" lon="14.28927">
    <name>TP950</name>
  </trkpt>
  <trkpt lat="68.20838" lon="14.28917">
    <name>TP951</name>
  </trkpt>
  <trkpt lat="68.2083" lon="14.28888">
    <name>TP952</name>
  </trkpt>
  <trkpt lat="68.2083" lon="14.28887">
    <name>TP953</name>
  </trkpt>
  <trkpt lat="68.2082" lon="14.28849">
    <name>TP954</name>
  </trkpt>
  <trkpt lat="68.20806" lon="14.28796">
    <name>TP955</name>
  </trkpt>
  <trkpt lat="68.20778" lon="14.28691">
    <name>TP956</name>
  </trkpt>
  <trkpt lat="68.20775" lon="14.28681">
    <name>TP957</name>
  </trkpt>
  <trkpt lat="68.20756" lon="14.28617">
    <name>TP958</name>
  </trkpt>
  <trkpt lat="68.20694" lon="14.28418">
    <name>TP959</name>
  </trkpt>
  <trkpt lat="68.20686" lon="14.28366">
    <name>TP960</name>
  </trkpt>
  <trkpt lat="68.20679" lon="14.28307">
    <name>TP961</name>
  </trkpt>
  <trkpt lat="68.20674" lon="14.28268">
    <name>TP962</name>
  </trkpt>
  <trkpt lat="68.20671" lon="14.2824">
    <name>TP963</name>
  </trkpt>
  <trkpt lat="68.20668" lon="14.28199">
    <name>TP964</name>
  </trkpt>
  <trkpt lat="68.20666" lon="14.28163">
    <name>TP965</name>
  </trkpt>
  <trkpt lat="68.20666" lon="14.28127">
    <name>TP966</name>
  </trkpt>
  <trkpt lat="68.20665" lon="14.28101">
    <name>TP967</name>
  </trkpt>
  <trkpt lat="68.20666" lon="14.28077">
    <name>TP968</name>
  </trkpt>
  <trkpt lat="68.20667" lon="14.28043">
    <name>TP969</name>
  </trkpt>
  <trkpt lat="68.20672" lon="14.28001">
    <name>TP970</name>
  </trkpt>
  <trkpt lat="68.20689" lon="14.27869">
    <name>TP971</name>
  </trkpt>
  <trkpt lat="68.207" lon="14.27793">
    <name>TP972</name>
  </trkpt>
  <trkpt lat="68.20707" lon="14.27744">
    <name>TP973</name>
  </trkpt>
  <trkpt lat="68.20712" lon="14.27699">
    <name>TP974</name>
  </trkpt>
  <trkpt lat="68.20717" lon="14.27659">
    <name>TP975</name>
  </trkpt>
  <trkpt lat="68.20717" lon="14.27653">
    <name>TP976</name>
  </trkpt>
  <trkpt lat="68.20723" lon="14.27603">
    <name>TP977</name>
  </trkpt>
  <trkpt lat="68.20734" lon="14.2752">
    <name>TP978</name>
  </trkpt>
  <trkpt lat="68.20747" lon="14.27424">
    <name>TP979</name>
  </trkpt>
  <trkpt lat="68.20754" lon="14.2738">
    <name>TP980</name>
  </trkpt>
  <trkpt lat="68.20768" lon="14.27289">
    <name>TP981</name>
  </trkpt>
  <trkpt lat="68.20783" lon="14.2717">
    <name>TP982</name>
  </trkpt>
  <trkpt lat="68.20791" lon="14.27102">
    <name>TP983</name>
  </trkpt>
  <trkpt lat="68.20801" lon="14.27017">
    <name>TP984</name>
  </trkpt>
  <trkpt lat="68.20811" lon="14.2695">
    <name>TP985</name>
  </trkpt>
  <trkpt lat="68.20826" lon="14.26844">
    <name>TP986</name>
  </trkpt>
  <trkpt lat="68.20833" lon="14.2679">
    <name>TP987</name>
  </trkpt>
  <trkpt lat="68.20837" lon="14.2674">
    <name>TP988</name>
  </trkpt>
  <trkpt lat="68.20837" lon="14.26739">
    <name>TP989</name>
  </trkpt>
  <trkpt lat="68.20841" lon="14.26692">
    <name>TP990</name>
  </trkpt>
  <trkpt lat="68.20841" lon="14.26689">
    <name>TP991</name>
  </trkpt>
  <trkpt lat="68.20843" lon="14.26644">
    <name>TP992</name>
  </trkpt>
  <trkpt lat="68.20845" lon="14.2657">
    <name>TP993</name>
  </trkpt>
  <trkpt lat="68.20846" lon="14.26505">
    <name>TP994</name>
  </trkpt>
  <trkpt lat="68.20846" lon="14.26452">
    <name>TP995</name>
  </trkpt>
  <trkpt lat="68.20845" lon="14.26388">
    <name>TP996</name>
  </trkpt>
  <trkpt lat="68.20843" lon="14.26335">
    <name>TP997</name>
  </trkpt>
  <trkpt lat="68.20842" lon="14.26306">
    <name>TP998</name>
  </trkpt>
  <trkpt lat="68.2084" lon="14.26258">
    <name>TP999</name>
  </trkpt>
  <trkpt lat="68.20837" lon="14.26211">
    <name>TP1000</name>
  </trkpt>
  <trkpt lat="68.20831" lon="14.26136">
    <name>TP1001</name>
  </trkpt>
  <trkpt lat="68.20827" lon="14.26047">
    <name>TP1002</name>
  </trkpt>
  <trkpt lat="68.20823" lon="14.25968">
    <name>TP1003</name>
  </trkpt>
  <trkpt lat="68.20819" lon="14.25887">
    <name>TP1004</name>
  </trkpt>
  <trkpt lat="68.20811" lon="14.2573">
    <name>TP1005</name>
  </trkpt>
  <trkpt lat="68.20806" lon="14.25636">
    <name>TP1006</name>
  </trkpt>
  <trkpt lat="68.20799" lon="14.25527">
    <name>TP1007</name>
  </trkpt>
  <trkpt lat="68.20793" lon="14.25444">
    <name>TP1008</name>
  </trkpt>
  <trkpt lat="68.20776" lon="14.25316">
    <name>TP1009</name>
  </trkpt>
  <trkpt lat="68.20774" lon="14.25297">
    <name>TP1010</name>
  </trkpt>
  <trkpt lat="68.2077" lon="14.25271">
    <name>TP1011</name>
  </trkpt>
  <trkpt lat="68.20742" lon="14.25093">
    <name>TP1012</name>
  </trkpt>
  <trkpt lat="68.20735" lon="14.25048">
    <name>TP1013</name>
  </trkpt>
  <trkpt lat="68.2071" lon="14.24888">
    <name>TP1014</name>
  </trkpt>
  <trkpt lat="68.20669" lon="14.246">
    <name>TP1015</name>
  </trkpt>
  <trkpt lat="68.20657" lon="14.24488">
    <name>TP1016</name>
  </trkpt>
  <trkpt lat="68.20654" lon="14.24458">
    <name>TP1017</name>
  </trkpt>
  <trkpt lat="68.20651" lon="14.2441">
    <name>TP1018</name>
  </trkpt>
  <trkpt lat="68.20647" lon="14.24363">
    <name>TP1019</name>
  </trkpt>
  <trkpt lat="68.20643" lon="14.24315">
    <name>TP1020</name>
  </trkpt>
  <trkpt lat="68.20642" lon="14.24296">
    <name>TP1021</name>
  </trkpt>
  <trkpt lat="68.2064" lon="14.24268">
    <name>TP1022</name>
  </trkpt>
  <trkpt lat="68.20617" lon="14.23984">
    <name>TP1023</name>
  </trkpt>
  <trkpt lat="68.2061716" lon="14.2398353">
    <name>TP1024</name>
  </trkpt>
  <trkpt lat="68.20529" lon="14.24031">
    <name>TP1025</name>
  </trkpt>
  <trkpt lat="68.20506" lon="14.24042">
    <name>TP1026</name>
  </trkpt>
  <trkpt lat="68.20487" lon="14.24051">
    <name>TP1027</name>
  </trkpt>
  <trkpt lat="68.20467" lon="14.24059">
    <name>TP1028</name>
  </trkpt>
  <trkpt lat="68.20456" lon="14.24059">
    <name>TP1029</name>
  </trkpt>
  <trkpt lat="68.20444" lon="14.24055">
    <name>TP1030</name>
  </trkpt>
  <trkpt lat="68.20433" lon="14.24045">
    <name>TP1031</name>
  </trkpt>
  <trkpt lat="68.20422" lon="14.24032">
    <name>TP1032</name>
  </trkpt>
  <trkpt lat="68.20413" lon="14.24018">
    <name>TP1033</name>
  </trkpt>
  <trkpt lat="68.20402" lon="14.23994">
    <name>TP1034</name>
  </trkpt>
  <trkpt lat="68.20394" lon="14.23972">
    <name>TP1035</name>
  </trkpt>
  <trkpt lat="68.20391" lon="14.23964">
    <name>TP1036</name>
  </trkpt>
  <trkpt lat="68.20386" lon="14.23943">
    <name>TP1037</name>
  </trkpt>
  <trkpt lat="68.20384" lon="14.23937">
    <name>TP1038</name>
  </trkpt>
  <trkpt lat="68.20378" lon="14.23906">
    <name>TP1039</name>
  </trkpt>
  <trkpt lat="68.20377" lon="14.23899">
    <name>TP1040</name>
  </trkpt>
  <trkpt lat="68.20371" lon="14.23867">
    <name>TP1041</name>
  </trkpt>
  <trkpt lat="68.20362" lon="14.2381">
    <name>TP1042</name>
  </trkpt>
  <trkpt lat="68.20355" lon="14.23766">
    <name>TP1043</name>
  </trkpt>
  <trkpt lat="68.20348" lon="14.23722">
    <name>TP1044</name>
  </trkpt>
  <trkpt lat="68.20348" lon="14.23719">
    <name>TP1045</name>
  </trkpt>
  <trkpt lat="68.20341" lon="14.23677">
    <name>TP1046</name>
  </trkpt>
  <trkpt lat="68.20334" lon="14.23633">
    <name>TP1047</name>
  </trkpt>
  <trkpt lat="68.2033" lon="14.2361">
    <name>TP1048</name>
  </trkpt>
  <trkpt lat="68.20327" lon="14.23589">
    <name>TP1049</name>
  </trkpt>
  <trkpt lat="68.2032" lon="14.23544">
    <name>TP1050</name>
  </trkpt>
  <trkpt lat="68.20317" lon="14.23527">
    <name>TP1051</name>
  </trkpt>
  <trkpt lat="68.20313" lon="14.235">
    <name>TP1052</name>
  </trkpt>
  <trkpt lat="68.20312" lon="14.23495">
    <name>TP1053</name>
  </trkpt>
  <trkpt lat="68.20312" lon="14.23494">
    <name>TP1054</name>
  </trkpt>
  <trkpt lat="68.20305" lon="14.23456">
    <name>TP1055</name>
  </trkpt>
  <trkpt lat="68.20262" lon="14.23191">
    <name>TP1056</name>
  </trkpt>
  <trkpt lat="68.20247" lon="14.23102">
    <name>TP1057</name>
  </trkpt>
  <trkpt lat="68.20225" lon="14.22961">
    <name>TP1058</name>
  </trkpt>
  <trkpt lat="68.20216" lon="14.22904">
    <name>TP1059</name>
  </trkpt>
  <trkpt lat="68.20205" lon="14.22836">
    <name>TP1060</name>
  </trkpt>
  <trkpt lat="68.202" lon="14.22806">
    <name>TP1061</name>
  </trkpt>
  <trkpt lat="68.20197" lon="14.22792">
    <name>TP1062</name>
  </trkpt>
  <trkpt lat="68.20189" lon="14.22742">
    <name>TP1063</name>
  </trkpt>
  <trkpt lat="68.20183" lon="14.22704">
    <name>TP1064</name>
  </trkpt>
  <trkpt lat="68.20182" lon="14.22696">
    <name>TP1065</name>
  </trkpt>
  <trkpt lat="68.20179" lon="14.22673">
    <name>TP1066</name>
  </trkpt>
  <trkpt lat="68.20167" lon="14.22602">
    <name>TP1067</name>
  </trkpt>
  <trkpt lat="68.20162" lon="14.2257">
    <name>TP1068</name>
  </trkpt>
  <trkpt lat="68.20156" lon="14.22534">
    <name>TP1069</name>
  </trkpt>
  <trkpt lat="68.20155" lon="14.22526">
    <name>TP1070</name>
  </trkpt>
  <trkpt lat="68.20148" lon="14.22482">
    <name>TP1071</name>
  </trkpt>
  <trkpt lat="68.20148" lon="14.22481">
    <name>TP1072</name>
  </trkpt>
  <trkpt lat="68.20141" lon="14.22438">
    <name>TP1073</name>
  </trkpt>
  <trkpt lat="68.2014" lon="14.22437">
    <name>TP1074</name>
  </trkpt>
  <trkpt lat="68.20136" lon="14.22413">
    <name>TP1075</name>
  </trkpt>
  <trkpt lat="68.20132" lon="14.22394">
    <name>TP1076</name>
  </trkpt>
  <trkpt lat="68.20131" lon="14.22388">
    <name>TP1077</name>
  </trkpt>
  <trkpt lat="68.20125" lon="14.22363">
    <name>TP1078</name>
  </trkpt>
  <trkpt lat="68.20117" lon="14.22339">
    <name>TP1079</name>
  </trkpt>
  <trkpt lat="68.20109" lon="14.22314">
    <name>TP1080</name>
  </trkpt>
  <trkpt lat="68.20097" lon="14.22277">
    <name>TP1081</name>
  </trkpt>
  <trkpt lat="68.20086" lon="14.22246">
    <name>TP1082</name>
  </trkpt>
  <trkpt lat="68.2008" lon="14.2223">
    <name>TP1083</name>
  </trkpt>
  <trkpt lat="68.20073" lon="14.22211">
    <name>TP1084</name>
  </trkpt>
  <trkpt lat="68.20067" lon="14.22192">
    <name>TP1085</name>
  </trkpt>
  <trkpt lat="68.20064" lon="14.22185">
    <name>TP1086</name>
  </trkpt>
  <trkpt lat="68.20048" lon="14.22139">
    <name>TP1087</name>
  </trkpt>
  <trkpt lat="68.20037" lon="14.22106">
    <name>TP1088</name>
  </trkpt>
  <trkpt lat="68.2003" lon="14.22087">
    <name>TP1089</name>
  </trkpt>
  <trkpt lat="68.20023" lon="14.22074">
    <name>TP1090</name>
  </trkpt>
  <trkpt lat="68.20017" lon="14.22063">
    <name>TP1091</name>
  </trkpt>
  <trkpt lat="68.20009" lon="14.2205">
    <name>TP1092</name>
  </trkpt>
  <trkpt lat="68.20008" lon="14.22048">
    <name>TP1093</name>
  </trkpt>
  <trkpt lat="68.19999" lon="14.22035">
    <name>TP1094</name>
  </trkpt>
  <trkpt lat="68.19991" lon="14.22027">
    <name>TP1095</name>
  </trkpt>
  <trkpt lat="68.19986" lon="14.2202">
    <name>TP1096</name>
  </trkpt>
  <trkpt lat="68.19971" lon="14.22003">
    <name>TP1097</name>
  </trkpt>
  <trkpt lat="68.19956" lon="14.21988">
    <name>TP1098</name>
  </trkpt>
  <trkpt lat="68.19941" lon="14.21972">
    <name>TP1099</name>
  </trkpt>
  <trkpt lat="68.1994" lon="14.2197">
    <name>TP1100</name>
  </trkpt>
  <trkpt lat="68.19921" lon="14.21948">
    <name>TP1101</name>
  </trkpt>
  <trkpt lat="68.19901" lon="14.21928">
    <name>TP1102</name>
  </trkpt>
  <trkpt lat="68.19899" lon="14.21925">
    <name>TP1103</name>
  </trkpt>
  <trkpt lat="68.19892" lon="14.21917">
    <name>TP1104</name>
  </trkpt>
  <trkpt lat="68.19883" lon="14.21907">
    <name>TP1105</name>
  </trkpt>
  <trkpt lat="68.19881" lon="14.21905">
    <name>TP1106</name>
  </trkpt>
  <trkpt lat="68.19875" lon="14.21898">
    <name>TP1107</name>
  </trkpt>
  <trkpt lat="68.19861" lon="14.21882">
    <name>TP1108</name>
  </trkpt>
  <trkpt lat="68.19858" lon="14.21879">
    <name>TP1109</name>
  </trkpt>
  <trkpt lat="68.19841" lon="14.21859">
    <name>TP1110</name>
  </trkpt>
  <trkpt lat="68.19825" lon="14.21841">
    <name>TP1111</name>
  </trkpt>
  <trkpt lat="68.19823" lon="14.21838">
    <name>TP1112</name>
  </trkpt>
  <trkpt lat="68.19809" lon="14.21823">
    <name>TP1113</name>
  </trkpt>
  <trkpt lat="68.19802" lon="14.21815">
    <name>TP1114</name>
  </trkpt>
  <trkpt lat="68.19792" lon="14.21804">
    <name>TP1115</name>
  </trkpt>
  <trkpt lat="68.19781" lon="14.21792">
    <name>TP1116</name>
  </trkpt>
  <trkpt lat="68.19775" lon="14.21786">
    <name>TP1117</name>
  </trkpt>
  <trkpt lat="68.19766" lon="14.21778">
    <name>TP1118</name>
  </trkpt>
  <trkpt lat="68.19762" lon="14.21773">
    <name>TP1119</name>
  </trkpt>
  <trkpt lat="68.19758" lon="14.2177">
    <name>TP1120</name>
  </trkpt>
  <trkpt lat="68.1975" lon="14.21764">
    <name>TP1121</name>
  </trkpt>
  <trkpt lat="68.19743" lon="14.21758">
    <name>TP1122</name>
  </trkpt>
  <trkpt lat="68.19741" lon="14.21757">
    <name>TP1123</name>
  </trkpt>
  <trkpt lat="68.19736" lon="14.21755">
    <name>TP1124</name>
  </trkpt>
  <trkpt lat="68.19729" lon="14.21753">
    <name>TP1125</name>
  </trkpt>
  <trkpt lat="68.19722" lon="14.21751">
    <name>TP1126</name>
  </trkpt>
  <trkpt lat="68.19714" lon="14.2175">
    <name>TP1127</name>
  </trkpt>
  <trkpt lat="68.19706" lon="14.2175">
    <name>TP1128</name>
  </trkpt>
  <trkpt lat="68.19694" lon="14.21749">
    <name>TP1129</name>
  </trkpt>
  <trkpt lat="68.19687" lon="14.21748">
    <name>TP1130</name>
  </trkpt>
  <trkpt lat="68.1968" lon="14.21747">
    <name>TP1131</name>
  </trkpt>
  <trkpt lat="68.19669" lon="14.21744">
    <name>TP1132</name>
  </trkpt>
  <trkpt lat="68.19661" lon="14.21742">
    <name>TP1133</name>
  </trkpt>
  <trkpt lat="68.1966" lon="14.21742">
    <name>TP1134</name>
  </trkpt>
  <trkpt lat="68.19652" lon="14.2174">
    <name>TP1135</name>
  </trkpt>
  <trkpt lat="68.19635" lon="14.21736">
    <name>TP1136</name>
  </trkpt>
  <trkpt lat="68.19634" lon="14.21735">
    <name>TP1137</name>
  </trkpt>
  <trkpt lat="68.19616" lon="14.2173">
    <name>TP1138</name>
  </trkpt>
  <trkpt lat="68.19612" lon="14.21729">
    <name>TP1139</name>
  </trkpt>
  <trkpt lat="68.19598" lon="14.21728">
    <name>TP1140</name>
  </trkpt>
  <trkpt lat="68.19592" lon="14.21727">
    <name>TP1141</name>
  </trkpt>
  <trkpt lat="68.1958" lon="14.21724">
    <name>TP1142</name>
  </trkpt>
  <trkpt lat="68.1957" lon="14.21721">
    <name>TP1143</name>
  </trkpt>
  <trkpt lat="68.19563" lon="14.21719">
    <name>TP1144</name>
  </trkpt>
  <trkpt lat="68.19552" lon="14.21717">
    <name>TP1145</name>
  </trkpt>
  <trkpt lat="68.19544" lon="14.21715">
    <name>TP1146</name>
  </trkpt>
  <trkpt lat="68.19522" lon="14.21711">
    <name>TP1147</name>
  </trkpt>
  <trkpt lat="68.19478" lon="14.217">
    <name>TP1148</name>
  </trkpt>
  <trkpt lat="68.19472" lon="14.21699">
    <name>TP1149</name>
  </trkpt>
  <trkpt lat="68.19463" lon="14.21697">
    <name>TP1150</name>
  </trkpt>
  <trkpt lat="68.19455" lon="14.21696">
    <name>TP1151</name>
  </trkpt>
  <trkpt lat="68.1944" lon="14.21693">
    <name>TP1152</name>
  </trkpt>
  <trkpt lat="68.19402" lon="14.21686">
    <name>TP1153</name>
  </trkpt>
  <trkpt lat="68.19377" lon="14.21682">
    <name>TP1154</name>
  </trkpt>
  <trkpt lat="68.19358" lon="14.2168">
    <name>TP1155</name>
  </trkpt>
  <trkpt lat="68.19338" lon="14.2168">
    <name>TP1156</name>
  </trkpt>
  <trkpt lat="68.1931" lon="14.21681">
    <name>TP1157</name>
  </trkpt>
  <trkpt lat="68.19275" lon="14.21681">
    <name>TP1158</name>
  </trkpt>
  <trkpt lat="68.19274" lon="14.21681">
    <name>TP1159</name>
  </trkpt>
  <trkpt lat="68.19257" lon="14.21681">
    <name>TP1160</name>
  </trkpt>
  <trkpt lat="68.19241" lon="14.2168">
    <name>TP1161</name>
  </trkpt>
  <trkpt lat="68.19239" lon="14.21681">
    <name>TP1162</name>
  </trkpt>
  <trkpt lat="68.19221" lon="14.21681">
    <name>TP1163</name>
  </trkpt>
  <trkpt lat="68.19218" lon="14.21681">
    <name>TP1164</name>
  </trkpt>
  <trkpt lat="68.19203" lon="14.21683">
    <name>TP1165</name>
  </trkpt>
  <trkpt lat="68.19193" lon="14.21683">
    <name>TP1166</name>
  </trkpt>
  <trkpt lat="68.1918" lon="14.21684">
    <name>TP1167</name>
  </trkpt>
  <trkpt lat="68.19175" lon="14.21684">
    <name>TP1168</name>
  </trkpt>
  <trkpt lat="68.19149" lon="14.21684">
    <name>TP1169</name>
  </trkpt>
  <trkpt lat="68.19144" lon="14.21684">
    <name>TP1170</name>
  </trkpt>
  <trkpt lat="68.19131" lon="14.21684">
    <name>TP1171</name>
  </trkpt>
  <trkpt lat="68.19112" lon="14.21685">
    <name>TP1172</name>
  </trkpt>
  <trkpt lat="68.19088" lon="14.21686">
    <name>TP1173</name>
  </trkpt>
  <trkpt lat="68.19075" lon="14.21687">
    <name>TP1174</name>
  </trkpt>
  <trkpt lat="68.19062" lon="14.21692">
    <name>TP1175</name>
  </trkpt>
  <trkpt lat="68.19059" lon="14.21693">
    <name>TP1176</name>
  </trkpt>
  <trkpt lat="68.1905" lon="14.21698">
    <name>TP1177</name>
  </trkpt>
  <trkpt lat="68.19046" lon="14.217">
    <name>TP1178</name>
  </trkpt>
  <trkpt lat="68.19042" lon="14.21703">
    <name>TP1179</name>
  </trkpt>
  <trkpt lat="68.19028" lon="14.21711">
    <name>TP1180</name>
  </trkpt>
  <trkpt lat="68.19011" lon="14.21725">
    <name>TP1181</name>
  </trkpt>
  <trkpt lat="68.18995" lon="14.21743">
    <name>TP1182</name>
  </trkpt>
  <trkpt lat="68.1899" lon="14.2175">
    <name>TP1183</name>
  </trkpt>
  <trkpt lat="68.18984" lon="14.21759">
    <name>TP1184</name>
  </trkpt>
  <trkpt lat="68.18976" lon="14.21775">
    <name>TP1185</name>
  </trkpt>
  <trkpt lat="68.18972" lon="14.21782">
    <name>TP1186</name>
  </trkpt>
  <trkpt lat="68.18961" lon="14.21803">
    <name>TP1187</name>
  </trkpt>
  <trkpt lat="68.18959" lon="14.21807">
    <name>TP1188</name>
  </trkpt>
  <trkpt lat="68.18947" lon="14.21832">
    <name>TP1189</name>
  </trkpt>
  <trkpt lat="68.18944" lon="14.21838">
    <name>TP1190</name>
  </trkpt>
  <trkpt lat="68.18928" lon="14.21869">
    <name>TP1191</name>
  </trkpt>
  <trkpt lat="68.18918" lon="14.21891">
    <name>TP1192</name>
  </trkpt>
  <trkpt lat="68.18915" lon="14.21898">
    <name>TP1193</name>
  </trkpt>
  <trkpt lat="68.18904" lon="14.21931">
    <name>TP1194</name>
  </trkpt>
  <trkpt lat="68.18894" lon="14.21968">
    <name>TP1195</name>
  </trkpt>
  <trkpt lat="68.18884" lon="14.22008">
    <name>TP1196</name>
  </trkpt>
  <trkpt lat="68.18875" lon="14.22052">
    <name>TP1197</name>
  </trkpt>
  <trkpt lat="68.18871" lon="14.2207">
    <name>TP1198</name>
  </trkpt>
  <trkpt lat="68.18867" lon="14.22088">
    <name>TP1199</name>
  </trkpt>
  <trkpt lat="68.18866" lon="14.22091">
    <name>TP1200</name>
  </trkpt>
  <trkpt lat="68.18862" lon="14.22112">
    <name>TP1201</name>
  </trkpt>
  <trkpt lat="68.18858" lon="14.2213">
    <name>TP1202</name>
  </trkpt>
  <trkpt lat="68.18854" lon="14.22154">
    <name>TP1203</name>
  </trkpt>
  <trkpt lat="68.18853" lon="14.22155">
    <name>TP1204</name>
  </trkpt>
  <trkpt lat="68.1885" lon="14.22173">
    <name>TP1205</name>
  </trkpt>
  <trkpt lat="68.18841" lon="14.22216">
    <name>TP1206</name>
  </trkpt>
  <trkpt lat="68.18834" lon="14.22259">
    <name>TP1207</name>
  </trkpt>
  <trkpt lat="68.1883" lon="14.22282">
    <name>TP1208</name>
  </trkpt>
  <trkpt lat="68.18826" lon="14.22302">
    <name>TP1209</name>
  </trkpt>
  <trkpt lat="68.1882" lon="14.2233">
    <name>TP1210</name>
  </trkpt>
  <trkpt lat="68.18817" lon="14.22344">
    <name>TP1211</name>
  </trkpt>
  <trkpt lat="68.18813" lon="14.22359">
    <name>TP1212</name>
  </trkpt>
  <trkpt lat="68.18811" lon="14.22368">
    <name>TP1213</name>
  </trkpt>
  <trkpt lat="68.18808" lon="14.22381">
    <name>TP1214</name>
  </trkpt>
  <trkpt lat="68.18807" lon="14.22384">
    <name>TP1215</name>
  </trkpt>
  <trkpt lat="68.18802" lon="14.22399">
    <name>TP1216</name>
  </trkpt>
  <trkpt lat="68.188" lon="14.22405">
    <name>TP1217</name>
  </trkpt>
  <trkpt lat="68.18796" lon="14.22415">
    <name>TP1218</name>
  </trkpt>
  <trkpt lat="68.18789" lon="14.2243">
    <name>TP1219</name>
  </trkpt>
  <trkpt lat="68.18785" lon="14.22434">
    <name>TP1220</name>
  </trkpt>
  <trkpt lat="68.1878" lon="14.22441">
    <name>TP1221</name>
  </trkpt>
  <trkpt lat="68.1877" lon="14.22453">
    <name>TP1222</name>
  </trkpt>
  <trkpt lat="68.18762" lon="14.22461">
    <name>TP1223</name>
  </trkpt>
  <trkpt lat="68.1876" lon="14.22463">
    <name>TP1224</name>
  </trkpt>
  <trkpt lat="68.18741" lon="14.22481">
    <name>TP1225</name>
  </trkpt>
  <trkpt lat="68.1874097" lon="14.2248146">
    <name>TP1226</name>
  </trkpt>
  <trkpt lat="68.1874097" lon="14.2248146">
    <name>TP1227</name>
  </trkpt>
  <trkpt lat="68.1874097" lon="14.2248146">
    <name>TP1228</name>
  </trkpt>
  </trkseg>
</trk>
</gpx>