<?xml version="1.0" encoding="UTF-8" standalone="no" ?>
<gpx xmlns="http://www.topografix.com/GPX/1/1" xmlns:gpxx="http://www.garmin.com/xmlschemas/GpxExtensions/v3" xmlns:gpxtpx="http://www.garmin.com/xmlschemas/TrackPointExtension/v1" creator="mapstogpx.com" version="1.1" xmlns:xsi="http://www.w3.org/2001/XMLSchema-instance" xsi:schemaLocation="http://www.topografix.com/GPX/1/1 http://www.topografix.com/GPX/1/1/gpx.xsd http://www.garmin.com/xmlschemas/GpxExtensions/v3 http://www.garmin.com/xmlschemas/GpxExtensionsv3.xsd http://www.garmin.com/xmlschemas/TrackPointExtension/v1 http://www.garmin.com/xmlschemas/TrackPointExtensionv1.xsd">
  <metadata>
    <link href="http://www.mapstogpx.com">
      <text>Sverrir Sigmundarson</text>
    </link>
    <!--desc>Powered by Google, ©2025 Google</desc-->
    <!--copyright author="Google Inc">
    	<year>2025</year>
    	<license>https://developers.google.com/maps/terms</license>
    </copyright-->
    <!--url>https://www.google.com/maps/dir/Rimi/59.4268598,24.7594697/%C3%9Clemiste+Parking+Garage/59.4464587,24.7506165/Parking+lot,+Mere+pst,+10111+Tallinn/@59.4251096,24.7540358,4332m/data=!3m1!1e3!4m32!4m31!1m5!1m1!1s0x46929498743b8987:0xfc6987ec619cbbbc!2m2!1d24.7458491!2d59.4253488!1m5!3m4!1m2!1d24.7647373!2d59.4279508!3s0x469294a6f04748f5:0xa0b2be8e1e4a6cf2!1m5!1m1!1s0x4692eb54ff7fa4f7:0xd8218d4c022727a3!2m2!1d24.7951476!2d59.4225315!1m5!3m4!1m2!1d24.7522354!2d59.4455774!3s0x46929365972b62ad:0x73c2c51fe50a9974!1m5!1m1!1s0x469293659a0c71ad:0x3189e4e81995418e!2m2!1d24.7522302!2d59.4454328!3e0?entry=tts&g_ep=EgoyMDI1MDYwOS4wKgBIAVAD&skid=cbed6573-4730-4c6c-9b04-0e57dafc269f&hl=en</url-->
    <time>2025-06-12T07:47:55Z</time>
  </metadata>
  <wpt lat="59.4253488" lon="24.7458491">
    <name>Rimi</name>
    <desc>Tatari Rimi mini, Tatari tn 64, 10134 Tallinn, Estonia</desc>
  </wpt>
  <wpt lat="59.4268598" lon="24.7594697">
    <name>10132 Tallinn</name>
    <desc>Kesklinn, 10132 Tallinn, Estonia</desc>
  </wpt>
  <wpt lat="59.4225315" lon="24.7951476">
    <name>Ülemiste Parking Garage</name>
    <desc>Ülemiste Parking Garage, Suur-Sõjamäe tn 4, 11415 Tallinn, Estonia</desc>
  </wpt>
  <wpt lat="59.4464587" lon="24.7506165">
    <name>10415 Tallinn</name>
    <desc>Kalasadama tn 8-10, 10415 Tallinn, Estonia</desc>
  </wpt>
  <wpt lat="59.4454328" lon="24.7522302">
    <name>Parking lot</name>
    <desc>Parking lot, Mere pst, 10111 Tallinn, Estonia</desc>
  </wpt>
<trk>
  <name>Rimi to Parking lot</name>
  <number>1</number>
  <trkseg>
  <trkpt lat="59.4251462" lon="24.7458683">
    <name>TP001</name>
  </trkpt>
  <trkpt lat="59.4251" lon="24.74409">
    <name>TP002</name>
  </trkpt>
  <trkpt lat="59.42507" lon="24.74331">
    <name>TP003</name>
  </trkpt>
  <trkpt lat="59.42503" lon="24.7428">
    <name>TP004</name>
  </trkpt>
  <trkpt lat="59.4250335" lon="24.7428026">
    <name>TP005</name>
  </trkpt>
  <trkpt lat="59.42523" lon="24.7428">
    <name>TP006</name>
  </trkpt>
  <trkpt lat="59.4253" lon="24.7428">
    <name>TP007</name>
  </trkpt>
  <trkpt lat="59.42531" lon="24.74279">
    <name>TP008</name>
  </trkpt>
  <trkpt lat="59.42537" lon="24.74279">
    <name>TP009</name>
  </trkpt>
  <trkpt lat="59.42565" lon="24.74279">
    <name>TP010</name>
  </trkpt>
  <trkpt lat="59.42575" lon="24.74279">
    <name>TP011</name>
  </trkpt>
  <trkpt lat="59.42582" lon="24.74279">
    <name>TP012</name>
  </trkpt>
  <trkpt lat="59.4265" lon="24.74275">
    <name>TP013</name>
  </trkpt>
  <trkpt lat="59.42663" lon="24.74276">
    <name>TP014</name>
  </trkpt>
  <trkpt lat="59.42665" lon="24.74275">
    <name>TP015</name>
  </trkpt>
  <trkpt lat="59.42679" lon="24.74273">
    <name>TP016</name>
  </trkpt>
  <trkpt lat="59.42693" lon="24.7427">
    <name>TP017</name>
  </trkpt>
  <trkpt lat="59.4269256" lon="24.7427024">
    <name>TP018</name>
  </trkpt>
  <trkpt lat="59.42703" lon="24.7428">
    <name>TP019</name>
  </trkpt>
  <trkpt lat="59.42708" lon="24.74286">
    <name>TP020</name>
  </trkpt>
  <trkpt lat="59.42713" lon="24.74293">
    <name>TP021</name>
  </trkpt>
  <trkpt lat="59.42718" lon="24.74302">
    <name>TP022</name>
  </trkpt>
  <trkpt lat="59.4272" lon="24.74326">
    <name>TP023</name>
  </trkpt>
  <trkpt lat="59.42734" lon="24.74417">
    <name>TP024</name>
  </trkpt>
  <trkpt lat="59.4274" lon="24.74467">
    <name>TP025</name>
  </trkpt>
  <trkpt lat="59.42746" lon="24.74505">
    <name>TP026</name>
  </trkpt>
  <trkpt lat="59.42751" lon="24.7455">
    <name>TP027</name>
  </trkpt>
  <trkpt lat="59.42754" lon="24.7457">
    <name>TP028</name>
  </trkpt>
  <trkpt lat="59.42755" lon="24.74574">
    <name>TP029</name>
  </trkpt>
  <trkpt lat="59.42792" lon="24.74786">
    <name>TP030</name>
  </trkpt>
  <trkpt lat="59.42793" lon="24.74794">
    <name>TP031</name>
  </trkpt>
  <trkpt lat="59.42797" lon="24.74827">
    <name>TP032</name>
  </trkpt>
  <trkpt lat="59.42801" lon="24.74855">
    <name>TP033</name>
  </trkpt>
  <trkpt lat="59.4281" lon="24.74913">
    <name>TP034</name>
  </trkpt>
  <trkpt lat="59.42814" lon="24.7494">
    <name>TP035</name>
  </trkpt>
  <trkpt lat="59.42833" lon="24.75049">
    <name>TP036</name>
  </trkpt>
  <trkpt lat="59.42853" lon="24.75176">
    <name>TP037</name>
  </trkpt>
  <trkpt lat="59.42874" lon="24.75309">
    <name>TP038</name>
  </trkpt>
  <trkpt lat="59.4289" lon="24.75398">
    <name>TP039</name>
  </trkpt>
  <trkpt lat="59.4289" lon="24.754">
    <name>TP040</name>
  </trkpt>
  <trkpt lat="59.42892" lon="24.75412">
    <name>TP041</name>
  </trkpt>
  <trkpt lat="59.429" lon="24.75457">
    <name>TP042</name>
  </trkpt>
  <trkpt lat="59.42908" lon="24.75505">
    <name>TP043</name>
  </trkpt>
  <trkpt lat="59.42913" lon="24.7553">
    <name>TP044</name>
  </trkpt>
  <trkpt lat="59.42921" lon="24.75561">
    <name>TP045</name>
  </trkpt>
  <trkpt lat="59.42928" lon="24.75592">
    <name>TP046</name>
  </trkpt>
  <trkpt lat="59.4292768" lon="24.75592">
    <name>TP047</name>
  </trkpt>
  <trkpt lat="59.42925" lon="24.75621">
    <name>TP048</name>
  </trkpt>
  <trkpt lat="59.42927" lon="24.75642">
    <name>TP049</name>
  </trkpt>
  <trkpt lat="59.42928" lon="24.75662">
    <name>TP050</name>
  </trkpt>
  <trkpt lat="59.42928" lon="24.75673">
    <name>TP051</name>
  </trkpt>
  <trkpt lat="59.42927" lon="24.75686">
    <name>TP052</name>
  </trkpt>
  <trkpt lat="59.4292" lon="24.75749">
    <name>TP053</name>
  </trkpt>
  <trkpt lat="59.42915" lon="24.75774">
    <name>TP054</name>
  </trkpt>
  <trkpt lat="59.42911" lon="24.75804">
    <name>TP055</name>
  </trkpt>
  <trkpt lat="59.4291" lon="24.75812">
    <name>TP056</name>
  </trkpt>
  <trkpt lat="59.42909" lon="24.75822">
    <name>TP057</name>
  </trkpt>
  <trkpt lat="59.42908" lon="24.75826">
    <name>TP058</name>
  </trkpt>
  <trkpt lat="59.42909" lon="24.75839">
    <name>TP059</name>
  </trkpt>
  <trkpt lat="59.42907" lon="24.75847">
    <name>TP060</name>
  </trkpt>
  <trkpt lat="59.42902" lon="24.75879">
    <name>TP061</name>
  </trkpt>
  <trkpt lat="59.42897" lon="24.75911">
    <name>TP062</name>
  </trkpt>
  <trkpt lat="59.4289" lon="24.75952">
    <name>TP063</name>
  </trkpt>
  <trkpt lat="59.42888" lon="24.75964">
    <name>TP064</name>
  </trkpt>
  <trkpt lat="59.42886" lon="24.75974">
    <name>TP065</name>
  </trkpt>
  <trkpt lat="59.42883" lon="24.75983">
    <name>TP066</name>
  </trkpt>
  <trkpt lat="59.42879" lon="24.75998">
    <name>TP067</name>
  </trkpt>
  <trkpt lat="59.42873" lon="24.76015">
    <name>TP068</name>
  </trkpt>
  <trkpt lat="59.42868" lon="24.7603">
    <name>TP069</name>
  </trkpt>
  <trkpt lat="59.42852" lon="24.76069">
    <name>TP070</name>
  </trkpt>
  <trkpt lat="59.42829" lon="24.76124">
    <name>TP071</name>
  </trkpt>
  <trkpt lat="59.42811" lon="24.7618">
    <name>TP072</name>
  </trkpt>
  <trkpt lat="59.42804" lon="24.76205">
    <name>TP073</name>
  </trkpt>
  <trkpt lat="59.42803" lon="24.76215">
    <name>TP074</name>
  </trkpt>
  <trkpt lat="59.4280269" lon="24.762147">
    <name>TP075</name>
  </trkpt>
  <trkpt lat="59.42796" lon="24.76213">
    <name>TP076</name>
  </trkpt>
  <trkpt lat="59.42792" lon="24.76212">
    <name>TP077</name>
  </trkpt>
  <trkpt lat="59.42783" lon="24.7621">
    <name>TP078</name>
  </trkpt>
  <trkpt lat="59.42776" lon="24.76209">
    <name>TP079</name>
  </trkpt>
  <trkpt lat="59.42769" lon="24.76208">
    <name>TP080</name>
  </trkpt>
  <trkpt lat="59.42758" lon="24.76207">
    <name>TP081</name>
  </trkpt>
  <trkpt lat="59.42715" lon="24.76203">
    <name>TP082</name>
  </trkpt>
  <trkpt lat="59.42704" lon="24.76202">
    <name>TP083</name>
  </trkpt>
  <trkpt lat="59.42698" lon="24.76201">
    <name>TP084</name>
  </trkpt>
  <trkpt lat="59.42695" lon="24.76201">
    <name>TP085</name>
  </trkpt>
  <trkpt lat="59.42688" lon="24.76199">
    <name>TP086</name>
  </trkpt>
  <trkpt lat="59.42682" lon="24.76198">
    <name>TP087</name>
  </trkpt>
  <trkpt lat="59.426824" lon="24.7619841">
    <name>TP088</name>
  </trkpt>
  <trkpt lat="59.42682" lon="24.76114">
    <name>TP089</name>
  </trkpt>
  <trkpt lat="59.42683" lon="24.76098">
    <name>TP090</name>
  </trkpt>
  <trkpt lat="59.42684" lon="24.75947">
    <name>TP091</name>
  </trkpt>
  <trkpt lat="59.4268359" lon="24.7594692">
    <name>TP092</name>
  </trkpt>
  <trkpt lat="59.4268359" lon="24.7594692">
    <name>TP093</name>
  </trkpt>
  <trkpt lat="59.42684" lon="24.75836">
    <name>TP094</name>
  </trkpt>
  <trkpt lat="59.42684" lon="24.75834">
    <name>TP095</name>
  </trkpt>
  <trkpt lat="59.42683" lon="24.75829">
    <name>TP096</name>
  </trkpt>
  <trkpt lat="59.42681" lon="24.75825">
    <name>TP097</name>
  </trkpt>
  <trkpt lat="59.42678" lon="24.75819">
    <name>TP098</name>
  </trkpt>
  <trkpt lat="59.42673" lon="24.75808">
    <name>TP099</name>
  </trkpt>
  <trkpt lat="59.42641" lon="24.75734">
    <name>TP100</name>
  </trkpt>
  <trkpt lat="59.42631" lon="24.75714">
    <name>TP101</name>
  </trkpt>
  <trkpt lat="59.42615" lon="24.75682">
    <name>TP102</name>
  </trkpt>
  <trkpt lat="59.42612" lon="24.75677">
    <name>TP103</name>
  </trkpt>
  <trkpt lat="59.42599" lon="24.75646">
    <name>TP104</name>
  </trkpt>
  <trkpt lat="59.42591" lon="24.7563">
    <name>TP105</name>
  </trkpt>
  <trkpt lat="59.42578" lon="24.75598">
    <name>TP106</name>
  </trkpt>
  <trkpt lat="59.42548" lon="24.75526">
    <name>TP107</name>
  </trkpt>
  <trkpt lat="59.4253" lon="24.75483">
    <name>TP108</name>
  </trkpt>
  <trkpt lat="59.425" lon="24.75402">
    <name>TP109</name>
  </trkpt>
  <trkpt lat="59.42495" lon="24.75386">
    <name>TP110</name>
  </trkpt>
  <trkpt lat="59.4249529" lon="24.7538574">
    <name>TP111</name>
  </trkpt>
  <trkpt lat="59.42521" lon="24.75342">
    <name>TP112</name>
  </trkpt>
  <trkpt lat="59.42544" lon="24.75304">
    <name>TP113</name>
  </trkpt>
  <trkpt lat="59.42545" lon="24.75302">
    <name>TP114</name>
  </trkpt>
  <trkpt lat="59.42564" lon="24.75278">
    <name>TP115</name>
  </trkpt>
  <trkpt lat="59.42572" lon="24.75271">
    <name>TP116</name>
  </trkpt>
  <trkpt lat="59.4258" lon="24.75265">
    <name>TP117</name>
  </trkpt>
  <trkpt lat="59.4259" lon="24.7526">
    <name>TP118</name>
  </trkpt>
  <trkpt lat="59.42609" lon="24.75252">
    <name>TP119</name>
  </trkpt>
  <trkpt lat="59.42612" lon="24.75251">
    <name>TP120</name>
  </trkpt>
  <trkpt lat="59.42617" lon="24.7525">
    <name>TP121</name>
  </trkpt>
  <trkpt lat="59.42622" lon="24.75249">
    <name>TP122</name>
  </trkpt>
  <trkpt lat="59.42626" lon="24.75249">
    <name>TP123</name>
  </trkpt>
  <trkpt lat="59.42635" lon="24.7525">
    <name>TP124</name>
  </trkpt>
  <trkpt lat="59.4264" lon="24.75251">
    <name>TP125</name>
  </trkpt>
  <trkpt lat="59.42644" lon="24.75251">
    <name>TP126</name>
  </trkpt>
  <trkpt lat="59.42654" lon="24.75255">
    <name>TP127</name>
  </trkpt>
  <trkpt lat="59.42663" lon="24.75257">
    <name>TP128</name>
  </trkpt>
  <trkpt lat="59.42671" lon="24.7526">
    <name>TP129</name>
  </trkpt>
  <trkpt lat="59.42704" lon="24.75266">
    <name>TP130</name>
  </trkpt>
  <trkpt lat="59.42713" lon="24.75268">
    <name>TP131</name>
  </trkpt>
  <trkpt lat="59.42721" lon="24.75269">
    <name>TP132</name>
  </trkpt>
  <trkpt lat="59.42733" lon="24.75269">
    <name>TP133</name>
  </trkpt>
  <trkpt lat="59.4273257" lon="24.7526944">
    <name>TP134</name>
  </trkpt>
  <trkpt lat="59.4274" lon="24.7529">
    <name>TP135</name>
  </trkpt>
  <trkpt lat="59.42741" lon="24.75292">
    <name>TP136</name>
  </trkpt>
  <trkpt lat="59.4277" lon="24.75377">
    <name>TP137</name>
  </trkpt>
  <trkpt lat="59.42774" lon="24.75395">
    <name>TP138</name>
  </trkpt>
  <trkpt lat="59.42787" lon="24.75432">
    <name>TP139</name>
  </trkpt>
  <trkpt lat="59.4278685" lon="24.7543183">
    <name>TP140</name>
  </trkpt>
  <trkpt lat="59.42814" lon="24.7543">
    <name>TP141</name>
  </trkpt>
  <trkpt lat="59.42826" lon="24.7543">
    <name>TP142</name>
  </trkpt>
  <trkpt lat="59.42837" lon="24.75427">
    <name>TP143</name>
  </trkpt>
  <trkpt lat="59.42843" lon="24.75425">
    <name>TP144</name>
  </trkpt>
  <trkpt lat="59.42874" lon="24.75408">
    <name>TP145</name>
  </trkpt>
  <trkpt lat="59.4289" lon="24.754">
    <name>TP146</name>
  </trkpt>
  <trkpt lat="59.4288979" lon="24.7539991">
    <name>TP147</name>
  </trkpt>
  <trkpt lat="59.42892" lon="24.75412">
    <name>TP148</name>
  </trkpt>
  <trkpt lat="59.429" lon="24.75457">
    <name>TP149</name>
  </trkpt>
  <trkpt lat="59.42908" lon="24.75505">
    <name>TP150</name>
  </trkpt>
  <trkpt lat="59.42913" lon="24.7553">
    <name>TP151</name>
  </trkpt>
  <trkpt lat="59.42921" lon="24.75561">
    <name>TP152</name>
  </trkpt>
  <trkpt lat="59.42928" lon="24.75592">
    <name>TP153</name>
  </trkpt>
  <trkpt lat="59.4292768" lon="24.75592">
    <name>TP154</name>
  </trkpt>
  <trkpt lat="59.42925" lon="24.75621">
    <name>TP155</name>
  </trkpt>
  <trkpt lat="59.42927" lon="24.75642">
    <name>TP156</name>
  </trkpt>
  <trkpt lat="59.42928" lon="24.75662">
    <name>TP157</name>
  </trkpt>
  <trkpt lat="59.42928" lon="24.75673">
    <name>TP158</name>
  </trkpt>
  <trkpt lat="59.42927" lon="24.75686">
    <name>TP159</name>
  </trkpt>
  <trkpt lat="59.4292" lon="24.75749">
    <name>TP160</name>
  </trkpt>
  <trkpt lat="59.42915" lon="24.75774">
    <name>TP161</name>
  </trkpt>
  <trkpt lat="59.42911" lon="24.75804">
    <name>TP162</name>
  </trkpt>
  <trkpt lat="59.4291" lon="24.75812">
    <name>TP163</name>
  </trkpt>
  <trkpt lat="59.42909" lon="24.75822">
    <name>TP164</name>
  </trkpt>
  <trkpt lat="59.42908" lon="24.75826">
    <name>TP165</name>
  </trkpt>
  <trkpt lat="59.42909" lon="24.75839">
    <name>TP166</name>
  </trkpt>
  <trkpt lat="59.42907" lon="24.75847">
    <name>TP167</name>
  </trkpt>
  <trkpt lat="59.42902" lon="24.75879">
    <name>TP168</name>
  </trkpt>
  <trkpt lat="59.42897" lon="24.75911">
    <name>TP169</name>
  </trkpt>
  <trkpt lat="59.4289" lon="24.75952">
    <name>TP170</name>
  </trkpt>
  <trkpt lat="59.42888" lon="24.75964">
    <name>TP171</name>
  </trkpt>
  <trkpt lat="59.42886" lon="24.75974">
    <name>TP172</name>
  </trkpt>
  <trkpt lat="59.42883" lon="24.75983">
    <name>TP173</name>
  </trkpt>
  <trkpt lat="59.42879" lon="24.75998">
    <name>TP174</name>
  </trkpt>
  <trkpt lat="59.42873" lon="24.76015">
    <name>TP175</name>
  </trkpt>
  <trkpt lat="59.42868" lon="24.7603">
    <name>TP176</name>
  </trkpt>
  <trkpt lat="59.42852" lon="24.76069">
    <name>TP177</name>
  </trkpt>
  <trkpt lat="59.42829" lon="24.76124">
    <name>TP178</name>
  </trkpt>
  <trkpt lat="59.42811" lon="24.7618">
    <name>TP179</name>
  </trkpt>
  <trkpt lat="59.42804" lon="24.76205">
    <name>TP180</name>
  </trkpt>
  <trkpt lat="59.42803" lon="24.76215">
    <name>TP181</name>
  </trkpt>
  <trkpt lat="59.42802" lon="24.76223">
    <name>TP182</name>
  </trkpt>
  <trkpt lat="59.428" lon="24.76236">
    <name>TP183</name>
  </trkpt>
  <trkpt lat="59.42799" lon="24.76306">
    <name>TP184</name>
  </trkpt>
  <trkpt lat="59.42798" lon="24.76321">
    <name>TP185</name>
  </trkpt>
  <trkpt lat="59.42797" lon="24.76387">
    <name>TP186</name>
  </trkpt>
  <trkpt lat="59.42796" lon="24.76447">
    <name>TP187</name>
  </trkpt>
  <trkpt lat="59.42795" lon="24.76474">
    <name>TP188</name>
  </trkpt>
  <trkpt lat="59.42794" lon="24.76504">
    <name>TP189</name>
  </trkpt>
  <trkpt lat="59.42794" lon="24.76514">
    <name>TP190</name>
  </trkpt>
  <trkpt lat="59.42793" lon="24.76529">
    <name>TP191</name>
  </trkpt>
  <trkpt lat="59.42792" lon="24.7654">
    <name>TP192</name>
  </trkpt>
  <trkpt lat="59.4279" lon="24.76554">
    <name>TP193</name>
  </trkpt>
  <trkpt lat="59.42788" lon="24.76571">
    <name>TP194</name>
  </trkpt>
  <trkpt lat="59.42786" lon="24.76585">
    <name>TP195</name>
  </trkpt>
  <trkpt lat="59.42785" lon="24.76594">
    <name>TP196</name>
  </trkpt>
  <trkpt lat="59.42784" lon="24.76602">
    <name>TP197</name>
  </trkpt>
  <trkpt lat="59.42778" lon="24.76649">
    <name>TP198</name>
  </trkpt>
  <trkpt lat="59.42773" lon="24.76683">
    <name>TP199</name>
  </trkpt>
  <trkpt lat="59.42769" lon="24.76719">
    <name>TP200</name>
  </trkpt>
  <trkpt lat="59.42759" lon="24.76782">
    <name>TP201</name>
  </trkpt>
  <trkpt lat="59.42753" lon="24.76816">
    <name>TP202</name>
  </trkpt>
  <trkpt lat="59.42753" lon="24.76819">
    <name>TP203</name>
  </trkpt>
  <trkpt lat="59.42752" lon="24.76822">
    <name>TP204</name>
  </trkpt>
  <trkpt lat="59.42748" lon="24.7685">
    <name>TP205</name>
  </trkpt>
  <trkpt lat="59.42744" lon="24.76875">
    <name>TP206</name>
  </trkpt>
  <trkpt lat="59.4274" lon="24.76901">
    <name>TP207</name>
  </trkpt>
  <trkpt lat="59.42736" lon="24.76929">
    <name>TP208</name>
  </trkpt>
  <trkpt lat="59.42733" lon="24.76952">
    <name>TP209</name>
  </trkpt>
  <trkpt lat="59.42725" lon="24.76999">
    <name>TP210</name>
  </trkpt>
  <trkpt lat="59.42721" lon="24.77028">
    <name>TP211</name>
  </trkpt>
  <trkpt lat="59.42713" lon="24.77081">
    <name>TP212</name>
  </trkpt>
  <trkpt lat="59.42711" lon="24.77093">
    <name>TP213</name>
  </trkpt>
  <trkpt lat="59.42711" lon="24.77094">
    <name>TP214</name>
  </trkpt>
  <trkpt lat="59.42705" lon="24.77136">
    <name>TP215</name>
  </trkpt>
  <trkpt lat="59.4270493" lon="24.7713645">
    <name>TP216</name>
  </trkpt>
  <trkpt lat="59.42699" lon="24.77162">
    <name>TP217</name>
  </trkpt>
  <trkpt lat="59.42704" lon="24.77173">
    <name>TP218</name>
  </trkpt>
  <trkpt lat="59.42712" lon="24.77202">
    <name>TP219</name>
  </trkpt>
  <trkpt lat="59.42731" lon="24.77267">
    <name>TP220</name>
  </trkpt>
  <trkpt lat="59.42772" lon="24.77407">
    <name>TP221</name>
  </trkpt>
  <trkpt lat="59.42776" lon="24.77428">
    <name>TP222</name>
  </trkpt>
  <trkpt lat="59.42794" lon="24.77486">
    <name>TP223</name>
  </trkpt>
  <trkpt lat="59.42801" lon="24.77507">
    <name>TP224</name>
  </trkpt>
  <trkpt lat="59.42807" lon="24.7753">
    <name>TP225</name>
  </trkpt>
  <trkpt lat="59.4280679" lon="24.7753037">
    <name>TP226</name>
  </trkpt>
  <trkpt lat="59.42822" lon="24.77584">
    <name>TP227</name>
  </trkpt>
  <trkpt lat="59.42825" lon="24.77596">
    <name>TP228</name>
  </trkpt>
  <trkpt lat="59.42826" lon="24.77604">
    <name>TP229</name>
  </trkpt>
  <trkpt lat="59.42828" lon="24.77613">
    <name>TP230</name>
  </trkpt>
  <trkpt lat="59.4283" lon="24.7763">
    <name>TP231</name>
  </trkpt>
  <trkpt lat="59.42789" lon="24.7772">
    <name>TP232</name>
  </trkpt>
  <trkpt lat="59.42788" lon="24.77722">
    <name>TP233</name>
  </trkpt>
  <trkpt lat="59.42777" lon="24.77748">
    <name>TP234</name>
  </trkpt>
  <trkpt lat="59.42748" lon="24.77812">
    <name>TP235</name>
  </trkpt>
  <trkpt lat="59.42738" lon="24.77834">
    <name>TP236</name>
  </trkpt>
  <trkpt lat="59.42719" lon="24.77872">
    <name>TP237</name>
  </trkpt>
  <trkpt lat="59.42702" lon="24.77903">
    <name>TP238</name>
  </trkpt>
  <trkpt lat="59.42666" lon="24.77969">
    <name>TP239</name>
  </trkpt>
  <trkpt lat="59.42647" lon="24.78008">
    <name>TP240</name>
  </trkpt>
  <trkpt lat="59.4264" lon="24.7802">
    <name>TP241</name>
  </trkpt>
  <trkpt lat="59.42623" lon="24.78052">
    <name>TP242</name>
  </trkpt>
  <trkpt lat="59.42606" lon="24.78084">
    <name>TP243</name>
  </trkpt>
  <trkpt lat="59.4258" lon="24.78145">
    <name>TP244</name>
  </trkpt>
  <trkpt lat="59.42551" lon="24.78215">
    <name>TP245</name>
  </trkpt>
  <trkpt lat="59.4255097" lon="24.782149">
    <name>TP246</name>
  </trkpt>
  <trkpt lat="59.42526" lon="24.78267">
    <name>TP247</name>
  </trkpt>
  <trkpt lat="59.42482" lon="24.7837">
    <name>TP248</name>
  </trkpt>
  <trkpt lat="59.42479" lon="24.78375">
    <name>TP249</name>
  </trkpt>
  <trkpt lat="59.42476" lon="24.78388">
    <name>TP250</name>
  </trkpt>
  <trkpt lat="59.42473" lon="24.78394">
    <name>TP251</name>
  </trkpt>
  <trkpt lat="59.42471" lon="24.78402">
    <name>TP252</name>
  </trkpt>
  <trkpt lat="59.42461" lon="24.78422">
    <name>TP253</name>
  </trkpt>
  <trkpt lat="59.4246104" lon="24.7842178">
    <name>TP254</name>
  </trkpt>
  <trkpt lat="59.42445" lon="24.7846">
    <name>TP255</name>
  </trkpt>
  <trkpt lat="59.42433" lon="24.78487">
    <name>TP256</name>
  </trkpt>
  <trkpt lat="59.42422" lon="24.78511">
    <name>TP257</name>
  </trkpt>
  <trkpt lat="59.42409" lon="24.78539">
    <name>TP258</name>
  </trkpt>
  <trkpt lat="59.42405" lon="24.78546">
    <name>TP259</name>
  </trkpt>
  <trkpt lat="59.42395" lon="24.78566">
    <name>TP260</name>
  </trkpt>
  <trkpt lat="59.42381" lon="24.78596">
    <name>TP261</name>
  </trkpt>
  <trkpt lat="59.42372" lon="24.78613">
    <name>TP262</name>
  </trkpt>
  <trkpt lat="59.42345" lon="24.78659">
    <name>TP263</name>
  </trkpt>
  <trkpt lat="59.4233" lon="24.78678">
    <name>TP264</name>
  </trkpt>
  <trkpt lat="59.42324" lon="24.78685">
    <name>TP265</name>
  </trkpt>
  <trkpt lat="59.42321" lon="24.78689">
    <name>TP266</name>
  </trkpt>
  <trkpt lat="59.42319" lon="24.78691">
    <name>TP267</name>
  </trkpt>
  <trkpt lat="59.42316" lon="24.78695">
    <name>TP268</name>
  </trkpt>
  <trkpt lat="59.4231576" lon="24.7869469">
    <name>TP269</name>
  </trkpt>
  <trkpt lat="59.42314" lon="24.7871">
    <name>TP270</name>
  </trkpt>
  <trkpt lat="59.42313" lon="24.7871">
    <name>TP271</name>
  </trkpt>
  <trkpt lat="59.42289" lon="24.78742">
    <name>TP272</name>
  </trkpt>
  <trkpt lat="59.42283" lon="24.78751">
    <name>TP273</name>
  </trkpt>
  <trkpt lat="59.42273" lon="24.78765">
    <name>TP274</name>
  </trkpt>
  <trkpt lat="59.4226" lon="24.78783">
    <name>TP275</name>
  </trkpt>
  <trkpt lat="59.42254" lon="24.78792">
    <name>TP276</name>
  </trkpt>
  <trkpt lat="59.42251" lon="24.78796">
    <name>TP277</name>
  </trkpt>
  <trkpt lat="59.42247" lon="24.78802">
    <name>TP278</name>
  </trkpt>
  <trkpt lat="59.422468" lon="24.788023">
    <name>TP279</name>
  </trkpt>
  <trkpt lat="59.42245" lon="24.78809">
    <name>TP280</name>
  </trkpt>
  <trkpt lat="59.42243" lon="24.78816">
    <name>TP281</name>
  </trkpt>
  <trkpt lat="59.42243" lon="24.78821">
    <name>TP282</name>
  </trkpt>
  <trkpt lat="59.42242" lon="24.78825">
    <name>TP283</name>
  </trkpt>
  <trkpt lat="59.42242" lon="24.78828">
    <name>TP284</name>
  </trkpt>
  <trkpt lat="59.42242" lon="24.78834">
    <name>TP285</name>
  </trkpt>
  <trkpt lat="59.4225" lon="24.78852">
    <name>TP286</name>
  </trkpt>
  <trkpt lat="59.42258" lon="24.7887">
    <name>TP287</name>
  </trkpt>
  <trkpt lat="59.42268" lon="24.78889">
    <name>TP288</name>
  </trkpt>
  <trkpt lat="59.42277" lon="24.78905">
    <name>TP289</name>
  </trkpt>
  <trkpt lat="59.42285" lon="24.78923">
    <name>TP290</name>
  </trkpt>
  <trkpt lat="59.42296" lon="24.78952">
    <name>TP291</name>
  </trkpt>
  <trkpt lat="59.423" lon="24.78967">
    <name>TP292</name>
  </trkpt>
  <trkpt lat="59.42303" lon="24.78984">
    <name>TP293</name>
  </trkpt>
  <trkpt lat="59.42305" lon="24.78999">
    <name>TP294</name>
  </trkpt>
  <trkpt lat="59.42306" lon="24.79016">
    <name>TP295</name>
  </trkpt>
  <trkpt lat="59.42307" lon="24.79028">
    <name>TP296</name>
  </trkpt>
  <trkpt lat="59.42307" lon="24.79115">
    <name>TP297</name>
  </trkpt>
  <trkpt lat="59.42304" lon="24.79167">
    <name>TP298</name>
  </trkpt>
  <trkpt lat="59.42304" lon="24.7918">
    <name>TP299</name>
  </trkpt>
  <trkpt lat="59.42303" lon="24.79269">
    <name>TP300</name>
  </trkpt>
  <trkpt lat="59.42303" lon="24.79283">
    <name>TP301</name>
  </trkpt>
  <trkpt lat="59.42305" lon="24.79405">
    <name>TP302</name>
  </trkpt>
  <trkpt lat="59.42305" lon="24.79521">
    <name>TP303</name>
  </trkpt>
  <trkpt lat="59.4230488" lon="24.7952079">
    <name>TP304</name>
  </trkpt>
  <trkpt lat="59.42302" lon="24.79533">
    <name>TP305</name>
  </trkpt>
  <trkpt lat="59.42301" lon="24.79542">
    <name>TP306</name>
  </trkpt>
  <trkpt lat="59.423" lon="24.7955">
    <name>TP307</name>
  </trkpt>
  <trkpt lat="59.42298" lon="24.79562">
    <name>TP308</name>
  </trkpt>
  <trkpt lat="59.42295" lon="24.79577">
    <name>TP309</name>
  </trkpt>
  <trkpt lat="59.42255" lon="24.79577">
    <name>TP310</name>
  </trkpt>
  <trkpt lat="59.4225504" lon="24.7957662">
    <name>TP311</name>
  </trkpt>
  <trkpt lat="59.4225504" lon="24.7957662">
    <name>TP312</name>
  </trkpt>
  <trkpt lat="59.4225" lon="24.79577">
    <name>TP313</name>
  </trkpt>
  <trkpt lat="59.42248" lon="24.79578">
    <name>TP314</name>
  </trkpt>
  <trkpt lat="59.42246" lon="24.79581">
    <name>TP315</name>
  </trkpt>
  <trkpt lat="59.42244" lon="24.79585">
    <name>TP316</name>
  </trkpt>
  <trkpt lat="59.42242" lon="24.79593">
    <name>TP317</name>
  </trkpt>
  <trkpt lat="59.42237" lon="24.79614">
    <name>TP318</name>
  </trkpt>
  <trkpt lat="59.42233" lon="24.79632">
    <name>TP319</name>
  </trkpt>
  <trkpt lat="59.4223345" lon="24.796316">
    <name>TP320</name>
  </trkpt>
  <trkpt lat="59.42232" lon="24.79632">
    <name>TP321</name>
  </trkpt>
  <trkpt lat="59.42232" lon="24.79633">
    <name>TP322</name>
  </trkpt>
  <trkpt lat="59.42231" lon="24.79634">
    <name>TP323</name>
  </trkpt>
  <trkpt lat="59.42231" lon="24.79635">
    <name>TP324</name>
  </trkpt>
  <trkpt lat="59.4223" lon="24.79636">
    <name>TP325</name>
  </trkpt>
  <trkpt lat="59.4223" lon="24.79637">
    <name>TP326</name>
  </trkpt>
  <trkpt lat="59.4223" lon="24.79638">
    <name>TP327</name>
  </trkpt>
  <trkpt lat="59.4223" lon="24.79639">
    <name>TP328</name>
  </trkpt>
  <trkpt lat="59.42229" lon="24.79639">
    <name>TP329</name>
  </trkpt>
  <trkpt lat="59.42229" lon="24.7964">
    <name>TP330</name>
  </trkpt>
  <trkpt lat="59.42229" lon="24.79641">
    <name>TP331</name>
  </trkpt>
  <trkpt lat="59.42229" lon="24.79642">
    <name>TP332</name>
  </trkpt>
  <trkpt lat="59.42229" lon="24.79643">
    <name>TP333</name>
  </trkpt>
  <trkpt lat="59.42229" lon="24.79644">
    <name>TP334</name>
  </trkpt>
  <trkpt lat="59.42229" lon="24.79645">
    <name>TP335</name>
  </trkpt>
  <trkpt lat="59.42229" lon="24.79646">
    <name>TP336</name>
  </trkpt>
  <trkpt lat="59.42229" lon="24.79647">
    <name>TP337</name>
  </trkpt>
  <trkpt lat="59.4223" lon="24.79647">
    <name>TP338</name>
  </trkpt>
  <trkpt lat="59.4223" lon="24.79648">
    <name>TP339</name>
  </trkpt>
  <trkpt lat="59.4223" lon="24.79649">
    <name>TP340</name>
  </trkpt>
  <trkpt lat="59.4223" lon="24.7965">
    <name>TP341</name>
  </trkpt>
  <trkpt lat="59.4223" lon="24.79651">
    <name>TP342</name>
  </trkpt>
  <trkpt lat="59.4223" lon="24.79652">
    <name>TP343</name>
  </trkpt>
  <trkpt lat="59.42231" lon="24.79653">
    <name>TP344</name>
  </trkpt>
  <trkpt lat="59.42231" lon="24.79654">
    <name>TP345</name>
  </trkpt>
  <trkpt lat="59.42232" lon="24.79655">
    <name>TP346</name>
  </trkpt>
  <trkpt lat="59.42232" lon="24.79656">
    <name>TP347</name>
  </trkpt>
  <trkpt lat="59.42233" lon="24.79656">
    <name>TP348</name>
  </trkpt>
  <trkpt lat="59.42233" lon="24.79657">
    <name>TP349</name>
  </trkpt>
  <trkpt lat="59.42234" lon="24.79657">
    <name>TP350</name>
  </trkpt>
  <trkpt lat="59.42234" lon="24.79658">
    <name>TP351</name>
  </trkpt>
  <trkpt lat="59.42235" lon="24.79658">
    <name>TP352</name>
  </trkpt>
  <trkpt lat="59.42236" lon="24.79658">
    <name>TP353</name>
  </trkpt>
  <trkpt lat="59.42237" lon="24.79657">
    <name>TP354</name>
  </trkpt>
  <trkpt lat="59.42238" lon="24.79657">
    <name>TP355</name>
  </trkpt>
  <trkpt lat="59.42238" lon="24.79656">
    <name>TP356</name>
  </trkpt>
  <trkpt lat="59.42239" lon="24.79656">
    <name>TP357</name>
  </trkpt>
  <trkpt lat="59.42239" lon="24.79655">
    <name>TP358</name>
  </trkpt>
  <trkpt lat="59.4224" lon="24.79655">
    <name>TP359</name>
  </trkpt>
  <trkpt lat="59.4224" lon="24.79654">
    <name>TP360</name>
  </trkpt>
  <trkpt lat="59.42241" lon="24.79654">
    <name>TP361</name>
  </trkpt>
  <trkpt lat="59.42241" lon="24.79653">
    <name>TP362</name>
  </trkpt>
  <trkpt lat="59.42241" lon="24.79652">
    <name>TP363</name>
  </trkpt>
  <trkpt lat="59.42241" lon="24.79651">
    <name>TP364</name>
  </trkpt>
  <trkpt lat="59.42242" lon="24.79651">
    <name>TP365</name>
  </trkpt>
  <trkpt lat="59.42242" lon="24.7965">
    <name>TP366</name>
  </trkpt>
  <trkpt lat="59.42242" lon="24.79649">
    <name>TP367</name>
  </trkpt>
  <trkpt lat="59.42242" lon="24.79648">
    <name>TP368</name>
  </trkpt>
  <trkpt lat="59.42242" lon="24.79647">
    <name>TP369</name>
  </trkpt>
  <trkpt lat="59.42242" lon="24.79646">
    <name>TP370</name>
  </trkpt>
  <trkpt lat="59.42243" lon="24.79646">
    <name>TP371</name>
  </trkpt>
  <trkpt lat="59.42243" lon="24.79645">
    <name>TP372</name>
  </trkpt>
  <trkpt lat="59.42243" lon="24.79644">
    <name>TP373</name>
  </trkpt>
  <trkpt lat="59.42243" lon="24.79643">
    <name>TP374</name>
  </trkpt>
  <trkpt lat="59.42243" lon="24.79642">
    <name>TP375</name>
  </trkpt>
  <trkpt lat="59.42242" lon="24.79642">
    <name>TP376</name>
  </trkpt>
  <trkpt lat="59.42242" lon="24.79641">
    <name>TP377</name>
  </trkpt>
  <trkpt lat="59.42242" lon="24.7964">
    <name>TP378</name>
  </trkpt>
  <trkpt lat="59.42242" lon="24.79639">
    <name>TP379</name>
  </trkpt>
  <trkpt lat="59.42242" lon="24.79638">
    <name>TP380</name>
  </trkpt>
  <trkpt lat="59.42242" lon="24.79637">
    <name>TP381</name>
  </trkpt>
  <trkpt lat="59.42241" lon="24.79637">
    <name>TP382</name>
  </trkpt>
  <trkpt lat="59.42241" lon="24.79636">
    <name>TP383</name>
  </trkpt>
  <trkpt lat="59.42241" lon="24.79635">
    <name>TP384</name>
  </trkpt>
  <trkpt lat="59.42241" lon="24.79628">
    <name>TP385</name>
  </trkpt>
  <trkpt lat="59.42243" lon="24.79619">
    <name>TP386</name>
  </trkpt>
  <trkpt lat="59.42245" lon="24.79607">
    <name>TP387</name>
  </trkpt>
  <trkpt lat="59.42247" lon="24.796">
    <name>TP388</name>
  </trkpt>
  <trkpt lat="59.42249" lon="24.79597">
    <name>TP389</name>
  </trkpt>
  <trkpt lat="59.42251" lon="24.79594">
    <name>TP390</name>
  </trkpt>
  <trkpt lat="59.42254" lon="24.79592">
    <name>TP391</name>
  </trkpt>
  <trkpt lat="59.42258" lon="24.7959">
    <name>TP392</name>
  </trkpt>
  <trkpt lat="59.42266" lon="24.79589">
    <name>TP393</name>
  </trkpt>
  <trkpt lat="59.42282" lon="24.79589">
    <name>TP394</name>
  </trkpt>
  <trkpt lat="59.42304" lon="24.79591">
    <name>TP395</name>
  </trkpt>
  <trkpt lat="59.4230425" lon="24.7959083">
    <name>TP396</name>
  </trkpt>
  <trkpt lat="59.42315" lon="24.79591">
    <name>TP397</name>
  </trkpt>
  <trkpt lat="59.42315" lon="24.79576">
    <name>TP398</name>
  </trkpt>
  <trkpt lat="59.42315" lon="24.79539">
    <name>TP399</name>
  </trkpt>
  <trkpt lat="59.42315" lon="24.79406">
    <name>TP400</name>
  </trkpt>
  <trkpt lat="59.42314" lon="24.79287">
    <name>TP401</name>
  </trkpt>
  <trkpt lat="59.42314" lon="24.79269">
    <name>TP402</name>
  </trkpt>
  <trkpt lat="59.42315" lon="24.7918">
    <name>TP403</name>
  </trkpt>
  <trkpt lat="59.42313" lon="24.79002">
    <name>TP404</name>
  </trkpt>
  <trkpt lat="59.4231326" lon="24.7900197">
    <name>TP405</name>
  </trkpt>
  <trkpt lat="59.4231" lon="24.78963">
    <name>TP406</name>
  </trkpt>
  <trkpt lat="59.42308" lon="24.78953">
    <name>TP407</name>
  </trkpt>
  <trkpt lat="59.42307" lon="24.78944">
    <name>TP408</name>
  </trkpt>
  <trkpt lat="59.42305" lon="24.78938">
    <name>TP409</name>
  </trkpt>
  <trkpt lat="59.42303" lon="24.78927">
    <name>TP410</name>
  </trkpt>
  <trkpt lat="59.423" lon="24.78917">
    <name>TP411</name>
  </trkpt>
  <trkpt lat="59.42292" lon="24.78902">
    <name>TP412</name>
  </trkpt>
  <trkpt lat="59.4229249" lon="24.7890205">
    <name>TP413</name>
  </trkpt>
  <trkpt lat="59.42289" lon="24.78883">
    <name>TP414</name>
  </trkpt>
  <trkpt lat="59.42285" lon="24.7887">
    <name>TP415</name>
  </trkpt>
  <trkpt lat="59.42279" lon="24.78857">
    <name>TP416</name>
  </trkpt>
  <trkpt lat="59.42276" lon="24.78842">
    <name>TP417</name>
  </trkpt>
  <trkpt lat="59.42275" lon="24.78833">
    <name>TP418</name>
  </trkpt>
  <trkpt lat="59.42275" lon="24.78823">
    <name>TP419</name>
  </trkpt>
  <trkpt lat="59.42276" lon="24.78808">
    <name>TP420</name>
  </trkpt>
  <trkpt lat="59.42282" lon="24.78776">
    <name>TP421</name>
  </trkpt>
  <trkpt lat="59.4231" lon="24.78735">
    <name>TP422</name>
  </trkpt>
  <trkpt lat="59.4235" lon="24.78678">
    <name>TP423</name>
  </trkpt>
  <trkpt lat="59.42381" lon="24.78638">
    <name>TP424</name>
  </trkpt>
  <trkpt lat="59.42399" lon="24.78614">
    <name>TP425</name>
  </trkpt>
  <trkpt lat="59.4241" lon="24.78597">
    <name>TP426</name>
  </trkpt>
  <trkpt lat="59.42416" lon="24.78583">
    <name>TP427</name>
  </trkpt>
  <trkpt lat="59.42443" lon="24.7853">
    <name>TP428</name>
  </trkpt>
  <trkpt lat="59.42454" lon="24.78508">
    <name>TP429</name>
  </trkpt>
  <trkpt lat="59.42466" lon="24.78477">
    <name>TP430</name>
  </trkpt>
  <trkpt lat="59.42476" lon="24.78452">
    <name>TP431</name>
  </trkpt>
  <trkpt lat="59.42494" lon="24.78405">
    <name>TP432</name>
  </trkpt>
  <trkpt lat="59.425" lon="24.7839">
    <name>TP433</name>
  </trkpt>
  <trkpt lat="59.42504" lon="24.78381">
    <name>TP434</name>
  </trkpt>
  <trkpt lat="59.42512" lon="24.78361">
    <name>TP435</name>
  </trkpt>
  <trkpt lat="59.42523" lon="24.78333">
    <name>TP436</name>
  </trkpt>
  <trkpt lat="59.42527" lon="24.78321">
    <name>TP437</name>
  </trkpt>
  <trkpt lat="59.42542" lon="24.78285">
    <name>TP438</name>
  </trkpt>
  <trkpt lat="59.42548" lon="24.78272">
    <name>TP439</name>
  </trkpt>
  <trkpt lat="59.42555" lon="24.78255">
    <name>TP440</name>
  </trkpt>
  <trkpt lat="59.42563" lon="24.78234">
    <name>TP441</name>
  </trkpt>
  <trkpt lat="59.42575" lon="24.78194">
    <name>TP442</name>
  </trkpt>
  <trkpt lat="59.4259" lon="24.78154">
    <name>TP443</name>
  </trkpt>
  <trkpt lat="59.42594" lon="24.78142">
    <name>TP444</name>
  </trkpt>
  <trkpt lat="59.42613" lon="24.781">
    <name>TP445</name>
  </trkpt>
  <trkpt lat="59.42624" lon="24.7807">
    <name>TP446</name>
  </trkpt>
  <trkpt lat="59.42645" lon="24.7803">
    <name>TP447</name>
  </trkpt>
  <trkpt lat="59.42653" lon="24.78017">
    <name>TP448</name>
  </trkpt>
  <trkpt lat="59.42678" lon="24.77967">
    <name>TP449</name>
  </trkpt>
  <trkpt lat="59.42706" lon="24.77921">
    <name>TP450</name>
  </trkpt>
  <trkpt lat="59.42708" lon="24.77917">
    <name>TP451</name>
  </trkpt>
  <trkpt lat="59.42744" lon="24.77847">
    <name>TP452</name>
  </trkpt>
  <trkpt lat="59.42755" lon="24.77826">
    <name>TP453</name>
  </trkpt>
  <trkpt lat="59.42763" lon="24.77809">
    <name>TP454</name>
  </trkpt>
  <trkpt lat="59.42771" lon="24.77789">
    <name>TP455</name>
  </trkpt>
  <trkpt lat="59.42787" lon="24.77753">
    <name>TP456</name>
  </trkpt>
  <trkpt lat="59.42796" lon="24.77728">
    <name>TP457</name>
  </trkpt>
  <trkpt lat="59.4282" lon="24.77679">
    <name>TP458</name>
  </trkpt>
  <trkpt lat="59.42824" lon="24.77671">
    <name>TP459</name>
  </trkpt>
  <trkpt lat="59.42827" lon="24.77663">
    <name>TP460</name>
  </trkpt>
  <trkpt lat="59.42833" lon="24.77648">
    <name>TP461</name>
  </trkpt>
  <trkpt lat="59.42855" lon="24.77595">
    <name>TP462</name>
  </trkpt>
  <trkpt lat="59.42864" lon="24.77578">
    <name>TP463</name>
  </trkpt>
  <trkpt lat="59.4287" lon="24.77564">
    <name>TP464</name>
  </trkpt>
  <trkpt lat="59.42907" lon="24.77482">
    <name>TP465</name>
  </trkpt>
  <trkpt lat="59.42932" lon="24.77421">
    <name>TP466</name>
  </trkpt>
  <trkpt lat="59.42958" lon="24.77361">
    <name>TP467</name>
  </trkpt>
  <trkpt lat="59.42978" lon="24.7731">
    <name>TP468</name>
  </trkpt>
  <trkpt lat="59.42984" lon="24.77296">
    <name>TP469</name>
  </trkpt>
  <trkpt lat="59.43002" lon="24.77258">
    <name>TP470</name>
  </trkpt>
  <trkpt lat="59.43011" lon="24.77234">
    <name>TP471</name>
  </trkpt>
  <trkpt lat="59.43049" lon="24.77139">
    <name>TP472</name>
  </trkpt>
  <trkpt lat="59.43061" lon="24.77108">
    <name>TP473</name>
  </trkpt>
  <trkpt lat="59.43078" lon="24.77065">
    <name>TP474</name>
  </trkpt>
  <trkpt lat="59.43125" lon="24.76958">
    <name>TP475</name>
  </trkpt>
  <trkpt lat="59.43131" lon="24.76943">
    <name>TP476</name>
  </trkpt>
  <trkpt lat="59.43142" lon="24.7691">
    <name>TP477</name>
  </trkpt>
  <trkpt lat="59.43148" lon="24.76893">
    <name>TP478</name>
  </trkpt>
  <trkpt lat="59.4315" lon="24.76887">
    <name>TP479</name>
  </trkpt>
  <trkpt lat="59.43153" lon="24.76881">
    <name>TP480</name>
  </trkpt>
  <trkpt lat="59.4316" lon="24.76855">
    <name>TP481</name>
  </trkpt>
  <trkpt lat="59.4317" lon="24.76814">
    <name>TP482</name>
  </trkpt>
  <trkpt lat="59.43172" lon="24.76802">
    <name>TP483</name>
  </trkpt>
  <trkpt lat="59.43178" lon="24.76778">
    <name>TP484</name>
  </trkpt>
  <trkpt lat="59.43188" lon="24.76732">
    <name>TP485</name>
  </trkpt>
  <trkpt lat="59.43191" lon="24.76719">
    <name>TP486</name>
  </trkpt>
  <trkpt lat="59.43194" lon="24.76706">
    <name>TP487</name>
  </trkpt>
  <trkpt lat="59.43209" lon="24.76638">
    <name>TP488</name>
  </trkpt>
  <trkpt lat="59.43212" lon="24.76624">
    <name>TP489</name>
  </trkpt>
  <trkpt lat="59.43215" lon="24.76607">
    <name>TP490</name>
  </trkpt>
  <trkpt lat="59.43219" lon="24.76591">
    <name>TP491</name>
  </trkpt>
  <trkpt lat="59.43222" lon="24.76576">
    <name>TP492</name>
  </trkpt>
  <trkpt lat="59.43226" lon="24.76558">
    <name>TP493</name>
  </trkpt>
  <trkpt lat="59.43227" lon="24.76555">
    <name>TP494</name>
  </trkpt>
  <trkpt lat="59.43242" lon="24.76487">
    <name>TP495</name>
  </trkpt>
  <trkpt lat="59.43257" lon="24.7642">
    <name>TP496</name>
  </trkpt>
  <trkpt lat="59.4325671" lon="24.7641952">
    <name>TP497</name>
  </trkpt>
  <trkpt lat="59.43268" lon="24.76406">
    <name>TP498</name>
  </trkpt>
  <trkpt lat="59.4327" lon="24.76403">
    <name>TP499</name>
  </trkpt>
  <trkpt lat="59.43283" lon="24.76372">
    <name>TP500</name>
  </trkpt>
  <trkpt lat="59.43283" lon="24.76371">
    <name>TP501</name>
  </trkpt>
  <trkpt lat="59.43292" lon="24.76366">
    <name>TP502</name>
  </trkpt>
  <trkpt lat="59.433" lon="24.76363">
    <name>TP503</name>
  </trkpt>
  <trkpt lat="59.43308" lon="24.76362">
    <name>TP504</name>
  </trkpt>
  <trkpt lat="59.43312" lon="24.76363">
    <name>TP505</name>
  </trkpt>
  <trkpt lat="59.43317" lon="24.76364">
    <name>TP506</name>
  </trkpt>
  <trkpt lat="59.4333" lon="24.76366">
    <name>TP507</name>
  </trkpt>
  <trkpt lat="59.43358" lon="24.76383">
    <name>TP508</name>
  </trkpt>
  <trkpt lat="59.43387" lon="24.76395">
    <name>TP509</name>
  </trkpt>
  <trkpt lat="59.43391" lon="24.76397">
    <name>TP510</name>
  </trkpt>
  <trkpt lat="59.43396" lon="24.764">
    <name>TP511</name>
  </trkpt>
  <trkpt lat="59.43413" lon="24.76407">
    <name>TP512</name>
  </trkpt>
  <trkpt lat="59.43435" lon="24.76415">
    <name>TP513</name>
  </trkpt>
  <trkpt lat="59.43446" lon="24.76421">
    <name>TP514</name>
  </trkpt>
  <trkpt lat="59.4346" lon="24.76429">
    <name>TP515</name>
  </trkpt>
  <trkpt lat="59.43479" lon="24.76439">
    <name>TP516</name>
  </trkpt>
  <trkpt lat="59.43487" lon="24.76444">
    <name>TP517</name>
  </trkpt>
  <trkpt lat="59.43533" lon="24.7647">
    <name>TP518</name>
  </trkpt>
  <trkpt lat="59.43539" lon="24.76471">
    <name>TP519</name>
  </trkpt>
  <trkpt lat="59.43567" lon="24.76472">
    <name>TP520</name>
  </trkpt>
  <trkpt lat="59.43581" lon="24.76471">
    <name>TP521</name>
  </trkpt>
  <trkpt lat="59.43601" lon="24.76469">
    <name>TP522</name>
  </trkpt>
  <trkpt lat="59.43644" lon="24.76469">
    <name>TP523</name>
  </trkpt>
  <trkpt lat="59.43707" lon="24.76468">
    <name>TP524</name>
  </trkpt>
  <trkpt lat="59.43741" lon="24.76468">
    <name>TP525</name>
  </trkpt>
  <trkpt lat="59.4374138" lon="24.7646782">
    <name>TP526</name>
  </trkpt>
  <trkpt lat="59.43752" lon="24.76471">
    <name>TP527</name>
  </trkpt>
  <trkpt lat="59.43758" lon="24.76472">
    <name>TP528</name>
  </trkpt>
  <trkpt lat="59.43761" lon="24.76472">
    <name>TP529</name>
  </trkpt>
  <trkpt lat="59.43795" lon="24.76452">
    <name>TP530</name>
  </trkpt>
  <trkpt lat="59.43796" lon="24.76451">
    <name>TP531</name>
  </trkpt>
  <trkpt lat="59.43837" lon="24.76432">
    <name>TP532</name>
  </trkpt>
  <trkpt lat="59.43876" lon="24.76414">
    <name>TP533</name>
  </trkpt>
  <trkpt lat="59.43923" lon="24.76394">
    <name>TP534</name>
  </trkpt>
  <trkpt lat="59.43927" lon="24.76392">
    <name>TP535</name>
  </trkpt>
  <trkpt lat="59.43931" lon="24.76389">
    <name>TP536</name>
  </trkpt>
  <trkpt lat="59.43959" lon="24.76373">
    <name>TP537</name>
  </trkpt>
  <trkpt lat="59.43994" lon="24.76353">
    <name>TP538</name>
  </trkpt>
  <trkpt lat="59.439944" lon="24.7635285">
    <name>TP539</name>
  </trkpt>
  <trkpt lat="59.44006" lon="24.76358">
    <name>TP540</name>
  </trkpt>
  <trkpt lat="59.44016" lon="24.76363">
    <name>TP541</name>
  </trkpt>
  <trkpt lat="59.44013" lon="24.76344">
    <name>TP542</name>
  </trkpt>
  <trkpt lat="59.44008" lon="24.76312">
    <name>TP543</name>
  </trkpt>
  <trkpt lat="59.44007" lon="24.76305">
    <name>TP544</name>
  </trkpt>
  <trkpt lat="59.44007" lon="24.76299">
    <name>TP545</name>
  </trkpt>
  <trkpt lat="59.43989" lon="24.76183">
    <name>TP546</name>
  </trkpt>
  <trkpt lat="59.43987" lon="24.76168">
    <name>TP547</name>
  </trkpt>
  <trkpt lat="59.43986" lon="24.76156">
    <name>TP548</name>
  </trkpt>
  <trkpt lat="59.4398598" lon="24.7615568">
    <name>TP549</name>
  </trkpt>
  <trkpt lat="59.43986" lon="24.76146">
    <name>TP550</name>
  </trkpt>
  <trkpt lat="59.43986" lon="24.76108">
    <name>TP551</name>
  </trkpt>
  <trkpt lat="59.43985" lon="24.76089">
    <name>TP552</name>
  </trkpt>
  <trkpt lat="59.43985" lon="24.76073">
    <name>TP553</name>
  </trkpt>
  <trkpt lat="59.43986" lon="24.7605">
    <name>TP554</name>
  </trkpt>
  <trkpt lat="59.43998" lon="24.75985">
    <name>TP555</name>
  </trkpt>
  <trkpt lat="59.44001" lon="24.75972">
    <name>TP556</name>
  </trkpt>
  <trkpt lat="59.44005" lon="24.75947">
    <name>TP557</name>
  </trkpt>
  <trkpt lat="59.44015" lon="24.75907">
    <name>TP558</name>
  </trkpt>
  <trkpt lat="59.44045" lon="24.75761">
    <name>TP559</name>
  </trkpt>
  <trkpt lat="59.44046" lon="24.75756">
    <name>TP560</name>
  </trkpt>
  <trkpt lat="59.44049" lon="24.7574">
    <name>TP561</name>
  </trkpt>
  <trkpt lat="59.44054" lon="24.75715">
    <name>TP562</name>
  </trkpt>
  <trkpt lat="59.44054" lon="24.75711">
    <name>TP563</name>
  </trkpt>
  <trkpt lat="59.44057" lon="24.75698">
    <name>TP564</name>
  </trkpt>
  <trkpt lat="59.44059" lon="24.75685">
    <name>TP565</name>
  </trkpt>
  <trkpt lat="59.44075" lon="24.75603">
    <name>TP566</name>
  </trkpt>
  <trkpt lat="59.4408" lon="24.75573">
    <name>TP567</name>
  </trkpt>
  <trkpt lat="59.44082" lon="24.7556">
    <name>TP568</name>
  </trkpt>
  <trkpt lat="59.44089" lon="24.75522">
    <name>TP569</name>
  </trkpt>
  <trkpt lat="59.44092" lon="24.75502">
    <name>TP570</name>
  </trkpt>
  <trkpt lat="59.44099" lon="24.75462">
    <name>TP571</name>
  </trkpt>
  <trkpt lat="59.4409899" lon="24.7546243">
    <name>TP572</name>
  </trkpt>
  <trkpt lat="59.44112" lon="24.75404">
    <name>TP573</name>
  </trkpt>
  <trkpt lat="59.44115" lon="24.75393">
    <name>TP574</name>
  </trkpt>
  <trkpt lat="59.44121" lon="24.75378">
    <name>TP575</name>
  </trkpt>
  <trkpt lat="59.44134" lon="24.75347">
    <name>TP576</name>
  </trkpt>
  <trkpt lat="59.44145" lon="24.75333">
    <name>TP577</name>
  </trkpt>
  <trkpt lat="59.44162" lon="24.75316">
    <name>TP578</name>
  </trkpt>
  <trkpt lat="59.44163" lon="24.75316">
    <name>TP579</name>
  </trkpt>
  <trkpt lat="59.44172" lon="24.7531">
    <name>TP580</name>
  </trkpt>
  <trkpt lat="59.44181" lon="24.75305">
    <name>TP581</name>
  </trkpt>
  <trkpt lat="59.44189" lon="24.75301">
    <name>TP582</name>
  </trkpt>
  <trkpt lat="59.44205" lon="24.75296">
    <name>TP583</name>
  </trkpt>
  <trkpt lat="59.44215" lon="24.75294">
    <name>TP584</name>
  </trkpt>
  <trkpt lat="59.44222" lon="24.75293">
    <name>TP585</name>
  </trkpt>
  <trkpt lat="59.44229" lon="24.75292">
    <name>TP586</name>
  </trkpt>
  <trkpt lat="59.44239" lon="24.75292">
    <name>TP587</name>
  </trkpt>
  <trkpt lat="59.44246" lon="24.75293">
    <name>TP588</name>
  </trkpt>
  <trkpt lat="59.44256" lon="24.75295">
    <name>TP589</name>
  </trkpt>
  <trkpt lat="59.44272" lon="24.75299">
    <name>TP590</name>
  </trkpt>
  <trkpt lat="59.44291" lon="24.75303">
    <name>TP591</name>
  </trkpt>
  <trkpt lat="59.44299" lon="24.75305">
    <name>TP592</name>
  </trkpt>
  <trkpt lat="59.44329" lon="24.75313">
    <name>TP593</name>
  </trkpt>
  <trkpt lat="59.4432911" lon="24.7531272">
    <name>TP594</name>
  </trkpt>
  <trkpt lat="59.44336" lon="24.75311">
    <name>TP595</name>
  </trkpt>
  <trkpt lat="59.44339" lon="24.7531">
    <name>TP596</name>
  </trkpt>
  <trkpt lat="59.44343" lon="24.75308">
    <name>TP597</name>
  </trkpt>
  <trkpt lat="59.44346" lon="24.75306">
    <name>TP598</name>
  </trkpt>
  <trkpt lat="59.44351" lon="24.75301">
    <name>TP599</name>
  </trkpt>
  <trkpt lat="59.44354" lon="24.75297">
    <name>TP600</name>
  </trkpt>
  <trkpt lat="59.4436" lon="24.75287">
    <name>TP601</name>
  </trkpt>
  <trkpt lat="59.44363" lon="24.7528">
    <name>TP602</name>
  </trkpt>
  <trkpt lat="59.44366" lon="24.75273">
    <name>TP603</name>
  </trkpt>
  <trkpt lat="59.4437" lon="24.75253">
    <name>TP604</name>
  </trkpt>
  <trkpt lat="59.44372" lon="24.75232">
    <name>TP605</name>
  </trkpt>
  <trkpt lat="59.44375" lon="24.75196">
    <name>TP606</name>
  </trkpt>
  <trkpt lat="59.44379" lon="24.75173">
    <name>TP607</name>
  </trkpt>
  <trkpt lat="59.4437866" lon="24.7517266">
    <name>TP608</name>
  </trkpt>
  <trkpt lat="59.44387" lon="24.75176">
    <name>TP609</name>
  </trkpt>
  <trkpt lat="59.44392" lon="24.75178">
    <name>TP610</name>
  </trkpt>
  <trkpt lat="59.44398" lon="24.75178">
    <name>TP611</name>
  </trkpt>
  <trkpt lat="59.44404" lon="24.75178">
    <name>TP612</name>
  </trkpt>
  <trkpt lat="59.44415" lon="24.75177">
    <name>TP613</name>
  </trkpt>
  <trkpt lat="59.44438" lon="24.75174">
    <name>TP614</name>
  </trkpt>
  <trkpt lat="59.44448" lon="24.75172">
    <name>TP615</name>
  </trkpt>
  <trkpt lat="59.44463" lon="24.7517">
    <name>TP616</name>
  </trkpt>
  <trkpt lat="59.44477" lon="24.75169">
    <name>TP617</name>
  </trkpt>
  <trkpt lat="59.44486" lon="24.75168">
    <name>TP618</name>
  </trkpt>
  <trkpt lat="59.44503" lon="24.75166">
    <name>TP619</name>
  </trkpt>
  <trkpt lat="59.44517" lon="24.75163">
    <name>TP620</name>
  </trkpt>
  <trkpt lat="59.44536" lon="24.75161">
    <name>TP621</name>
  </trkpt>
  <trkpt lat="59.44555" lon="24.75159">
    <name>TP622</name>
  </trkpt>
  <trkpt lat="59.44558" lon="24.75159">
    <name>TP623</name>
  </trkpt>
  <trkpt lat="59.44576" lon="24.75155">
    <name>TP624</name>
  </trkpt>
  <trkpt lat="59.44589" lon="24.75154">
    <name>TP625</name>
  </trkpt>
  <trkpt lat="59.44626" lon="24.75149">
    <name>TP626</name>
  </trkpt>
  <trkpt lat="59.4465" lon="24.75146">
    <name>TP627</name>
  </trkpt>
  <trkpt lat="59.4465045" lon="24.7514595">
    <name>TP628</name>
  </trkpt>
  <trkpt lat="59.44649" lon="24.75122">
    <name>TP629</name>
  </trkpt>
  <trkpt lat="59.44647" lon="24.75082">
    <name>TP630</name>
  </trkpt>
  <trkpt lat="59.44645" lon="24.75062">
    <name>TP631</name>
  </trkpt>
  <trkpt lat="59.4464513" lon="24.7506187">
    <name>TP632</name>
  </trkpt>
  <trkpt lat="59.4464513" lon="24.7506187">
    <name>TP633</name>
  </trkpt>
  <trkpt lat="59.44647" lon="24.75082">
    <name>TP634</name>
  </trkpt>
  <trkpt lat="59.44649" lon="24.75122">
    <name>TP635</name>
  </trkpt>
  <trkpt lat="59.4465" lon="24.75146">
    <name>TP636</name>
  </trkpt>
  <trkpt lat="59.4465045" lon="24.7514595">
    <name>TP637</name>
  </trkpt>
  <trkpt lat="59.44626" lon="24.75149">
    <name>TP638</name>
  </trkpt>
  <trkpt lat="59.44589" lon="24.75154">
    <name>TP639</name>
  </trkpt>
  <trkpt lat="59.44576" lon="24.75155">
    <name>TP640</name>
  </trkpt>
  <trkpt lat="59.44558" lon="24.75159">
    <name>TP641</name>
  </trkpt>
  <trkpt lat="59.44555" lon="24.75159">
    <name>TP642</name>
  </trkpt>
  <trkpt lat="59.4455535" lon="24.7515901">
    <name>TP643</name>
  </trkpt>
  <trkpt lat="59.44561" lon="24.75306">
    <name>TP644</name>
  </trkpt>
  <trkpt lat="59.4456077" lon="24.7530562">
    <name>TP645</name>
  </trkpt>
  <trkpt lat="59.44542" lon="24.7531">
    <name>TP646</name>
  </trkpt>
  <trkpt lat="59.4454219" lon="24.7531009">
    <name>TP647</name>
  </trkpt>
  <trkpt lat="59.44539" lon="24.75224">
    <name>TP648</name>
  </trkpt>
  <trkpt lat="59.4453877" lon="24.7522371">
    <name>TP649</name>
  </trkpt>
  <trkpt lat="59.4453877" lon="24.7522371">
    <name>TP650</name>
  </trkpt>
  <trkpt lat="59.4453877" lon="24.7522371">
    <name>TP651</name>
  </trkpt>
  </trkseg>
</trk>
</gpx>