<?xml version="1.0" encoding="UTF-8" standalone="no" ?>
<gpx xmlns="http://www.topografix.com/GPX/1/1" xmlns:gpxx="http://www.garmin.com/xmlschemas/GpxExtensions/v3" xmlns:gpxtpx="http://www.garmin.com/xmlschemas/TrackPointExtension/v1" creator="mapstogpx.com" version="1.1" xmlns:xsi="http://www.w3.org/2001/XMLSchema-instance" xsi:schemaLocation="http://www.topografix.com/GPX/1/1 http://www.topografix.com/GPX/1/1/gpx.xsd http://www.garmin.com/xmlschemas/GpxExtensions/v3 http://www.garmin.com/xmlschemas/GpxExtensionsv3.xsd http://www.garmin.com/xmlschemas/TrackPointExtension/v1 http://www.garmin.com/xmlschemas/TrackPointExtensionv1.xsd">
  <metadata>
    <link href="http://www.mapstogpx.com">
      <text>Sverrir Sigmundarson</text>
    </link>
    <!--desc>Powered by Google, ©2025 Google</desc-->
    <!--copyright author="Google Inc">
    	<year>2025</year>
    	<license>https://developers.google.com/maps/terms</license>
    </copyright-->
    <!--url>https://www.google.com/maps/dir/Camping+Villsom+Sevilla,+N-4,+Dos+Hermanas/Paseo+Las+delicias+(Glta.+Marineros),+41013+Sevilla/@37.3215764,-6.0047425,13874m/data=!3m1!1e3!4m15!4m14!1m5!1m1!1s0xd127055f32fbc67:0x1307bfbdb7d8b863!2m2!1d-5.9365859!2d37.2777621!1m5!1m1!1s0xd126c2467bca76f:0xd281ab403b10659f!2m2!1d-5.9906492!2d37.374115!3e0!5i2?entry=tts&g_ep=EgoyMDI1MDUwNi4wKgBIAVAD&skid=57173998-ff98-43c6-868b-9d59abccdc3d&hl=en</url-->
    <time>2025-05-09T09:35:35Z</time>
  </metadata>
  <wpt lat="37.2777621" lon="-5.9365859">
    <name>Camping Villsom Sevilla</name>
    <desc>Camping Villsom Sevilla, Cádiz, N-4, Km 555, 41703 Dos Hermanas, Sevilla, Spain</desc>
  </wpt>
  <wpt lat="37.374115" lon="-5.9906492">
    <name>Paseo Las delicias (Glta. Marineros)</name>
    <desc>Paseo Las delicias (Glta. Marineros), 41013 Sevilla, Spain</desc>
  </wpt>
<trk>
  <name>Camping Villsom Sevilla to Paseo Las delicias (Glta. Marineros)</name>
  <number>1</number>
  <trkseg>
  <trkpt lat="37.2776887" lon="-5.9366622">
    <name>TP001</name>
  </trkpt>
  <trkpt lat="37.27749" lon="-5.93637">
    <name>TP002</name>
  </trkpt>
  <trkpt lat="37.2774946" lon="-5.9363671">
    <name>TP003</name>
  </trkpt>
  <trkpt lat="37.27732" lon="-5.93652">
    <name>TP004</name>
  </trkpt>
  <trkpt lat="37.27727" lon="-5.93656">
    <name>TP005</name>
  </trkpt>
  <trkpt lat="37.27717" lon="-5.93667">
    <name>TP006</name>
  </trkpt>
  <trkpt lat="37.2771" lon="-5.93675">
    <name>TP007</name>
  </trkpt>
  <trkpt lat="37.27705" lon="-5.93682">
    <name>TP008</name>
  </trkpt>
  <trkpt lat="37.27701" lon="-5.93689">
    <name>TP009</name>
  </trkpt>
  <trkpt lat="37.27697" lon="-5.93697">
    <name>TP010</name>
  </trkpt>
  <trkpt lat="37.27689" lon="-5.93712">
    <name>TP011</name>
  </trkpt>
  <trkpt lat="37.27683" lon="-5.93723">
    <name>TP012</name>
  </trkpt>
  <trkpt lat="37.27681" lon="-5.93728">
    <name>TP013</name>
  </trkpt>
  <trkpt lat="37.27678" lon="-5.93737">
    <name>TP014</name>
  </trkpt>
  <trkpt lat="37.27677" lon="-5.9374">
    <name>TP015</name>
  </trkpt>
  <trkpt lat="37.27676" lon="-5.93744">
    <name>TP016</name>
  </trkpt>
  <trkpt lat="37.27676" lon="-5.93747">
    <name>TP017</name>
  </trkpt>
  <trkpt lat="37.27676" lon="-5.9375">
    <name>TP018</name>
  </trkpt>
  <trkpt lat="37.27676" lon="-5.93765">
    <name>TP019</name>
  </trkpt>
  <trkpt lat="37.2767622" lon="-5.9376536">
    <name>TP020</name>
  </trkpt>
  <trkpt lat="37.27676" lon="-5.93766">
    <name>TP021</name>
  </trkpt>
  <trkpt lat="37.27677" lon="-5.93769">
    <name>TP022</name>
  </trkpt>
  <trkpt lat="37.27678" lon="-5.93772">
    <name>TP023</name>
  </trkpt>
  <trkpt lat="37.27678" lon="-5.93775">
    <name>TP024</name>
  </trkpt>
  <trkpt lat="37.27678" lon="-5.93778">
    <name>TP025</name>
  </trkpt>
  <trkpt lat="37.27677" lon="-5.9378">
    <name>TP026</name>
  </trkpt>
  <trkpt lat="37.27676" lon="-5.93783">
    <name>TP027</name>
  </trkpt>
  <trkpt lat="37.27675" lon="-5.93786">
    <name>TP028</name>
  </trkpt>
  <trkpt lat="37.27674" lon="-5.93788">
    <name>TP029</name>
  </trkpt>
  <trkpt lat="37.27671" lon="-5.93792">
    <name>TP030</name>
  </trkpt>
  <trkpt lat="37.2767" lon="-5.93793">
    <name>TP031</name>
  </trkpt>
  <trkpt lat="37.27668" lon="-5.93794">
    <name>TP032</name>
  </trkpt>
  <trkpt lat="37.27667" lon="-5.93794">
    <name>TP033</name>
  </trkpt>
  <trkpt lat="37.27666" lon="-5.93795">
    <name>TP034</name>
  </trkpt>
  <trkpt lat="37.27664" lon="-5.93795">
    <name>TP035</name>
  </trkpt>
  <trkpt lat="37.27661" lon="-5.93795">
    <name>TP036</name>
  </trkpt>
  <trkpt lat="37.27655" lon="-5.93807">
    <name>TP037</name>
  </trkpt>
  <trkpt lat="37.27652" lon="-5.93814">
    <name>TP038</name>
  </trkpt>
  <trkpt lat="37.27645" lon="-5.93829">
    <name>TP039</name>
  </trkpt>
  <trkpt lat="37.27635" lon="-5.93852">
    <name>TP040</name>
  </trkpt>
  <trkpt lat="37.27567" lon="-5.94021">
    <name>TP041</name>
  </trkpt>
  <trkpt lat="37.27557" lon="-5.94045">
    <name>TP042</name>
  </trkpt>
  <trkpt lat="37.27557" lon="-5.94046">
    <name>TP043</name>
  </trkpt>
  <trkpt lat="37.27544" lon="-5.94077">
    <name>TP044</name>
  </trkpt>
  <trkpt lat="37.27532" lon="-5.94106">
    <name>TP045</name>
  </trkpt>
  <trkpt lat="37.27509" lon="-5.94163">
    <name>TP046</name>
  </trkpt>
  <trkpt lat="37.27498" lon="-5.94191">
    <name>TP047</name>
  </trkpt>
  <trkpt lat="37.27483" lon="-5.94224">
    <name>TP048</name>
  </trkpt>
  <trkpt lat="37.27465" lon="-5.94265">
    <name>TP049</name>
  </trkpt>
  <trkpt lat="37.27436" lon="-5.94327">
    <name>TP050</name>
  </trkpt>
  <trkpt lat="37.27429" lon="-5.94342">
    <name>TP051</name>
  </trkpt>
  <trkpt lat="37.27421" lon="-5.94358">
    <name>TP052</name>
  </trkpt>
  <trkpt lat="37.2741" lon="-5.94381">
    <name>TP053</name>
  </trkpt>
  <trkpt lat="37.27393" lon="-5.94411">
    <name>TP054</name>
  </trkpt>
  <trkpt lat="37.27363" lon="-5.94461">
    <name>TP055</name>
  </trkpt>
  <trkpt lat="37.27358" lon="-5.9447">
    <name>TP056</name>
  </trkpt>
  <trkpt lat="37.27356" lon="-5.94476">
    <name>TP057</name>
  </trkpt>
  <trkpt lat="37.27354" lon="-5.94479">
    <name>TP058</name>
  </trkpt>
  <trkpt lat="37.27353" lon="-5.94483">
    <name>TP059</name>
  </trkpt>
  <trkpt lat="37.27351" lon="-5.94491">
    <name>TP060</name>
  </trkpt>
  <trkpt lat="37.27349" lon="-5.94498">
    <name>TP061</name>
  </trkpt>
  <trkpt lat="37.27348" lon="-5.94504">
    <name>TP062</name>
  </trkpt>
  <trkpt lat="37.2734796" lon="-5.9450431">
    <name>TP063</name>
  </trkpt>
  <trkpt lat="37.27348" lon="-5.94505">
    <name>TP064</name>
  </trkpt>
  <trkpt lat="37.27349" lon="-5.94508">
    <name>TP065</name>
  </trkpt>
  <trkpt lat="37.27349" lon="-5.94511">
    <name>TP066</name>
  </trkpt>
  <trkpt lat="37.27349" lon="-5.94514">
    <name>TP067</name>
  </trkpt>
  <trkpt lat="37.27348" lon="-5.94516">
    <name>TP068</name>
  </trkpt>
  <trkpt lat="37.27347" lon="-5.94519">
    <name>TP069</name>
  </trkpt>
  <trkpt lat="37.27346" lon="-5.94522">
    <name>TP070</name>
  </trkpt>
  <trkpt lat="37.27345" lon="-5.94524">
    <name>TP071</name>
  </trkpt>
  <trkpt lat="37.27343" lon="-5.94526">
    <name>TP072</name>
  </trkpt>
  <trkpt lat="37.27341" lon="-5.94528">
    <name>TP073</name>
  </trkpt>
  <trkpt lat="37.2734" lon="-5.94529">
    <name>TP074</name>
  </trkpt>
  <trkpt lat="37.27339" lon="-5.94529">
    <name>TP075</name>
  </trkpt>
  <trkpt lat="37.27337" lon="-5.94531">
    <name>TP076</name>
  </trkpt>
  <trkpt lat="37.27335" lon="-5.94531">
    <name>TP077</name>
  </trkpt>
  <trkpt lat="37.27333" lon="-5.94531">
    <name>TP078</name>
  </trkpt>
  <trkpt lat="37.27324" lon="-5.94542">
    <name>TP079</name>
  </trkpt>
  <trkpt lat="37.27318" lon="-5.9455">
    <name>TP080</name>
  </trkpt>
  <trkpt lat="37.27309" lon="-5.94556">
    <name>TP081</name>
  </trkpt>
  <trkpt lat="37.27299" lon="-5.94583">
    <name>TP082</name>
  </trkpt>
  <trkpt lat="37.27281" lon="-5.94631">
    <name>TP083</name>
  </trkpt>
  <trkpt lat="37.27275" lon="-5.94648">
    <name>TP084</name>
  </trkpt>
  <trkpt lat="37.27264" lon="-5.94678">
    <name>TP085</name>
  </trkpt>
  <trkpt lat="37.27261" lon="-5.94689">
    <name>TP086</name>
  </trkpt>
  <trkpt lat="37.27241" lon="-5.94746">
    <name>TP087</name>
  </trkpt>
  <trkpt lat="37.27237" lon="-5.94756">
    <name>TP088</name>
  </trkpt>
  <trkpt lat="37.27236" lon="-5.94761">
    <name>TP089</name>
  </trkpt>
  <trkpt lat="37.27224" lon="-5.94792">
    <name>TP090</name>
  </trkpt>
  <trkpt lat="37.27216" lon="-5.94813">
    <name>TP091</name>
  </trkpt>
  <trkpt lat="37.27215" lon="-5.94817">
    <name>TP092</name>
  </trkpt>
  <trkpt lat="37.27203" lon="-5.94845">
    <name>TP093</name>
  </trkpt>
  <trkpt lat="37.27187" lon="-5.94885">
    <name>TP094</name>
  </trkpt>
  <trkpt lat="37.27183" lon="-5.94893">
    <name>TP095</name>
  </trkpt>
  <trkpt lat="37.27178" lon="-5.94905">
    <name>TP096</name>
  </trkpt>
  <trkpt lat="37.27139" lon="-5.94991">
    <name>TP097</name>
  </trkpt>
  <trkpt lat="37.27116" lon="-5.95039">
    <name>TP098</name>
  </trkpt>
  <trkpt lat="37.27111" lon="-5.9505">
    <name>TP099</name>
  </trkpt>
  <trkpt lat="37.271" lon="-5.95079">
    <name>TP100</name>
  </trkpt>
  <trkpt lat="37.27089" lon="-5.95106">
    <name>TP101</name>
  </trkpt>
  <trkpt lat="37.27068" lon="-5.9516">
    <name>TP102</name>
  </trkpt>
  <trkpt lat="37.2705" lon="-5.95223">
    <name>TP103</name>
  </trkpt>
  <trkpt lat="37.27039" lon="-5.95266">
    <name>TP104</name>
  </trkpt>
  <trkpt lat="37.2703" lon="-5.95306">
    <name>TP105</name>
  </trkpt>
  <trkpt lat="37.27021" lon="-5.95354">
    <name>TP106</name>
  </trkpt>
  <trkpt lat="37.27019" lon="-5.95362">
    <name>TP107</name>
  </trkpt>
  <trkpt lat="37.27015" lon="-5.95406">
    <name>TP108</name>
  </trkpt>
  <trkpt lat="37.27013" lon="-5.95424">
    <name>TP109</name>
  </trkpt>
  <trkpt lat="37.27016" lon="-5.95471">
    <name>TP110</name>
  </trkpt>
  <trkpt lat="37.2701572" lon="-5.9547104">
    <name>TP111</name>
  </trkpt>
  <trkpt lat="37.27017" lon="-5.95472">
    <name>TP112</name>
  </trkpt>
  <trkpt lat="37.27018" lon="-5.95473">
    <name>TP113</name>
  </trkpt>
  <trkpt lat="37.27019" lon="-5.95474">
    <name>TP114</name>
  </trkpt>
  <trkpt lat="37.2702" lon="-5.95476">
    <name>TP115</name>
  </trkpt>
  <trkpt lat="37.27022" lon="-5.95479">
    <name>TP116</name>
  </trkpt>
  <trkpt lat="37.27022" lon="-5.95481">
    <name>TP117</name>
  </trkpt>
  <trkpt lat="37.27023" lon="-5.95483">
    <name>TP118</name>
  </trkpt>
  <trkpt lat="37.27024" lon="-5.95485">
    <name>TP119</name>
  </trkpt>
  <trkpt lat="37.27024" lon="-5.95487">
    <name>TP120</name>
  </trkpt>
  <trkpt lat="37.27024" lon="-5.95489">
    <name>TP121</name>
  </trkpt>
  <trkpt lat="37.27024" lon="-5.95491">
    <name>TP122</name>
  </trkpt>
  <trkpt lat="37.27024" lon="-5.95494">
    <name>TP123</name>
  </trkpt>
  <trkpt lat="37.27024" lon="-5.95496">
    <name>TP124</name>
  </trkpt>
  <trkpt lat="37.27024" lon="-5.95498">
    <name>TP125</name>
  </trkpt>
  <trkpt lat="37.27023" lon="-5.955">
    <name>TP126</name>
  </trkpt>
  <trkpt lat="37.27023" lon="-5.95502">
    <name>TP127</name>
  </trkpt>
  <trkpt lat="37.27022" lon="-5.95504">
    <name>TP128</name>
  </trkpt>
  <trkpt lat="37.27021" lon="-5.95506">
    <name>TP129</name>
  </trkpt>
  <trkpt lat="37.2702" lon="-5.95507">
    <name>TP130</name>
  </trkpt>
  <trkpt lat="37.2702" lon="-5.95508">
    <name>TP131</name>
  </trkpt>
  <trkpt lat="37.27019" lon="-5.95509">
    <name>TP132</name>
  </trkpt>
  <trkpt lat="37.27018" lon="-5.95511">
    <name>TP133</name>
  </trkpt>
  <trkpt lat="37.27016" lon="-5.95512">
    <name>TP134</name>
  </trkpt>
  <trkpt lat="37.27015" lon="-5.95513">
    <name>TP135</name>
  </trkpt>
  <trkpt lat="37.27013" lon="-5.95514">
    <name>TP136</name>
  </trkpt>
  <trkpt lat="37.27012" lon="-5.95515">
    <name>TP137</name>
  </trkpt>
  <trkpt lat="37.27002" lon="-5.9554">
    <name>TP138</name>
  </trkpt>
  <trkpt lat="37.27002" lon="-5.95541">
    <name>TP139</name>
  </trkpt>
  <trkpt lat="37.27001" lon="-5.95544">
    <name>TP140</name>
  </trkpt>
  <trkpt lat="37.26997" lon="-5.95581">
    <name>TP141</name>
  </trkpt>
  <trkpt lat="37.26996" lon="-5.95589">
    <name>TP142</name>
  </trkpt>
  <trkpt lat="37.26995" lon="-5.95595">
    <name>TP143</name>
  </trkpt>
  <trkpt lat="37.26995" lon="-5.956">
    <name>TP144</name>
  </trkpt>
  <trkpt lat="37.26991" lon="-5.9563">
    <name>TP145</name>
  </trkpt>
  <trkpt lat="37.26989" lon="-5.95647">
    <name>TP146</name>
  </trkpt>
  <trkpt lat="37.26986" lon="-5.9567">
    <name>TP147</name>
  </trkpt>
  <trkpt lat="37.26984" lon="-5.95686">
    <name>TP148</name>
  </trkpt>
  <trkpt lat="37.26965" lon="-5.95794">
    <name>TP149</name>
  </trkpt>
  <trkpt lat="37.26949" lon="-5.95869">
    <name>TP150</name>
  </trkpt>
  <trkpt lat="37.26945" lon="-5.95888">
    <name>TP151</name>
  </trkpt>
  <trkpt lat="37.26945" lon="-5.95891">
    <name>TP152</name>
  </trkpt>
  <trkpt lat="37.2693" lon="-5.95965">
    <name>TP153</name>
  </trkpt>
  <trkpt lat="37.2692" lon="-5.96024">
    <name>TP154</name>
  </trkpt>
  <trkpt lat="37.26919" lon="-5.96027">
    <name>TP155</name>
  </trkpt>
  <trkpt lat="37.26913" lon="-5.96073">
    <name>TP156</name>
  </trkpt>
  <trkpt lat="37.26912" lon="-5.96084">
    <name>TP157</name>
  </trkpt>
  <trkpt lat="37.26911" lon="-5.96096">
    <name>TP158</name>
  </trkpt>
  <trkpt lat="37.2691" lon="-5.96113">
    <name>TP159</name>
  </trkpt>
  <trkpt lat="37.26909" lon="-5.96118">
    <name>TP160</name>
  </trkpt>
  <trkpt lat="37.26907" lon="-5.96141">
    <name>TP161</name>
  </trkpt>
  <trkpt lat="37.26907" lon="-5.96147">
    <name>TP162</name>
  </trkpt>
  <trkpt lat="37.26907" lon="-5.96159">
    <name>TP163</name>
  </trkpt>
  <trkpt lat="37.26904" lon="-5.96223">
    <name>TP164</name>
  </trkpt>
  <trkpt lat="37.26905" lon="-5.96284">
    <name>TP165</name>
  </trkpt>
  <trkpt lat="37.26907" lon="-5.96321">
    <name>TP166</name>
  </trkpt>
  <trkpt lat="37.26908" lon="-5.9634">
    <name>TP167</name>
  </trkpt>
  <trkpt lat="37.26909" lon="-5.96344">
    <name>TP168</name>
  </trkpt>
  <trkpt lat="37.2691" lon="-5.9636">
    <name>TP169</name>
  </trkpt>
  <trkpt lat="37.2691" lon="-5.96363">
    <name>TP170</name>
  </trkpt>
  <trkpt lat="37.2691" lon="-5.96366">
    <name>TP171</name>
  </trkpt>
  <trkpt lat="37.26913" lon="-5.96386">
    <name>TP172</name>
  </trkpt>
  <trkpt lat="37.26913" lon="-5.96389">
    <name>TP173</name>
  </trkpt>
  <trkpt lat="37.26915" lon="-5.96411">
    <name>TP174</name>
  </trkpt>
  <trkpt lat="37.26916" lon="-5.96414">
    <name>TP175</name>
  </trkpt>
  <trkpt lat="37.26918" lon="-5.9643">
    <name>TP176</name>
  </trkpt>
  <trkpt lat="37.26922" lon="-5.96453">
    <name>TP177</name>
  </trkpt>
  <trkpt lat="37.26922" lon="-5.96456">
    <name>TP178</name>
  </trkpt>
  <trkpt lat="37.26924" lon="-5.96469">
    <name>TP179</name>
  </trkpt>
  <trkpt lat="37.26926" lon="-5.96478">
    <name>TP180</name>
  </trkpt>
  <trkpt lat="37.2693" lon="-5.965">
    <name>TP181</name>
  </trkpt>
  <trkpt lat="37.26933" lon="-5.96515">
    <name>TP182</name>
  </trkpt>
  <trkpt lat="37.26934" lon="-5.96519">
    <name>TP183</name>
  </trkpt>
  <trkpt lat="37.26939" lon="-5.96541">
    <name>TP184</name>
  </trkpt>
  <trkpt lat="37.26942" lon="-5.96553">
    <name>TP185</name>
  </trkpt>
  <trkpt lat="37.26952" lon="-5.96597">
    <name>TP186</name>
  </trkpt>
  <trkpt lat="37.26963" lon="-5.96634">
    <name>TP187</name>
  </trkpt>
  <trkpt lat="37.26982" lon="-5.96691">
    <name>TP188</name>
  </trkpt>
  <trkpt lat="37.26982" lon="-5.96692">
    <name>TP189</name>
  </trkpt>
  <trkpt lat="37.26989" lon="-5.96711">
    <name>TP190</name>
  </trkpt>
  <trkpt lat="37.2699" lon="-5.96712">
    <name>TP191</name>
  </trkpt>
  <trkpt lat="37.26997" lon="-5.96732">
    <name>TP192</name>
  </trkpt>
  <trkpt lat="37.26997" lon="-5.96733">
    <name>TP193</name>
  </trkpt>
  <trkpt lat="37.27005" lon="-5.96753">
    <name>TP194</name>
  </trkpt>
  <trkpt lat="37.2701" lon="-5.96766">
    <name>TP195</name>
  </trkpt>
  <trkpt lat="37.27014" lon="-5.96773">
    <name>TP196</name>
  </trkpt>
  <trkpt lat="37.27025" lon="-5.96798">
    <name>TP197</name>
  </trkpt>
  <trkpt lat="37.27041" lon="-5.96832">
    <name>TP198</name>
  </trkpt>
  <trkpt lat="37.27045" lon="-5.9684">
    <name>TP199</name>
  </trkpt>
  <trkpt lat="37.27081" lon="-5.96906">
    <name>TP200</name>
  </trkpt>
  <trkpt lat="37.271" lon="-5.96928">
    <name>TP201</name>
  </trkpt>
  <trkpt lat="37.27106" lon="-5.96939">
    <name>TP202</name>
  </trkpt>
  <trkpt lat="37.27114" lon="-5.96951">
    <name>TP203</name>
  </trkpt>
  <trkpt lat="37.27125" lon="-5.96969">
    <name>TP204</name>
  </trkpt>
  <trkpt lat="37.27136" lon="-5.96985">
    <name>TP205</name>
  </trkpt>
  <trkpt lat="37.27145" lon="-5.96998">
    <name>TP206</name>
  </trkpt>
  <trkpt lat="37.27149" lon="-5.97003">
    <name>TP207</name>
  </trkpt>
  <trkpt lat="37.27158" lon="-5.97017">
    <name>TP208</name>
  </trkpt>
  <trkpt lat="37.2716" lon="-5.97019">
    <name>TP209</name>
  </trkpt>
  <trkpt lat="37.27161" lon="-5.97021">
    <name>TP210</name>
  </trkpt>
  <trkpt lat="37.27161" lon="-5.97022">
    <name>TP211</name>
  </trkpt>
  <trkpt lat="37.27171" lon="-5.97037">
    <name>TP212</name>
  </trkpt>
  <trkpt lat="37.27173" lon="-5.97039">
    <name>TP213</name>
  </trkpt>
  <trkpt lat="37.27182" lon="-5.97055">
    <name>TP214</name>
  </trkpt>
  <trkpt lat="37.27183" lon="-5.97056">
    <name>TP215</name>
  </trkpt>
  <trkpt lat="37.2719" lon="-5.97067">
    <name>TP216</name>
  </trkpt>
  <trkpt lat="37.2719" lon="-5.97068">
    <name>TP217</name>
  </trkpt>
  <trkpt lat="37.27193" lon="-5.97074">
    <name>TP218</name>
  </trkpt>
  <trkpt lat="37.27193" lon="-5.97075">
    <name>TP219</name>
  </trkpt>
  <trkpt lat="37.27195" lon="-5.97078">
    <name>TP220</name>
  </trkpt>
  <trkpt lat="37.27197" lon="-5.97084">
    <name>TP221</name>
  </trkpt>
  <trkpt lat="37.27202" lon="-5.97099">
    <name>TP222</name>
  </trkpt>
  <trkpt lat="37.27205" lon="-5.97108">
    <name>TP223</name>
  </trkpt>
  <trkpt lat="37.27207" lon="-5.97118">
    <name>TP224</name>
  </trkpt>
  <trkpt lat="37.2721" lon="-5.9713">
    <name>TP225</name>
  </trkpt>
  <trkpt lat="37.2721" lon="-5.97131">
    <name>TP226</name>
  </trkpt>
  <trkpt lat="37.2721" lon="-5.97138">
    <name>TP227</name>
  </trkpt>
  <trkpt lat="37.27211" lon="-5.97145">
    <name>TP228</name>
  </trkpt>
  <trkpt lat="37.27212" lon="-5.97169">
    <name>TP229</name>
  </trkpt>
  <trkpt lat="37.27211" lon="-5.97176">
    <name>TP230</name>
  </trkpt>
  <trkpt lat="37.2721" lon="-5.97186">
    <name>TP231</name>
  </trkpt>
  <trkpt lat="37.27208" lon="-5.97197">
    <name>TP232</name>
  </trkpt>
  <trkpt lat="37.27205" lon="-5.97209">
    <name>TP233</name>
  </trkpt>
  <trkpt lat="37.27201" lon="-5.97223">
    <name>TP234</name>
  </trkpt>
  <trkpt lat="37.27198" lon="-5.9723">
    <name>TP235</name>
  </trkpt>
  <trkpt lat="37.27198" lon="-5.97232">
    <name>TP236</name>
  </trkpt>
  <trkpt lat="37.27193" lon="-5.97241">
    <name>TP237</name>
  </trkpt>
  <trkpt lat="37.27187" lon="-5.97254">
    <name>TP238</name>
  </trkpt>
  <trkpt lat="37.27186" lon="-5.97256">
    <name>TP239</name>
  </trkpt>
  <trkpt lat="37.27182" lon="-5.97267">
    <name>TP240</name>
  </trkpt>
  <trkpt lat="37.27182" lon="-5.97269">
    <name>TP241</name>
  </trkpt>
  <trkpt lat="37.27181" lon="-5.97269">
    <name>TP242</name>
  </trkpt>
  <trkpt lat="37.27175" lon="-5.97288">
    <name>TP243</name>
  </trkpt>
  <trkpt lat="37.2717528" lon="-5.9728805">
    <name>TP244</name>
  </trkpt>
  <trkpt lat="37.27176" lon="-5.97292">
    <name>TP245</name>
  </trkpt>
  <trkpt lat="37.27177" lon="-5.97296">
    <name>TP246</name>
  </trkpt>
  <trkpt lat="37.27177" lon="-5.97302">
    <name>TP247</name>
  </trkpt>
  <trkpt lat="37.27177" lon="-5.97307">
    <name>TP248</name>
  </trkpt>
  <trkpt lat="37.27176" lon="-5.97313">
    <name>TP249</name>
  </trkpt>
  <trkpt lat="37.27175" lon="-5.97317">
    <name>TP250</name>
  </trkpt>
  <trkpt lat="37.27173" lon="-5.97322">
    <name>TP251</name>
  </trkpt>
  <trkpt lat="37.27171" lon="-5.97325">
    <name>TP252</name>
  </trkpt>
  <trkpt lat="37.2717" lon="-5.97327">
    <name>TP253</name>
  </trkpt>
  <trkpt lat="37.27168" lon="-5.97332">
    <name>TP254</name>
  </trkpt>
  <trkpt lat="37.27167" lon="-5.97338">
    <name>TP255</name>
  </trkpt>
  <trkpt lat="37.27167" lon="-5.97345">
    <name>TP256</name>
  </trkpt>
  <trkpt lat="37.27167" lon="-5.97353">
    <name>TP257</name>
  </trkpt>
  <trkpt lat="37.27167" lon="-5.9736">
    <name>TP258</name>
  </trkpt>
  <trkpt lat="37.27168" lon="-5.97373">
    <name>TP259</name>
  </trkpt>
  <trkpt lat="37.27172" lon="-5.97389">
    <name>TP260</name>
  </trkpt>
  <trkpt lat="37.27175" lon="-5.97403">
    <name>TP261</name>
  </trkpt>
  <trkpt lat="37.27176" lon="-5.97411">
    <name>TP262</name>
  </trkpt>
  <trkpt lat="37.2718" lon="-5.97433">
    <name>TP263</name>
  </trkpt>
  <trkpt lat="37.27182" lon="-5.97443">
    <name>TP264</name>
  </trkpt>
  <trkpt lat="37.27187" lon="-5.97466">
    <name>TP265</name>
  </trkpt>
  <trkpt lat="37.2719" lon="-5.97477">
    <name>TP266</name>
  </trkpt>
  <trkpt lat="37.27194" lon="-5.97488">
    <name>TP267</name>
  </trkpt>
  <trkpt lat="37.27194" lon="-5.97489">
    <name>TP268</name>
  </trkpt>
  <trkpt lat="37.27196" lon="-5.97494">
    <name>TP269</name>
  </trkpt>
  <trkpt lat="37.27199" lon="-5.97502">
    <name>TP270</name>
  </trkpt>
  <trkpt lat="37.27201" lon="-5.97507">
    <name>TP271</name>
  </trkpt>
  <trkpt lat="37.27205" lon="-5.97513">
    <name>TP272</name>
  </trkpt>
  <trkpt lat="37.27207" lon="-5.97517">
    <name>TP273</name>
  </trkpt>
  <trkpt lat="37.27211" lon="-5.97524">
    <name>TP274</name>
  </trkpt>
  <trkpt lat="37.27213" lon="-5.97527">
    <name>TP275</name>
  </trkpt>
  <trkpt lat="37.27216" lon="-5.97531">
    <name>TP276</name>
  </trkpt>
  <trkpt lat="37.27222" lon="-5.9754">
    <name>TP277</name>
  </trkpt>
  <trkpt lat="37.27226" lon="-5.97545">
    <name>TP278</name>
  </trkpt>
  <trkpt lat="37.27231" lon="-5.9755">
    <name>TP279</name>
  </trkpt>
  <trkpt lat="37.27241" lon="-5.9756">
    <name>TP280</name>
  </trkpt>
  <trkpt lat="37.27242" lon="-5.97562">
    <name>TP281</name>
  </trkpt>
  <trkpt lat="37.27242" lon="-5.97563">
    <name>TP282</name>
  </trkpt>
  <trkpt lat="37.27242" lon="-5.97564">
    <name>TP283</name>
  </trkpt>
  <trkpt lat="37.27243" lon="-5.97571">
    <name>TP284</name>
  </trkpt>
  <trkpt lat="37.2724263" lon="-5.9757086">
    <name>TP285</name>
  </trkpt>
  <trkpt lat="37.27271" lon="-5.97598">
    <name>TP286</name>
  </trkpt>
  <trkpt lat="37.27295" lon="-5.97621">
    <name>TP287</name>
  </trkpt>
  <trkpt lat="37.27344" lon="-5.97661">
    <name>TP288</name>
  </trkpt>
  <trkpt lat="37.27385" lon="-5.97691">
    <name>TP289</name>
  </trkpt>
  <trkpt lat="37.27423" lon="-5.97717">
    <name>TP290</name>
  </trkpt>
  <trkpt lat="37.27469" lon="-5.97745">
    <name>TP291</name>
  </trkpt>
  <trkpt lat="37.27479" lon="-5.97752">
    <name>TP292</name>
  </trkpt>
  <trkpt lat="37.27482" lon="-5.97754">
    <name>TP293</name>
  </trkpt>
  <trkpt lat="37.27503" lon="-5.97764">
    <name>TP294</name>
  </trkpt>
  <trkpt lat="37.27522" lon="-5.97774">
    <name>TP295</name>
  </trkpt>
  <trkpt lat="37.27547" lon="-5.97786">
    <name>TP296</name>
  </trkpt>
  <trkpt lat="37.27606" lon="-5.97812">
    <name>TP297</name>
  </trkpt>
  <trkpt lat="37.27635" lon="-5.97823">
    <name>TP298</name>
  </trkpt>
  <trkpt lat="37.27659" lon="-5.97831">
    <name>TP299</name>
  </trkpt>
  <trkpt lat="37.27667" lon="-5.97834">
    <name>TP300</name>
  </trkpt>
  <trkpt lat="37.27682" lon="-5.97839">
    <name>TP301</name>
  </trkpt>
  <trkpt lat="37.27696" lon="-5.97843">
    <name>TP302</name>
  </trkpt>
  <trkpt lat="37.27737" lon="-5.97854">
    <name>TP303</name>
  </trkpt>
  <trkpt lat="37.27774" lon="-5.97863">
    <name>TP304</name>
  </trkpt>
  <trkpt lat="37.27812" lon="-5.97871">
    <name>TP305</name>
  </trkpt>
  <trkpt lat="37.27834" lon="-5.97875">
    <name>TP306</name>
  </trkpt>
  <trkpt lat="37.27857" lon="-5.97879">
    <name>TP307</name>
  </trkpt>
  <trkpt lat="37.27879" lon="-5.97881">
    <name>TP308</name>
  </trkpt>
  <trkpt lat="37.27885" lon="-5.97882">
    <name>TP309</name>
  </trkpt>
  <trkpt lat="37.27918" lon="-5.97887">
    <name>TP310</name>
  </trkpt>
  <trkpt lat="37.27946" lon="-5.97891">
    <name>TP311</name>
  </trkpt>
  <trkpt lat="37.27976" lon="-5.97894">
    <name>TP312</name>
  </trkpt>
  <trkpt lat="37.28031" lon="-5.97898">
    <name>TP313</name>
  </trkpt>
  <trkpt lat="37.2808" lon="-5.97901">
    <name>TP314</name>
  </trkpt>
  <trkpt lat="37.28121" lon="-5.97903">
    <name>TP315</name>
  </trkpt>
  <trkpt lat="37.28151" lon="-5.97904">
    <name>TP316</name>
  </trkpt>
  <trkpt lat="37.28191" lon="-5.97904">
    <name>TP317</name>
  </trkpt>
  <trkpt lat="37.28232" lon="-5.97904">
    <name>TP318</name>
  </trkpt>
  <trkpt lat="37.2831" lon="-5.97902">
    <name>TP319</name>
  </trkpt>
  <trkpt lat="37.2834" lon="-5.97901">
    <name>TP320</name>
  </trkpt>
  <trkpt lat="37.28388" lon="-5.97899">
    <name>TP321</name>
  </trkpt>
  <trkpt lat="37.2846" lon="-5.97894">
    <name>TP322</name>
  </trkpt>
  <trkpt lat="37.28468" lon="-5.97893">
    <name>TP323</name>
  </trkpt>
  <trkpt lat="37.28472" lon="-5.97893">
    <name>TP324</name>
  </trkpt>
  <trkpt lat="37.28488" lon="-5.97892">
    <name>TP325</name>
  </trkpt>
  <trkpt lat="37.28535" lon="-5.97887">
    <name>TP326</name>
  </trkpt>
  <trkpt lat="37.28598" lon="-5.97882">
    <name>TP327</name>
  </trkpt>
  <trkpt lat="37.2864" lon="-5.97877">
    <name>TP328</name>
  </trkpt>
  <trkpt lat="37.28673" lon="-5.97874">
    <name>TP329</name>
  </trkpt>
  <trkpt lat="37.2869" lon="-5.97873">
    <name>TP330</name>
  </trkpt>
  <trkpt lat="37.28742" lon="-5.97868">
    <name>TP331</name>
  </trkpt>
  <trkpt lat="37.28757" lon="-5.97868">
    <name>TP332</name>
  </trkpt>
  <trkpt lat="37.28788" lon="-5.97866">
    <name>TP333</name>
  </trkpt>
  <trkpt lat="37.28913" lon="-5.97856">
    <name>TP334</name>
  </trkpt>
  <trkpt lat="37.28924" lon="-5.97856">
    <name>TP335</name>
  </trkpt>
  <trkpt lat="37.28958" lon="-5.97854">
    <name>TP336</name>
  </trkpt>
  <trkpt lat="37.28978" lon="-5.97853">
    <name>TP337</name>
  </trkpt>
  <trkpt lat="37.28985" lon="-5.97853">
    <name>TP338</name>
  </trkpt>
  <trkpt lat="37.2899" lon="-5.97853">
    <name>TP339</name>
  </trkpt>
  <trkpt lat="37.28992" lon="-5.97853">
    <name>TP340</name>
  </trkpt>
  <trkpt lat="37.29026" lon="-5.97852">
    <name>TP341</name>
  </trkpt>
  <trkpt lat="37.2904" lon="-5.97852">
    <name>TP342</name>
  </trkpt>
  <trkpt lat="37.29091" lon="-5.97851">
    <name>TP343</name>
  </trkpt>
  <trkpt lat="37.291" lon="-5.97851">
    <name>TP344</name>
  </trkpt>
  <trkpt lat="37.29119" lon="-5.97851">
    <name>TP345</name>
  </trkpt>
  <trkpt lat="37.29123" lon="-5.97851">
    <name>TP346</name>
  </trkpt>
  <trkpt lat="37.29141" lon="-5.97851">
    <name>TP347</name>
  </trkpt>
  <trkpt lat="37.2919" lon="-5.97852">
    <name>TP348</name>
  </trkpt>
  <trkpt lat="37.29227" lon="-5.97853">
    <name>TP349</name>
  </trkpt>
  <trkpt lat="37.29259" lon="-5.97854">
    <name>TP350</name>
  </trkpt>
  <trkpt lat="37.29278" lon="-5.97855">
    <name>TP351</name>
  </trkpt>
  <trkpt lat="37.29297" lon="-5.97857">
    <name>TP352</name>
  </trkpt>
  <trkpt lat="37.29318" lon="-5.97858">
    <name>TP353</name>
  </trkpt>
  <trkpt lat="37.294" lon="-5.97865">
    <name>TP354</name>
  </trkpt>
  <trkpt lat="37.29427" lon="-5.97868">
    <name>TP355</name>
  </trkpt>
  <trkpt lat="37.2943" lon="-5.97869">
    <name>TP356</name>
  </trkpt>
  <trkpt lat="37.29464" lon="-5.97873">
    <name>TP357</name>
  </trkpt>
  <trkpt lat="37.29474" lon="-5.97874">
    <name>TP358</name>
  </trkpt>
  <trkpt lat="37.29535" lon="-5.97884">
    <name>TP359</name>
  </trkpt>
  <trkpt lat="37.29561" lon="-5.97888">
    <name>TP360</name>
  </trkpt>
  <trkpt lat="37.29589" lon="-5.97893">
    <name>TP361</name>
  </trkpt>
  <trkpt lat="37.29605" lon="-5.97896">
    <name>TP362</name>
  </trkpt>
  <trkpt lat="37.29616" lon="-5.97898">
    <name>TP363</name>
  </trkpt>
  <trkpt lat="37.29666" lon="-5.97909">
    <name>TP364</name>
  </trkpt>
  <trkpt lat="37.2976" lon="-5.97932">
    <name>TP365</name>
  </trkpt>
  <trkpt lat="37.29803" lon="-5.97943">
    <name>TP366</name>
  </trkpt>
  <trkpt lat="37.29842" lon="-5.97954">
    <name>TP367</name>
  </trkpt>
  <trkpt lat="37.29898" lon="-5.9797">
    <name>TP368</name>
  </trkpt>
  <trkpt lat="37.29952" lon="-5.97986">
    <name>TP369</name>
  </trkpt>
  <trkpt lat="37.2998" lon="-5.97995">
    <name>TP370</name>
  </trkpt>
  <trkpt lat="37.29995" lon="-5.98">
    <name>TP371</name>
  </trkpt>
  <trkpt lat="37.30021" lon="-5.9801">
    <name>TP372</name>
  </trkpt>
  <trkpt lat="37.30077" lon="-5.98029">
    <name>TP373</name>
  </trkpt>
  <trkpt lat="37.30085" lon="-5.98032">
    <name>TP374</name>
  </trkpt>
  <trkpt lat="37.30119" lon="-5.98045">
    <name>TP375</name>
  </trkpt>
  <trkpt lat="37.30159" lon="-5.9806">
    <name>TP376</name>
  </trkpt>
  <trkpt lat="37.30201" lon="-5.98076">
    <name>TP377</name>
  </trkpt>
  <trkpt lat="37.30255" lon="-5.98096">
    <name>TP378</name>
  </trkpt>
  <trkpt lat="37.3031" lon="-5.98117">
    <name>TP379</name>
  </trkpt>
  <trkpt lat="37.30319" lon="-5.9812">
    <name>TP380</name>
  </trkpt>
  <trkpt lat="37.30335" lon="-5.98126">
    <name>TP381</name>
  </trkpt>
  <trkpt lat="37.30365" lon="-5.98138">
    <name>TP382</name>
  </trkpt>
  <trkpt lat="37.30393" lon="-5.98148">
    <name>TP383</name>
  </trkpt>
  <trkpt lat="37.30394" lon="-5.98148">
    <name>TP384</name>
  </trkpt>
  <trkpt lat="37.30412" lon="-5.98155">
    <name>TP385</name>
  </trkpt>
  <trkpt lat="37.30456" lon="-5.98171">
    <name>TP386</name>
  </trkpt>
  <trkpt lat="37.3047" lon="-5.98176">
    <name>TP387</name>
  </trkpt>
  <trkpt lat="37.30497" lon="-5.98185">
    <name>TP388</name>
  </trkpt>
  <trkpt lat="37.30556" lon="-5.98205">
    <name>TP389</name>
  </trkpt>
  <trkpt lat="37.30586" lon="-5.98214">
    <name>TP390</name>
  </trkpt>
  <trkpt lat="37.30615" lon="-5.98223">
    <name>TP391</name>
  </trkpt>
  <trkpt lat="37.30638" lon="-5.98229">
    <name>TP392</name>
  </trkpt>
  <trkpt lat="37.3066" lon="-5.98235">
    <name>TP393</name>
  </trkpt>
  <trkpt lat="37.30675" lon="-5.98239">
    <name>TP394</name>
  </trkpt>
  <trkpt lat="37.30707" lon="-5.98247">
    <name>TP395</name>
  </trkpt>
  <trkpt lat="37.30724" lon="-5.98251">
    <name>TP396</name>
  </trkpt>
  <trkpt lat="37.30759" lon="-5.98258">
    <name>TP397</name>
  </trkpt>
  <trkpt lat="37.30769" lon="-5.9826">
    <name>TP398</name>
  </trkpt>
  <trkpt lat="37.30774" lon="-5.98261">
    <name>TP399</name>
  </trkpt>
  <trkpt lat="37.30777" lon="-5.98262">
    <name>TP400</name>
  </trkpt>
  <trkpt lat="37.30779" lon="-5.98262">
    <name>TP401</name>
  </trkpt>
  <trkpt lat="37.30782" lon="-5.98263">
    <name>TP402</name>
  </trkpt>
  <trkpt lat="37.30787" lon="-5.98264">
    <name>TP403</name>
  </trkpt>
  <trkpt lat="37.30791" lon="-5.98264">
    <name>TP404</name>
  </trkpt>
  <trkpt lat="37.30797" lon="-5.98266">
    <name>TP405</name>
  </trkpt>
  <trkpt lat="37.30811" lon="-5.98269">
    <name>TP406</name>
  </trkpt>
  <trkpt lat="37.30845" lon="-5.98274">
    <name>TP407</name>
  </trkpt>
  <trkpt lat="37.30853" lon="-5.98276">
    <name>TP408</name>
  </trkpt>
  <trkpt lat="37.30892" lon="-5.98281">
    <name>TP409</name>
  </trkpt>
  <trkpt lat="37.30904" lon="-5.98283">
    <name>TP410</name>
  </trkpt>
  <trkpt lat="37.30914" lon="-5.98284">
    <name>TP411</name>
  </trkpt>
  <trkpt lat="37.30915" lon="-5.98284">
    <name>TP412</name>
  </trkpt>
  <trkpt lat="37.30936" lon="-5.98287">
    <name>TP413</name>
  </trkpt>
  <trkpt lat="37.30952" lon="-5.98288">
    <name>TP414</name>
  </trkpt>
  <trkpt lat="37.3096" lon="-5.98289">
    <name>TP415</name>
  </trkpt>
  <trkpt lat="37.30963" lon="-5.9829">
    <name>TP416</name>
  </trkpt>
  <trkpt lat="37.31002" lon="-5.98293">
    <name>TP417</name>
  </trkpt>
  <trkpt lat="37.31013" lon="-5.98294">
    <name>TP418</name>
  </trkpt>
  <trkpt lat="37.31035" lon="-5.98296">
    <name>TP419</name>
  </trkpt>
  <trkpt lat="37.31096" lon="-5.98299">
    <name>TP420</name>
  </trkpt>
  <trkpt lat="37.3111" lon="-5.98299">
    <name>TP421</name>
  </trkpt>
  <trkpt lat="37.31119" lon="-5.98299">
    <name>TP422</name>
  </trkpt>
  <trkpt lat="37.31123" lon="-5.98299">
    <name>TP423</name>
  </trkpt>
  <trkpt lat="37.31128" lon="-5.98299">
    <name>TP424</name>
  </trkpt>
  <trkpt lat="37.31177" lon="-5.98299">
    <name>TP425</name>
  </trkpt>
  <trkpt lat="37.31205" lon="-5.983">
    <name>TP426</name>
  </trkpt>
  <trkpt lat="37.31231" lon="-5.98299">
    <name>TP427</name>
  </trkpt>
  <trkpt lat="37.3128" lon="-5.98298">
    <name>TP428</name>
  </trkpt>
  <trkpt lat="37.31285" lon="-5.98297">
    <name>TP429</name>
  </trkpt>
  <trkpt lat="37.31321" lon="-5.98296">
    <name>TP430</name>
  </trkpt>
  <trkpt lat="37.31325" lon="-5.98296">
    <name>TP431</name>
  </trkpt>
  <trkpt lat="37.31339" lon="-5.98296">
    <name>TP432</name>
  </trkpt>
  <trkpt lat="37.31375" lon="-5.98294">
    <name>TP433</name>
  </trkpt>
  <trkpt lat="37.31393" lon="-5.98294">
    <name>TP434</name>
  </trkpt>
  <trkpt lat="37.31448" lon="-5.98292">
    <name>TP435</name>
  </trkpt>
  <trkpt lat="37.31494" lon="-5.9829">
    <name>TP436</name>
  </trkpt>
  <trkpt lat="37.31552" lon="-5.98289">
    <name>TP437</name>
  </trkpt>
  <trkpt lat="37.31609" lon="-5.98288">
    <name>TP438</name>
  </trkpt>
  <trkpt lat="37.31647" lon="-5.98289">
    <name>TP439</name>
  </trkpt>
  <trkpt lat="37.31662" lon="-5.9829">
    <name>TP440</name>
  </trkpt>
  <trkpt lat="37.31667" lon="-5.9829">
    <name>TP441</name>
  </trkpt>
  <trkpt lat="37.31709" lon="-5.98292">
    <name>TP442</name>
  </trkpt>
  <trkpt lat="37.31715" lon="-5.98293">
    <name>TP443</name>
  </trkpt>
  <trkpt lat="37.31735" lon="-5.98294">
    <name>TP444</name>
  </trkpt>
  <trkpt lat="37.31753" lon="-5.98296">
    <name>TP445</name>
  </trkpt>
  <trkpt lat="37.31807" lon="-5.98303">
    <name>TP446</name>
  </trkpt>
  <trkpt lat="37.31815" lon="-5.98304">
    <name>TP447</name>
  </trkpt>
  <trkpt lat="37.3184" lon="-5.98308">
    <name>TP448</name>
  </trkpt>
  <trkpt lat="37.31842" lon="-5.98309">
    <name>TP449</name>
  </trkpt>
  <trkpt lat="37.31876" lon="-5.98314">
    <name>TP450</name>
  </trkpt>
  <trkpt lat="37.31887" lon="-5.98317">
    <name>TP451</name>
  </trkpt>
  <trkpt lat="37.3191" lon="-5.98322">
    <name>TP452</name>
  </trkpt>
  <trkpt lat="37.3192" lon="-5.98324">
    <name>TP453</name>
  </trkpt>
  <trkpt lat="37.3193" lon="-5.98326">
    <name>TP454</name>
  </trkpt>
  <trkpt lat="37.31934" lon="-5.98327">
    <name>TP455</name>
  </trkpt>
  <trkpt lat="37.31947" lon="-5.9833">
    <name>TP456</name>
  </trkpt>
  <trkpt lat="37.31967" lon="-5.98335">
    <name>TP457</name>
  </trkpt>
  <trkpt lat="37.31976" lon="-5.98337">
    <name>TP458</name>
  </trkpt>
  <trkpt lat="37.32014" lon="-5.98346">
    <name>TP459</name>
  </trkpt>
  <trkpt lat="37.32075" lon="-5.98363">
    <name>TP460</name>
  </trkpt>
  <trkpt lat="37.32119" lon="-5.98375">
    <name>TP461</name>
  </trkpt>
  <trkpt lat="37.32137" lon="-5.9838">
    <name>TP462</name>
  </trkpt>
  <trkpt lat="37.32154" lon="-5.98385">
    <name>TP463</name>
  </trkpt>
  <trkpt lat="37.32164" lon="-5.98388">
    <name>TP464</name>
  </trkpt>
  <trkpt lat="37.32172" lon="-5.98391">
    <name>TP465</name>
  </trkpt>
  <trkpt lat="37.32189" lon="-5.98396">
    <name>TP466</name>
  </trkpt>
  <trkpt lat="37.32199" lon="-5.98399">
    <name>TP467</name>
  </trkpt>
  <trkpt lat="37.3225" lon="-5.98416">
    <name>TP468</name>
  </trkpt>
  <trkpt lat="37.32263" lon="-5.9842">
    <name>TP469</name>
  </trkpt>
  <trkpt lat="37.32301" lon="-5.98431">
    <name>TP470</name>
  </trkpt>
  <trkpt lat="37.32311" lon="-5.98435">
    <name>TP471</name>
  </trkpt>
  <trkpt lat="37.32313" lon="-5.98435">
    <name>TP472</name>
  </trkpt>
  <trkpt lat="37.32322" lon="-5.98438">
    <name>TP473</name>
  </trkpt>
  <trkpt lat="37.32363" lon="-5.98451">
    <name>TP474</name>
  </trkpt>
  <trkpt lat="37.32374" lon="-5.98455">
    <name>TP475</name>
  </trkpt>
  <trkpt lat="37.32412" lon="-5.98466">
    <name>TP476</name>
  </trkpt>
  <trkpt lat="37.32421" lon="-5.98469">
    <name>TP477</name>
  </trkpt>
  <trkpt lat="37.3247" lon="-5.98482">
    <name>TP478</name>
  </trkpt>
  <trkpt lat="37.32515" lon="-5.98495">
    <name>TP479</name>
  </trkpt>
  <trkpt lat="37.32519" lon="-5.98496">
    <name>TP480</name>
  </trkpt>
  <trkpt lat="37.32523" lon="-5.98497">
    <name>TP481</name>
  </trkpt>
  <trkpt lat="37.32527" lon="-5.98498">
    <name>TP482</name>
  </trkpt>
  <trkpt lat="37.32561" lon="-5.98506">
    <name>TP483</name>
  </trkpt>
  <trkpt lat="37.32575" lon="-5.9851">
    <name>TP484</name>
  </trkpt>
  <trkpt lat="37.32585" lon="-5.98512">
    <name>TP485</name>
  </trkpt>
  <trkpt lat="37.32598" lon="-5.98515">
    <name>TP486</name>
  </trkpt>
  <trkpt lat="37.32602" lon="-5.98516">
    <name>TP487</name>
  </trkpt>
  <trkpt lat="37.32628" lon="-5.98522">
    <name>TP488</name>
  </trkpt>
  <trkpt lat="37.32646" lon="-5.98525">
    <name>TP489</name>
  </trkpt>
  <trkpt lat="37.3266" lon="-5.98528">
    <name>TP490</name>
  </trkpt>
  <trkpt lat="37.32704" lon="-5.98537">
    <name>TP491</name>
  </trkpt>
  <trkpt lat="37.32717" lon="-5.98539">
    <name>TP492</name>
  </trkpt>
  <trkpt lat="37.32747" lon="-5.98543">
    <name>TP493</name>
  </trkpt>
  <trkpt lat="37.32772" lon="-5.98547">
    <name>TP494</name>
  </trkpt>
  <trkpt lat="37.32789" lon="-5.98549">
    <name>TP495</name>
  </trkpt>
  <trkpt lat="37.32804" lon="-5.98551">
    <name>TP496</name>
  </trkpt>
  <trkpt lat="37.32816" lon="-5.98552">
    <name>TP497</name>
  </trkpt>
  <trkpt lat="37.32834" lon="-5.98554">
    <name>TP498</name>
  </trkpt>
  <trkpt lat="37.3285" lon="-5.98556">
    <name>TP499</name>
  </trkpt>
  <trkpt lat="37.32877" lon="-5.98558">
    <name>TP500</name>
  </trkpt>
  <trkpt lat="37.329" lon="-5.9856">
    <name>TP501</name>
  </trkpt>
  <trkpt lat="37.32928" lon="-5.98562">
    <name>TP502</name>
  </trkpt>
  <trkpt lat="37.32991" lon="-5.98565">
    <name>TP503</name>
  </trkpt>
  <trkpt lat="37.33057" lon="-5.98565">
    <name>TP504</name>
  </trkpt>
  <trkpt lat="37.33069" lon="-5.98565">
    <name>TP505</name>
  </trkpt>
  <trkpt lat="37.331" lon="-5.98564">
    <name>TP506</name>
  </trkpt>
  <trkpt lat="37.33112" lon="-5.98564">
    <name>TP507</name>
  </trkpt>
  <trkpt lat="37.33132" lon="-5.98564">
    <name>TP508</name>
  </trkpt>
  <trkpt lat="37.33202" lon="-5.98558">
    <name>TP509</name>
  </trkpt>
  <trkpt lat="37.33203" lon="-5.98558">
    <name>TP510</name>
  </trkpt>
  <trkpt lat="37.33219" lon="-5.98556">
    <name>TP511</name>
  </trkpt>
  <trkpt lat="37.33243" lon="-5.98554">
    <name>TP512</name>
  </trkpt>
  <trkpt lat="37.33266" lon="-5.98552">
    <name>TP513</name>
  </trkpt>
  <trkpt lat="37.33347" lon="-5.98539">
    <name>TP514</name>
  </trkpt>
  <trkpt lat="37.33351" lon="-5.98539">
    <name>TP515</name>
  </trkpt>
  <trkpt lat="37.33393" lon="-5.98531">
    <name>TP516</name>
  </trkpt>
  <trkpt lat="37.33443" lon="-5.98523">
    <name>TP517</name>
  </trkpt>
  <trkpt lat="37.3348" lon="-5.98515">
    <name>TP518</name>
  </trkpt>
  <trkpt lat="37.33515" lon="-5.98507">
    <name>TP519</name>
  </trkpt>
  <trkpt lat="37.33553" lon="-5.98497">
    <name>TP520</name>
  </trkpt>
  <trkpt lat="37.3359" lon="-5.98485">
    <name>TP521</name>
  </trkpt>
  <trkpt lat="37.33636" lon="-5.98471">
    <name>TP522</name>
  </trkpt>
  <trkpt lat="37.33658" lon="-5.98464">
    <name>TP523</name>
  </trkpt>
  <trkpt lat="37.33691" lon="-5.98451">
    <name>TP524</name>
  </trkpt>
  <trkpt lat="37.33736" lon="-5.98431">
    <name>TP525</name>
  </trkpt>
  <trkpt lat="37.33752" lon="-5.98424">
    <name>TP526</name>
  </trkpt>
  <trkpt lat="37.33763" lon="-5.98418">
    <name>TP527</name>
  </trkpt>
  <trkpt lat="37.33788" lon="-5.98407">
    <name>TP528</name>
  </trkpt>
  <trkpt lat="37.33804" lon="-5.98398">
    <name>TP529</name>
  </trkpt>
  <trkpt lat="37.33813" lon="-5.98393">
    <name>TP530</name>
  </trkpt>
  <trkpt lat="37.33821" lon="-5.98388">
    <name>TP531</name>
  </trkpt>
  <trkpt lat="37.33829" lon="-5.98383">
    <name>TP532</name>
  </trkpt>
  <trkpt lat="37.33851" lon="-5.9837">
    <name>TP533</name>
  </trkpt>
  <trkpt lat="37.33886" lon="-5.98349">
    <name>TP534</name>
  </trkpt>
  <trkpt lat="37.3388575" lon="-5.9834889">
    <name>TP535</name>
  </trkpt>
  <trkpt lat="37.33895" lon="-5.98344">
    <name>TP536</name>
  </trkpt>
  <trkpt lat="37.33898" lon="-5.98342">
    <name>TP537</name>
  </trkpt>
  <trkpt lat="37.33899" lon="-5.98342">
    <name>TP538</name>
  </trkpt>
  <trkpt lat="37.33901" lon="-5.98341">
    <name>TP539</name>
  </trkpt>
  <trkpt lat="37.33905" lon="-5.98338">
    <name>TP540</name>
  </trkpt>
  <trkpt lat="37.33915" lon="-5.98332">
    <name>TP541</name>
  </trkpt>
  <trkpt lat="37.3393" lon="-5.98321">
    <name>TP542</name>
  </trkpt>
  <trkpt lat="37.33938" lon="-5.98315">
    <name>TP543</name>
  </trkpt>
  <trkpt lat="37.33961" lon="-5.98298">
    <name>TP544</name>
  </trkpt>
  <trkpt lat="37.33977" lon="-5.98286">
    <name>TP545</name>
  </trkpt>
  <trkpt lat="37.34005" lon="-5.98265">
    <name>TP546</name>
  </trkpt>
  <trkpt lat="37.34012" lon="-5.9826">
    <name>TP547</name>
  </trkpt>
  <trkpt lat="37.34024" lon="-5.9825">
    <name>TP548</name>
  </trkpt>
  <trkpt lat="37.34031" lon="-5.98245">
    <name>TP549</name>
  </trkpt>
  <trkpt lat="37.3406" lon="-5.9822">
    <name>TP550</name>
  </trkpt>
  <trkpt lat="37.3408" lon="-5.98201">
    <name>TP551</name>
  </trkpt>
  <trkpt lat="37.34103" lon="-5.98179">
    <name>TP552</name>
  </trkpt>
  <trkpt lat="37.3411" lon="-5.98173">
    <name>TP553</name>
  </trkpt>
  <trkpt lat="37.34116" lon="-5.98167">
    <name>TP554</name>
  </trkpt>
  <trkpt lat="37.34123" lon="-5.9816">
    <name>TP555</name>
  </trkpt>
  <trkpt lat="37.34129" lon="-5.98154">
    <name>TP556</name>
  </trkpt>
  <trkpt lat="37.34136" lon="-5.98147">
    <name>TP557</name>
  </trkpt>
  <trkpt lat="37.34142" lon="-5.98139">
    <name>TP558</name>
  </trkpt>
  <trkpt lat="37.34148" lon="-5.98132">
    <name>TP559</name>
  </trkpt>
  <trkpt lat="37.34153" lon="-5.98124">
    <name>TP560</name>
  </trkpt>
  <trkpt lat="37.34154" lon="-5.98123">
    <name>TP561</name>
  </trkpt>
  <trkpt lat="37.34155" lon="-5.98122">
    <name>TP562</name>
  </trkpt>
  <trkpt lat="37.34156" lon="-5.9812">
    <name>TP563</name>
  </trkpt>
  <trkpt lat="37.34157" lon="-5.98119">
    <name>TP564</name>
  </trkpt>
  <trkpt lat="37.34158" lon="-5.98118">
    <name>TP565</name>
  </trkpt>
  <trkpt lat="37.34159" lon="-5.98117">
    <name>TP566</name>
  </trkpt>
  <trkpt lat="37.3416" lon="-5.98115">
    <name>TP567</name>
  </trkpt>
  <trkpt lat="37.3416" lon="-5.98114">
    <name>TP568</name>
  </trkpt>
  <trkpt lat="37.34164" lon="-5.98109">
    <name>TP569</name>
  </trkpt>
  <trkpt lat="37.34191" lon="-5.98068">
    <name>TP570</name>
  </trkpt>
  <trkpt lat="37.34191" lon="-5.98067">
    <name>TP571</name>
  </trkpt>
  <trkpt lat="37.34194" lon="-5.98062">
    <name>TP572</name>
  </trkpt>
  <trkpt lat="37.34195" lon="-5.98058">
    <name>TP573</name>
  </trkpt>
  <trkpt lat="37.34199" lon="-5.98049">
    <name>TP574</name>
  </trkpt>
  <trkpt lat="37.34204" lon="-5.98036">
    <name>TP575</name>
  </trkpt>
  <trkpt lat="37.34208" lon="-5.98024">
    <name>TP576</name>
  </trkpt>
  <trkpt lat="37.34211" lon="-5.98011">
    <name>TP577</name>
  </trkpt>
  <trkpt lat="37.34212" lon="-5.98002">
    <name>TP578</name>
  </trkpt>
  <trkpt lat="37.34212" lon="-5.97993">
    <name>TP579</name>
  </trkpt>
  <trkpt lat="37.34212" lon="-5.97987">
    <name>TP580</name>
  </trkpt>
  <trkpt lat="37.3421" lon="-5.97981">
    <name>TP581</name>
  </trkpt>
  <trkpt lat="37.34207" lon="-5.97973">
    <name>TP582</name>
  </trkpt>
  <trkpt lat="37.34203" lon="-5.97966">
    <name>TP583</name>
  </trkpt>
  <trkpt lat="37.34202" lon="-5.97965">
    <name>TP584</name>
  </trkpt>
  <trkpt lat="37.34199" lon="-5.97961">
    <name>TP585</name>
  </trkpt>
  <trkpt lat="37.34194" lon="-5.97955">
    <name>TP586</name>
  </trkpt>
  <trkpt lat="37.34184" lon="-5.97949">
    <name>TP587</name>
  </trkpt>
  <trkpt lat="37.34176" lon="-5.97947">
    <name>TP588</name>
  </trkpt>
  <trkpt lat="37.34172" lon="-5.97947">
    <name>TP589</name>
  </trkpt>
  <trkpt lat="37.34165" lon="-5.97948">
    <name>TP590</name>
  </trkpt>
  <trkpt lat="37.34154" lon="-5.97952">
    <name>TP591</name>
  </trkpt>
  <trkpt lat="37.34144" lon="-5.9796">
    <name>TP592</name>
  </trkpt>
  <trkpt lat="37.34138" lon="-5.97967">
    <name>TP593</name>
  </trkpt>
  <trkpt lat="37.34136" lon="-5.9797">
    <name>TP594</name>
  </trkpt>
  <trkpt lat="37.34136" lon="-5.97971">
    <name>TP595</name>
  </trkpt>
  <trkpt lat="37.34135" lon="-5.97973">
    <name>TP596</name>
  </trkpt>
  <trkpt lat="37.34131" lon="-5.9798">
    <name>TP597</name>
  </trkpt>
  <trkpt lat="37.34129" lon="-5.97987">
    <name>TP598</name>
  </trkpt>
  <trkpt lat="37.34129" lon="-5.97989">
    <name>TP599</name>
  </trkpt>
  <trkpt lat="37.34128" lon="-5.97992">
    <name>TP600</name>
  </trkpt>
  <trkpt lat="37.34126" lon="-5.98004">
    <name>TP601</name>
  </trkpt>
  <trkpt lat="37.34125" lon="-5.9801">
    <name>TP602</name>
  </trkpt>
  <trkpt lat="37.34125" lon="-5.98013">
    <name>TP603</name>
  </trkpt>
  <trkpt lat="37.34125" lon="-5.98024">
    <name>TP604</name>
  </trkpt>
  <trkpt lat="37.34126" lon="-5.98033">
    <name>TP605</name>
  </trkpt>
  <trkpt lat="37.34126" lon="-5.98036">
    <name>TP606</name>
  </trkpt>
  <trkpt lat="37.34129" lon="-5.98054">
    <name>TP607</name>
  </trkpt>
  <trkpt lat="37.34129" lon="-5.98058">
    <name>TP608</name>
  </trkpt>
  <trkpt lat="37.34134" lon="-5.9808">
    <name>TP609</name>
  </trkpt>
  <trkpt lat="37.34136" lon="-5.9809">
    <name>TP610</name>
  </trkpt>
  <trkpt lat="37.34137" lon="-5.98099">
    <name>TP611</name>
  </trkpt>
  <trkpt lat="37.34138" lon="-5.98107">
    <name>TP612</name>
  </trkpt>
  <trkpt lat="37.34139" lon="-5.98114">
    <name>TP613</name>
  </trkpt>
  <trkpt lat="37.3413907" lon="-5.9811382">
    <name>TP614</name>
  </trkpt>
  <trkpt lat="37.34143" lon="-5.98127">
    <name>TP615</name>
  </trkpt>
  <trkpt lat="37.34144" lon="-5.9813">
    <name>TP616</name>
  </trkpt>
  <trkpt lat="37.34145" lon="-5.98133">
    <name>TP617</name>
  </trkpt>
  <trkpt lat="37.34147" lon="-5.98138">
    <name>TP618</name>
  </trkpt>
  <trkpt lat="37.34148" lon="-5.98142">
    <name>TP619</name>
  </trkpt>
  <trkpt lat="37.3415" lon="-5.98154">
    <name>TP620</name>
  </trkpt>
  <trkpt lat="37.34158" lon="-5.98188">
    <name>TP621</name>
  </trkpt>
  <trkpt lat="37.34164" lon="-5.98204">
    <name>TP622</name>
  </trkpt>
  <trkpt lat="37.34167" lon="-5.98212">
    <name>TP623</name>
  </trkpt>
  <trkpt lat="37.34171" lon="-5.98218">
    <name>TP624</name>
  </trkpt>
  <trkpt lat="37.34182" lon="-5.98232">
    <name>TP625</name>
  </trkpt>
  <trkpt lat="37.34182" lon="-5.98233">
    <name>TP626</name>
  </trkpt>
  <trkpt lat="37.34184" lon="-5.98236">
    <name>TP627</name>
  </trkpt>
  <trkpt lat="37.34204" lon="-5.98255">
    <name>TP628</name>
  </trkpt>
  <trkpt lat="37.34213" lon="-5.98264">
    <name>TP629</name>
  </trkpt>
  <trkpt lat="37.34216" lon="-5.98267">
    <name>TP630</name>
  </trkpt>
  <trkpt lat="37.34221" lon="-5.98272">
    <name>TP631</name>
  </trkpt>
  <trkpt lat="37.34224" lon="-5.98278">
    <name>TP632</name>
  </trkpt>
  <trkpt lat="37.34234" lon="-5.98295">
    <name>TP633</name>
  </trkpt>
  <trkpt lat="37.34239" lon="-5.98302">
    <name>TP634</name>
  </trkpt>
  <trkpt lat="37.34244" lon="-5.98312">
    <name>TP635</name>
  </trkpt>
  <trkpt lat="37.34252" lon="-5.98326">
    <name>TP636</name>
  </trkpt>
  <trkpt lat="37.34259" lon="-5.98337">
    <name>TP637</name>
  </trkpt>
  <trkpt lat="37.34264" lon="-5.98344">
    <name>TP638</name>
  </trkpt>
  <trkpt lat="37.3427" lon="-5.9835">
    <name>TP639</name>
  </trkpt>
  <trkpt lat="37.34282" lon="-5.98358">
    <name>TP640</name>
  </trkpt>
  <trkpt lat="37.3428237" lon="-5.9835798">
    <name>TP641</name>
  </trkpt>
  <trkpt lat="37.34286" lon="-5.98358">
    <name>TP642</name>
  </trkpt>
  <trkpt lat="37.34289" lon="-5.98359">
    <name>TP643</name>
  </trkpt>
  <trkpt lat="37.34291" lon="-5.98361">
    <name>TP644</name>
  </trkpt>
  <trkpt lat="37.34294" lon="-5.98362">
    <name>TP645</name>
  </trkpt>
  <trkpt lat="37.34297" lon="-5.98364">
    <name>TP646</name>
  </trkpt>
  <trkpt lat="37.34299" lon="-5.98366">
    <name>TP647</name>
  </trkpt>
  <trkpt lat="37.34301" lon="-5.98369">
    <name>TP648</name>
  </trkpt>
  <trkpt lat="37.34304" lon="-5.98372">
    <name>TP649</name>
  </trkpt>
  <trkpt lat="37.34306" lon="-5.98375">
    <name>TP650</name>
  </trkpt>
  <trkpt lat="37.34308" lon="-5.9838">
    <name>TP651</name>
  </trkpt>
  <trkpt lat="37.34309" lon="-5.98384">
    <name>TP652</name>
  </trkpt>
  <trkpt lat="37.3431" lon="-5.98389">
    <name>TP653</name>
  </trkpt>
  <trkpt lat="37.34311" lon="-5.98393">
    <name>TP654</name>
  </trkpt>
  <trkpt lat="37.34311" lon="-5.98398">
    <name>TP655</name>
  </trkpt>
  <trkpt lat="37.34311" lon="-5.98403">
    <name>TP656</name>
  </trkpt>
  <trkpt lat="37.3431" lon="-5.98408">
    <name>TP657</name>
  </trkpt>
  <trkpt lat="37.3431" lon="-5.98409">
    <name>TP658</name>
  </trkpt>
  <trkpt lat="37.3431" lon="-5.98411">
    <name>TP659</name>
  </trkpt>
  <trkpt lat="37.34309" lon="-5.98413">
    <name>TP660</name>
  </trkpt>
  <trkpt lat="37.34309" lon="-5.98414">
    <name>TP661</name>
  </trkpt>
  <trkpt lat="37.34308" lon="-5.98416">
    <name>TP662</name>
  </trkpt>
  <trkpt lat="37.34307" lon="-5.98418">
    <name>TP663</name>
  </trkpt>
  <trkpt lat="37.34308" lon="-5.98434">
    <name>TP664</name>
  </trkpt>
  <trkpt lat="37.34308" lon="-5.98442">
    <name>TP665</name>
  </trkpt>
  <trkpt lat="37.3431" lon="-5.9845">
    <name>TP666</name>
  </trkpt>
  <trkpt lat="37.34313" lon="-5.98459">
    <name>TP667</name>
  </trkpt>
  <trkpt lat="37.34313" lon="-5.98461">
    <name>TP668</name>
  </trkpt>
  <trkpt lat="37.34315" lon="-5.98465">
    <name>TP669</name>
  </trkpt>
  <trkpt lat="37.34315" lon="-5.98466">
    <name>TP670</name>
  </trkpt>
  <trkpt lat="37.34317" lon="-5.98471">
    <name>TP671</name>
  </trkpt>
  <trkpt lat="37.34319" lon="-5.98476">
    <name>TP672</name>
  </trkpt>
  <trkpt lat="37.34321" lon="-5.9848">
    <name>TP673</name>
  </trkpt>
  <trkpt lat="37.34329" lon="-5.98501">
    <name>TP674</name>
  </trkpt>
  <trkpt lat="37.34332" lon="-5.98506">
    <name>TP675</name>
  </trkpt>
  <trkpt lat="37.34336" lon="-5.98514">
    <name>TP676</name>
  </trkpt>
  <trkpt lat="37.34338" lon="-5.98519">
    <name>TP677</name>
  </trkpt>
  <trkpt lat="37.34342" lon="-5.98527">
    <name>TP678</name>
  </trkpt>
  <trkpt lat="37.34348" lon="-5.98539">
    <name>TP679</name>
  </trkpt>
  <trkpt lat="37.34355" lon="-5.98553">
    <name>TP680</name>
  </trkpt>
  <trkpt lat="37.3435537" lon="-5.9855298">
    <name>TP681</name>
  </trkpt>
  <trkpt lat="37.34393" lon="-5.9862">
    <name>TP682</name>
  </trkpt>
  <trkpt lat="37.34399" lon="-5.98629">
    <name>TP683</name>
  </trkpt>
  <trkpt lat="37.34415" lon="-5.98654">
    <name>TP684</name>
  </trkpt>
  <trkpt lat="37.34427" lon="-5.98673">
    <name>TP685</name>
  </trkpt>
  <trkpt lat="37.34448" lon="-5.98699">
    <name>TP686</name>
  </trkpt>
  <trkpt lat="37.34465" lon="-5.9872">
    <name>TP687</name>
  </trkpt>
  <trkpt lat="37.34466" lon="-5.98722">
    <name>TP688</name>
  </trkpt>
  <trkpt lat="37.34473" lon="-5.98732">
    <name>TP689</name>
  </trkpt>
  <trkpt lat="37.3448" lon="-5.9874">
    <name>TP690</name>
  </trkpt>
  <trkpt lat="37.34507" lon="-5.98772">
    <name>TP691</name>
  </trkpt>
  <trkpt lat="37.34511" lon="-5.98777">
    <name>TP692</name>
  </trkpt>
  <trkpt lat="37.34512" lon="-5.98778">
    <name>TP693</name>
  </trkpt>
  <trkpt lat="37.3452" lon="-5.98787">
    <name>TP694</name>
  </trkpt>
  <trkpt lat="37.34521" lon="-5.98789">
    <name>TP695</name>
  </trkpt>
  <trkpt lat="37.34525" lon="-5.98794">
    <name>TP696</name>
  </trkpt>
  <trkpt lat="37.34547" lon="-5.9882">
    <name>TP697</name>
  </trkpt>
  <trkpt lat="37.34572" lon="-5.98849">
    <name>TP698</name>
  </trkpt>
  <trkpt lat="37.34573" lon="-5.98851">
    <name>TP699</name>
  </trkpt>
  <trkpt lat="37.34576" lon="-5.98854">
    <name>TP700</name>
  </trkpt>
  <trkpt lat="37.34587" lon="-5.98866">
    <name>TP701</name>
  </trkpt>
  <trkpt lat="37.3459" lon="-5.98869">
    <name>TP702</name>
  </trkpt>
  <trkpt lat="37.34607" lon="-5.98888">
    <name>TP703</name>
  </trkpt>
  <trkpt lat="37.34608" lon="-5.98889">
    <name>TP704</name>
  </trkpt>
  <trkpt lat="37.34614" lon="-5.98895">
    <name>TP705</name>
  </trkpt>
  <trkpt lat="37.34619" lon="-5.989">
    <name>TP706</name>
  </trkpt>
  <trkpt lat="37.34623" lon="-5.98903">
    <name>TP707</name>
  </trkpt>
  <trkpt lat="37.34626" lon="-5.98906">
    <name>TP708</name>
  </trkpt>
  <trkpt lat="37.34629" lon="-5.98908">
    <name>TP709</name>
  </trkpt>
  <trkpt lat="37.3463" lon="-5.98909">
    <name>TP710</name>
  </trkpt>
  <trkpt lat="37.34633" lon="-5.98912">
    <name>TP711</name>
  </trkpt>
  <trkpt lat="37.34634" lon="-5.98912">
    <name>TP712</name>
  </trkpt>
  <trkpt lat="37.34636" lon="-5.98914">
    <name>TP713</name>
  </trkpt>
  <trkpt lat="37.34637" lon="-5.98915">
    <name>TP714</name>
  </trkpt>
  <trkpt lat="37.34639" lon="-5.98916">
    <name>TP715</name>
  </trkpt>
  <trkpt lat="37.34643" lon="-5.98918">
    <name>TP716</name>
  </trkpt>
  <trkpt lat="37.34648" lon="-5.98921">
    <name>TP717</name>
  </trkpt>
  <trkpt lat="37.34652" lon="-5.98923">
    <name>TP718</name>
  </trkpt>
  <trkpt lat="37.34658" lon="-5.98925">
    <name>TP719</name>
  </trkpt>
  <trkpt lat="37.34662" lon="-5.98926">
    <name>TP720</name>
  </trkpt>
  <trkpt lat="37.34665" lon="-5.98927">
    <name>TP721</name>
  </trkpt>
  <trkpt lat="37.34674" lon="-5.98929">
    <name>TP722</name>
  </trkpt>
  <trkpt lat="37.3467351" lon="-5.9892928">
    <name>TP723</name>
  </trkpt>
  <trkpt lat="37.34676" lon="-5.98928">
    <name>TP724</name>
  </trkpt>
  <trkpt lat="37.34679" lon="-5.98927">
    <name>TP725</name>
  </trkpt>
  <trkpt lat="37.34682" lon="-5.98926">
    <name>TP726</name>
  </trkpt>
  <trkpt lat="37.34686" lon="-5.98926">
    <name>TP727</name>
  </trkpt>
  <trkpt lat="37.34689" lon="-5.98926">
    <name>TP728</name>
  </trkpt>
  <trkpt lat="37.34692" lon="-5.98927">
    <name>TP729</name>
  </trkpt>
  <trkpt lat="37.34696" lon="-5.98928">
    <name>TP730</name>
  </trkpt>
  <trkpt lat="37.34699" lon="-5.9893">
    <name>TP731</name>
  </trkpt>
  <trkpt lat="37.347" lon="-5.98931">
    <name>TP732</name>
  </trkpt>
  <trkpt lat="37.34703" lon="-5.98933">
    <name>TP733</name>
  </trkpt>
  <trkpt lat="37.34707" lon="-5.98936">
    <name>TP734</name>
  </trkpt>
  <trkpt lat="37.34709" lon="-5.98938">
    <name>TP735</name>
  </trkpt>
  <trkpt lat="37.3471" lon="-5.9894">
    <name>TP736</name>
  </trkpt>
  <trkpt lat="37.34712" lon="-5.98942">
    <name>TP737</name>
  </trkpt>
  <trkpt lat="37.34713" lon="-5.98944">
    <name>TP738</name>
  </trkpt>
  <trkpt lat="37.34714" lon="-5.98947">
    <name>TP739</name>
  </trkpt>
  <trkpt lat="37.34715" lon="-5.98949">
    <name>TP740</name>
  </trkpt>
  <trkpt lat="37.34716" lon="-5.98952">
    <name>TP741</name>
  </trkpt>
  <trkpt lat="37.34716" lon="-5.98956">
    <name>TP742</name>
  </trkpt>
  <trkpt lat="37.34724" lon="-5.98964">
    <name>TP743</name>
  </trkpt>
  <trkpt lat="37.34726" lon="-5.98967">
    <name>TP744</name>
  </trkpt>
  <trkpt lat="37.34731" lon="-5.98972">
    <name>TP745</name>
  </trkpt>
  <trkpt lat="37.34736" lon="-5.98977">
    <name>TP746</name>
  </trkpt>
  <trkpt lat="37.34742" lon="-5.98982">
    <name>TP747</name>
  </trkpt>
  <trkpt lat="37.34748" lon="-5.98985">
    <name>TP748</name>
  </trkpt>
  <trkpt lat="37.34756" lon="-5.98989">
    <name>TP749</name>
  </trkpt>
  <trkpt lat="37.34762" lon="-5.98992">
    <name>TP750</name>
  </trkpt>
  <trkpt lat="37.34766" lon="-5.98993">
    <name>TP751</name>
  </trkpt>
  <trkpt lat="37.34772" lon="-5.98995">
    <name>TP752</name>
  </trkpt>
  <trkpt lat="37.34791" lon="-5.98999">
    <name>TP753</name>
  </trkpt>
  <trkpt lat="37.34806" lon="-5.99002">
    <name>TP754</name>
  </trkpt>
  <trkpt lat="37.34808" lon="-5.99003">
    <name>TP755</name>
  </trkpt>
  <trkpt lat="37.34823" lon="-5.99005">
    <name>TP756</name>
  </trkpt>
  <trkpt lat="37.34831" lon="-5.99006">
    <name>TP757</name>
  </trkpt>
  <trkpt lat="37.34832" lon="-5.99006">
    <name>TP758</name>
  </trkpt>
  <trkpt lat="37.34838" lon="-5.99007">
    <name>TP759</name>
  </trkpt>
  <trkpt lat="37.3485" lon="-5.99007">
    <name>TP760</name>
  </trkpt>
  <trkpt lat="37.34852" lon="-5.99007">
    <name>TP761</name>
  </trkpt>
  <trkpt lat="37.34865" lon="-5.99008">
    <name>TP762</name>
  </trkpt>
  <trkpt lat="37.34868" lon="-5.99008">
    <name>TP763</name>
  </trkpt>
  <trkpt lat="37.3489" lon="-5.99009">
    <name>TP764</name>
  </trkpt>
  <trkpt lat="37.34904" lon="-5.99009">
    <name>TP765</name>
  </trkpt>
  <trkpt lat="37.34927" lon="-5.99009">
    <name>TP766</name>
  </trkpt>
  <trkpt lat="37.3494" lon="-5.99008">
    <name>TP767</name>
  </trkpt>
  <trkpt lat="37.3503" lon="-5.99006">
    <name>TP768</name>
  </trkpt>
  <trkpt lat="37.35037" lon="-5.99006">
    <name>TP769</name>
  </trkpt>
  <trkpt lat="37.35049" lon="-5.99005">
    <name>TP770</name>
  </trkpt>
  <trkpt lat="37.35103" lon="-5.99003">
    <name>TP771</name>
  </trkpt>
  <trkpt lat="37.35139" lon="-5.99002">
    <name>TP772</name>
  </trkpt>
  <trkpt lat="37.35175" lon="-5.99">
    <name>TP773</name>
  </trkpt>
  <trkpt lat="37.35213" lon="-5.98999">
    <name>TP774</name>
  </trkpt>
  <trkpt lat="37.35357" lon="-5.98994">
    <name>TP775</name>
  </trkpt>
  <trkpt lat="37.35405" lon="-5.98993">
    <name>TP776</name>
  </trkpt>
  <trkpt lat="37.35426" lon="-5.98992">
    <name>TP777</name>
  </trkpt>
  <trkpt lat="37.35441" lon="-5.98991">
    <name>TP778</name>
  </trkpt>
  <trkpt lat="37.35459" lon="-5.98991">
    <name>TP779</name>
  </trkpt>
  <trkpt lat="37.35461" lon="-5.98991">
    <name>TP780</name>
  </trkpt>
  <trkpt lat="37.35477" lon="-5.9899">
    <name>TP781</name>
  </trkpt>
  <trkpt lat="37.35495" lon="-5.9899">
    <name>TP782</name>
  </trkpt>
  <trkpt lat="37.35496" lon="-5.9899">
    <name>TP783</name>
  </trkpt>
  <trkpt lat="37.35512" lon="-5.98989">
    <name>TP784</name>
  </trkpt>
  <trkpt lat="37.35553" lon="-5.98988">
    <name>TP785</name>
  </trkpt>
  <trkpt lat="37.35556" lon="-5.98987">
    <name>TP786</name>
  </trkpt>
  <trkpt lat="37.35577" lon="-5.98987">
    <name>TP787</name>
  </trkpt>
  <trkpt lat="37.3561" lon="-5.98985">
    <name>TP788</name>
  </trkpt>
  <trkpt lat="37.35646" lon="-5.98984">
    <name>TP789</name>
  </trkpt>
  <trkpt lat="37.35662" lon="-5.98983">
    <name>TP790</name>
  </trkpt>
  <trkpt lat="37.35725" lon="-5.98982">
    <name>TP791</name>
  </trkpt>
  <trkpt lat="37.35802" lon="-5.98979">
    <name>TP792</name>
  </trkpt>
  <trkpt lat="37.35887" lon="-5.98975">
    <name>TP793</name>
  </trkpt>
  <trkpt lat="37.35959" lon="-5.98972">
    <name>TP794</name>
  </trkpt>
  <trkpt lat="37.35996" lon="-5.9897">
    <name>TP795</name>
  </trkpt>
  <trkpt lat="37.36048" lon="-5.98967">
    <name>TP796</name>
  </trkpt>
  <trkpt lat="37.36058" lon="-5.98967">
    <name>TP797</name>
  </trkpt>
  <trkpt lat="37.36083" lon="-5.98965">
    <name>TP798</name>
  </trkpt>
  <trkpt lat="37.36089" lon="-5.98965">
    <name>TP799</name>
  </trkpt>
  <trkpt lat="37.36227" lon="-5.9896">
    <name>TP800</name>
  </trkpt>
  <trkpt lat="37.36362" lon="-5.98954">
    <name>TP801</name>
  </trkpt>
  <trkpt lat="37.36373" lon="-5.98959">
    <name>TP802</name>
  </trkpt>
  <trkpt lat="37.36383" lon="-5.98959">
    <name>TP803</name>
  </trkpt>
  <trkpt lat="37.3642" lon="-5.98957">
    <name>TP804</name>
  </trkpt>
  <trkpt lat="37.36517" lon="-5.98952">
    <name>TP805</name>
  </trkpt>
  <trkpt lat="37.3653" lon="-5.98952">
    <name>TP806</name>
  </trkpt>
  <trkpt lat="37.36558" lon="-5.98951">
    <name>TP807</name>
  </trkpt>
  <trkpt lat="37.36609" lon="-5.98949">
    <name>TP808</name>
  </trkpt>
  <trkpt lat="37.3665" lon="-5.98948">
    <name>TP809</name>
  </trkpt>
  <trkpt lat="37.36658" lon="-5.98948">
    <name>TP810</name>
  </trkpt>
  <trkpt lat="37.3667" lon="-5.98947">
    <name>TP811</name>
  </trkpt>
  <trkpt lat="37.36739" lon="-5.98943">
    <name>TP812</name>
  </trkpt>
  <trkpt lat="37.36755" lon="-5.98943">
    <name>TP813</name>
  </trkpt>
  <trkpt lat="37.36761" lon="-5.98943">
    <name>TP814</name>
  </trkpt>
  <trkpt lat="37.36781" lon="-5.98942">
    <name>TP815</name>
  </trkpt>
  <trkpt lat="37.36823" lon="-5.98939">
    <name>TP816</name>
  </trkpt>
  <trkpt lat="37.36842" lon="-5.98939">
    <name>TP817</name>
  </trkpt>
  <trkpt lat="37.36866" lon="-5.98937">
    <name>TP818</name>
  </trkpt>
  <trkpt lat="37.36877" lon="-5.98937">
    <name>TP819</name>
  </trkpt>
  <trkpt lat="37.36921" lon="-5.98936">
    <name>TP820</name>
  </trkpt>
  <trkpt lat="37.3692122" lon="-5.9893586">
    <name>TP821</name>
  </trkpt>
  <trkpt lat="37.36921" lon="-5.98935">
    <name>TP822</name>
  </trkpt>
  <trkpt lat="37.36921" lon="-5.98934">
    <name>TP823</name>
  </trkpt>
  <trkpt lat="37.36921" lon="-5.98933">
    <name>TP824</name>
  </trkpt>
  <trkpt lat="37.36922" lon="-5.98932">
    <name>TP825</name>
  </trkpt>
  <trkpt lat="37.36922" lon="-5.98931">
    <name>TP826</name>
  </trkpt>
  <trkpt lat="37.36922" lon="-5.9893">
    <name>TP827</name>
  </trkpt>
  <trkpt lat="37.36922" lon="-5.98929">
    <name>TP828</name>
  </trkpt>
  <trkpt lat="37.36923" lon="-5.98928">
    <name>TP829</name>
  </trkpt>
  <trkpt lat="37.36923" lon="-5.98927">
    <name>TP830</name>
  </trkpt>
  <trkpt lat="37.36924" lon="-5.98926">
    <name>TP831</name>
  </trkpt>
  <trkpt lat="37.36925" lon="-5.98925">
    <name>TP832</name>
  </trkpt>
  <trkpt lat="37.36925" lon="-5.98924">
    <name>TP833</name>
  </trkpt>
  <trkpt lat="37.36926" lon="-5.98924">
    <name>TP834</name>
  </trkpt>
  <trkpt lat="37.36926" lon="-5.98923">
    <name>TP835</name>
  </trkpt>
  <trkpt lat="37.36927" lon="-5.98923">
    <name>TP836</name>
  </trkpt>
  <trkpt lat="37.36927" lon="-5.98922">
    <name>TP837</name>
  </trkpt>
  <trkpt lat="37.36928" lon="-5.98922">
    <name>TP838</name>
  </trkpt>
  <trkpt lat="37.36929" lon="-5.98921">
    <name>TP839</name>
  </trkpt>
  <trkpt lat="37.3693" lon="-5.98921">
    <name>TP840</name>
  </trkpt>
  <trkpt lat="37.3693" lon="-5.98902">
    <name>TP841</name>
  </trkpt>
  <trkpt lat="37.36931" lon="-5.98874">
    <name>TP842</name>
  </trkpt>
  <trkpt lat="37.36933" lon="-5.98852">
    <name>TP843</name>
  </trkpt>
  <trkpt lat="37.36934" lon="-5.98841">
    <name>TP844</name>
  </trkpt>
  <trkpt lat="37.36933" lon="-5.98831">
    <name>TP845</name>
  </trkpt>
  <trkpt lat="37.36932" lon="-5.98826">
    <name>TP846</name>
  </trkpt>
  <trkpt lat="37.36932" lon="-5.9882">
    <name>TP847</name>
  </trkpt>
  <trkpt lat="37.36929" lon="-5.98803">
    <name>TP848</name>
  </trkpt>
  <trkpt lat="37.36927" lon="-5.98782">
    <name>TP849</name>
  </trkpt>
  <trkpt lat="37.3692698" lon="-5.9878189">
    <name>TP850</name>
  </trkpt>
  <trkpt lat="37.36943" lon="-5.98791">
    <name>TP851</name>
  </trkpt>
  <trkpt lat="37.3698" lon="-5.98812">
    <name>TP852</name>
  </trkpt>
  <trkpt lat="37.36987" lon="-5.98817">
    <name>TP853</name>
  </trkpt>
  <trkpt lat="37.37007" lon="-5.98829">
    <name>TP854</name>
  </trkpt>
  <trkpt lat="37.37013" lon="-5.98832">
    <name>TP855</name>
  </trkpt>
  <trkpt lat="37.37019" lon="-5.98837">
    <name>TP856</name>
  </trkpt>
  <trkpt lat="37.3703" lon="-5.98843">
    <name>TP857</name>
  </trkpt>
  <trkpt lat="37.37088" lon="-5.98879">
    <name>TP858</name>
  </trkpt>
  <trkpt lat="37.3712" lon="-5.98898">
    <name>TP859</name>
  </trkpt>
  <trkpt lat="37.37126" lon="-5.98901">
    <name>TP860</name>
  </trkpt>
  <trkpt lat="37.37272" lon="-5.98989">
    <name>TP861</name>
  </trkpt>
  <trkpt lat="37.37318" lon="-5.99017">
    <name>TP862</name>
  </trkpt>
  <trkpt lat="37.3733" lon="-5.99024">
    <name>TP863</name>
  </trkpt>
  <trkpt lat="37.37408" lon="-5.99072">
    <name>TP864</name>
  </trkpt>
  <trkpt lat="37.37412" lon="-5.99071">
    <name>TP865</name>
  </trkpt>
  <trkpt lat="37.37413" lon="-5.9907">
    <name>TP866</name>
  </trkpt>
  <trkpt lat="37.3741261" lon="-5.9907049">
    <name>TP867</name>
  </trkpt>
  <trkpt lat="37.3741261" lon="-5.9907049">
    <name>TP868</name>
  </trkpt>
  <trkpt lat="37.3741261" lon="-5.9907049">
    <name>TP869</name>
  </trkpt>
  </trkseg>
</trk>
</gpx>