<?xml version="1.0" encoding="UTF-8" standalone="no" ?>
<gpx xmlns="http://www.topografix.com/GPX/1/1" xmlns:gpxx="http://www.garmin.com/xmlschemas/GpxExtensions/v3" xmlns:gpxtpx="http://www.garmin.com/xmlschemas/TrackPointExtension/v1" creator="mapstogpx.com" version="1.1" xmlns:xsi="http://www.w3.org/2001/XMLSchema-instance" xsi:schemaLocation="http://www.topografix.com/GPX/1/1 http://www.topografix.com/GPX/1/1/gpx.xsd http://www.garmin.com/xmlschemas/GpxExtensions/v3 http://www.garmin.com/xmlschemas/GpxExtensionsv3.xsd http://www.garmin.com/xmlschemas/TrackPointExtension/v1 http://www.garmin.com/xmlschemas/TrackPointExtensionv1.xsd">
  <metadata>
    <link href="http://www.mapstogpx.com">
      <text>Sverrir Sigmundarson</text>
    </link>
    <!--desc>Powered by Google, ©2025 Google</desc-->
    <!--copyright author="Google Inc">
    	<year>2025</year>
    	<license>https://developers.google.com/maps/terms</license>
    </copyright-->
    <!--url>https://www.google.com/maps/dir/36.747303,-4.405336/Mercado+Central+de+Atarazanas/@36.7277794,-4.4209302,14.88z/data=!3m1!5s0xd72f7968f42bedf:0x1bd163561b1c3898!4m19!4m18!1m10!3m4!1m2!1d-4.4169195!2d36.7373336!3s0xd72f7c9921b6437:0xfc82d9ecf816d2f2!3m4!1m2!1d-4.4179509!2d36.7310195!3s0xd72f7c7f33b80f5:0xcaa15b21f9ccc31e!1m5!1m1!1s0xd72f7968ff0b787:0x7d04360c50b946be!2m2!1d-4.4240713!2d36.718456!3e0?authuser=1&entry=tts&g_ep=EgoyMDI1MDUyMS4wKgBIAVAD&skid=97833275-6924-4f27-ae7c-08b7151e40b1&hl=en</url-->
    <time>2025-05-28T08:40:56Z</time>
  </metadata>
  <wpt lat="36.747303" lon="-4.405336">
    <name>29193 Málaga</name>
    <desc>Este, 29193 Málaga, Spain</desc>
  </wpt>
  <wpt lat="36.718456" lon="-4.4240713">
    <name>Mercado Central de Atarazanas</name>
    <desc>Mercado de Atarazanas, C. Atarazanas, 10, Distrito Centro, 29005 Málaga, Spain</desc>
  </wpt>
<trk>
  <name>29193 Málaga to Mercado Central de Atarazanas</name>
  <number>1</number>
  <trkseg>
  <trkpt lat="36.7474595" lon="-4.405356">
    <name>TP001</name>
  </trkpt>
  <trkpt lat="36.74745" lon="-4.40548">
    <name>TP002</name>
  </trkpt>
  <trkpt lat="36.74745" lon="-4.40557">
    <name>TP003</name>
  </trkpt>
  <trkpt lat="36.74745" lon="-4.40565">
    <name>TP004</name>
  </trkpt>
  <trkpt lat="36.74745" lon="-4.40579">
    <name>TP005</name>
  </trkpt>
  <trkpt lat="36.74744" lon="-4.40586">
    <name>TP006</name>
  </trkpt>
  <trkpt lat="36.74743" lon="-4.40592">
    <name>TP007</name>
  </trkpt>
  <trkpt lat="36.74742" lon="-4.40596">
    <name>TP008</name>
  </trkpt>
  <trkpt lat="36.74741" lon="-4.40601">
    <name>TP009</name>
  </trkpt>
  <trkpt lat="36.7474" lon="-4.40604">
    <name>TP010</name>
  </trkpt>
  <trkpt lat="36.74739" lon="-4.40606">
    <name>TP011</name>
  </trkpt>
  <trkpt lat="36.74737" lon="-4.40609">
    <name>TP012</name>
  </trkpt>
  <trkpt lat="36.74733" lon="-4.40614">
    <name>TP013</name>
  </trkpt>
  <trkpt lat="36.7473" lon="-4.40617">
    <name>TP014</name>
  </trkpt>
  <trkpt lat="36.74729" lon="-4.40618">
    <name>TP015</name>
  </trkpt>
  <trkpt lat="36.74725" lon="-4.40621">
    <name>TP016</name>
  </trkpt>
  <trkpt lat="36.74721" lon="-4.40624">
    <name>TP017</name>
  </trkpt>
  <trkpt lat="36.74719" lon="-4.40625">
    <name>TP018</name>
  </trkpt>
  <trkpt lat="36.74715" lon="-4.40625">
    <name>TP019</name>
  </trkpt>
  <trkpt lat="36.74701" lon="-4.40624">
    <name>TP020</name>
  </trkpt>
  <trkpt lat="36.74686" lon="-4.40624">
    <name>TP021</name>
  </trkpt>
  <trkpt lat="36.74677" lon="-4.40624">
    <name>TP022</name>
  </trkpt>
  <trkpt lat="36.74662" lon="-4.40623">
    <name>TP023</name>
  </trkpt>
  <trkpt lat="36.74659" lon="-4.40622">
    <name>TP024</name>
  </trkpt>
  <trkpt lat="36.74645" lon="-4.40622">
    <name>TP025</name>
  </trkpt>
  <trkpt lat="36.7464" lon="-4.40623">
    <name>TP026</name>
  </trkpt>
  <trkpt lat="36.74639" lon="-4.40624">
    <name>TP027</name>
  </trkpt>
  <trkpt lat="36.74637" lon="-4.40625">
    <name>TP028</name>
  </trkpt>
  <trkpt lat="36.74636" lon="-4.40626">
    <name>TP029</name>
  </trkpt>
  <trkpt lat="36.74636" lon="-4.40627">
    <name>TP030</name>
  </trkpt>
  <trkpt lat="36.74635" lon="-4.40628">
    <name>TP031</name>
  </trkpt>
  <trkpt lat="36.7463522" lon="-4.4062758">
    <name>TP032</name>
  </trkpt>
  <trkpt lat="36.74635" lon="-4.40629">
    <name>TP033</name>
  </trkpt>
  <trkpt lat="36.74635" lon="-4.40633">
    <name>TP034</name>
  </trkpt>
  <trkpt lat="36.74636" lon="-4.40638">
    <name>TP035</name>
  </trkpt>
  <trkpt lat="36.74642" lon="-4.40653">
    <name>TP036</name>
  </trkpt>
  <trkpt lat="36.74643" lon="-4.40657">
    <name>TP037</name>
  </trkpt>
  <trkpt lat="36.74646" lon="-4.40663">
    <name>TP038</name>
  </trkpt>
  <trkpt lat="36.74648" lon="-4.40667">
    <name>TP039</name>
  </trkpt>
  <trkpt lat="36.74651" lon="-4.40672">
    <name>TP040</name>
  </trkpt>
  <trkpt lat="36.7465095" lon="-4.4067166">
    <name>TP041</name>
  </trkpt>
  <trkpt lat="36.74649" lon="-4.40674">
    <name>TP042</name>
  </trkpt>
  <trkpt lat="36.74646" lon="-4.40678">
    <name>TP043</name>
  </trkpt>
  <trkpt lat="36.74643" lon="-4.40682">
    <name>TP044</name>
  </trkpt>
  <trkpt lat="36.7464" lon="-4.40689">
    <name>TP045</name>
  </trkpt>
  <trkpt lat="36.74637" lon="-4.40697">
    <name>TP046</name>
  </trkpt>
  <trkpt lat="36.74635" lon="-4.40702">
    <name>TP047</name>
  </trkpt>
  <trkpt lat="36.74632" lon="-4.4071">
    <name>TP048</name>
  </trkpt>
  <trkpt lat="36.74626" lon="-4.40722">
    <name>TP049</name>
  </trkpt>
  <trkpt lat="36.74625" lon="-4.40725">
    <name>TP050</name>
  </trkpt>
  <trkpt lat="36.74615" lon="-4.40743">
    <name>TP051</name>
  </trkpt>
  <trkpt lat="36.7461479" lon="-4.4074277">
    <name>TP052</name>
  </trkpt>
  <trkpt lat="36.74614" lon="-4.40753">
    <name>TP053</name>
  </trkpt>
  <trkpt lat="36.74614" lon="-4.40759">
    <name>TP054</name>
  </trkpt>
  <trkpt lat="36.74614" lon="-4.40765">
    <name>TP055</name>
  </trkpt>
  <trkpt lat="36.74614" lon="-4.40768">
    <name>TP056</name>
  </trkpt>
  <trkpt lat="36.74614" lon="-4.40771">
    <name>TP057</name>
  </trkpt>
  <trkpt lat="36.74615" lon="-4.40774">
    <name>TP058</name>
  </trkpt>
  <trkpt lat="36.74616" lon="-4.40777">
    <name>TP059</name>
  </trkpt>
  <trkpt lat="36.74618" lon="-4.40779">
    <name>TP060</name>
  </trkpt>
  <trkpt lat="36.74625" lon="-4.40787">
    <name>TP061</name>
  </trkpt>
  <trkpt lat="36.74633" lon="-4.40794">
    <name>TP062</name>
  </trkpt>
  <trkpt lat="36.74644" lon="-4.40802">
    <name>TP063</name>
  </trkpt>
  <trkpt lat="36.746437" lon="-4.4080207">
    <name>TP064</name>
  </trkpt>
  <trkpt lat="36.74642" lon="-4.40804">
    <name>TP065</name>
  </trkpt>
  <trkpt lat="36.74639" lon="-4.40808">
    <name>TP066</name>
  </trkpt>
  <trkpt lat="36.74632" lon="-4.40819">
    <name>TP067</name>
  </trkpt>
  <trkpt lat="36.74624" lon="-4.40834">
    <name>TP068</name>
  </trkpt>
  <trkpt lat="36.74623" lon="-4.40834">
    <name>TP069</name>
  </trkpt>
  <trkpt lat="36.7462" lon="-4.4084">
    <name>TP070</name>
  </trkpt>
  <trkpt lat="36.74619" lon="-4.40842">
    <name>TP071</name>
  </trkpt>
  <trkpt lat="36.74616" lon="-4.40846">
    <name>TP072</name>
  </trkpt>
  <trkpt lat="36.74616" lon="-4.40847">
    <name>TP073</name>
  </trkpt>
  <trkpt lat="36.74614" lon="-4.40849">
    <name>TP074</name>
  </trkpt>
  <trkpt lat="36.74604" lon="-4.40866">
    <name>TP075</name>
  </trkpt>
  <trkpt lat="36.74602" lon="-4.40868">
    <name>TP076</name>
  </trkpt>
  <trkpt lat="36.74589" lon="-4.40887">
    <name>TP077</name>
  </trkpt>
  <trkpt lat="36.74585" lon="-4.40891">
    <name>TP078</name>
  </trkpt>
  <trkpt lat="36.74576" lon="-4.40904">
    <name>TP079</name>
  </trkpt>
  <trkpt lat="36.74573" lon="-4.40908">
    <name>TP080</name>
  </trkpt>
  <trkpt lat="36.74569" lon="-4.40912">
    <name>TP081</name>
  </trkpt>
  <trkpt lat="36.74561" lon="-4.40928">
    <name>TP082</name>
  </trkpt>
  <trkpt lat="36.7456" lon="-4.40933">
    <name>TP083</name>
  </trkpt>
  <trkpt lat="36.74559" lon="-4.40938">
    <name>TP084</name>
  </trkpt>
  <trkpt lat="36.74559" lon="-4.40942">
    <name>TP085</name>
  </trkpt>
  <trkpt lat="36.7456" lon="-4.40947">
    <name>TP086</name>
  </trkpt>
  <trkpt lat="36.74572" lon="-4.40964">
    <name>TP087</name>
  </trkpt>
  <trkpt lat="36.74573" lon="-4.40966">
    <name>TP088</name>
  </trkpt>
  <trkpt lat="36.74582" lon="-4.40982">
    <name>TP089</name>
  </trkpt>
  <trkpt lat="36.74586" lon="-4.40992">
    <name>TP090</name>
  </trkpt>
  <trkpt lat="36.74586" lon="-4.40996">
    <name>TP091</name>
  </trkpt>
  <trkpt lat="36.74586" lon="-4.41002">
    <name>TP092</name>
  </trkpt>
  <trkpt lat="36.74583" lon="-4.41015">
    <name>TP093</name>
  </trkpt>
  <trkpt lat="36.7458" lon="-4.41025">
    <name>TP094</name>
  </trkpt>
  <trkpt lat="36.74576" lon="-4.41036">
    <name>TP095</name>
  </trkpt>
  <trkpt lat="36.74572" lon="-4.41046">
    <name>TP096</name>
  </trkpt>
  <trkpt lat="36.74567" lon="-4.41059">
    <name>TP097</name>
  </trkpt>
  <trkpt lat="36.74562" lon="-4.41069">
    <name>TP098</name>
  </trkpt>
  <trkpt lat="36.74556" lon="-4.41075">
    <name>TP099</name>
  </trkpt>
  <trkpt lat="36.74555" lon="-4.41076">
    <name>TP100</name>
  </trkpt>
  <trkpt lat="36.74551" lon="-4.41078">
    <name>TP101</name>
  </trkpt>
  <trkpt lat="36.74543" lon="-4.41083">
    <name>TP102</name>
  </trkpt>
  <trkpt lat="36.74534" lon="-4.41085">
    <name>TP103</name>
  </trkpt>
  <trkpt lat="36.7453" lon="-4.41086">
    <name>TP104</name>
  </trkpt>
  <trkpt lat="36.74519" lon="-4.41089">
    <name>TP105</name>
  </trkpt>
  <trkpt lat="36.74517" lon="-4.41089">
    <name>TP106</name>
  </trkpt>
  <trkpt lat="36.74501" lon="-4.41094">
    <name>TP107</name>
  </trkpt>
  <trkpt lat="36.74484" lon="-4.41098">
    <name>TP108</name>
  </trkpt>
  <trkpt lat="36.74482" lon="-4.41098">
    <name>TP109</name>
  </trkpt>
  <trkpt lat="36.74477" lon="-4.41099">
    <name>TP110</name>
  </trkpt>
  <trkpt lat="36.74472" lon="-4.41099">
    <name>TP111</name>
  </trkpt>
  <trkpt lat="36.74471" lon="-4.41099">
    <name>TP112</name>
  </trkpt>
  <trkpt lat="36.74469" lon="-4.41099">
    <name>TP113</name>
  </trkpt>
  <trkpt lat="36.74464" lon="-4.41099">
    <name>TP114</name>
  </trkpt>
  <trkpt lat="36.74454" lon="-4.41098">
    <name>TP115</name>
  </trkpt>
  <trkpt lat="36.74453" lon="-4.41098">
    <name>TP116</name>
  </trkpt>
  <trkpt lat="36.74445" lon="-4.41094">
    <name>TP117</name>
  </trkpt>
  <trkpt lat="36.74437" lon="-4.41091">
    <name>TP118</name>
  </trkpt>
  <trkpt lat="36.74433" lon="-4.41089">
    <name>TP119</name>
  </trkpt>
  <trkpt lat="36.74426" lon="-4.41082">
    <name>TP120</name>
  </trkpt>
  <trkpt lat="36.74426" lon="-4.41081">
    <name>TP121</name>
  </trkpt>
  <trkpt lat="36.74423" lon="-4.41078">
    <name>TP122</name>
  </trkpt>
  <trkpt lat="36.7442" lon="-4.41074">
    <name>TP123</name>
  </trkpt>
  <trkpt lat="36.74413" lon="-4.41061">
    <name>TP124</name>
  </trkpt>
  <trkpt lat="36.74408" lon="-4.41051">
    <name>TP125</name>
  </trkpt>
  <trkpt lat="36.74407" lon="-4.41048">
    <name>TP126</name>
  </trkpt>
  <trkpt lat="36.74401" lon="-4.41041">
    <name>TP127</name>
  </trkpt>
  <trkpt lat="36.74398" lon="-4.41037">
    <name>TP128</name>
  </trkpt>
  <trkpt lat="36.74396" lon="-4.41035">
    <name>TP129</name>
  </trkpt>
  <trkpt lat="36.74392" lon="-4.41034">
    <name>TP130</name>
  </trkpt>
  <trkpt lat="36.7439" lon="-4.41034">
    <name>TP131</name>
  </trkpt>
  <trkpt lat="36.74386" lon="-4.41033">
    <name>TP132</name>
  </trkpt>
  <trkpt lat="36.74383" lon="-4.41033">
    <name>TP133</name>
  </trkpt>
  <trkpt lat="36.74379" lon="-4.41034">
    <name>TP134</name>
  </trkpt>
  <trkpt lat="36.74378" lon="-4.41034">
    <name>TP135</name>
  </trkpt>
  <trkpt lat="36.74376" lon="-4.41035">
    <name>TP136</name>
  </trkpt>
  <trkpt lat="36.7437" lon="-4.41041">
    <name>TP137</name>
  </trkpt>
  <trkpt lat="36.74369" lon="-4.41042">
    <name>TP138</name>
  </trkpt>
  <trkpt lat="36.74366" lon="-4.41046">
    <name>TP139</name>
  </trkpt>
  <trkpt lat="36.74362" lon="-4.41049">
    <name>TP140</name>
  </trkpt>
  <trkpt lat="36.74357" lon="-4.41056">
    <name>TP141</name>
  </trkpt>
  <trkpt lat="36.74351" lon="-4.41063">
    <name>TP142</name>
  </trkpt>
  <trkpt lat="36.74343" lon="-4.41072">
    <name>TP143</name>
  </trkpt>
  <trkpt lat="36.74337" lon="-4.41079">
    <name>TP144</name>
  </trkpt>
  <trkpt lat="36.74333" lon="-4.41085">
    <name>TP145</name>
  </trkpt>
  <trkpt lat="36.7433" lon="-4.41088">
    <name>TP146</name>
  </trkpt>
  <trkpt lat="36.74324" lon="-4.41093">
    <name>TP147</name>
  </trkpt>
  <trkpt lat="36.74316" lon="-4.41101">
    <name>TP148</name>
  </trkpt>
  <trkpt lat="36.74302" lon="-4.41114">
    <name>TP149</name>
  </trkpt>
  <trkpt lat="36.74294" lon="-4.41122">
    <name>TP150</name>
  </trkpt>
  <trkpt lat="36.74279" lon="-4.41135">
    <name>TP151</name>
  </trkpt>
  <trkpt lat="36.74269" lon="-4.41144">
    <name>TP152</name>
  </trkpt>
  <trkpt lat="36.74255" lon="-4.41157">
    <name>TP153</name>
  </trkpt>
  <trkpt lat="36.74254" lon="-4.41158">
    <name>TP154</name>
  </trkpt>
  <trkpt lat="36.74225" lon="-4.41177">
    <name>TP155</name>
  </trkpt>
  <trkpt lat="36.74215" lon="-4.41182">
    <name>TP156</name>
  </trkpt>
  <trkpt lat="36.74203" lon="-4.4119">
    <name>TP157</name>
  </trkpt>
  <trkpt lat="36.7418" lon="-4.41202">
    <name>TP158</name>
  </trkpt>
  <trkpt lat="36.74174" lon="-4.41205">
    <name>TP159</name>
  </trkpt>
  <trkpt lat="36.74149" lon="-4.41216">
    <name>TP160</name>
  </trkpt>
  <trkpt lat="36.74132" lon="-4.41224">
    <name>TP161</name>
  </trkpt>
  <trkpt lat="36.74107" lon="-4.41235">
    <name>TP162</name>
  </trkpt>
  <trkpt lat="36.74105" lon="-4.41236">
    <name>TP163</name>
  </trkpt>
  <trkpt lat="36.74102" lon="-4.41237">
    <name>TP164</name>
  </trkpt>
  <trkpt lat="36.74098" lon="-4.41238">
    <name>TP165</name>
  </trkpt>
  <trkpt lat="36.74094" lon="-4.41238">
    <name>TP166</name>
  </trkpt>
  <trkpt lat="36.74089" lon="-4.41236">
    <name>TP167</name>
  </trkpt>
  <trkpt lat="36.7408" lon="-4.41233">
    <name>TP168</name>
  </trkpt>
  <trkpt lat="36.74074" lon="-4.4123">
    <name>TP169</name>
  </trkpt>
  <trkpt lat="36.74057" lon="-4.41222">
    <name>TP170</name>
  </trkpt>
  <trkpt lat="36.74052" lon="-4.4122">
    <name>TP171</name>
  </trkpt>
  <trkpt lat="36.74036" lon="-4.41215">
    <name>TP172</name>
  </trkpt>
  <trkpt lat="36.74024" lon="-4.41211">
    <name>TP173</name>
  </trkpt>
  <trkpt lat="36.74016" lon="-4.4121">
    <name>TP174</name>
  </trkpt>
  <trkpt lat="36.73995" lon="-4.41205">
    <name>TP175</name>
  </trkpt>
  <trkpt lat="36.73968" lon="-4.41201">
    <name>TP176</name>
  </trkpt>
  <trkpt lat="36.73965" lon="-4.41201">
    <name>TP177</name>
  </trkpt>
  <trkpt lat="36.73963" lon="-4.41201">
    <name>TP178</name>
  </trkpt>
  <trkpt lat="36.73962" lon="-4.41201">
    <name>TP179</name>
  </trkpt>
  <trkpt lat="36.73959" lon="-4.41202">
    <name>TP180</name>
  </trkpt>
  <trkpt lat="36.73954" lon="-4.41204">
    <name>TP181</name>
  </trkpt>
  <trkpt lat="36.73948" lon="-4.41206">
    <name>TP182</name>
  </trkpt>
  <trkpt lat="36.73944" lon="-4.41209">
    <name>TP183</name>
  </trkpt>
  <trkpt lat="36.73939" lon="-4.41211">
    <name>TP184</name>
  </trkpt>
  <trkpt lat="36.7393" lon="-4.41217">
    <name>TP185</name>
  </trkpt>
  <trkpt lat="36.73918" lon="-4.41225">
    <name>TP186</name>
  </trkpt>
  <trkpt lat="36.73913" lon="-4.41227">
    <name>TP187</name>
  </trkpt>
  <trkpt lat="36.73901" lon="-4.41235">
    <name>TP188</name>
  </trkpt>
  <trkpt lat="36.73888" lon="-4.41242">
    <name>TP189</name>
  </trkpt>
  <trkpt lat="36.7388" lon="-4.41245">
    <name>TP190</name>
  </trkpt>
  <trkpt lat="36.73879" lon="-4.41246">
    <name>TP191</name>
  </trkpt>
  <trkpt lat="36.73873" lon="-4.41248">
    <name>TP192</name>
  </trkpt>
  <trkpt lat="36.73863" lon="-4.41251">
    <name>TP193</name>
  </trkpt>
  <trkpt lat="36.73855" lon="-4.41253">
    <name>TP194</name>
  </trkpt>
  <trkpt lat="36.73849" lon="-4.41254">
    <name>TP195</name>
  </trkpt>
  <trkpt lat="36.73832" lon="-4.41258">
    <name>TP196</name>
  </trkpt>
  <trkpt lat="36.7383" lon="-4.41259">
    <name>TP197</name>
  </trkpt>
  <trkpt lat="36.73828" lon="-4.41259">
    <name>TP198</name>
  </trkpt>
  <trkpt lat="36.73815" lon="-4.41262">
    <name>TP199</name>
  </trkpt>
  <trkpt lat="36.73808" lon="-4.41263">
    <name>TP200</name>
  </trkpt>
  <trkpt lat="36.73803" lon="-4.41264">
    <name>TP201</name>
  </trkpt>
  <trkpt lat="36.73799" lon="-4.41265">
    <name>TP202</name>
  </trkpt>
  <trkpt lat="36.73795" lon="-4.41267">
    <name>TP203</name>
  </trkpt>
  <trkpt lat="36.73794" lon="-4.41267">
    <name>TP204</name>
  </trkpt>
  <trkpt lat="36.7379" lon="-4.41269">
    <name>TP205</name>
  </trkpt>
  <trkpt lat="36.73786" lon="-4.41272">
    <name>TP206</name>
  </trkpt>
  <trkpt lat="36.73782" lon="-4.41274">
    <name>TP207</name>
  </trkpt>
  <trkpt lat="36.73777" lon="-4.41277">
    <name>TP208</name>
  </trkpt>
  <trkpt lat="36.73764" lon="-4.41283">
    <name>TP209</name>
  </trkpt>
  <trkpt lat="36.73763" lon="-4.41284">
    <name>TP210</name>
  </trkpt>
  <trkpt lat="36.73761" lon="-4.41285">
    <name>TP211</name>
  </trkpt>
  <trkpt lat="36.73754" lon="-4.41288">
    <name>TP212</name>
  </trkpt>
  <trkpt lat="36.73747" lon="-4.4129">
    <name>TP213</name>
  </trkpt>
  <trkpt lat="36.73744" lon="-4.4129">
    <name>TP214</name>
  </trkpt>
  <trkpt lat="36.73741" lon="-4.41291">
    <name>TP215</name>
  </trkpt>
  <trkpt lat="36.73735" lon="-4.41291">
    <name>TP216</name>
  </trkpt>
  <trkpt lat="36.73732" lon="-4.4129">
    <name>TP217</name>
  </trkpt>
  <trkpt lat="36.73729" lon="-4.41289">
    <name>TP218</name>
  </trkpt>
  <trkpt lat="36.73726" lon="-4.41287">
    <name>TP219</name>
  </trkpt>
  <trkpt lat="36.73724" lon="-4.41286">
    <name>TP220</name>
  </trkpt>
  <trkpt lat="36.73723" lon="-4.41284">
    <name>TP221</name>
  </trkpt>
  <trkpt lat="36.73722" lon="-4.41283">
    <name>TP222</name>
  </trkpt>
  <trkpt lat="36.73721" lon="-4.41282">
    <name>TP223</name>
  </trkpt>
  <trkpt lat="36.73721" lon="-4.4128">
    <name>TP224</name>
  </trkpt>
  <trkpt lat="36.7372" lon="-4.41278">
    <name>TP225</name>
  </trkpt>
  <trkpt lat="36.7372" lon="-4.41277">
    <name>TP226</name>
  </trkpt>
  <trkpt lat="36.7372" lon="-4.41275">
    <name>TP227</name>
  </trkpt>
  <trkpt lat="36.73721" lon="-4.4127">
    <name>TP228</name>
  </trkpt>
  <trkpt lat="36.73721" lon="-4.41265">
    <name>TP229</name>
  </trkpt>
  <trkpt lat="36.73723" lon="-4.41258">
    <name>TP230</name>
  </trkpt>
  <trkpt lat="36.73725" lon="-4.41254">
    <name>TP231</name>
  </trkpt>
  <trkpt lat="36.73727" lon="-4.41251">
    <name>TP232</name>
  </trkpt>
  <trkpt lat="36.73727" lon="-4.4125">
    <name>TP233</name>
  </trkpt>
  <trkpt lat="36.73728" lon="-4.41248">
    <name>TP234</name>
  </trkpt>
  <trkpt lat="36.73729" lon="-4.41247">
    <name>TP235</name>
  </trkpt>
  <trkpt lat="36.73731" lon="-4.41246">
    <name>TP236</name>
  </trkpt>
  <trkpt lat="36.73733" lon="-4.41243">
    <name>TP237</name>
  </trkpt>
  <trkpt lat="36.73736" lon="-4.41241">
    <name>TP238</name>
  </trkpt>
  <trkpt lat="36.7374" lon="-4.41239">
    <name>TP239</name>
  </trkpt>
  <trkpt lat="36.73741" lon="-4.41238">
    <name>TP240</name>
  </trkpt>
  <trkpt lat="36.73743" lon="-4.41237">
    <name>TP241</name>
  </trkpt>
  <trkpt lat="36.73743" lon="-4.41236">
    <name>TP242</name>
  </trkpt>
  <trkpt lat="36.73745" lon="-4.41234">
    <name>TP243</name>
  </trkpt>
  <trkpt lat="36.73748" lon="-4.41231">
    <name>TP244</name>
  </trkpt>
  <trkpt lat="36.73752" lon="-4.41225">
    <name>TP245</name>
  </trkpt>
  <trkpt lat="36.73753" lon="-4.41223">
    <name>TP246</name>
  </trkpt>
  <trkpt lat="36.73754" lon="-4.41221">
    <name>TP247</name>
  </trkpt>
  <trkpt lat="36.73756" lon="-4.41217">
    <name>TP248</name>
  </trkpt>
  <trkpt lat="36.73756" lon="-4.41215">
    <name>TP249</name>
  </trkpt>
  <trkpt lat="36.73757" lon="-4.4121">
    <name>TP250</name>
  </trkpt>
  <trkpt lat="36.73757" lon="-4.41208">
    <name>TP251</name>
  </trkpt>
  <trkpt lat="36.73758" lon="-4.41205">
    <name>TP252</name>
  </trkpt>
  <trkpt lat="36.73758" lon="-4.41201">
    <name>TP253</name>
  </trkpt>
  <trkpt lat="36.73757" lon="-4.41196">
    <name>TP254</name>
  </trkpt>
  <trkpt lat="36.73757" lon="-4.41195">
    <name>TP255</name>
  </trkpt>
  <trkpt lat="36.73757" lon="-4.41194">
    <name>TP256</name>
  </trkpt>
  <trkpt lat="36.73756" lon="-4.41191">
    <name>TP257</name>
  </trkpt>
  <trkpt lat="36.73756" lon="-4.41189">
    <name>TP258</name>
  </trkpt>
  <trkpt lat="36.73755" lon="-4.41189">
    <name>TP259</name>
  </trkpt>
  <trkpt lat="36.73755" lon="-4.41188">
    <name>TP260</name>
  </trkpt>
  <trkpt lat="36.73753" lon="-4.41186">
    <name>TP261</name>
  </trkpt>
  <trkpt lat="36.73753" lon="-4.41184">
    <name>TP262</name>
  </trkpt>
  <trkpt lat="36.73752" lon="-4.41183">
    <name>TP263</name>
  </trkpt>
  <trkpt lat="36.73751" lon="-4.41182">
    <name>TP264</name>
  </trkpt>
  <trkpt lat="36.7375" lon="-4.41181">
    <name>TP265</name>
  </trkpt>
  <trkpt lat="36.73748" lon="-4.41179">
    <name>TP266</name>
  </trkpt>
  <trkpt lat="36.73746" lon="-4.41178">
    <name>TP267</name>
  </trkpt>
  <trkpt lat="36.73744" lon="-4.41177">
    <name>TP268</name>
  </trkpt>
  <trkpt lat="36.73741" lon="-4.41176">
    <name>TP269</name>
  </trkpt>
  <trkpt lat="36.73739" lon="-4.41175">
    <name>TP270</name>
  </trkpt>
  <trkpt lat="36.73737" lon="-4.41174">
    <name>TP271</name>
  </trkpt>
  <trkpt lat="36.73735" lon="-4.41174">
    <name>TP272</name>
  </trkpt>
  <trkpt lat="36.73734" lon="-4.41174">
    <name>TP273</name>
  </trkpt>
  <trkpt lat="36.73732" lon="-4.41174">
    <name>TP274</name>
  </trkpt>
  <trkpt lat="36.7373" lon="-4.41174">
    <name>TP275</name>
  </trkpt>
  <trkpt lat="36.73728" lon="-4.41174">
    <name>TP276</name>
  </trkpt>
  <trkpt lat="36.73714" lon="-4.41177">
    <name>TP277</name>
  </trkpt>
  <trkpt lat="36.73708" lon="-4.41187">
    <name>TP278</name>
  </trkpt>
  <trkpt lat="36.73703" lon="-4.41195">
    <name>TP279</name>
  </trkpt>
  <trkpt lat="36.73701" lon="-4.41199">
    <name>TP280</name>
  </trkpt>
  <trkpt lat="36.73693" lon="-4.41213">
    <name>TP281</name>
  </trkpt>
  <trkpt lat="36.73688" lon="-4.41221">
    <name>TP282</name>
  </trkpt>
  <trkpt lat="36.73669" lon="-4.41252">
    <name>TP283</name>
  </trkpt>
  <trkpt lat="36.73659" lon="-4.41271">
    <name>TP284</name>
  </trkpt>
  <trkpt lat="36.73658" lon="-4.41273">
    <name>TP285</name>
  </trkpt>
  <trkpt lat="36.73652" lon="-4.41284">
    <name>TP286</name>
  </trkpt>
  <trkpt lat="36.7365" lon="-4.41291">
    <name>TP287</name>
  </trkpt>
  <trkpt lat="36.73649" lon="-4.41296">
    <name>TP288</name>
  </trkpt>
  <trkpt lat="36.73648" lon="-4.41299">
    <name>TP289</name>
  </trkpt>
  <trkpt lat="36.73647" lon="-4.413">
    <name>TP290</name>
  </trkpt>
  <trkpt lat="36.73647" lon="-4.41301">
    <name>TP291</name>
  </trkpt>
  <trkpt lat="36.73647" lon="-4.41302">
    <name>TP292</name>
  </trkpt>
  <trkpt lat="36.73647" lon="-4.41304">
    <name>TP293</name>
  </trkpt>
  <trkpt lat="36.73647" lon="-4.41305">
    <name>TP294</name>
  </trkpt>
  <trkpt lat="36.73647" lon="-4.41306">
    <name>TP295</name>
  </trkpt>
  <trkpt lat="36.73647" lon="-4.41307">
    <name>TP296</name>
  </trkpt>
  <trkpt lat="36.73647" lon="-4.41309">
    <name>TP297</name>
  </trkpt>
  <trkpt lat="36.73648" lon="-4.41312">
    <name>TP298</name>
  </trkpt>
  <trkpt lat="36.73648" lon="-4.41313">
    <name>TP299</name>
  </trkpt>
  <trkpt lat="36.73649" lon="-4.41315">
    <name>TP300</name>
  </trkpt>
  <trkpt lat="36.73649" lon="-4.41316">
    <name>TP301</name>
  </trkpt>
  <trkpt lat="36.73653" lon="-4.41321">
    <name>TP302</name>
  </trkpt>
  <trkpt lat="36.73661" lon="-4.41328">
    <name>TP303</name>
  </trkpt>
  <trkpt lat="36.73666" lon="-4.41332">
    <name>TP304</name>
  </trkpt>
  <trkpt lat="36.73687" lon="-4.41343">
    <name>TP305</name>
  </trkpt>
  <trkpt lat="36.73698" lon="-4.41348">
    <name>TP306</name>
  </trkpt>
  <trkpt lat="36.73715" lon="-4.41357">
    <name>TP307</name>
  </trkpt>
  <trkpt lat="36.73737" lon="-4.41368">
    <name>TP308</name>
  </trkpt>
  <trkpt lat="36.7374" lon="-4.41371">
    <name>TP309</name>
  </trkpt>
  <trkpt lat="36.73743" lon="-4.41373">
    <name>TP310</name>
  </trkpt>
  <trkpt lat="36.73744" lon="-4.41374">
    <name>TP311</name>
  </trkpt>
  <trkpt lat="36.73745" lon="-4.41375">
    <name>TP312</name>
  </trkpt>
  <trkpt lat="36.73747" lon="-4.41377">
    <name>TP313</name>
  </trkpt>
  <trkpt lat="36.73748" lon="-4.41378">
    <name>TP314</name>
  </trkpt>
  <trkpt lat="36.73748" lon="-4.4138">
    <name>TP315</name>
  </trkpt>
  <trkpt lat="36.73749" lon="-4.41381">
    <name>TP316</name>
  </trkpt>
  <trkpt lat="36.73749" lon="-4.41382">
    <name>TP317</name>
  </trkpt>
  <trkpt lat="36.7375" lon="-4.41386">
    <name>TP318</name>
  </trkpt>
  <trkpt lat="36.7375" lon="-4.41388">
    <name>TP319</name>
  </trkpt>
  <trkpt lat="36.73751" lon="-4.41391">
    <name>TP320</name>
  </trkpt>
  <trkpt lat="36.7375" lon="-4.41393">
    <name>TP321</name>
  </trkpt>
  <trkpt lat="36.7375" lon="-4.41395">
    <name>TP322</name>
  </trkpt>
  <trkpt lat="36.73751" lon="-4.41396">
    <name>TP323</name>
  </trkpt>
  <trkpt lat="36.73751" lon="-4.41397">
    <name>TP324</name>
  </trkpt>
  <trkpt lat="36.73751" lon="-4.41398">
    <name>TP325</name>
  </trkpt>
  <trkpt lat="36.7375" lon="-4.41398">
    <name>TP326</name>
  </trkpt>
  <trkpt lat="36.7375" lon="-4.41399">
    <name>TP327</name>
  </trkpt>
  <trkpt lat="36.7375" lon="-4.414">
    <name>TP328</name>
  </trkpt>
  <trkpt lat="36.73749" lon="-4.414">
    <name>TP329</name>
  </trkpt>
  <trkpt lat="36.73749" lon="-4.41401">
    <name>TP330</name>
  </trkpt>
  <trkpt lat="36.73748" lon="-4.41401">
    <name>TP331</name>
  </trkpt>
  <trkpt lat="36.73743" lon="-4.41404">
    <name>TP332</name>
  </trkpt>
  <trkpt lat="36.73739" lon="-4.41406">
    <name>TP333</name>
  </trkpt>
  <trkpt lat="36.73736" lon="-4.41407">
    <name>TP334</name>
  </trkpt>
  <trkpt lat="36.73734" lon="-4.41408">
    <name>TP335</name>
  </trkpt>
  <trkpt lat="36.73715" lon="-4.41415">
    <name>TP336</name>
  </trkpt>
  <trkpt lat="36.73714" lon="-4.41416">
    <name>TP337</name>
  </trkpt>
  <trkpt lat="36.73712" lon="-4.41416">
    <name>TP338</name>
  </trkpt>
  <trkpt lat="36.7371" lon="-4.41418">
    <name>TP339</name>
  </trkpt>
  <trkpt lat="36.73709" lon="-4.41419">
    <name>TP340</name>
  </trkpt>
  <trkpt lat="36.73708" lon="-4.41421">
    <name>TP341</name>
  </trkpt>
  <trkpt lat="36.73707" lon="-4.41423">
    <name>TP342</name>
  </trkpt>
  <trkpt lat="36.73706" lon="-4.41425">
    <name>TP343</name>
  </trkpt>
  <trkpt lat="36.73697" lon="-4.41445">
    <name>TP344</name>
  </trkpt>
  <trkpt lat="36.7369654" lon="-4.4144545">
    <name>TP345</name>
  </trkpt>
  <trkpt lat="36.73697" lon="-4.41446">
    <name>TP346</name>
  </trkpt>
  <trkpt lat="36.73697" lon="-4.41447">
    <name>TP347</name>
  </trkpt>
  <trkpt lat="36.73698" lon="-4.41447">
    <name>TP348</name>
  </trkpt>
  <trkpt lat="36.73698" lon="-4.41448">
    <name>TP349</name>
  </trkpt>
  <trkpt lat="36.73699" lon="-4.41449">
    <name>TP350</name>
  </trkpt>
  <trkpt lat="36.73699" lon="-4.4145">
    <name>TP351</name>
  </trkpt>
  <trkpt lat="36.73699" lon="-4.41451">
    <name>TP352</name>
  </trkpt>
  <trkpt lat="36.73699" lon="-4.41452">
    <name>TP353</name>
  </trkpt>
  <trkpt lat="36.737" lon="-4.41452">
    <name>TP354</name>
  </trkpt>
  <trkpt lat="36.737" lon="-4.41453">
    <name>TP355</name>
  </trkpt>
  <trkpt lat="36.737" lon="-4.41454">
    <name>TP356</name>
  </trkpt>
  <trkpt lat="36.737" lon="-4.41455">
    <name>TP357</name>
  </trkpt>
  <trkpt lat="36.737" lon="-4.41456">
    <name>TP358</name>
  </trkpt>
  <trkpt lat="36.737" lon="-4.41457">
    <name>TP359</name>
  </trkpt>
  <trkpt lat="36.737" lon="-4.41458">
    <name>TP360</name>
  </trkpt>
  <trkpt lat="36.73699" lon="-4.41459">
    <name>TP361</name>
  </trkpt>
  <trkpt lat="36.73699" lon="-4.4146">
    <name>TP362</name>
  </trkpt>
  <trkpt lat="36.73699" lon="-4.41461">
    <name>TP363</name>
  </trkpt>
  <trkpt lat="36.73698" lon="-4.41462">
    <name>TP364</name>
  </trkpt>
  <trkpt lat="36.73698" lon="-4.41463">
    <name>TP365</name>
  </trkpt>
  <trkpt lat="36.73697" lon="-4.41464">
    <name>TP366</name>
  </trkpt>
  <trkpt lat="36.737" lon="-4.41472">
    <name>TP367</name>
  </trkpt>
  <trkpt lat="36.737" lon="-4.41479">
    <name>TP368</name>
  </trkpt>
  <trkpt lat="36.73698" lon="-4.41487">
    <name>TP369</name>
  </trkpt>
  <trkpt lat="36.73696" lon="-4.41494">
    <name>TP370</name>
  </trkpt>
  <trkpt lat="36.73696" lon="-4.41495">
    <name>TP371</name>
  </trkpt>
  <trkpt lat="36.73696" lon="-4.41499">
    <name>TP372</name>
  </trkpt>
  <trkpt lat="36.73695" lon="-4.41503">
    <name>TP373</name>
  </trkpt>
  <trkpt lat="36.73685" lon="-4.41547">
    <name>TP374</name>
  </trkpt>
  <trkpt lat="36.73685" lon="-4.41557">
    <name>TP375</name>
  </trkpt>
  <trkpt lat="36.73684" lon="-4.41569">
    <name>TP376</name>
  </trkpt>
  <trkpt lat="36.73682" lon="-4.41579">
    <name>TP377</name>
  </trkpt>
  <trkpt lat="36.73682" lon="-4.41584">
    <name>TP378</name>
  </trkpt>
  <trkpt lat="36.73681" lon="-4.41594">
    <name>TP379</name>
  </trkpt>
  <trkpt lat="36.7368" lon="-4.41599">
    <name>TP380</name>
  </trkpt>
  <trkpt lat="36.73681" lon="-4.41602">
    <name>TP381</name>
  </trkpt>
  <trkpt lat="36.73681" lon="-4.41603">
    <name>TP382</name>
  </trkpt>
  <trkpt lat="36.73681" lon="-4.41606">
    <name>TP383</name>
  </trkpt>
  <trkpt lat="36.73682" lon="-4.41609">
    <name>TP384</name>
  </trkpt>
  <trkpt lat="36.73683" lon="-4.41611">
    <name>TP385</name>
  </trkpt>
  <trkpt lat="36.73684" lon="-4.41612">
    <name>TP386</name>
  </trkpt>
  <trkpt lat="36.73686" lon="-4.41614">
    <name>TP387</name>
  </trkpt>
  <trkpt lat="36.73691" lon="-4.41618">
    <name>TP388</name>
  </trkpt>
  <trkpt lat="36.73695" lon="-4.41621">
    <name>TP389</name>
  </trkpt>
  <trkpt lat="36.73696" lon="-4.41622">
    <name>TP390</name>
  </trkpt>
  <trkpt lat="36.737" lon="-4.41626">
    <name>TP391</name>
  </trkpt>
  <trkpt lat="36.73703" lon="-4.4163">
    <name>TP392</name>
  </trkpt>
  <trkpt lat="36.73706" lon="-4.41634">
    <name>TP393</name>
  </trkpt>
  <trkpt lat="36.73707" lon="-4.41639">
    <name>TP394</name>
  </trkpt>
  <trkpt lat="36.73708" lon="-4.41644">
    <name>TP395</name>
  </trkpt>
  <trkpt lat="36.73709" lon="-4.4165">
    <name>TP396</name>
  </trkpt>
  <trkpt lat="36.7371" lon="-4.41654">
    <name>TP397</name>
  </trkpt>
  <trkpt lat="36.7371" lon="-4.41659">
    <name>TP398</name>
  </trkpt>
  <trkpt lat="36.73711" lon="-4.41662">
    <name>TP399</name>
  </trkpt>
  <trkpt lat="36.73713" lon="-4.41665">
    <name>TP400</name>
  </trkpt>
  <trkpt lat="36.73714" lon="-4.41667">
    <name>TP401</name>
  </trkpt>
  <trkpt lat="36.73717" lon="-4.41669">
    <name>TP402</name>
  </trkpt>
  <trkpt lat="36.7372" lon="-4.41671">
    <name>TP403</name>
  </trkpt>
  <trkpt lat="36.73721" lon="-4.41671">
    <name>TP404</name>
  </trkpt>
  <trkpt lat="36.73723" lon="-4.41673">
    <name>TP405</name>
  </trkpt>
  <trkpt lat="36.73724" lon="-4.41673">
    <name>TP406</name>
  </trkpt>
  <trkpt lat="36.73726" lon="-4.41675">
    <name>TP407</name>
  </trkpt>
  <trkpt lat="36.73727" lon="-4.41676">
    <name>TP408</name>
  </trkpt>
  <trkpt lat="36.73728" lon="-4.41677">
    <name>TP409</name>
  </trkpt>
  <trkpt lat="36.73729" lon="-4.41679">
    <name>TP410</name>
  </trkpt>
  <trkpt lat="36.73731" lon="-4.41686">
    <name>TP411</name>
  </trkpt>
  <trkpt lat="36.73733" lon="-4.41691">
    <name>TP412</name>
  </trkpt>
  <trkpt lat="36.73737" lon="-4.41701">
    <name>TP413</name>
  </trkpt>
  <trkpt lat="36.73741" lon="-4.41717">
    <name>TP414</name>
  </trkpt>
  <trkpt lat="36.73744" lon="-4.41725">
    <name>TP415</name>
  </trkpt>
  <trkpt lat="36.7375" lon="-4.41735">
    <name>TP416</name>
  </trkpt>
  <trkpt lat="36.73751" lon="-4.41736">
    <name>TP417</name>
  </trkpt>
  <trkpt lat="36.73758" lon="-4.41746">
    <name>TP418</name>
  </trkpt>
  <trkpt lat="36.73759" lon="-4.41749">
    <name>TP419</name>
  </trkpt>
  <trkpt lat="36.7376" lon="-4.41749">
    <name>TP420</name>
  </trkpt>
  <trkpt lat="36.73761" lon="-4.41753">
    <name>TP421</name>
  </trkpt>
  <trkpt lat="36.73761" lon="-4.41755">
    <name>TP422</name>
  </trkpt>
  <trkpt lat="36.73761" lon="-4.41759">
    <name>TP423</name>
  </trkpt>
  <trkpt lat="36.7376" lon="-4.41767">
    <name>TP424</name>
  </trkpt>
  <trkpt lat="36.7376" lon="-4.4177">
    <name>TP425</name>
  </trkpt>
  <trkpt lat="36.73759" lon="-4.41774">
    <name>TP426</name>
  </trkpt>
  <trkpt lat="36.73752" lon="-4.41814">
    <name>TP427</name>
  </trkpt>
  <trkpt lat="36.73752" lon="-4.41821">
    <name>TP428</name>
  </trkpt>
  <trkpt lat="36.7375204" lon="-4.4182138">
    <name>TP429</name>
  </trkpt>
  <trkpt lat="36.73746" lon="-4.41825">
    <name>TP430</name>
  </trkpt>
  <trkpt lat="36.73739" lon="-4.41829">
    <name>TP431</name>
  </trkpt>
  <trkpt lat="36.73736" lon="-4.4183">
    <name>TP432</name>
  </trkpt>
  <trkpt lat="36.73719" lon="-4.4184">
    <name>TP433</name>
  </trkpt>
  <trkpt lat="36.73708" lon="-4.41846">
    <name>TP434</name>
  </trkpt>
  <trkpt lat="36.73703" lon="-4.41849">
    <name>TP435</name>
  </trkpt>
  <trkpt lat="36.73687" lon="-4.41858">
    <name>TP436</name>
  </trkpt>
  <trkpt lat="36.7368712" lon="-4.4185828">
    <name>TP437</name>
  </trkpt>
  <trkpt lat="36.73687" lon="-4.41859">
    <name>TP438</name>
  </trkpt>
  <trkpt lat="36.73687" lon="-4.4186">
    <name>TP439</name>
  </trkpt>
  <trkpt lat="36.73688" lon="-4.4186">
    <name>TP440</name>
  </trkpt>
  <trkpt lat="36.73688" lon="-4.41861">
    <name>TP441</name>
  </trkpt>
  <trkpt lat="36.73688" lon="-4.41862">
    <name>TP442</name>
  </trkpt>
  <trkpt lat="36.73688" lon="-4.41863">
    <name>TP443</name>
  </trkpt>
  <trkpt lat="36.73688" lon="-4.41864">
    <name>TP444</name>
  </trkpt>
  <trkpt lat="36.73688" lon="-4.41865">
    <name>TP445</name>
  </trkpt>
  <trkpt lat="36.73687" lon="-4.41865">
    <name>TP446</name>
  </trkpt>
  <trkpt lat="36.73687" lon="-4.41866">
    <name>TP447</name>
  </trkpt>
  <trkpt lat="36.73687" lon="-4.41867">
    <name>TP448</name>
  </trkpt>
  <trkpt lat="36.73687" lon="-4.41868">
    <name>TP449</name>
  </trkpt>
  <trkpt lat="36.73686" lon="-4.41868">
    <name>TP450</name>
  </trkpt>
  <trkpt lat="36.73686" lon="-4.41869">
    <name>TP451</name>
  </trkpt>
  <trkpt lat="36.73685" lon="-4.4187">
    <name>TP452</name>
  </trkpt>
  <trkpt lat="36.73684" lon="-4.41871">
    <name>TP453</name>
  </trkpt>
  <trkpt lat="36.73683" lon="-4.41872">
    <name>TP454</name>
  </trkpt>
  <trkpt lat="36.73682" lon="-4.41872">
    <name>TP455</name>
  </trkpt>
  <trkpt lat="36.73681" lon="-4.41873">
    <name>TP456</name>
  </trkpt>
  <trkpt lat="36.7368" lon="-4.41873">
    <name>TP457</name>
  </trkpt>
  <trkpt lat="36.73679" lon="-4.41873">
    <name>TP458</name>
  </trkpt>
  <trkpt lat="36.73678" lon="-4.41873">
    <name>TP459</name>
  </trkpt>
  <trkpt lat="36.73677" lon="-4.41873">
    <name>TP460</name>
  </trkpt>
  <trkpt lat="36.73677" lon="-4.41872">
    <name>TP461</name>
  </trkpt>
  <trkpt lat="36.73676" lon="-4.41872">
    <name>TP462</name>
  </trkpt>
  <trkpt lat="36.73675" lon="-4.41872">
    <name>TP463</name>
  </trkpt>
  <trkpt lat="36.73675" lon="-4.41871">
    <name>TP464</name>
  </trkpt>
  <trkpt lat="36.73674" lon="-4.41871">
    <name>TP465</name>
  </trkpt>
  <trkpt lat="36.73674" lon="-4.4187">
    <name>TP466</name>
  </trkpt>
  <trkpt lat="36.73673" lon="-4.4187">
    <name>TP467</name>
  </trkpt>
  <trkpt lat="36.73673" lon="-4.41869">
    <name>TP468</name>
  </trkpt>
  <trkpt lat="36.73672" lon="-4.41869">
    <name>TP469</name>
  </trkpt>
  <trkpt lat="36.73672" lon="-4.41868">
    <name>TP470</name>
  </trkpt>
  <trkpt lat="36.73672" lon="-4.41867">
    <name>TP471</name>
  </trkpt>
  <trkpt lat="36.73671" lon="-4.41867">
    <name>TP472</name>
  </trkpt>
  <trkpt lat="36.73671" lon="-4.41866">
    <name>TP473</name>
  </trkpt>
  <trkpt lat="36.73671" lon="-4.41865">
    <name>TP474</name>
  </trkpt>
  <trkpt lat="36.73671" lon="-4.41864">
    <name>TP475</name>
  </trkpt>
  <trkpt lat="36.73671" lon="-4.41863">
    <name>TP476</name>
  </trkpt>
  <trkpt lat="36.73671" lon="-4.41862">
    <name>TP477</name>
  </trkpt>
  <trkpt lat="36.73671" lon="-4.41861">
    <name>TP478</name>
  </trkpt>
  <trkpt lat="36.73671" lon="-4.4186">
    <name>TP479</name>
  </trkpt>
  <trkpt lat="36.73671" lon="-4.41859">
    <name>TP480</name>
  </trkpt>
  <trkpt lat="36.73671" lon="-4.41858">
    <name>TP481</name>
  </trkpt>
  <trkpt lat="36.73672" lon="-4.41857">
    <name>TP482</name>
  </trkpt>
  <trkpt lat="36.73672" lon="-4.41856">
    <name>TP483</name>
  </trkpt>
  <trkpt lat="36.73673" lon="-4.41855">
    <name>TP484</name>
  </trkpt>
  <trkpt lat="36.73673" lon="-4.41854">
    <name>TP485</name>
  </trkpt>
  <trkpt lat="36.73674" lon="-4.41854">
    <name>TP486</name>
  </trkpt>
  <trkpt lat="36.73674" lon="-4.41853">
    <name>TP487</name>
  </trkpt>
  <trkpt lat="36.73675" lon="-4.41853">
    <name>TP488</name>
  </trkpt>
  <trkpt lat="36.73677" lon="-4.4183">
    <name>TP489</name>
  </trkpt>
  <trkpt lat="36.7368" lon="-4.418">
    <name>TP490</name>
  </trkpt>
  <trkpt lat="36.73678" lon="-4.41789">
    <name>TP491</name>
  </trkpt>
  <trkpt lat="36.73664" lon="-4.41748">
    <name>TP492</name>
  </trkpt>
  <trkpt lat="36.73621" lon="-4.41625">
    <name>TP493</name>
  </trkpt>
  <trkpt lat="36.73614" lon="-4.41605">
    <name>TP494</name>
  </trkpt>
  <trkpt lat="36.7361363" lon="-4.4160457">
    <name>TP495</name>
  </trkpt>
  <trkpt lat="36.73613" lon="-4.41604">
    <name>TP496</name>
  </trkpt>
  <trkpt lat="36.73612" lon="-4.41604">
    <name>TP497</name>
  </trkpt>
  <trkpt lat="36.73612" lon="-4.41603">
    <name>TP498</name>
  </trkpt>
  <trkpt lat="36.73611" lon="-4.41602">
    <name>TP499</name>
  </trkpt>
  <trkpt lat="36.73611" lon="-4.41601">
    <name>TP500</name>
  </trkpt>
  <trkpt lat="36.7361" lon="-4.416">
    <name>TP501</name>
  </trkpt>
  <trkpt lat="36.7361" lon="-4.41599">
    <name>TP502</name>
  </trkpt>
  <trkpt lat="36.73586" lon="-4.41598">
    <name>TP503</name>
  </trkpt>
  <trkpt lat="36.73585" lon="-4.41598">
    <name>TP504</name>
  </trkpt>
  <trkpt lat="36.73579" lon="-4.41598">
    <name>TP505</name>
  </trkpt>
  <trkpt lat="36.73563" lon="-4.41594">
    <name>TP506</name>
  </trkpt>
  <trkpt lat="36.73505" lon="-4.4159">
    <name>TP507</name>
  </trkpt>
  <trkpt lat="36.73496" lon="-4.41589">
    <name>TP508</name>
  </trkpt>
  <trkpt lat="36.73465" lon="-4.41586">
    <name>TP509</name>
  </trkpt>
  <trkpt lat="36.73447" lon="-4.41583">
    <name>TP510</name>
  </trkpt>
  <trkpt lat="36.73429" lon="-4.41583">
    <name>TP511</name>
  </trkpt>
  <trkpt lat="36.73414" lon="-4.41582">
    <name>TP512</name>
  </trkpt>
  <trkpt lat="36.73394" lon="-4.41581">
    <name>TP513</name>
  </trkpt>
  <trkpt lat="36.73354" lon="-4.41578">
    <name>TP514</name>
  </trkpt>
  <trkpt lat="36.73347" lon="-4.4158">
    <name>TP515</name>
  </trkpt>
  <trkpt lat="36.73339" lon="-4.4158">
    <name>TP516</name>
  </trkpt>
  <trkpt lat="36.73334" lon="-4.4158">
    <name>TP517</name>
  </trkpt>
  <trkpt lat="36.7333446" lon="-4.4158001">
    <name>TP518</name>
  </trkpt>
  <trkpt lat="36.73334" lon="-4.41582">
    <name>TP519</name>
  </trkpt>
  <trkpt lat="36.73334" lon="-4.41583">
    <name>TP520</name>
  </trkpt>
  <trkpt lat="36.73333" lon="-4.41584">
    <name>TP521</name>
  </trkpt>
  <trkpt lat="36.73333" lon="-4.41585">
    <name>TP522</name>
  </trkpt>
  <trkpt lat="36.73333" lon="-4.41586">
    <name>TP523</name>
  </trkpt>
  <trkpt lat="36.73332" lon="-4.41587">
    <name>TP524</name>
  </trkpt>
  <trkpt lat="36.73332" lon="-4.41588">
    <name>TP525</name>
  </trkpt>
  <trkpt lat="36.73331" lon="-4.41589">
    <name>TP526</name>
  </trkpt>
  <trkpt lat="36.73331" lon="-4.4159">
    <name>TP527</name>
  </trkpt>
  <trkpt lat="36.7333" lon="-4.4159">
    <name>TP528</name>
  </trkpt>
  <trkpt lat="36.73329" lon="-4.41591">
    <name>TP529</name>
  </trkpt>
  <trkpt lat="36.73328" lon="-4.41592">
    <name>TP530</name>
  </trkpt>
  <trkpt lat="36.73327" lon="-4.41592">
    <name>TP531</name>
  </trkpt>
  <trkpt lat="36.73327" lon="-4.41593">
    <name>TP532</name>
  </trkpt>
  <trkpt lat="36.73326" lon="-4.41593">
    <name>TP533</name>
  </trkpt>
  <trkpt lat="36.73325" lon="-4.41593">
    <name>TP534</name>
  </trkpt>
  <trkpt lat="36.73325" lon="-4.41594">
    <name>TP535</name>
  </trkpt>
  <trkpt lat="36.73324" lon="-4.41594">
    <name>TP536</name>
  </trkpt>
  <trkpt lat="36.73323" lon="-4.41594">
    <name>TP537</name>
  </trkpt>
  <trkpt lat="36.73322" lon="-4.41594">
    <name>TP538</name>
  </trkpt>
  <trkpt lat="36.73321" lon="-4.41594">
    <name>TP539</name>
  </trkpt>
  <trkpt lat="36.7332" lon="-4.41594">
    <name>TP540</name>
  </trkpt>
  <trkpt lat="36.73319" lon="-4.41594">
    <name>TP541</name>
  </trkpt>
  <trkpt lat="36.73318" lon="-4.41593">
    <name>TP542</name>
  </trkpt>
  <trkpt lat="36.73317" lon="-4.41593">
    <name>TP543</name>
  </trkpt>
  <trkpt lat="36.73316" lon="-4.41592">
    <name>TP544</name>
  </trkpt>
  <trkpt lat="36.73315" lon="-4.41592">
    <name>TP545</name>
  </trkpt>
  <trkpt lat="36.73314" lon="-4.41591">
    <name>TP546</name>
  </trkpt>
  <trkpt lat="36.73313" lon="-4.4159">
    <name>TP547</name>
  </trkpt>
  <trkpt lat="36.73312" lon="-4.41589">
    <name>TP548</name>
  </trkpt>
  <trkpt lat="36.73311" lon="-4.41588">
    <name>TP549</name>
  </trkpt>
  <trkpt lat="36.73311" lon="-4.41587">
    <name>TP550</name>
  </trkpt>
  <trkpt lat="36.73311" lon="-4.41586">
    <name>TP551</name>
  </trkpt>
  <trkpt lat="36.7331" lon="-4.41585">
    <name>TP552</name>
  </trkpt>
  <trkpt lat="36.7331" lon="-4.41584">
    <name>TP553</name>
  </trkpt>
  <trkpt lat="36.73309" lon="-4.41583">
    <name>TP554</name>
  </trkpt>
  <trkpt lat="36.73309" lon="-4.41582">
    <name>TP555</name>
  </trkpt>
  <trkpt lat="36.73309" lon="-4.41581">
    <name>TP556</name>
  </trkpt>
  <trkpt lat="36.73309" lon="-4.4158">
    <name>TP557</name>
  </trkpt>
  <trkpt lat="36.73309" lon="-4.41579">
    <name>TP558</name>
  </trkpt>
  <trkpt lat="36.73309" lon="-4.41578">
    <name>TP559</name>
  </trkpt>
  <trkpt lat="36.73309" lon="-4.41577">
    <name>TP560</name>
  </trkpt>
  <trkpt lat="36.73309" lon="-4.41576">
    <name>TP561</name>
  </trkpt>
  <trkpt lat="36.73309" lon="-4.41575">
    <name>TP562</name>
  </trkpt>
  <trkpt lat="36.73309" lon="-4.41574">
    <name>TP563</name>
  </trkpt>
  <trkpt lat="36.7331" lon="-4.41572">
    <name>TP564</name>
  </trkpt>
  <trkpt lat="36.73302" lon="-4.41567">
    <name>TP565</name>
  </trkpt>
  <trkpt lat="36.73291" lon="-4.41559">
    <name>TP566</name>
  </trkpt>
  <trkpt lat="36.73286" lon="-4.41553">
    <name>TP567</name>
  </trkpt>
  <trkpt lat="36.73255" lon="-4.41551">
    <name>TP568</name>
  </trkpt>
  <trkpt lat="36.73249" lon="-4.41549">
    <name>TP569</name>
  </trkpt>
  <trkpt lat="36.73133" lon="-4.41521">
    <name>TP570</name>
  </trkpt>
  <trkpt lat="36.7313286" lon="-4.4152135">
    <name>TP571</name>
  </trkpt>
  <trkpt lat="36.73122" lon="-4.41574">
    <name>TP572</name>
  </trkpt>
  <trkpt lat="36.73118" lon="-4.41616">
    <name>TP573</name>
  </trkpt>
  <trkpt lat="36.73124" lon="-4.41648">
    <name>TP574</name>
  </trkpt>
  <trkpt lat="36.7313" lon="-4.41667">
    <name>TP575</name>
  </trkpt>
  <trkpt lat="36.73136" lon="-4.41681">
    <name>TP576</name>
  </trkpt>
  <trkpt lat="36.7314" lon="-4.41688">
    <name>TP577</name>
  </trkpt>
  <trkpt lat="36.73142" lon="-4.41692">
    <name>TP578</name>
  </trkpt>
  <trkpt lat="36.7315" lon="-4.41703">
    <name>TP579</name>
  </trkpt>
  <trkpt lat="36.73158" lon="-4.41712">
    <name>TP580</name>
  </trkpt>
  <trkpt lat="36.73175" lon="-4.41727">
    <name>TP581</name>
  </trkpt>
  <trkpt lat="36.7317491" lon="-4.4172746">
    <name>TP582</name>
  </trkpt>
  <trkpt lat="36.73166" lon="-4.41736">
    <name>TP583</name>
  </trkpt>
  <trkpt lat="36.73161" lon="-4.41741">
    <name>TP584</name>
  </trkpt>
  <trkpt lat="36.73156" lon="-4.41746">
    <name>TP585</name>
  </trkpt>
  <trkpt lat="36.7314" lon="-4.41761">
    <name>TP586</name>
  </trkpt>
  <trkpt lat="36.73129" lon="-4.41772">
    <name>TP587</name>
  </trkpt>
  <trkpt lat="36.73119" lon="-4.41782">
    <name>TP588</name>
  </trkpt>
  <trkpt lat="36.73118" lon="-4.41782">
    <name>TP589</name>
  </trkpt>
  <trkpt lat="36.73087" lon="-4.41807">
    <name>TP590</name>
  </trkpt>
  <trkpt lat="36.73065" lon="-4.41823">
    <name>TP591</name>
  </trkpt>
  <trkpt lat="36.73056" lon="-4.41828">
    <name>TP592</name>
  </trkpt>
  <trkpt lat="36.73046" lon="-4.41833">
    <name>TP593</name>
  </trkpt>
  <trkpt lat="36.73041" lon="-4.41835">
    <name>TP594</name>
  </trkpt>
  <trkpt lat="36.73038" lon="-4.41836">
    <name>TP595</name>
  </trkpt>
  <trkpt lat="36.73034" lon="-4.41836">
    <name>TP596</name>
  </trkpt>
  <trkpt lat="36.7303" lon="-4.41836">
    <name>TP597</name>
  </trkpt>
  <trkpt lat="36.73025" lon="-4.41836">
    <name>TP598</name>
  </trkpt>
  <trkpt lat="36.7302" lon="-4.41836">
    <name>TP599</name>
  </trkpt>
  <trkpt lat="36.73018" lon="-4.41836">
    <name>TP600</name>
  </trkpt>
  <trkpt lat="36.73015" lon="-4.41836">
    <name>TP601</name>
  </trkpt>
  <trkpt lat="36.73013" lon="-4.41837">
    <name>TP602</name>
  </trkpt>
  <trkpt lat="36.7301" lon="-4.41838">
    <name>TP603</name>
  </trkpt>
  <trkpt lat="36.73008" lon="-4.4184">
    <name>TP604</name>
  </trkpt>
  <trkpt lat="36.73004" lon="-4.41845">
    <name>TP605</name>
  </trkpt>
  <trkpt lat="36.73" lon="-4.41851">
    <name>TP606</name>
  </trkpt>
  <trkpt lat="36.72993" lon="-4.41861">
    <name>TP607</name>
  </trkpt>
  <trkpt lat="36.72988" lon="-4.41868">
    <name>TP608</name>
  </trkpt>
  <trkpt lat="36.72977" lon="-4.41885">
    <name>TP609</name>
  </trkpt>
  <trkpt lat="36.7297" lon="-4.41895">
    <name>TP610</name>
  </trkpt>
  <trkpt lat="36.7296963" lon="-4.4189533">
    <name>TP611</name>
  </trkpt>
  <trkpt lat="36.72953" lon="-4.41868">
    <name>TP612</name>
  </trkpt>
  <trkpt lat="36.72943" lon="-4.41842">
    <name>TP613</name>
  </trkpt>
  <trkpt lat="36.7294" lon="-4.41832">
    <name>TP614</name>
  </trkpt>
  <trkpt lat="36.7293964" lon="-4.4183184">
    <name>TP615</name>
  </trkpt>
  <trkpt lat="36.72932" lon="-4.4181">
    <name>TP616</name>
  </trkpt>
  <trkpt lat="36.72922" lon="-4.41777">
    <name>TP617</name>
  </trkpt>
  <trkpt lat="36.72919" lon="-4.41768">
    <name>TP618</name>
  </trkpt>
  <trkpt lat="36.72911" lon="-4.41746">
    <name>TP619</name>
  </trkpt>
  <trkpt lat="36.72908" lon="-4.41738">
    <name>TP620</name>
  </trkpt>
  <trkpt lat="36.72905" lon="-4.4173">
    <name>TP621</name>
  </trkpt>
  <trkpt lat="36.72903" lon="-4.41724">
    <name>TP622</name>
  </trkpt>
  <trkpt lat="36.7289" lon="-4.41689">
    <name>TP623</name>
  </trkpt>
  <trkpt lat="36.72888" lon="-4.41685">
    <name>TP624</name>
  </trkpt>
  <trkpt lat="36.72882" lon="-4.41669">
    <name>TP625</name>
  </trkpt>
  <trkpt lat="36.72868" lon="-4.41635">
    <name>TP626</name>
  </trkpt>
  <trkpt lat="36.72865" lon="-4.41629">
    <name>TP627</name>
  </trkpt>
  <trkpt lat="36.72862" lon="-4.41623">
    <name>TP628</name>
  </trkpt>
  <trkpt lat="36.72858" lon="-4.41614">
    <name>TP629</name>
  </trkpt>
  <trkpt lat="36.72834" lon="-4.41557">
    <name>TP630</name>
  </trkpt>
  <trkpt lat="36.72832" lon="-4.41551">
    <name>TP631</name>
  </trkpt>
  <trkpt lat="36.7283184" lon="-4.4155067">
    <name>TP632</name>
  </trkpt>
  <trkpt lat="36.7281" lon="-4.41492">
    <name>TP633</name>
  </trkpt>
  <trkpt lat="36.7280951" lon="-4.4149244">
    <name>TP634</name>
  </trkpt>
  <trkpt lat="36.72796" lon="-4.41492">
    <name>TP635</name>
  </trkpt>
  <trkpt lat="36.72791" lon="-4.41492">
    <name>TP636</name>
  </trkpt>
  <trkpt lat="36.72753" lon="-4.4149">
    <name>TP637</name>
  </trkpt>
  <trkpt lat="36.727534" lon="-4.4148957">
    <name>TP638</name>
  </trkpt>
  <trkpt lat="36.72754" lon="-4.41478">
    <name>TP639</name>
  </trkpt>
  <trkpt lat="36.72754" lon="-4.41456">
    <name>TP640</name>
  </trkpt>
  <trkpt lat="36.72754" lon="-4.41428">
    <name>TP641</name>
  </trkpt>
  <trkpt lat="36.7275406" lon="-4.4142819">
    <name>TP642</name>
  </trkpt>
  <trkpt lat="36.72715" lon="-4.41425">
    <name>TP643</name>
  </trkpt>
  <trkpt lat="36.72712" lon="-4.41426">
    <name>TP644</name>
  </trkpt>
  <trkpt lat="36.7271" lon="-4.41426">
    <name>TP645</name>
  </trkpt>
  <trkpt lat="36.72709" lon="-4.41426">
    <name>TP646</name>
  </trkpt>
  <trkpt lat="36.7270943" lon="-4.4142623">
    <name>TP647</name>
  </trkpt>
  <trkpt lat="36.72708" lon="-4.41406">
    <name>TP648</name>
  </trkpt>
  <trkpt lat="36.7270814" lon="-4.4140562">
    <name>TP649</name>
  </trkpt>
  <trkpt lat="36.72703" lon="-4.41397">
    <name>TP650</name>
  </trkpt>
  <trkpt lat="36.72702" lon="-4.41394">
    <name>TP651</name>
  </trkpt>
  <trkpt lat="36.727" lon="-4.41391">
    <name>TP652</name>
  </trkpt>
  <trkpt lat="36.727" lon="-4.4139">
    <name>TP653</name>
  </trkpt>
  <trkpt lat="36.72698" lon="-4.41388">
    <name>TP654</name>
  </trkpt>
  <trkpt lat="36.72698" lon="-4.41387">
    <name>TP655</name>
  </trkpt>
  <trkpt lat="36.72697" lon="-4.41386">
    <name>TP656</name>
  </trkpt>
  <trkpt lat="36.72696" lon="-4.41386">
    <name>TP657</name>
  </trkpt>
  <trkpt lat="36.72695" lon="-4.41385">
    <name>TP658</name>
  </trkpt>
  <trkpt lat="36.72694" lon="-4.41385">
    <name>TP659</name>
  </trkpt>
  <trkpt lat="36.72694" lon="-4.41384">
    <name>TP660</name>
  </trkpt>
  <trkpt lat="36.72693" lon="-4.41384">
    <name>TP661</name>
  </trkpt>
  <trkpt lat="36.72692" lon="-4.41384">
    <name>TP662</name>
  </trkpt>
  <trkpt lat="36.72689" lon="-4.41384">
    <name>TP663</name>
  </trkpt>
  <trkpt lat="36.72683" lon="-4.41384">
    <name>TP664</name>
  </trkpt>
  <trkpt lat="36.72674" lon="-4.41391">
    <name>TP665</name>
  </trkpt>
  <trkpt lat="36.72654" lon="-4.41409">
    <name>TP666</name>
  </trkpt>
  <trkpt lat="36.7265437" lon="-4.4140904">
    <name>TP667</name>
  </trkpt>
  <trkpt lat="36.72591" lon="-4.41456">
    <name>TP668</name>
  </trkpt>
  <trkpt lat="36.72567" lon="-4.41474">
    <name>TP669</name>
  </trkpt>
  <trkpt lat="36.72546" lon="-4.41489">
    <name>TP670</name>
  </trkpt>
  <trkpt lat="36.72536" lon="-4.41496">
    <name>TP671</name>
  </trkpt>
  <trkpt lat="36.72524" lon="-4.41505">
    <name>TP672</name>
  </trkpt>
  <trkpt lat="36.72502" lon="-4.41522">
    <name>TP673</name>
  </trkpt>
  <trkpt lat="36.72491" lon="-4.41531">
    <name>TP674</name>
  </trkpt>
  <trkpt lat="36.72479" lon="-4.41541">
    <name>TP675</name>
  </trkpt>
  <trkpt lat="36.72468" lon="-4.4155">
    <name>TP676</name>
  </trkpt>
  <trkpt lat="36.72462" lon="-4.41557">
    <name>TP677</name>
  </trkpt>
  <trkpt lat="36.72421" lon="-4.4159">
    <name>TP678</name>
  </trkpt>
  <trkpt lat="36.72405" lon="-4.41603">
    <name>TP679</name>
  </trkpt>
  <trkpt lat="36.72397" lon="-4.41608">
    <name>TP680</name>
  </trkpt>
  <trkpt lat="36.72377" lon="-4.41625">
    <name>TP681</name>
  </trkpt>
  <trkpt lat="36.72348" lon="-4.41647">
    <name>TP682</name>
  </trkpt>
  <trkpt lat="36.72325" lon="-4.41663">
    <name>TP683</name>
  </trkpt>
  <trkpt lat="36.7231" lon="-4.41673">
    <name>TP684</name>
  </trkpt>
  <trkpt lat="36.72296" lon="-4.41684">
    <name>TP685</name>
  </trkpt>
  <trkpt lat="36.72268" lon="-4.41703">
    <name>TP686</name>
  </trkpt>
  <trkpt lat="36.72268" lon="-4.417026">
    <name>TP687</name>
  </trkpt>
  <trkpt lat="36.72257" lon="-4.4168">
    <name>TP688</name>
  </trkpt>
  <trkpt lat="36.7225" lon="-4.41664">
    <name>TP689</name>
  </trkpt>
  <trkpt lat="36.72234" lon="-4.41631">
    <name>TP690</name>
  </trkpt>
  <trkpt lat="36.72231" lon="-4.41625">
    <name>TP691</name>
  </trkpt>
  <trkpt lat="36.72222" lon="-4.41606">
    <name>TP692</name>
  </trkpt>
  <trkpt lat="36.7222" lon="-4.41602">
    <name>TP693</name>
  </trkpt>
  <trkpt lat="36.72219" lon="-4.41601">
    <name>TP694</name>
  </trkpt>
  <trkpt lat="36.72217" lon="-4.41596">
    <name>TP695</name>
  </trkpt>
  <trkpt lat="36.72212" lon="-4.41582">
    <name>TP696</name>
  </trkpt>
  <trkpt lat="36.72207" lon="-4.41568">
    <name>TP697</name>
  </trkpt>
  <trkpt lat="36.72207" lon="-4.41567">
    <name>TP698</name>
  </trkpt>
  <trkpt lat="36.72204" lon="-4.4156">
    <name>TP699</name>
  </trkpt>
  <trkpt lat="36.72203" lon="-4.41556">
    <name>TP700</name>
  </trkpt>
  <trkpt lat="36.72194" lon="-4.41533">
    <name>TP701</name>
  </trkpt>
  <trkpt lat="36.72187" lon="-4.41513">
    <name>TP702</name>
  </trkpt>
  <trkpt lat="36.7218" lon="-4.41495">
    <name>TP703</name>
  </trkpt>
  <trkpt lat="36.72179" lon="-4.41493">
    <name>TP704</name>
  </trkpt>
  <trkpt lat="36.72176" lon="-4.41486">
    <name>TP705</name>
  </trkpt>
  <trkpt lat="36.72171" lon="-4.41472">
    <name>TP706</name>
  </trkpt>
  <trkpt lat="36.72169" lon="-4.41465">
    <name>TP707</name>
  </trkpt>
  <trkpt lat="36.72167" lon="-4.41461">
    <name>TP708</name>
  </trkpt>
  <trkpt lat="36.72162" lon="-4.41444">
    <name>TP709</name>
  </trkpt>
  <trkpt lat="36.72157" lon="-4.41427">
    <name>TP710</name>
  </trkpt>
  <trkpt lat="36.72132" lon="-4.41343">
    <name>TP711</name>
  </trkpt>
  <trkpt lat="36.72131" lon="-4.41339">
    <name>TP712</name>
  </trkpt>
  <trkpt lat="36.72113" lon="-4.41282">
    <name>TP713</name>
  </trkpt>
  <trkpt lat="36.72111" lon="-4.41278">
    <name>TP714</name>
  </trkpt>
  <trkpt lat="36.72109" lon="-4.41268">
    <name>TP715</name>
  </trkpt>
  <trkpt lat="36.7210858" lon="-4.4126797">
    <name>TP716</name>
  </trkpt>
  <trkpt lat="36.72101" lon="-4.41264">
    <name>TP717</name>
  </trkpt>
  <trkpt lat="36.72097" lon="-4.41262">
    <name>TP718</name>
  </trkpt>
  <trkpt lat="36.72095" lon="-4.41262">
    <name>TP719</name>
  </trkpt>
  <trkpt lat="36.72095" lon="-4.41261">
    <name>TP720</name>
  </trkpt>
  <trkpt lat="36.72093" lon="-4.41261">
    <name>TP721</name>
  </trkpt>
  <trkpt lat="36.72091" lon="-4.41261">
    <name>TP722</name>
  </trkpt>
  <trkpt lat="36.72087" lon="-4.41262">
    <name>TP723</name>
  </trkpt>
  <trkpt lat="36.72084" lon="-4.41263">
    <name>TP724</name>
  </trkpt>
  <trkpt lat="36.72081" lon="-4.41265">
    <name>TP725</name>
  </trkpt>
  <trkpt lat="36.72077" lon="-4.4127">
    <name>TP726</name>
  </trkpt>
  <trkpt lat="36.72075" lon="-4.41272">
    <name>TP727</name>
  </trkpt>
  <trkpt lat="36.7207" lon="-4.4128">
    <name>TP728</name>
  </trkpt>
  <trkpt lat="36.72068" lon="-4.41283">
    <name>TP729</name>
  </trkpt>
  <trkpt lat="36.72066" lon="-4.41286">
    <name>TP730</name>
  </trkpt>
  <trkpt lat="36.72064" lon="-4.41289">
    <name>TP731</name>
  </trkpt>
  <trkpt lat="36.72062" lon="-4.41291">
    <name>TP732</name>
  </trkpt>
  <trkpt lat="36.72058" lon="-4.41294">
    <name>TP733</name>
  </trkpt>
  <trkpt lat="36.72044" lon="-4.41302">
    <name>TP734</name>
  </trkpt>
  <trkpt lat="36.7204389" lon="-4.4130203">
    <name>TP735</name>
  </trkpt>
  <trkpt lat="36.72031" lon="-4.41329">
    <name>TP736</name>
  </trkpt>
  <trkpt lat="36.72026" lon="-4.4134">
    <name>TP737</name>
  </trkpt>
  <trkpt lat="36.7202" lon="-4.41347">
    <name>TP738</name>
  </trkpt>
  <trkpt lat="36.72019" lon="-4.41351">
    <name>TP739</name>
  </trkpt>
  <trkpt lat="36.71983" lon="-4.41479">
    <name>TP740</name>
  </trkpt>
  <trkpt lat="36.71951" lon="-4.41593">
    <name>TP741</name>
  </trkpt>
  <trkpt lat="36.71934" lon="-4.41656">
    <name>TP742</name>
  </trkpt>
  <trkpt lat="36.71928" lon="-4.41678">
    <name>TP743</name>
  </trkpt>
  <trkpt lat="36.71901" lon="-4.41772">
    <name>TP744</name>
  </trkpt>
  <trkpt lat="36.71888" lon="-4.41821">
    <name>TP745</name>
  </trkpt>
  <trkpt lat="36.71872" lon="-4.41878">
    <name>TP746</name>
  </trkpt>
  <trkpt lat="36.71851" lon="-4.4195">
    <name>TP747</name>
  </trkpt>
  <trkpt lat="36.71845" lon="-4.41974">
    <name>TP748</name>
  </trkpt>
  <trkpt lat="36.7184533" lon="-4.4197373">
    <name>TP749</name>
  </trkpt>
  <trkpt lat="36.71842" lon="-4.41986">
    <name>TP750</name>
  </trkpt>
  <trkpt lat="36.7184" lon="-4.41993">
    <name>TP751</name>
  </trkpt>
  <trkpt lat="36.71836" lon="-4.42006">
    <name>TP752</name>
  </trkpt>
  <trkpt lat="36.71831" lon="-4.42025">
    <name>TP753</name>
  </trkpt>
  <trkpt lat="36.71823" lon="-4.42054">
    <name>TP754</name>
  </trkpt>
  <trkpt lat="36.71813" lon="-4.4209">
    <name>TP755</name>
  </trkpt>
  <trkpt lat="36.71811" lon="-4.42095">
    <name>TP756</name>
  </trkpt>
  <trkpt lat="36.7181" lon="-4.42101">
    <name>TP757</name>
  </trkpt>
  <trkpt lat="36.71807" lon="-4.4211">
    <name>TP758</name>
  </trkpt>
  <trkpt lat="36.7180711" lon="-4.4211048">
    <name>TP759</name>
  </trkpt>
  <trkpt lat="36.71801" lon="-4.42134">
    <name>TP760</name>
  </trkpt>
  <trkpt lat="36.71797" lon="-4.42146">
    <name>TP761</name>
  </trkpt>
  <trkpt lat="36.71793" lon="-4.42162">
    <name>TP762</name>
  </trkpt>
  <trkpt lat="36.7178" lon="-4.42207">
    <name>TP763</name>
  </trkpt>
  <trkpt lat="36.71767" lon="-4.42255">
    <name>TP764</name>
  </trkpt>
  <trkpt lat="36.7176705" lon="-4.4225516">
    <name>TP765</name>
  </trkpt>
  <trkpt lat="36.71792" lon="-4.42265">
    <name>TP766</name>
  </trkpt>
  <trkpt lat="36.71819" lon="-4.42276">
    <name>TP767</name>
  </trkpt>
  <trkpt lat="36.7183" lon="-4.4228">
    <name>TP768</name>
  </trkpt>
  <trkpt lat="36.7185" lon="-4.42289">
    <name>TP769</name>
  </trkpt>
  <trkpt lat="36.7184997" lon="-4.4228868">
    <name>TP770</name>
  </trkpt>
  <trkpt lat="36.71845" lon="-4.42306">
    <name>TP771</name>
  </trkpt>
  <trkpt lat="36.71842" lon="-4.42317">
    <name>TP772</name>
  </trkpt>
  <trkpt lat="36.71837" lon="-4.42334">
    <name>TP773</name>
  </trkpt>
  <trkpt lat="36.71831" lon="-4.42352">
    <name>TP774</name>
  </trkpt>
  <trkpt lat="36.71809" lon="-4.42407">
    <name>TP775</name>
  </trkpt>
  <trkpt lat="36.71803" lon="-4.42427">
    <name>TP776</name>
  </trkpt>
  <trkpt lat="36.7180277" lon="-4.4242707">
    <name>TP777</name>
  </trkpt>
  <trkpt lat="36.71845" lon="-4.42461">
    <name>TP778</name>
  </trkpt>
  <trkpt lat="36.7189" lon="-4.42497">
    <name>TP779</name>
  </trkpt>
  <trkpt lat="36.7189039" lon="-4.4249692">
    <name>TP780</name>
  </trkpt>
  <trkpt lat="36.71899" lon="-4.42478">
    <name>TP781</name>
  </trkpt>
  <trkpt lat="36.71909" lon="-4.42455">
    <name>TP782</name>
  </trkpt>
  <trkpt lat="36.719095" lon="-4.4245524">
    <name>TP783</name>
  </trkpt>
  <trkpt lat="36.71905" lon="-4.42452">
    <name>TP784</name>
  </trkpt>
  <trkpt lat="36.71898" lon="-4.42447">
    <name>TP785</name>
  </trkpt>
  <trkpt lat="36.71865" lon="-4.42423">
    <name>TP786</name>
  </trkpt>
  <trkpt lat="36.7186487" lon="-4.4242323">
    <name>TP787</name>
  </trkpt>
  <trkpt lat="36.7186487" lon="-4.4242323">
    <name>TP788</name>
  </trkpt>
  <trkpt lat="36.7186487" lon="-4.4242323">
    <name>TP789</name>
  </trkpt>
  </trkseg>
</trk>
</gpx>