<?xml version="1.0" encoding="UTF-8" standalone="no" ?>
<gpx xmlns="http://www.topografix.com/GPX/1/1" xmlns:gpxx="http://www.garmin.com/xmlschemas/GpxExtensions/v3" xmlns:gpxtpx="http://www.garmin.com/xmlschemas/TrackPointExtension/v1" creator="mapstogpx.com" version="1.1" xmlns:xsi="http://www.w3.org/2001/XMLSchema-instance" xsi:schemaLocation="http://www.topografix.com/GPX/1/1 http://www.topografix.com/GPX/1/1/gpx.xsd http://www.garmin.com/xmlschemas/GpxExtensions/v3 http://www.garmin.com/xmlschemas/GpxExtensionsv3.xsd http://www.garmin.com/xmlschemas/TrackPointExtension/v1 http://www.garmin.com/xmlschemas/TrackPointExtensionv1.xsd">
  <metadata>
    <link href="http://www.mapstogpx.com">
      <text>Sverrir Sigmundarson</text>
    </link>
    <!--desc>Powered by Google, ©2025 Google</desc-->
    <!--copyright author="Google Inc">
    	<year>2025</year>
    	<license>https://developers.google.com/maps/terms</license>
    </copyright-->
    <!--url>https://www.google.com/maps/dir/40.669287,8.199191/CONAD/Parcheggio+Piazzale+della+Pace+(Parqueig+de%E2%80%A6/@40.6401456,8.1901754,34390m/data=!3m1!1e3!4m15!4m14!1m0!1m5!1m1!1s0x12dcf1f05dbeeb7b:0xf01d907623fe9c08!2m2!1d8.3212923!2d40.5698036!1m5!1m1!1s0x12dcf1e687e48fc7:0xf1707534d2500cba!2m2!1d8.3170229!2d40.5625517!3e0?authuser=1&entry=tts&g_ep=EgoyMDI1MDkxMC4wKgBIAVAD&skid=d1524076-7125-4fed-8995-0b7f0fc7779d&hl=en</url-->
    <time>2025-09-14T20:15:30Z</time>
  </metadata>
  <wpt lat="40.669287" lon="8.199191">
    <name>07041 Province of Sassari</name>
    <desc>Alghero, 07041 Province of Sassari, Italy</desc>
  </wpt>
  <wpt lat="40.5698036" lon="8.3212923">
    <name>CONAD</name>
    <desc>CONAD, Via Don Minzoni, 07041 Alghero SS, Italy</desc>
  </wpt>
  <wpt lat="40.5625517" lon="8.3170229">
    <name>Parcheggio Piazzale della Pace (Parqueig de…</name>
    <desc>Parcheggio Piazzale della Pace (Parqueig de la Plaça de la Pau), Piazzale della Pace, 07041 Alghero SS, Italy</desc>
  </wpt>
<trk>
  <name>07041 Province of Sassari to Parcheggio Piazzale della Pace (Parqueig de…</name>
  <number>1</number>
  <trkseg>
  <trkpt lat="40.6714005" lon="8.2030967">
    <name>TP001</name>
  </trkpt>
  <trkpt lat="40.67143" lon="8.20312">
    <name>TP002</name>
  </trkpt>
  <trkpt lat="40.67148" lon="8.20315">
    <name>TP003</name>
  </trkpt>
  <trkpt lat="40.67157" lon="8.20316">
    <name>TP004</name>
  </trkpt>
  <trkpt lat="40.67164" lon="8.20316">
    <name>TP005</name>
  </trkpt>
  <trkpt lat="40.67171" lon="8.20316">
    <name>TP006</name>
  </trkpt>
  <trkpt lat="40.67176" lon="8.20315">
    <name>TP007</name>
  </trkpt>
  <trkpt lat="40.67182" lon="8.20313">
    <name>TP008</name>
  </trkpt>
  <trkpt lat="40.67188" lon="8.2031">
    <name>TP009</name>
  </trkpt>
  <trkpt lat="40.67197" lon="8.20307">
    <name>TP010</name>
  </trkpt>
  <trkpt lat="40.67205" lon="8.20302">
    <name>TP011</name>
  </trkpt>
  <trkpt lat="40.67216" lon="8.20296">
    <name>TP012</name>
  </trkpt>
  <trkpt lat="40.67233" lon="8.20289">
    <name>TP013</name>
  </trkpt>
  <trkpt lat="40.67239" lon="8.20288">
    <name>TP014</name>
  </trkpt>
  <trkpt lat="40.67243" lon="8.20287">
    <name>TP015</name>
  </trkpt>
  <trkpt lat="40.67257" lon="8.20286">
    <name>TP016</name>
  </trkpt>
  <trkpt lat="40.67275" lon="8.20286">
    <name>TP017</name>
  </trkpt>
  <trkpt lat="40.67283" lon="8.20286">
    <name>TP018</name>
  </trkpt>
  <trkpt lat="40.67293" lon="8.20286">
    <name>TP019</name>
  </trkpt>
  <trkpt lat="40.67311" lon="8.20285">
    <name>TP020</name>
  </trkpt>
  <trkpt lat="40.67325" lon="8.20284">
    <name>TP021</name>
  </trkpt>
  <trkpt lat="40.67346" lon="8.20282">
    <name>TP022</name>
  </trkpt>
  <trkpt lat="40.674" lon="8.20278">
    <name>TP023</name>
  </trkpt>
  <trkpt lat="40.67417" lon="8.20277">
    <name>TP024</name>
  </trkpt>
  <trkpt lat="40.67436" lon="8.20276">
    <name>TP025</name>
  </trkpt>
  <trkpt lat="40.67442" lon="8.20276">
    <name>TP026</name>
  </trkpt>
  <trkpt lat="40.67463" lon="8.20277">
    <name>TP027</name>
  </trkpt>
  <trkpt lat="40.67473" lon="8.20279">
    <name>TP028</name>
  </trkpt>
  <trkpt lat="40.67477" lon="8.2028">
    <name>TP029</name>
  </trkpt>
  <trkpt lat="40.67485" lon="8.20285">
    <name>TP030</name>
  </trkpt>
  <trkpt lat="40.67495" lon="8.20299">
    <name>TP031</name>
  </trkpt>
  <trkpt lat="40.675" lon="8.20308">
    <name>TP032</name>
  </trkpt>
  <trkpt lat="40.67504" lon="8.20317">
    <name>TP033</name>
  </trkpt>
  <trkpt lat="40.67509" lon="8.20328">
    <name>TP034</name>
  </trkpt>
  <trkpt lat="40.6751" lon="8.2033">
    <name>TP035</name>
  </trkpt>
  <trkpt lat="40.67516" lon="8.2035">
    <name>TP036</name>
  </trkpt>
  <trkpt lat="40.6751619" lon="8.2034993">
    <name>TP037</name>
  </trkpt>
  <trkpt lat="40.67513" lon="8.20356">
    <name>TP038</name>
  </trkpt>
  <trkpt lat="40.67493" lon="8.20382">
    <name>TP039</name>
  </trkpt>
  <trkpt lat="40.67473" lon="8.20408">
    <name>TP040</name>
  </trkpt>
  <trkpt lat="40.67452" lon="8.20433">
    <name>TP041</name>
  </trkpt>
  <trkpt lat="40.67434" lon="8.20454">
    <name>TP042</name>
  </trkpt>
  <trkpt lat="40.67425" lon="8.20465">
    <name>TP043</name>
  </trkpt>
  <trkpt lat="40.67372" lon="8.20528">
    <name>TP044</name>
  </trkpt>
  <trkpt lat="40.67333" lon="8.20575">
    <name>TP045</name>
  </trkpt>
  <trkpt lat="40.67266" lon="8.20657">
    <name>TP046</name>
  </trkpt>
  <trkpt lat="40.67253" lon="8.20673">
    <name>TP047</name>
  </trkpt>
  <trkpt lat="40.67252" lon="8.20674">
    <name>TP048</name>
  </trkpt>
  <trkpt lat="40.67226" lon="8.20705">
    <name>TP049</name>
  </trkpt>
  <trkpt lat="40.67213" lon="8.20721">
    <name>TP050</name>
  </trkpt>
  <trkpt lat="40.67149" lon="8.208">
    <name>TP051</name>
  </trkpt>
  <trkpt lat="40.67081" lon="8.20883">
    <name>TP052</name>
  </trkpt>
  <trkpt lat="40.67068" lon="8.20899">
    <name>TP053</name>
  </trkpt>
  <trkpt lat="40.67054" lon="8.20915">
    <name>TP054</name>
  </trkpt>
  <trkpt lat="40.67022" lon="8.20954">
    <name>TP055</name>
  </trkpt>
  <trkpt lat="40.6699" lon="8.20993">
    <name>TP056</name>
  </trkpt>
  <trkpt lat="40.66975" lon="8.21008">
    <name>TP057</name>
  </trkpt>
  <trkpt lat="40.66959" lon="8.21021">
    <name>TP058</name>
  </trkpt>
  <trkpt lat="40.66947" lon="8.21029">
    <name>TP059</name>
  </trkpt>
  <trkpt lat="40.66932" lon="8.21036">
    <name>TP060</name>
  </trkpt>
  <trkpt lat="40.66924" lon="8.2104">
    <name>TP061</name>
  </trkpt>
  <trkpt lat="40.66914" lon="8.21044">
    <name>TP062</name>
  </trkpt>
  <trkpt lat="40.66907" lon="8.21045">
    <name>TP063</name>
  </trkpt>
  <trkpt lat="40.66902" lon="8.21047">
    <name>TP064</name>
  </trkpt>
  <trkpt lat="40.66879" lon="8.21051">
    <name>TP065</name>
  </trkpt>
  <trkpt lat="40.66764" lon="8.21061">
    <name>TP066</name>
  </trkpt>
  <trkpt lat="40.6668" lon="8.21069">
    <name>TP067</name>
  </trkpt>
  <trkpt lat="40.66662" lon="8.21071">
    <name>TP068</name>
  </trkpt>
  <trkpt lat="40.66572" lon="8.2108">
    <name>TP069</name>
  </trkpt>
  <trkpt lat="40.66554" lon="8.21081">
    <name>TP070</name>
  </trkpt>
  <trkpt lat="40.66464" lon="8.2109">
    <name>TP071</name>
  </trkpt>
  <trkpt lat="40.66446" lon="8.21092">
    <name>TP072</name>
  </trkpt>
  <trkpt lat="40.66124" lon="8.21123">
    <name>TP073</name>
  </trkpt>
  <trkpt lat="40.65944" lon="8.21142">
    <name>TP074</name>
  </trkpt>
  <trkpt lat="40.65926" lon="8.21144">
    <name>TP075</name>
  </trkpt>
  <trkpt lat="40.65908" lon="8.21146">
    <name>TP076</name>
  </trkpt>
  <trkpt lat="40.6589" lon="8.21148">
    <name>TP077</name>
  </trkpt>
  <trkpt lat="40.65783" lon="8.21159">
    <name>TP078</name>
  </trkpt>
  <trkpt lat="40.65693" lon="8.21169">
    <name>TP079</name>
  </trkpt>
  <trkpt lat="40.65657" lon="8.21172">
    <name>TP080</name>
  </trkpt>
  <trkpt lat="40.65639" lon="8.21174">
    <name>TP081</name>
  </trkpt>
  <trkpt lat="40.65586" lon="8.2118">
    <name>TP082</name>
  </trkpt>
  <trkpt lat="40.65505" lon="8.21189">
    <name>TP083</name>
  </trkpt>
  <trkpt lat="40.65499" lon="8.21189">
    <name>TP084</name>
  </trkpt>
  <trkpt lat="40.6548" lon="8.21191">
    <name>TP085</name>
  </trkpt>
  <trkpt lat="40.6547953" lon="8.2119125">
    <name>TP086</name>
  </trkpt>
  <trkpt lat="40.65481" lon="8.21222">
    <name>TP087</name>
  </trkpt>
  <trkpt lat="40.65484" lon="8.21274">
    <name>TP088</name>
  </trkpt>
  <trkpt lat="40.65489" lon="8.21359">
    <name>TP089</name>
  </trkpt>
  <trkpt lat="40.65504" lon="8.21614">
    <name>TP090</name>
  </trkpt>
  <trkpt lat="40.65507" lon="8.21661">
    <name>TP091</name>
  </trkpt>
  <trkpt lat="40.65516" lon="8.21835">
    <name>TP092</name>
  </trkpt>
  <trkpt lat="40.65532" lon="8.22127">
    <name>TP093</name>
  </trkpt>
  <trkpt lat="40.65534" lon="8.22153">
    <name>TP094</name>
  </trkpt>
  <trkpt lat="40.65539" lon="8.22246">
    <name>TP095</name>
  </trkpt>
  <trkpt lat="40.6554" lon="8.22256">
    <name>TP096</name>
  </trkpt>
  <trkpt lat="40.65545" lon="8.22353">
    <name>TP097</name>
  </trkpt>
  <trkpt lat="40.65549" lon="8.22418">
    <name>TP098</name>
  </trkpt>
  <trkpt lat="40.65551" lon="8.22445">
    <name>TP099</name>
  </trkpt>
  <trkpt lat="40.65557" lon="8.22556">
    <name>TP100</name>
  </trkpt>
  <trkpt lat="40.65562" lon="8.22632">
    <name>TP101</name>
  </trkpt>
  <trkpt lat="40.65571" lon="8.22781">
    <name>TP102</name>
  </trkpt>
  <trkpt lat="40.65574" lon="8.22838">
    <name>TP103</name>
  </trkpt>
  <trkpt lat="40.65576" lon="8.22864">
    <name>TP104</name>
  </trkpt>
  <trkpt lat="40.6558" lon="8.22932">
    <name>TP105</name>
  </trkpt>
  <trkpt lat="40.65584" lon="8.22999">
    <name>TP106</name>
  </trkpt>
  <trkpt lat="40.65595" lon="8.23193">
    <name>TP107</name>
  </trkpt>
  <trkpt lat="40.65598" lon="8.23246">
    <name>TP108</name>
  </trkpt>
  <trkpt lat="40.65601" lon="8.23296">
    <name>TP109</name>
  </trkpt>
  <trkpt lat="40.65603" lon="8.23339">
    <name>TP110</name>
  </trkpt>
  <trkpt lat="40.65605" lon="8.2335">
    <name>TP111</name>
  </trkpt>
  <trkpt lat="40.65609" lon="8.23437">
    <name>TP112</name>
  </trkpt>
  <trkpt lat="40.65612" lon="8.23481">
    <name>TP113</name>
  </trkpt>
  <trkpt lat="40.65613" lon="8.23508">
    <name>TP114</name>
  </trkpt>
  <trkpt lat="40.65614" lon="8.23528">
    <name>TP115</name>
  </trkpt>
  <trkpt lat="40.6562" lon="8.23623">
    <name>TP116</name>
  </trkpt>
  <trkpt lat="40.65622" lon="8.23665">
    <name>TP117</name>
  </trkpt>
  <trkpt lat="40.65624" lon="8.23702">
    <name>TP118</name>
  </trkpt>
  <trkpt lat="40.65625" lon="8.23715">
    <name>TP119</name>
  </trkpt>
  <trkpt lat="40.6563" lon="8.23806">
    <name>TP120</name>
  </trkpt>
  <trkpt lat="40.65634" lon="8.23873">
    <name>TP121</name>
  </trkpt>
  <trkpt lat="40.65637" lon="8.23924">
    <name>TP122</name>
  </trkpt>
  <trkpt lat="40.65642" lon="8.24004">
    <name>TP123</name>
  </trkpt>
  <trkpt lat="40.65646" lon="8.24065">
    <name>TP124</name>
  </trkpt>
  <trkpt lat="40.65654" lon="8.24205">
    <name>TP125</name>
  </trkpt>
  <trkpt lat="40.65658" lon="8.2427">
    <name>TP126</name>
  </trkpt>
  <trkpt lat="40.65661" lon="8.24319">
    <name>TP127</name>
  </trkpt>
  <trkpt lat="40.65673" lon="8.24518">
    <name>TP128</name>
  </trkpt>
  <trkpt lat="40.65674" lon="8.24546">
    <name>TP129</name>
  </trkpt>
  <trkpt lat="40.65675" lon="8.2456">
    <name>TP130</name>
  </trkpt>
  <trkpt lat="40.65677" lon="8.24584">
    <name>TP131</name>
  </trkpt>
  <trkpt lat="40.65678" lon="8.24608">
    <name>TP132</name>
  </trkpt>
  <trkpt lat="40.65702" lon="8.25042">
    <name>TP133</name>
  </trkpt>
  <trkpt lat="40.65708" lon="8.25137">
    <name>TP134</name>
  </trkpt>
  <trkpt lat="40.65712" lon="8.25224">
    <name>TP135</name>
  </trkpt>
  <trkpt lat="40.65725" lon="8.25452">
    <name>TP136</name>
  </trkpt>
  <trkpt lat="40.65728" lon="8.25505">
    <name>TP137</name>
  </trkpt>
  <trkpt lat="40.65736" lon="8.25648">
    <name>TP138</name>
  </trkpt>
  <trkpt lat="40.65746" lon="8.25802">
    <name>TP139</name>
  </trkpt>
  <trkpt lat="40.65754" lon="8.25941">
    <name>TP140</name>
  </trkpt>
  <trkpt lat="40.65758" lon="8.26009">
    <name>TP141</name>
  </trkpt>
  <trkpt lat="40.65771" lon="8.26221">
    <name>TP142</name>
  </trkpt>
  <trkpt lat="40.65772" lon="8.26245">
    <name>TP143</name>
  </trkpt>
  <trkpt lat="40.65774" lon="8.26269">
    <name>TP144</name>
  </trkpt>
  <trkpt lat="40.65785" lon="8.26458">
    <name>TP145</name>
  </trkpt>
  <trkpt lat="40.65789" lon="8.26536">
    <name>TP146</name>
  </trkpt>
  <trkpt lat="40.6579" lon="8.26545">
    <name>TP147</name>
  </trkpt>
  <trkpt lat="40.65799" lon="8.2671">
    <name>TP148</name>
  </trkpt>
  <trkpt lat="40.65801" lon="8.26732">
    <name>TP149</name>
  </trkpt>
  <trkpt lat="40.65806" lon="8.26828">
    <name>TP150</name>
  </trkpt>
  <trkpt lat="40.65808" lon="8.26852">
    <name>TP151</name>
  </trkpt>
  <trkpt lat="40.65809" lon="8.26885">
    <name>TP152</name>
  </trkpt>
  <trkpt lat="40.65831" lon="8.27014">
    <name>TP153</name>
  </trkpt>
  <trkpt lat="40.65835" lon="8.27038">
    <name>TP154</name>
  </trkpt>
  <trkpt lat="40.65836" lon="8.27046">
    <name>TP155</name>
  </trkpt>
  <trkpt lat="40.6584" lon="8.27069">
    <name>TP156</name>
  </trkpt>
  <trkpt lat="40.65844" lon="8.27092">
    <name>TP157</name>
  </trkpt>
  <trkpt lat="40.65848" lon="8.27115">
    <name>TP158</name>
  </trkpt>
  <trkpt lat="40.65852" lon="8.27138">
    <name>TP159</name>
  </trkpt>
  <trkpt lat="40.65855" lon="8.27164">
    <name>TP160</name>
  </trkpt>
  <trkpt lat="40.65857" lon="8.27186">
    <name>TP161</name>
  </trkpt>
  <trkpt lat="40.6585737" lon="8.2718562">
    <name>TP162</name>
  </trkpt>
  <trkpt lat="40.65818" lon="8.27185">
    <name>TP163</name>
  </trkpt>
  <trkpt lat="40.6565" lon="8.27185">
    <name>TP164</name>
  </trkpt>
  <trkpt lat="40.65625" lon="8.27185">
    <name>TP165</name>
  </trkpt>
  <trkpt lat="40.65534" lon="8.27184">
    <name>TP166</name>
  </trkpt>
  <trkpt lat="40.65326" lon="8.27184">
    <name>TP167</name>
  </trkpt>
  <trkpt lat="40.65308" lon="8.27184">
    <name>TP168</name>
  </trkpt>
  <trkpt lat="40.65218" lon="8.27184">
    <name>TP169</name>
  </trkpt>
  <trkpt lat="40.65214" lon="8.27184">
    <name>TP170</name>
  </trkpt>
  <trkpt lat="40.65209" lon="8.27184">
    <name>TP171</name>
  </trkpt>
  <trkpt lat="40.6517" lon="8.27184">
    <name>TP172</name>
  </trkpt>
  <trkpt lat="40.6505" lon="8.27184">
    <name>TP173</name>
  </trkpt>
  <trkpt lat="40.64915" lon="8.27183">
    <name>TP174</name>
  </trkpt>
  <trkpt lat="40.64899" lon="8.27182">
    <name>TP175</name>
  </trkpt>
  <trkpt lat="40.64788" lon="8.27182">
    <name>TP176</name>
  </trkpt>
  <trkpt lat="40.64746" lon="8.27182">
    <name>TP177</name>
  </trkpt>
  <trkpt lat="40.64721" lon="8.27182">
    <name>TP178</name>
  </trkpt>
  <trkpt lat="40.6452" lon="8.27182">
    <name>TP179</name>
  </trkpt>
  <trkpt lat="40.64431" lon="8.2718">
    <name>TP180</name>
  </trkpt>
  <trkpt lat="40.64301" lon="8.2718">
    <name>TP181</name>
  </trkpt>
  <trkpt lat="40.64197" lon="8.2718">
    <name>TP182</name>
  </trkpt>
  <trkpt lat="40.6415" lon="8.2718">
    <name>TP183</name>
  </trkpt>
  <trkpt lat="40.64131" lon="8.2718">
    <name>TP184</name>
  </trkpt>
  <trkpt lat="40.64063" lon="8.27179">
    <name>TP185</name>
  </trkpt>
  <trkpt lat="40.64036" lon="8.27179">
    <name>TP186</name>
  </trkpt>
  <trkpt lat="40.63906" lon="8.27178">
    <name>TP187</name>
  </trkpt>
  <trkpt lat="40.6387" lon="8.27178">
    <name>TP188</name>
  </trkpt>
  <trkpt lat="40.63718" lon="8.27178">
    <name>TP189</name>
  </trkpt>
  <trkpt lat="40.63681" lon="8.27178">
    <name>TP190</name>
  </trkpt>
  <trkpt lat="40.63435" lon="8.27177">
    <name>TP191</name>
  </trkpt>
  <trkpt lat="40.63197" lon="8.27176">
    <name>TP192</name>
  </trkpt>
  <trkpt lat="40.6304" lon="8.27175">
    <name>TP193</name>
  </trkpt>
  <trkpt lat="40.63036" lon="8.27175">
    <name>TP194</name>
  </trkpt>
  <trkpt lat="40.63031" lon="8.27175">
    <name>TP195</name>
  </trkpt>
  <trkpt lat="40.6294" lon="8.27175">
    <name>TP196</name>
  </trkpt>
  <trkpt lat="40.62936" lon="8.27175">
    <name>TP197</name>
  </trkpt>
  <trkpt lat="40.62879" lon="8.27175">
    <name>TP198</name>
  </trkpt>
  <trkpt lat="40.62858" lon="8.27176">
    <name>TP199</name>
  </trkpt>
  <trkpt lat="40.62843" lon="8.27177">
    <name>TP200</name>
  </trkpt>
  <trkpt lat="40.62831" lon="8.27179">
    <name>TP201</name>
  </trkpt>
  <trkpt lat="40.62821" lon="8.27181">
    <name>TP202</name>
  </trkpt>
  <trkpt lat="40.62808" lon="8.27186">
    <name>TP203</name>
  </trkpt>
  <trkpt lat="40.62795" lon="8.27193">
    <name>TP204</name>
  </trkpt>
  <trkpt lat="40.62788" lon="8.27197">
    <name>TP205</name>
  </trkpt>
  <trkpt lat="40.62788" lon="8.27198">
    <name>TP206</name>
  </trkpt>
  <trkpt lat="40.62784" lon="8.272">
    <name>TP207</name>
  </trkpt>
  <trkpt lat="40.62774" lon="8.27207">
    <name>TP208</name>
  </trkpt>
  <trkpt lat="40.62765" lon="8.27214">
    <name>TP209</name>
  </trkpt>
  <trkpt lat="40.62726" lon="8.27244">
    <name>TP210</name>
  </trkpt>
  <trkpt lat="40.62705" lon="8.27261">
    <name>TP211</name>
  </trkpt>
  <trkpt lat="40.62566" lon="8.27369">
    <name>TP212</name>
  </trkpt>
  <trkpt lat="40.62563" lon="8.27371">
    <name>TP213</name>
  </trkpt>
  <trkpt lat="40.62555" lon="8.27377">
    <name>TP214</name>
  </trkpt>
  <trkpt lat="40.62533" lon="8.27395">
    <name>TP215</name>
  </trkpt>
  <trkpt lat="40.62532" lon="8.27395">
    <name>TP216</name>
  </trkpt>
  <trkpt lat="40.62508" lon="8.27412">
    <name>TP217</name>
  </trkpt>
  <trkpt lat="40.62489" lon="8.27422">
    <name>TP218</name>
  </trkpt>
  <trkpt lat="40.62468" lon="8.27431">
    <name>TP219</name>
  </trkpt>
  <trkpt lat="40.62464" lon="8.27433">
    <name>TP220</name>
  </trkpt>
  <trkpt lat="40.62459" lon="8.27435">
    <name>TP221</name>
  </trkpt>
  <trkpt lat="40.62438" lon="8.27442">
    <name>TP222</name>
  </trkpt>
  <trkpt lat="40.6242" lon="8.27445">
    <name>TP223</name>
  </trkpt>
  <trkpt lat="40.62339" lon="8.27457">
    <name>TP224</name>
  </trkpt>
  <trkpt lat="40.62243" lon="8.27473">
    <name>TP225</name>
  </trkpt>
  <trkpt lat="40.62112" lon="8.27496">
    <name>TP226</name>
  </trkpt>
  <trkpt lat="40.62107" lon="8.27496">
    <name>TP227</name>
  </trkpt>
  <trkpt lat="40.62057" lon="8.27505">
    <name>TP228</name>
  </trkpt>
  <trkpt lat="40.6203" lon="8.27509">
    <name>TP229</name>
  </trkpt>
  <trkpt lat="40.6202" lon="8.27511">
    <name>TP230</name>
  </trkpt>
  <trkpt lat="40.6201" lon="8.27512">
    <name>TP231</name>
  </trkpt>
  <trkpt lat="40.62" lon="8.27513">
    <name>TP232</name>
  </trkpt>
  <trkpt lat="40.61995" lon="8.27513">
    <name>TP233</name>
  </trkpt>
  <trkpt lat="40.61982" lon="8.27513">
    <name>TP234</name>
  </trkpt>
  <trkpt lat="40.61966" lon="8.27512">
    <name>TP235</name>
  </trkpt>
  <trkpt lat="40.61946" lon="8.27511">
    <name>TP236</name>
  </trkpt>
  <trkpt lat="40.61874" lon="8.27506">
    <name>TP237</name>
  </trkpt>
  <trkpt lat="40.61792" lon="8.275">
    <name>TP238</name>
  </trkpt>
  <trkpt lat="40.6173" lon="8.27495">
    <name>TP239</name>
  </trkpt>
  <trkpt lat="40.61723" lon="8.27494">
    <name>TP240</name>
  </trkpt>
  <trkpt lat="40.61692" lon="8.27492">
    <name>TP241</name>
  </trkpt>
  <trkpt lat="40.61668" lon="8.27492">
    <name>TP242</name>
  </trkpt>
  <trkpt lat="40.61653" lon="8.27493">
    <name>TP243</name>
  </trkpt>
  <trkpt lat="40.61642" lon="8.27495">
    <name>TP244</name>
  </trkpt>
  <trkpt lat="40.6163" lon="8.27497">
    <name>TP245</name>
  </trkpt>
  <trkpt lat="40.61608" lon="8.27504">
    <name>TP246</name>
  </trkpt>
  <trkpt lat="40.61593" lon="8.27508">
    <name>TP247</name>
  </trkpt>
  <trkpt lat="40.61566" lon="8.27519">
    <name>TP248</name>
  </trkpt>
  <trkpt lat="40.61514" lon="8.27539">
    <name>TP249</name>
  </trkpt>
  <trkpt lat="40.61472" lon="8.27555">
    <name>TP250</name>
  </trkpt>
  <trkpt lat="40.61456" lon="8.27561">
    <name>TP251</name>
  </trkpt>
  <trkpt lat="40.61438" lon="8.27568">
    <name>TP252</name>
  </trkpt>
  <trkpt lat="40.61433" lon="8.27569">
    <name>TP253</name>
  </trkpt>
  <trkpt lat="40.61416" lon="8.27576">
    <name>TP254</name>
  </trkpt>
  <trkpt lat="40.61266" lon="8.27633">
    <name>TP255</name>
  </trkpt>
  <trkpt lat="40.6114" lon="8.27681">
    <name>TP256</name>
  </trkpt>
  <trkpt lat="40.61123" lon="8.27688">
    <name>TP257</name>
  </trkpt>
  <trkpt lat="40.6108" lon="8.27704">
    <name>TP258</name>
  </trkpt>
  <trkpt lat="40.61002" lon="8.27735">
    <name>TP259</name>
  </trkpt>
  <trkpt lat="40.60796" lon="8.27811">
    <name>TP260</name>
  </trkpt>
  <trkpt lat="40.60774" lon="8.27819">
    <name>TP261</name>
  </trkpt>
  <trkpt lat="40.6074" lon="8.27832">
    <name>TP262</name>
  </trkpt>
  <trkpt lat="40.60723" lon="8.27838">
    <name>TP263</name>
  </trkpt>
  <trkpt lat="40.60719" lon="8.2784">
    <name>TP264</name>
  </trkpt>
  <trkpt lat="40.60714" lon="8.27842">
    <name>TP265</name>
  </trkpt>
  <trkpt lat="40.60576" lon="8.27894">
    <name>TP266</name>
  </trkpt>
  <trkpt lat="40.60565" lon="8.27898">
    <name>TP267</name>
  </trkpt>
  <trkpt lat="40.60461" lon="8.27937">
    <name>TP268</name>
  </trkpt>
  <trkpt lat="40.60389" lon="8.27964">
    <name>TP269</name>
  </trkpt>
  <trkpt lat="40.60318" lon="8.27991">
    <name>TP270</name>
  </trkpt>
  <trkpt lat="40.60279" lon="8.28006">
    <name>TP271</name>
  </trkpt>
  <trkpt lat="40.60244" lon="8.28018">
    <name>TP272</name>
  </trkpt>
  <trkpt lat="40.60231" lon="8.28024">
    <name>TP273</name>
  </trkpt>
  <trkpt lat="40.60199" lon="8.28037">
    <name>TP274</name>
  </trkpt>
  <trkpt lat="40.60176" lon="8.28046">
    <name>TP275</name>
  </trkpt>
  <trkpt lat="40.60048" lon="8.28092">
    <name>TP276</name>
  </trkpt>
  <trkpt lat="40.60044" lon="8.28094">
    <name>TP277</name>
  </trkpt>
  <trkpt lat="40.6004" lon="8.28095">
    <name>TP278</name>
  </trkpt>
  <trkpt lat="40.59968" lon="8.28121">
    <name>TP279</name>
  </trkpt>
  <trkpt lat="40.59782" lon="8.28194">
    <name>TP280</name>
  </trkpt>
  <trkpt lat="40.59781" lon="8.28194">
    <name>TP281</name>
  </trkpt>
  <trkpt lat="40.59777" lon="8.28196">
    <name>TP282</name>
  </trkpt>
  <trkpt lat="40.59745" lon="8.28208">
    <name>TP283</name>
  </trkpt>
  <trkpt lat="40.59731" lon="8.28214">
    <name>TP284</name>
  </trkpt>
  <trkpt lat="40.59591" lon="8.28269">
    <name>TP285</name>
  </trkpt>
  <trkpt lat="40.5959" lon="8.28269">
    <name>TP286</name>
  </trkpt>
  <trkpt lat="40.59572" lon="8.28276">
    <name>TP287</name>
  </trkpt>
  <trkpt lat="40.59566" lon="8.28278">
    <name>TP288</name>
  </trkpt>
  <trkpt lat="40.5956588" lon="8.2827839">
    <name>TP289</name>
  </trkpt>
  <trkpt lat="40.59566" lon="8.28277">
    <name>TP290</name>
  </trkpt>
  <trkpt lat="40.59565" lon="8.28277">
    <name>TP291</name>
  </trkpt>
  <trkpt lat="40.59565" lon="8.28276">
    <name>TP292</name>
  </trkpt>
  <trkpt lat="40.59565" lon="8.28275">
    <name>TP293</name>
  </trkpt>
  <trkpt lat="40.59564" lon="8.28275">
    <name>TP294</name>
  </trkpt>
  <trkpt lat="40.59564" lon="8.28274">
    <name>TP295</name>
  </trkpt>
  <trkpt lat="40.59563" lon="8.28274">
    <name>TP296</name>
  </trkpt>
  <trkpt lat="40.59563" lon="8.28273">
    <name>TP297</name>
  </trkpt>
  <trkpt lat="40.59562" lon="8.28273">
    <name>TP298</name>
  </trkpt>
  <trkpt lat="40.59562" lon="8.28272">
    <name>TP299</name>
  </trkpt>
  <trkpt lat="40.59561" lon="8.28272">
    <name>TP300</name>
  </trkpt>
  <trkpt lat="40.5956" lon="8.28272">
    <name>TP301</name>
  </trkpt>
  <trkpt lat="40.59559" lon="8.28272">
    <name>TP302</name>
  </trkpt>
  <trkpt lat="40.59558" lon="8.28272">
    <name>TP303</name>
  </trkpt>
  <trkpt lat="40.59557" lon="8.28272">
    <name>TP304</name>
  </trkpt>
  <trkpt lat="40.59557" lon="8.28273">
    <name>TP305</name>
  </trkpt>
  <trkpt lat="40.59556" lon="8.28273">
    <name>TP306</name>
  </trkpt>
  <trkpt lat="40.59556" lon="8.28274">
    <name>TP307</name>
  </trkpt>
  <trkpt lat="40.59555" lon="8.28274">
    <name>TP308</name>
  </trkpt>
  <trkpt lat="40.59555" lon="8.28275">
    <name>TP309</name>
  </trkpt>
  <trkpt lat="40.59554" lon="8.28275">
    <name>TP310</name>
  </trkpt>
  <trkpt lat="40.59554" lon="8.28276">
    <name>TP311</name>
  </trkpt>
  <trkpt lat="40.59554" lon="8.28277">
    <name>TP312</name>
  </trkpt>
  <trkpt lat="40.59553" lon="8.28277">
    <name>TP313</name>
  </trkpt>
  <trkpt lat="40.59553" lon="8.28278">
    <name>TP314</name>
  </trkpt>
  <trkpt lat="40.59553" lon="8.28279">
    <name>TP315</name>
  </trkpt>
  <trkpt lat="40.59553" lon="8.2828">
    <name>TP316</name>
  </trkpt>
  <trkpt lat="40.59553" lon="8.28281">
    <name>TP317</name>
  </trkpt>
  <trkpt lat="40.59553" lon="8.28282">
    <name>TP318</name>
  </trkpt>
  <trkpt lat="40.59553" lon="8.28283">
    <name>TP319</name>
  </trkpt>
  <trkpt lat="40.59553" lon="8.28284">
    <name>TP320</name>
  </trkpt>
  <trkpt lat="40.59554" lon="8.28284">
    <name>TP321</name>
  </trkpt>
  <trkpt lat="40.59554" lon="8.28285">
    <name>TP322</name>
  </trkpt>
  <trkpt lat="40.59554" lon="8.28286">
    <name>TP323</name>
  </trkpt>
  <trkpt lat="40.59555" lon="8.28286">
    <name>TP324</name>
  </trkpt>
  <trkpt lat="40.59555" lon="8.28287">
    <name>TP325</name>
  </trkpt>
  <trkpt lat="40.59555" lon="8.28288">
    <name>TP326</name>
  </trkpt>
  <trkpt lat="40.59556" lon="8.28288">
    <name>TP327</name>
  </trkpt>
  <trkpt lat="40.59557" lon="8.28289">
    <name>TP328</name>
  </trkpt>
  <trkpt lat="40.59558" lon="8.28289">
    <name>TP329</name>
  </trkpt>
  <trkpt lat="40.59559" lon="8.28289">
    <name>TP330</name>
  </trkpt>
  <trkpt lat="40.5956" lon="8.28289">
    <name>TP331</name>
  </trkpt>
  <trkpt lat="40.5956" lon="8.28296">
    <name>TP332</name>
  </trkpt>
  <trkpt lat="40.59562" lon="8.28321">
    <name>TP333</name>
  </trkpt>
  <trkpt lat="40.5956" lon="8.28341">
    <name>TP334</name>
  </trkpt>
  <trkpt lat="40.59556" lon="8.28374">
    <name>TP335</name>
  </trkpt>
  <trkpt lat="40.59553" lon="8.284">
    <name>TP336</name>
  </trkpt>
  <trkpt lat="40.59549" lon="8.2843">
    <name>TP337</name>
  </trkpt>
  <trkpt lat="40.59546" lon="8.28452">
    <name>TP338</name>
  </trkpt>
  <trkpt lat="40.59538" lon="8.28516">
    <name>TP339</name>
  </trkpt>
  <trkpt lat="40.59535" lon="8.28541">
    <name>TP340</name>
  </trkpt>
  <trkpt lat="40.59531" lon="8.28579">
    <name>TP341</name>
  </trkpt>
  <trkpt lat="40.5953" lon="8.28586">
    <name>TP342</name>
  </trkpt>
  <trkpt lat="40.5953" lon="8.28592">
    <name>TP343</name>
  </trkpt>
  <trkpt lat="40.59529" lon="8.28599">
    <name>TP344</name>
  </trkpt>
  <trkpt lat="40.59525" lon="8.28645">
    <name>TP345</name>
  </trkpt>
  <trkpt lat="40.59523" lon="8.28655">
    <name>TP346</name>
  </trkpt>
  <trkpt lat="40.59523" lon="8.28661">
    <name>TP347</name>
  </trkpt>
  <trkpt lat="40.59522" lon="8.28667">
    <name>TP348</name>
  </trkpt>
  <trkpt lat="40.59518" lon="8.28702">
    <name>TP349</name>
  </trkpt>
  <trkpt lat="40.59517" lon="8.28709">
    <name>TP350</name>
  </trkpt>
  <trkpt lat="40.59515" lon="8.28725">
    <name>TP351</name>
  </trkpt>
  <trkpt lat="40.59514" lon="8.28737">
    <name>TP352</name>
  </trkpt>
  <trkpt lat="40.59508" lon="8.2879">
    <name>TP353</name>
  </trkpt>
  <trkpt lat="40.59507" lon="8.28796">
    <name>TP354</name>
  </trkpt>
  <trkpt lat="40.59503" lon="8.28826">
    <name>TP355</name>
  </trkpt>
  <trkpt lat="40.59495" lon="8.28889">
    <name>TP356</name>
  </trkpt>
  <trkpt lat="40.59494" lon="8.28896">
    <name>TP357</name>
  </trkpt>
  <trkpt lat="40.59481" lon="8.28995">
    <name>TP358</name>
  </trkpt>
  <trkpt lat="40.59478" lon="8.29012">
    <name>TP359</name>
  </trkpt>
  <trkpt lat="40.59474" lon="8.29041">
    <name>TP360</name>
  </trkpt>
  <trkpt lat="40.59467" lon="8.29099">
    <name>TP361</name>
  </trkpt>
  <trkpt lat="40.59462" lon="8.29127">
    <name>TP362</name>
  </trkpt>
  <trkpt lat="40.59462" lon="8.29129">
    <name>TP363</name>
  </trkpt>
  <trkpt lat="40.59429" lon="8.29263">
    <name>TP364</name>
  </trkpt>
  <trkpt lat="40.59421" lon="8.29299">
    <name>TP365</name>
  </trkpt>
  <trkpt lat="40.59415" lon="8.29323">
    <name>TP366</name>
  </trkpt>
  <trkpt lat="40.5941" lon="8.29348">
    <name>TP367</name>
  </trkpt>
  <trkpt lat="40.5940976" lon="8.2934844">
    <name>TP368</name>
  </trkpt>
  <trkpt lat="40.59405" lon="8.29352">
    <name>TP369</name>
  </trkpt>
  <trkpt lat="40.59402" lon="8.29355">
    <name>TP370</name>
  </trkpt>
  <trkpt lat="40.594" lon="8.29359">
    <name>TP371</name>
  </trkpt>
  <trkpt lat="40.59397" lon="8.29363">
    <name>TP372</name>
  </trkpt>
  <trkpt lat="40.59396" lon="8.29368">
    <name>TP373</name>
  </trkpt>
  <trkpt lat="40.59394" lon="8.29373">
    <name>TP374</name>
  </trkpt>
  <trkpt lat="40.59393" lon="8.29378">
    <name>TP375</name>
  </trkpt>
  <trkpt lat="40.59393" lon="8.29383">
    <name>TP376</name>
  </trkpt>
  <trkpt lat="40.59393" lon="8.29388">
    <name>TP377</name>
  </trkpt>
  <trkpt lat="40.59394" lon="8.29392">
    <name>TP378</name>
  </trkpt>
  <trkpt lat="40.59395" lon="8.29397">
    <name>TP379</name>
  </trkpt>
  <trkpt lat="40.59396" lon="8.29401">
    <name>TP380</name>
  </trkpt>
  <trkpt lat="40.59398" lon="8.29405">
    <name>TP381</name>
  </trkpt>
  <trkpt lat="40.594" lon="8.29409">
    <name>TP382</name>
  </trkpt>
  <trkpt lat="40.59403" lon="8.29413">
    <name>TP383</name>
  </trkpt>
  <trkpt lat="40.59406" lon="8.29416">
    <name>TP384</name>
  </trkpt>
  <trkpt lat="40.5941" lon="8.29418">
    <name>TP385</name>
  </trkpt>
  <trkpt lat="40.59412" lon="8.2942">
    <name>TP386</name>
  </trkpt>
  <trkpt lat="40.59413" lon="8.2942">
    <name>TP387</name>
  </trkpt>
  <trkpt lat="40.59415" lon="8.29421">
    <name>TP388</name>
  </trkpt>
  <trkpt lat="40.59418" lon="8.29422">
    <name>TP389</name>
  </trkpt>
  <trkpt lat="40.5942" lon="8.29423">
    <name>TP390</name>
  </trkpt>
  <trkpt lat="40.59423" lon="8.29423">
    <name>TP391</name>
  </trkpt>
  <trkpt lat="40.59425" lon="8.29422">
    <name>TP392</name>
  </trkpt>
  <trkpt lat="40.59428" lon="8.29422">
    <name>TP393</name>
  </trkpt>
  <trkpt lat="40.5944" lon="8.29439">
    <name>TP394</name>
  </trkpt>
  <trkpt lat="40.59445" lon="8.29444">
    <name>TP395</name>
  </trkpt>
  <trkpt lat="40.59495" lon="8.2958">
    <name>TP396</name>
  </trkpt>
  <trkpt lat="40.59515" lon="8.29637">
    <name>TP397</name>
  </trkpt>
  <trkpt lat="40.59531" lon="8.29681">
    <name>TP398</name>
  </trkpt>
  <trkpt lat="40.59534" lon="8.29694">
    <name>TP399</name>
  </trkpt>
  <trkpt lat="40.59538" lon="8.2971">
    <name>TP400</name>
  </trkpt>
  <trkpt lat="40.59538" lon="8.29743">
    <name>TP401</name>
  </trkpt>
  <trkpt lat="40.59537" lon="8.29757">
    <name>TP402</name>
  </trkpt>
  <trkpt lat="40.59535" lon="8.2977">
    <name>TP403</name>
  </trkpt>
  <trkpt lat="40.59531" lon="8.29788">
    <name>TP404</name>
  </trkpt>
  <trkpt lat="40.59526" lon="8.29809">
    <name>TP405</name>
  </trkpt>
  <trkpt lat="40.59514" lon="8.2984">
    <name>TP406</name>
  </trkpt>
  <trkpt lat="40.59507" lon="8.29854">
    <name>TP407</name>
  </trkpt>
  <trkpt lat="40.59495" lon="8.29876">
    <name>TP408</name>
  </trkpt>
  <trkpt lat="40.59492" lon="8.29882">
    <name>TP409</name>
  </trkpt>
  <trkpt lat="40.59488" lon="8.29889">
    <name>TP410</name>
  </trkpt>
  <trkpt lat="40.59462" lon="8.29933">
    <name>TP411</name>
  </trkpt>
  <trkpt lat="40.59436" lon="8.29974">
    <name>TP412</name>
  </trkpt>
  <trkpt lat="40.59433" lon="8.29979">
    <name>TP413</name>
  </trkpt>
  <trkpt lat="40.5943" lon="8.29983">
    <name>TP414</name>
  </trkpt>
  <trkpt lat="40.59425" lon="8.29993">
    <name>TP415</name>
  </trkpt>
  <trkpt lat="40.59422" lon="8.29997">
    <name>TP416</name>
  </trkpt>
  <trkpt lat="40.59405" lon="8.30024">
    <name>TP417</name>
  </trkpt>
  <trkpt lat="40.59386" lon="8.30056">
    <name>TP418</name>
  </trkpt>
  <trkpt lat="40.59376" lon="8.30076">
    <name>TP419</name>
  </trkpt>
  <trkpt lat="40.59369" lon="8.30091">
    <name>TP420</name>
  </trkpt>
  <trkpt lat="40.59363" lon="8.30107">
    <name>TP421</name>
  </trkpt>
  <trkpt lat="40.59362" lon="8.30109">
    <name>TP422</name>
  </trkpt>
  <trkpt lat="40.59348" lon="8.30148">
    <name>TP423</name>
  </trkpt>
  <trkpt lat="40.5931" lon="8.30264">
    <name>TP424</name>
  </trkpt>
  <trkpt lat="40.59296" lon="8.3031">
    <name>TP425</name>
  </trkpt>
  <trkpt lat="40.59288" lon="8.30336">
    <name>TP426</name>
  </trkpt>
  <trkpt lat="40.59275" lon="8.30377">
    <name>TP427</name>
  </trkpt>
  <trkpt lat="40.59266" lon="8.30405">
    <name>TP428</name>
  </trkpt>
  <trkpt lat="40.59258" lon="8.30423">
    <name>TP429</name>
  </trkpt>
  <trkpt lat="40.59237" lon="8.30464">
    <name>TP430</name>
  </trkpt>
  <trkpt lat="40.59233" lon="8.30472">
    <name>TP431</name>
  </trkpt>
  <trkpt lat="40.59231" lon="8.30476">
    <name>TP432</name>
  </trkpt>
  <trkpt lat="40.59228" lon="8.30481">
    <name>TP433</name>
  </trkpt>
  <trkpt lat="40.59188" lon="8.30562">
    <name>TP434</name>
  </trkpt>
  <trkpt lat="40.59141" lon="8.30654">
    <name>TP435</name>
  </trkpt>
  <trkpt lat="40.59112" lon="8.30709">
    <name>TP436</name>
  </trkpt>
  <trkpt lat="40.59092" lon="8.30748">
    <name>TP437</name>
  </trkpt>
  <trkpt lat="40.59091" lon="8.3075">
    <name>TP438</name>
  </trkpt>
  <trkpt lat="40.59081" lon="8.30769">
    <name>TP439</name>
  </trkpt>
  <trkpt lat="40.59063" lon="8.30798">
    <name>TP440</name>
  </trkpt>
  <trkpt lat="40.59048" lon="8.30823">
    <name>TP441</name>
  </trkpt>
  <trkpt lat="40.59047" lon="8.30825">
    <name>TP442</name>
  </trkpt>
  <trkpt lat="40.59039" lon="8.30837">
    <name>TP443</name>
  </trkpt>
  <trkpt lat="40.59037" lon="8.30841">
    <name>TP444</name>
  </trkpt>
  <trkpt lat="40.59036" lon="8.30843">
    <name>TP445</name>
  </trkpt>
  <trkpt lat="40.59019" lon="8.30865">
    <name>TP446</name>
  </trkpt>
  <trkpt lat="40.58988" lon="8.3091">
    <name>TP447</name>
  </trkpt>
  <trkpt lat="40.58975" lon="8.3093">
    <name>TP448</name>
  </trkpt>
  <trkpt lat="40.58786" lon="8.31202">
    <name>TP449</name>
  </trkpt>
  <trkpt lat="40.58769" lon="8.31227">
    <name>TP450</name>
  </trkpt>
  <trkpt lat="40.58759" lon="8.31241">
    <name>TP451</name>
  </trkpt>
  <trkpt lat="40.5872" lon="8.31297">
    <name>TP452</name>
  </trkpt>
  <trkpt lat="40.58711" lon="8.3131">
    <name>TP453</name>
  </trkpt>
  <trkpt lat="40.58708" lon="8.31314">
    <name>TP454</name>
  </trkpt>
  <trkpt lat="40.58702" lon="8.31322">
    <name>TP455</name>
  </trkpt>
  <trkpt lat="40.58641" lon="8.31408">
    <name>TP456</name>
  </trkpt>
  <trkpt lat="40.58605" lon="8.31458">
    <name>TP457</name>
  </trkpt>
  <trkpt lat="40.58599" lon="8.31466">
    <name>TP458</name>
  </trkpt>
  <trkpt lat="40.58594" lon="8.31472">
    <name>TP459</name>
  </trkpt>
  <trkpt lat="40.58588" lon="8.31479">
    <name>TP460</name>
  </trkpt>
  <trkpt lat="40.58521" lon="8.31551">
    <name>TP461</name>
  </trkpt>
  <trkpt lat="40.58494" lon="8.31578">
    <name>TP462</name>
  </trkpt>
  <trkpt lat="40.58488" lon="8.31585">
    <name>TP463</name>
  </trkpt>
  <trkpt lat="40.5848" lon="8.31592">
    <name>TP464</name>
  </trkpt>
  <trkpt lat="40.58474" lon="8.31594">
    <name>TP465</name>
  </trkpt>
  <trkpt lat="40.58472" lon="8.31595">
    <name>TP466</name>
  </trkpt>
  <trkpt lat="40.58471" lon="8.31596">
    <name>TP467</name>
  </trkpt>
  <trkpt lat="40.5847" lon="8.31597">
    <name>TP468</name>
  </trkpt>
  <trkpt lat="40.58461" lon="8.31606">
    <name>TP469</name>
  </trkpt>
  <trkpt lat="40.58456" lon="8.31611">
    <name>TP470</name>
  </trkpt>
  <trkpt lat="40.58452" lon="8.31616">
    <name>TP471</name>
  </trkpt>
  <trkpt lat="40.58448" lon="8.31621">
    <name>TP472</name>
  </trkpt>
  <trkpt lat="40.58443" lon="8.31628">
    <name>TP473</name>
  </trkpt>
  <trkpt lat="40.58438" lon="8.31634">
    <name>TP474</name>
  </trkpt>
  <trkpt lat="40.58424" lon="8.31652">
    <name>TP475</name>
  </trkpt>
  <trkpt lat="40.58414" lon="8.31664">
    <name>TP476</name>
  </trkpt>
  <trkpt lat="40.58412" lon="8.31666">
    <name>TP477</name>
  </trkpt>
  <trkpt lat="40.5841" lon="8.31668">
    <name>TP478</name>
  </trkpt>
  <trkpt lat="40.58398" lon="8.31673">
    <name>TP479</name>
  </trkpt>
  <trkpt lat="40.5839842" lon="8.3167271">
    <name>TP480</name>
  </trkpt>
  <trkpt lat="40.58396" lon="8.31671">
    <name>TP481</name>
  </trkpt>
  <trkpt lat="40.58393" lon="8.3167">
    <name>TP482</name>
  </trkpt>
  <trkpt lat="40.58392" lon="8.31669">
    <name>TP483</name>
  </trkpt>
  <trkpt lat="40.5839" lon="8.31669">
    <name>TP484</name>
  </trkpt>
  <trkpt lat="40.58386" lon="8.31669">
    <name>TP485</name>
  </trkpt>
  <trkpt lat="40.58382" lon="8.3167">
    <name>TP486</name>
  </trkpt>
  <trkpt lat="40.58377" lon="8.31671">
    <name>TP487</name>
  </trkpt>
  <trkpt lat="40.58374" lon="8.31673">
    <name>TP488</name>
  </trkpt>
  <trkpt lat="40.5837" lon="8.31676">
    <name>TP489</name>
  </trkpt>
  <trkpt lat="40.58368" lon="8.31679">
    <name>TP490</name>
  </trkpt>
  <trkpt lat="40.58364" lon="8.31684">
    <name>TP491</name>
  </trkpt>
  <trkpt lat="40.58363" lon="8.31686">
    <name>TP492</name>
  </trkpt>
  <trkpt lat="40.58362" lon="8.31688">
    <name>TP493</name>
  </trkpt>
  <trkpt lat="40.58361" lon="8.3169">
    <name>TP494</name>
  </trkpt>
  <trkpt lat="40.58361" lon="8.31692">
    <name>TP495</name>
  </trkpt>
  <trkpt lat="40.58361" lon="8.31694">
    <name>TP496</name>
  </trkpt>
  <trkpt lat="40.58361" lon="8.31696">
    <name>TP497</name>
  </trkpt>
  <trkpt lat="40.5836" lon="8.31698">
    <name>TP498</name>
  </trkpt>
  <trkpt lat="40.58361" lon="8.31699">
    <name>TP499</name>
  </trkpt>
  <trkpt lat="40.58361" lon="8.31701">
    <name>TP500</name>
  </trkpt>
  <trkpt lat="40.58361" lon="8.31702">
    <name>TP501</name>
  </trkpt>
  <trkpt lat="40.58361" lon="8.31703">
    <name>TP502</name>
  </trkpt>
  <trkpt lat="40.58361" lon="8.31704">
    <name>TP503</name>
  </trkpt>
  <trkpt lat="40.58361" lon="8.31706">
    <name>TP504</name>
  </trkpt>
  <trkpt lat="40.58362" lon="8.31707">
    <name>TP505</name>
  </trkpt>
  <trkpt lat="40.58362" lon="8.31708">
    <name>TP506</name>
  </trkpt>
  <trkpt lat="40.58362" lon="8.31709">
    <name>TP507</name>
  </trkpt>
  <trkpt lat="40.5836" lon="8.31717">
    <name>TP508</name>
  </trkpt>
  <trkpt lat="40.58357" lon="8.31723">
    <name>TP509</name>
  </trkpt>
  <trkpt lat="40.58353" lon="8.31729">
    <name>TP510</name>
  </trkpt>
  <trkpt lat="40.58349" lon="8.31736">
    <name>TP511</name>
  </trkpt>
  <trkpt lat="40.58341" lon="8.31743">
    <name>TP512</name>
  </trkpt>
  <trkpt lat="40.58339" lon="8.31745">
    <name>TP513</name>
  </trkpt>
  <trkpt lat="40.58327" lon="8.31755">
    <name>TP514</name>
  </trkpt>
  <trkpt lat="40.58317" lon="8.31762">
    <name>TP515</name>
  </trkpt>
  <trkpt lat="40.58312" lon="8.31765">
    <name>TP516</name>
  </trkpt>
  <trkpt lat="40.58309" lon="8.31767">
    <name>TP517</name>
  </trkpt>
  <trkpt lat="40.58304" lon="8.3177">
    <name>TP518</name>
  </trkpt>
  <trkpt lat="40.58302" lon="8.31771">
    <name>TP519</name>
  </trkpt>
  <trkpt lat="40.58301" lon="8.31771">
    <name>TP520</name>
  </trkpt>
  <trkpt lat="40.58295" lon="8.31773">
    <name>TP521</name>
  </trkpt>
  <trkpt lat="40.58287" lon="8.31776">
    <name>TP522</name>
  </trkpt>
  <trkpt lat="40.58281" lon="8.31778">
    <name>TP523</name>
  </trkpt>
  <trkpt lat="40.58264" lon="8.31783">
    <name>TP524</name>
  </trkpt>
  <trkpt lat="40.58254" lon="8.31786">
    <name>TP525</name>
  </trkpt>
  <trkpt lat="40.58232" lon="8.31794">
    <name>TP526</name>
  </trkpt>
  <trkpt lat="40.58231" lon="8.31794">
    <name>TP527</name>
  </trkpt>
  <trkpt lat="40.5823" lon="8.31795">
    <name>TP528</name>
  </trkpt>
  <trkpt lat="40.58229" lon="8.31795">
    <name>TP529</name>
  </trkpt>
  <trkpt lat="40.58225" lon="8.31799">
    <name>TP530</name>
  </trkpt>
  <trkpt lat="40.58207" lon="8.31805">
    <name>TP531</name>
  </trkpt>
  <trkpt lat="40.58199" lon="8.31808">
    <name>TP532</name>
  </trkpt>
  <trkpt lat="40.58179" lon="8.31814">
    <name>TP533</name>
  </trkpt>
  <trkpt lat="40.58162" lon="8.3182">
    <name>TP534</name>
  </trkpt>
  <trkpt lat="40.58144" lon="8.31825">
    <name>TP535</name>
  </trkpt>
  <trkpt lat="40.58121" lon="8.31831">
    <name>TP536</name>
  </trkpt>
  <trkpt lat="40.58068" lon="8.31849">
    <name>TP537</name>
  </trkpt>
  <trkpt lat="40.58014" lon="8.31868">
    <name>TP538</name>
  </trkpt>
  <trkpt lat="40.57984" lon="8.31876">
    <name>TP539</name>
  </trkpt>
  <trkpt lat="40.57967" lon="8.31882">
    <name>TP540</name>
  </trkpt>
  <trkpt lat="40.5795" lon="8.31887">
    <name>TP541</name>
  </trkpt>
  <trkpt lat="40.57925" lon="8.31895">
    <name>TP542</name>
  </trkpt>
  <trkpt lat="40.57918" lon="8.31897">
    <name>TP543</name>
  </trkpt>
  <trkpt lat="40.57901" lon="8.31903">
    <name>TP544</name>
  </trkpt>
  <trkpt lat="40.57897" lon="8.31904">
    <name>TP545</name>
  </trkpt>
  <trkpt lat="40.57893" lon="8.31906">
    <name>TP546</name>
  </trkpt>
  <trkpt lat="40.57888" lon="8.31907">
    <name>TP547</name>
  </trkpt>
  <trkpt lat="40.57876" lon="8.31911">
    <name>TP548</name>
  </trkpt>
  <trkpt lat="40.57868" lon="8.31912">
    <name>TP549</name>
  </trkpt>
  <trkpt lat="40.57858" lon="8.31914">
    <name>TP550</name>
  </trkpt>
  <trkpt lat="40.57826" lon="8.31924">
    <name>TP551</name>
  </trkpt>
  <trkpt lat="40.57799" lon="8.31932">
    <name>TP552</name>
  </trkpt>
  <trkpt lat="40.57795" lon="8.31935">
    <name>TP553</name>
  </trkpt>
  <trkpt lat="40.57778" lon="8.31941">
    <name>TP554</name>
  </trkpt>
  <trkpt lat="40.57752" lon="8.31954">
    <name>TP555</name>
  </trkpt>
  <trkpt lat="40.57728" lon="8.3197">
    <name>TP556</name>
  </trkpt>
  <trkpt lat="40.57683" lon="8.32001">
    <name>TP557</name>
  </trkpt>
  <trkpt lat="40.57677" lon="8.32005">
    <name>TP558</name>
  </trkpt>
  <trkpt lat="40.57659" lon="8.32019">
    <name>TP559</name>
  </trkpt>
  <trkpt lat="40.57651" lon="8.32025">
    <name>TP560</name>
  </trkpt>
  <trkpt lat="40.57644" lon="8.32029">
    <name>TP561</name>
  </trkpt>
  <trkpt lat="40.57591" lon="8.32068">
    <name>TP562</name>
  </trkpt>
  <trkpt lat="40.57588" lon="8.3207">
    <name>TP563</name>
  </trkpt>
  <trkpt lat="40.57586" lon="8.32072">
    <name>TP564</name>
  </trkpt>
  <trkpt lat="40.57578" lon="8.32078">
    <name>TP565</name>
  </trkpt>
  <trkpt lat="40.57569" lon="8.32085">
    <name>TP566</name>
  </trkpt>
  <trkpt lat="40.57559" lon="8.32092">
    <name>TP567</name>
  </trkpt>
  <trkpt lat="40.57555" lon="8.32095">
    <name>TP568</name>
  </trkpt>
  <trkpt lat="40.57521" lon="8.3212">
    <name>TP569</name>
  </trkpt>
  <trkpt lat="40.57517" lon="8.32123">
    <name>TP570</name>
  </trkpt>
  <trkpt lat="40.57509" lon="8.32129">
    <name>TP571</name>
  </trkpt>
  <trkpt lat="40.57492" lon="8.32141">
    <name>TP572</name>
  </trkpt>
  <trkpt lat="40.57447" lon="8.32174">
    <name>TP573</name>
  </trkpt>
  <trkpt lat="40.5743" lon="8.32185">
    <name>TP574</name>
  </trkpt>
  <trkpt lat="40.57416" lon="8.32194">
    <name>TP575</name>
  </trkpt>
  <trkpt lat="40.57412" lon="8.32197">
    <name>TP576</name>
  </trkpt>
  <trkpt lat="40.57408" lon="8.322">
    <name>TP577</name>
  </trkpt>
  <trkpt lat="40.57403" lon="8.32202">
    <name>TP578</name>
  </trkpt>
  <trkpt lat="40.57398" lon="8.32204">
    <name>TP579</name>
  </trkpt>
  <trkpt lat="40.57389" lon="8.32207">
    <name>TP580</name>
  </trkpt>
  <trkpt lat="40.57378" lon="8.32209">
    <name>TP581</name>
  </trkpt>
  <trkpt lat="40.57373" lon="8.32209">
    <name>TP582</name>
  </trkpt>
  <trkpt lat="40.57345" lon="8.32209">
    <name>TP583</name>
  </trkpt>
  <trkpt lat="40.57344" lon="8.32209">
    <name>TP584</name>
  </trkpt>
  <trkpt lat="40.57313" lon="8.32213">
    <name>TP585</name>
  </trkpt>
  <trkpt lat="40.57303" lon="8.32219">
    <name>TP586</name>
  </trkpt>
  <trkpt lat="40.57297" lon="8.32224">
    <name>TP587</name>
  </trkpt>
  <trkpt lat="40.5729722" lon="8.3222391">
    <name>TP588</name>
  </trkpt>
  <trkpt lat="40.57297" lon="8.32223">
    <name>TP589</name>
  </trkpt>
  <trkpt lat="40.57296" lon="8.32223">
    <name>TP590</name>
  </trkpt>
  <trkpt lat="40.57295" lon="8.32222">
    <name>TP591</name>
  </trkpt>
  <trkpt lat="40.57294" lon="8.32222">
    <name>TP592</name>
  </trkpt>
  <trkpt lat="40.57293" lon="8.32221">
    <name>TP593</name>
  </trkpt>
  <trkpt lat="40.57292" lon="8.32221">
    <name>TP594</name>
  </trkpt>
  <trkpt lat="40.57291" lon="8.32221">
    <name>TP595</name>
  </trkpt>
  <trkpt lat="40.5729" lon="8.32221">
    <name>TP596</name>
  </trkpt>
  <trkpt lat="40.57289" lon="8.32221">
    <name>TP597</name>
  </trkpt>
  <trkpt lat="40.57288" lon="8.32221">
    <name>TP598</name>
  </trkpt>
  <trkpt lat="40.57287" lon="8.32221">
    <name>TP599</name>
  </trkpt>
  <trkpt lat="40.57286" lon="8.32222">
    <name>TP600</name>
  </trkpt>
  <trkpt lat="40.57285" lon="8.32222">
    <name>TP601</name>
  </trkpt>
  <trkpt lat="40.57258" lon="8.32222">
    <name>TP602</name>
  </trkpt>
  <trkpt lat="40.57241" lon="8.32223">
    <name>TP603</name>
  </trkpt>
  <trkpt lat="40.57204" lon="8.32224">
    <name>TP604</name>
  </trkpt>
  <trkpt lat="40.57199" lon="8.32224">
    <name>TP605</name>
  </trkpt>
  <trkpt lat="40.57193" lon="8.32224">
    <name>TP606</name>
  </trkpt>
  <trkpt lat="40.57185" lon="8.32225">
    <name>TP607</name>
  </trkpt>
  <trkpt lat="40.57177" lon="8.32225">
    <name>TP608</name>
  </trkpt>
  <trkpt lat="40.57172" lon="8.32225">
    <name>TP609</name>
  </trkpt>
  <trkpt lat="40.57153" lon="8.32225">
    <name>TP610</name>
  </trkpt>
  <trkpt lat="40.5714" lon="8.32223">
    <name>TP611</name>
  </trkpt>
  <trkpt lat="40.57126" lon="8.32221">
    <name>TP612</name>
  </trkpt>
  <trkpt lat="40.57114" lon="8.32217">
    <name>TP613</name>
  </trkpt>
  <trkpt lat="40.57101" lon="8.32211">
    <name>TP614</name>
  </trkpt>
  <trkpt lat="40.5709" lon="8.32205">
    <name>TP615</name>
  </trkpt>
  <trkpt lat="40.57075" lon="8.32194">
    <name>TP616</name>
  </trkpt>
  <trkpt lat="40.57063" lon="8.32183">
    <name>TP617</name>
  </trkpt>
  <trkpt lat="40.57061" lon="8.32181">
    <name>TP618</name>
  </trkpt>
  <trkpt lat="40.57054" lon="8.32174">
    <name>TP619</name>
  </trkpt>
  <trkpt lat="40.57053" lon="8.32172">
    <name>TP620</name>
  </trkpt>
  <trkpt lat="40.57045" lon="8.32164">
    <name>TP621</name>
  </trkpt>
  <trkpt lat="40.57035" lon="8.32151">
    <name>TP622</name>
  </trkpt>
  <trkpt lat="40.5703495" lon="8.3215126">
    <name>TP623</name>
  </trkpt>
  <trkpt lat="40.57036" lon="8.32151">
    <name>TP624</name>
  </trkpt>
  <trkpt lat="40.57036" lon="8.3215">
    <name>TP625</name>
  </trkpt>
  <trkpt lat="40.57036" lon="8.32149">
    <name>TP626</name>
  </trkpt>
  <trkpt lat="40.57037" lon="8.32149">
    <name>TP627</name>
  </trkpt>
  <trkpt lat="40.57037" lon="8.32148">
    <name>TP628</name>
  </trkpt>
  <trkpt lat="40.57037" lon="8.32147">
    <name>TP629</name>
  </trkpt>
  <trkpt lat="40.57037" lon="8.32146">
    <name>TP630</name>
  </trkpt>
  <trkpt lat="40.57037" lon="8.32145">
    <name>TP631</name>
  </trkpt>
  <trkpt lat="40.57037" lon="8.32144">
    <name>TP632</name>
  </trkpt>
  <trkpt lat="40.57037" lon="8.32143">
    <name>TP633</name>
  </trkpt>
  <trkpt lat="40.57037" lon="8.32142">
    <name>TP634</name>
  </trkpt>
  <trkpt lat="40.57036" lon="8.32142">
    <name>TP635</name>
  </trkpt>
  <trkpt lat="40.57036" lon="8.32141">
    <name>TP636</name>
  </trkpt>
  <trkpt lat="40.57036" lon="8.3214">
    <name>TP637</name>
  </trkpt>
  <trkpt lat="40.57035" lon="8.3214">
    <name>TP638</name>
  </trkpt>
  <trkpt lat="40.57035" lon="8.32139">
    <name>TP639</name>
  </trkpt>
  <trkpt lat="40.57034" lon="8.32139">
    <name>TP640</name>
  </trkpt>
  <trkpt lat="40.57034" lon="8.32138">
    <name>TP641</name>
  </trkpt>
  <trkpt lat="40.57033" lon="8.32138">
    <name>TP642</name>
  </trkpt>
  <trkpt lat="40.57032" lon="8.32138">
    <name>TP643</name>
  </trkpt>
  <trkpt lat="40.57032" lon="8.32137">
    <name>TP644</name>
  </trkpt>
  <trkpt lat="40.57031" lon="8.32137">
    <name>TP645</name>
  </trkpt>
  <trkpt lat="40.5703" lon="8.32137">
    <name>TP646</name>
  </trkpt>
  <trkpt lat="40.5703" lon="8.32138">
    <name>TP647</name>
  </trkpt>
  <trkpt lat="40.57029" lon="8.32138">
    <name>TP648</name>
  </trkpt>
  <trkpt lat="40.57028" lon="8.32138">
    <name>TP649</name>
  </trkpt>
  <trkpt lat="40.57028" lon="8.32139">
    <name>TP650</name>
  </trkpt>
  <trkpt lat="40.57027" lon="8.32139">
    <name>TP651</name>
  </trkpt>
  <trkpt lat="40.57027" lon="8.3214">
    <name>TP652</name>
  </trkpt>
  <trkpt lat="40.57026" lon="8.3214">
    <name>TP653</name>
  </trkpt>
  <trkpt lat="40.57026" lon="8.32141">
    <name>TP654</name>
  </trkpt>
  <trkpt lat="40.57026" lon="8.32142">
    <name>TP655</name>
  </trkpt>
  <trkpt lat="40.57025" lon="8.32143">
    <name>TP656</name>
  </trkpt>
  <trkpt lat="40.57025" lon="8.32144">
    <name>TP657</name>
  </trkpt>
  <trkpt lat="40.57025" lon="8.32145">
    <name>TP658</name>
  </trkpt>
  <trkpt lat="40.57025" lon="8.32146">
    <name>TP659</name>
  </trkpt>
  <trkpt lat="40.57025" lon="8.32147">
    <name>TP660</name>
  </trkpt>
  <trkpt lat="40.57025" lon="8.32148">
    <name>TP661</name>
  </trkpt>
  <trkpt lat="40.57026" lon="8.32148">
    <name>TP662</name>
  </trkpt>
  <trkpt lat="40.57026" lon="8.32149">
    <name>TP663</name>
  </trkpt>
  <trkpt lat="40.57026" lon="8.3215">
    <name>TP664</name>
  </trkpt>
  <trkpt lat="40.56994" lon="8.32174">
    <name>TP665</name>
  </trkpt>
  <trkpt lat="40.5699422" lon="8.3217366">
    <name>TP666</name>
  </trkpt>
  <trkpt lat="40.5699" lon="8.32159">
    <name>TP667</name>
  </trkpt>
  <trkpt lat="40.56981" lon="8.32147">
    <name>TP668</name>
  </trkpt>
  <trkpt lat="40.56987" lon="8.3214">
    <name>TP669</name>
  </trkpt>
  <trkpt lat="40.5698717" lon="8.3214009">
    <name>TP670</name>
  </trkpt>
  <trkpt lat="40.5698717" lon="8.3214009">
    <name>TP671</name>
  </trkpt>
  <trkpt lat="40.56981" lon="8.32147">
    <name>TP672</name>
  </trkpt>
  <trkpt lat="40.5699" lon="8.32159">
    <name>TP673</name>
  </trkpt>
  <trkpt lat="40.56994" lon="8.32174">
    <name>TP674</name>
  </trkpt>
  <trkpt lat="40.5699422" lon="8.3217366">
    <name>TP675</name>
  </trkpt>
  <trkpt lat="40.56981" lon="8.32183">
    <name>TP676</name>
  </trkpt>
  <trkpt lat="40.5693" lon="8.32222">
    <name>TP677</name>
  </trkpt>
  <trkpt lat="40.56906" lon="8.3224">
    <name>TP678</name>
  </trkpt>
  <trkpt lat="40.56884" lon="8.32258">
    <name>TP679</name>
  </trkpt>
  <trkpt lat="40.5688365" lon="8.3225844">
    <name>TP680</name>
  </trkpt>
  <trkpt lat="40.5688" lon="8.32252">
    <name>TP681</name>
  </trkpt>
  <trkpt lat="40.56867" lon="8.32231">
    <name>TP682</name>
  </trkpt>
  <trkpt lat="40.56858" lon="8.32218">
    <name>TP683</name>
  </trkpt>
  <trkpt lat="40.5684" lon="8.3219">
    <name>TP684</name>
  </trkpt>
  <trkpt lat="40.56833" lon="8.32179">
    <name>TP685</name>
  </trkpt>
  <trkpt lat="40.56824" lon="8.32169">
    <name>TP686</name>
  </trkpt>
  <trkpt lat="40.56816" lon="8.3216">
    <name>TP687</name>
  </trkpt>
  <trkpt lat="40.56804" lon="8.32149">
    <name>TP688</name>
  </trkpt>
  <trkpt lat="40.56792" lon="8.32139">
    <name>TP689</name>
  </trkpt>
  <trkpt lat="40.56789" lon="8.32137">
    <name>TP690</name>
  </trkpt>
  <trkpt lat="40.56774" lon="8.32124">
    <name>TP691</name>
  </trkpt>
  <trkpt lat="40.56744" lon="8.32101">
    <name>TP692</name>
  </trkpt>
  <trkpt lat="40.56721" lon="8.32083">
    <name>TP693</name>
  </trkpt>
  <trkpt lat="40.56713" lon="8.32076">
    <name>TP694</name>
  </trkpt>
  <trkpt lat="40.567" lon="8.32067">
    <name>TP695</name>
  </trkpt>
  <trkpt lat="40.56697" lon="8.32065">
    <name>TP696</name>
  </trkpt>
  <trkpt lat="40.56615" lon="8.31999">
    <name>TP697</name>
  </trkpt>
  <trkpt lat="40.56565" lon="8.31956">
    <name>TP698</name>
  </trkpt>
  <trkpt lat="40.5656473" lon="8.3195593">
    <name>TP699</name>
  </trkpt>
  <trkpt lat="40.56531" lon="8.32045">
    <name>TP700</name>
  </trkpt>
  <trkpt lat="40.5653142" lon="8.3204506">
    <name>TP701</name>
  </trkpt>
  <trkpt lat="40.56487" lon="8.32012">
    <name>TP702</name>
  </trkpt>
  <trkpt lat="40.56466" lon="8.31997">
    <name>TP703</name>
  </trkpt>
  <trkpt lat="40.5644" lon="8.31974">
    <name>TP704</name>
  </trkpt>
  <trkpt lat="40.56427" lon="8.31962">
    <name>TP705</name>
  </trkpt>
  <trkpt lat="40.56397" lon="8.31934">
    <name>TP706</name>
  </trkpt>
  <trkpt lat="40.56384" lon="8.31925">
    <name>TP707</name>
  </trkpt>
  <trkpt lat="40.56381" lon="8.31922">
    <name>TP708</name>
  </trkpt>
  <trkpt lat="40.5634" lon="8.31885">
    <name>TP709</name>
  </trkpt>
  <trkpt lat="40.56269" lon="8.31824">
    <name>TP710</name>
  </trkpt>
  <trkpt lat="40.5626946" lon="8.3182428">
    <name>TP711</name>
  </trkpt>
  <trkpt lat="40.56293" lon="8.31782">
    <name>TP712</name>
  </trkpt>
  <trkpt lat="40.56301" lon="8.31767">
    <name>TP713</name>
  </trkpt>
  <trkpt lat="40.5630113" lon="8.3176725">
    <name>TP714</name>
  </trkpt>
  <trkpt lat="40.5629" lon="8.31758">
    <name>TP715</name>
  </trkpt>
  <trkpt lat="40.5628963" lon="8.3175845">
    <name>TP716</name>
  </trkpt>
  <trkpt lat="40.56303" lon="8.31732">
    <name>TP717</name>
  </trkpt>
  <trkpt lat="40.563027" lon="8.3173175">
    <name>TP718</name>
  </trkpt>
  <trkpt lat="40.56289" lon="8.31724">
    <name>TP719</name>
  </trkpt>
  <trkpt lat="40.56277" lon="8.31717">
    <name>TP720</name>
  </trkpt>
  <trkpt lat="40.56267" lon="8.31711">
    <name>TP721</name>
  </trkpt>
  <trkpt lat="40.56257" lon="8.31705">
    <name>TP722</name>
  </trkpt>
  <trkpt lat="40.56255" lon="8.31704">
    <name>TP723</name>
  </trkpt>
  <trkpt lat="40.5625468" lon="8.3170375">
    <name>TP724</name>
  </trkpt>
  <trkpt lat="40.5625468" lon="8.3170375">
    <name>TP725</name>
  </trkpt>
  <trkpt lat="40.5625468" lon="8.3170375">
    <name>TP726</name>
  </trkpt>
  </trkseg>
</trk>
</gpx>